<?xml version="1.0" encoding="UTF-8"?>
<kml xmlns="http://www.opengis.net/kml/2.2" xmlns:gx="http://www.google.com/kml/ext/2.2"><Folder ><Folder ><name >HA-LGM track</name>
<Placemark ><name >HA-LGM</name>
<Style ><LineStyle ><color >ff1c1ae3</color>
<width >4</width>
</LineStyle>
<IconStyle ><Icon ><href >http://maps.google.com/mapfiles/kml/shapes/airports.png</href>
</Icon>
</IconStyle>
</Style>
<gx:Track ><altitudeMode >absolute</altitudeMode>
<extrude >1</extrude>
<when >2025-08-07T19:23:02.290Z</when>
<when >2025-08-07T19:23:02.290Z</when>
<when >2025-08-07T19:23:04.640Z</when>
<when >2025-08-07T19:23:06.600Z</when>
<when >2025-08-07T19:23:08.910Z</when>
<when >2025-08-07T19:23:13.250Z</when>
<when >2025-08-07T19:23:14.950Z</when>
<when >2025-08-07T19:23:16.390Z</when>
<when >2025-08-07T19:23:17.740Z</when>
<when >2025-08-07T19:23:20.360Z</when>
<when >2025-08-07T19:23:22.600Z</when>
<when >2025-08-07T19:23:24.250Z</when>
<when >2025-08-07T19:23:26.230Z</when>
<when >2025-08-07T19:23:27.960Z</when>
<when >2025-08-07T19:23:29.860Z</when>
<when >2025-08-07T19:23:32.270Z</when>
<when >2025-08-07T19:23:34.980Z</when>
<when >2025-08-07T19:23:36.430Z</when>
<when >2025-08-07T19:23:39.470Z</when>
<when >2025-08-07T19:23:42.350Z</when>
<when >2025-08-07T19:23:45.120Z</when>
<when >2025-08-07T19:23:47.890Z</when>
<when >2025-08-07T19:23:49.860Z</when>
<when >2025-08-07T19:23:51.490Z</when>
<when >2025-08-07T19:23:53.550Z</when>
<when >2025-08-07T19:23:55.380Z</when>
<when >2025-08-07T19:23:58.240Z</when>
<when >2025-08-07T19:24:00.570Z</when>
<when >2025-08-07T19:24:04.000Z</when>
<when >2025-08-07T19:24:04.380Z</when>
<when >2025-08-07T19:24:09.200Z</when>
<when >2025-08-07T19:24:12.080Z</when>
<when >2025-08-07T19:24:15.710Z</when>
<when >2025-08-07T19:24:18.690Z</when>
<when >2025-08-07T19:24:21.820Z</when>
<when >2025-08-07T19:24:24.200Z</when>
<when >2025-08-07T19:24:26.880Z</when>
<when >2025-08-07T19:24:29.390Z</when>
<when >2025-08-07T19:24:32.390Z</when>
<when >2025-08-07T19:24:34.750Z</when>
<when >2025-08-07T19:24:37.730Z</when>
<when >2025-08-07T19:24:40.010Z</when>
<when >2025-08-07T19:24:44.360Z</when>
<when >2025-08-07T19:24:45.790Z</when>
<when >2025-08-07T19:24:48.490Z</when>
<when >2025-08-07T19:24:50.890Z</when>
<when >2025-08-07T19:24:53.130Z</when>
<when >2025-08-07T19:24:55.740Z</when>
<when >2025-08-07T19:24:58.290Z</when>
<when >2025-08-07T19:25:00.940Z</when>
<when >2025-08-07T19:25:03.920Z</when>
<when >2025-08-07T19:25:06.220Z</when>
<when >2025-08-07T19:25:08.970Z</when>
<when >2025-08-07T19:25:11.650Z</when>
<when >2025-08-07T19:25:15.190Z</when>
<when >2025-08-07T19:25:16.730Z</when>
<when >2025-08-07T19:25:19.330Z</when>
<when >2025-08-07T19:25:20.710Z</when>
<when >2025-08-07T19:25:22.390Z</when>
<when >2025-08-07T19:25:24.880Z</when>
<when >2025-08-07T19:25:27.110Z</when>
<when >2025-08-07T19:25:30.120Z</when>
<when >2025-08-07T19:25:32.640Z</when>
<when >2025-08-07T19:25:36.010Z</when>
<when >2025-08-07T19:25:38.940Z</when>
<when >2025-08-07T19:25:42.090Z</when>
<when >2025-08-07T19:25:45.640Z</when>
<when >2025-08-07T19:25:49.010Z</when>
<when >2025-08-07T19:25:53.910Z</when>
<when >2025-08-07T19:25:57.880Z</when>
<when >2025-08-07T19:26:01.150Z</when>
<when >2025-08-07T19:26:05.260Z</when>
<when >2025-08-07T19:26:07.640Z</when>
<when >2025-08-07T19:26:13.250Z</when>
<when >2025-08-07T19:26:14.770Z</when>
<when >2025-08-07T19:26:19.510Z</when>
<when >2025-08-07T19:26:24.100Z</when>
<when >2025-08-07T19:26:28.560Z</when>
<when >2025-08-07T19:26:33.810Z</when>
<when >2025-08-07T19:26:38.770Z</when>
<when >2025-08-07T19:26:43.110Z</when>
<when >2025-08-07T19:26:46.740Z</when>
<when >2025-08-07T19:26:51.050Z</when>
<when >2025-08-07T19:26:55.090Z</when>
<when >2025-08-07T19:26:59.590Z</when>
<when >2025-08-07T19:27:01.680Z</when>
<when >2025-08-07T19:27:08.470Z</when>
<when >2025-08-07T19:27:15.820Z</when>
<when >2025-08-07T19:27:19.200Z</when>
<when >2025-08-07T19:27:20.820Z</when>
<when >2025-08-07T19:27:29.310Z</when>
<when >2025-08-07T19:27:37.750Z</when>
<when >2025-08-07T19:27:46.320Z</when>
<when >2025-08-07T19:27:52.000Z</when>
<when >2025-08-07T19:27:54.340Z</when>
<when >2025-08-07T19:27:57.140Z</when>
<when >2025-08-07T19:28:02.120Z</when>
<when >2025-08-07T19:28:06.630Z</when>
<when >2025-08-07T19:28:10.700Z</when>
<when >2025-08-07T19:28:15.090Z</when>
<when >2025-08-07T19:28:19.280Z</when>
<when >2025-08-07T19:28:23.100Z</when>
<when >2025-08-07T19:28:23.790Z</when>
<when >2025-08-07T19:28:29.740Z</when>
<when >2025-08-07T19:28:32.940Z</when>
<when >2025-08-07T19:28:35.410Z</when>
<when >2025-08-07T19:28:39.070Z</when>
<when >2025-08-07T19:28:48.920Z</when>
<when >2025-08-07T19:28:54.220Z</when>
<when >2025-08-07T19:28:59.970Z</when>
<when >2025-08-07T19:29:08.660Z</when>
<when >2025-08-07T19:29:15.070Z</when>
<when >2025-08-07T19:29:26.000Z</when>
<when >2025-08-07T19:29:36.830Z</when>
<when >2025-08-07T19:29:48.250Z</when>
<when >2025-08-07T19:29:59.850Z</when>
<when >2025-08-07T19:30:11.040Z</when>
<when >2025-08-07T19:30:21.260Z</when>
<when >2025-08-07T19:30:31.610Z</when>
<when >2025-08-07T19:30:40.920Z</when>
<when >2025-08-07T19:30:53.180Z</when>
<when >2025-08-07T19:31:05.720Z</when>
<when >2025-08-07T19:31:17.900Z</when>
<when >2025-08-07T19:31:30.630Z</when>
<when >2025-08-07T19:31:36.800Z</when>
<when >2025-08-07T19:31:39.180Z</when>
<when >2025-08-07T19:31:47.430Z</when>
<when >2025-08-07T19:31:53.910Z</when>
<when >2025-08-07T19:32:06.390Z</when>
<when >2025-08-07T19:32:18.310Z</when>
<when >2025-08-07T19:32:30.630Z</when>
<when >2025-08-07T19:32:38.600Z</when>
<when >2025-08-07T19:32:49.330Z</when>
<when >2025-08-07T19:32:59.100Z</when>
<when >2025-08-07T19:33:13.370Z</when>
<when >2025-08-07T19:33:25.840Z</when>
<when >2025-08-07T19:33:39.820Z</when>
<when >2025-08-07T19:33:53.390Z</when>
<when >2025-08-07T19:34:07.470Z</when>
<when >2025-08-07T19:34:21.140Z</when>
<when >2025-08-07T19:34:33.600Z</when>
<when >2025-08-07T19:34:47.020Z</when>
<when >2025-08-07T19:35:00.960Z</when>
<when >2025-08-07T19:35:15.460Z</when>
<when >2025-08-07T19:35:31.760Z</when>
<when >2025-08-07T19:35:47.760Z</when>
<when >2025-08-07T19:36:02.830Z</when>
<when >2025-08-07T19:36:16.480Z</when>
<when >2025-08-07T19:36:31.520Z</when>
<when >2025-08-07T19:36:46.790Z</when>
<when >2025-08-07T19:37:01.760Z</when>
<when >2025-08-07T19:37:16.770Z</when>
<when >2025-08-07T19:37:30.130Z</when>
<when >2025-08-07T19:37:42.610Z</when>
<when >2025-08-07T19:37:56.020Z</when>
<when >2025-08-07T19:38:10.640Z</when>
<when >2025-08-07T19:38:25.450Z</when>
<when >2025-08-07T19:38:42.150Z</when>
<when >2025-08-07T19:38:56.870Z</when>
<when >2025-08-07T19:39:10.390Z</when>
<when >2025-08-07T19:39:23.830Z</when>
<when >2025-08-07T19:39:38.880Z</when>
<when >2025-08-07T19:39:57.480Z</when>
<when >2025-08-07T19:40:13.180Z</when>
<when >2025-08-07T19:40:27.890Z</when>
<when >2025-08-07T19:40:42.250Z</when>
<when >2025-08-07T19:40:58.830Z</when>
<when >2025-08-07T19:41:15.230Z</when>
<when >2025-08-07T19:41:30.650Z</when>
<when >2025-08-07T19:41:45.870Z</when>
<when >2025-08-07T19:42:02.060Z</when>
<when >2025-08-07T19:42:19.410Z</when>
<when >2025-08-07T19:42:34.820Z</when>
<when >2025-08-07T19:42:50.840Z</when>
<when >2025-08-07T19:43:07.090Z</when>
<when >2025-08-07T19:43:23.380Z</when>
<when >2025-08-07T19:43:39.500Z</when>
<when >2025-08-07T19:43:51.660Z</when>
<when >2025-08-07T19:43:55.550Z</when>
<when >2025-08-07T19:44:15.130Z</when>
<when >2025-08-07T19:44:35.090Z</when>
<when >2025-08-07T19:44:54.970Z</when>
<when >2025-08-07T19:45:14.700Z</when>
<when >2025-08-07T19:45:34.690Z</when>
<when >2025-08-07T19:45:54.090Z</when>
<when >2025-08-07T19:46:13.870Z</when>
<when >2025-08-07T19:46:27.080Z</when>
<when >2025-08-07T19:46:36.350Z</when>
<when >2025-08-07T19:46:45.790Z</when>
<when >2025-08-07T19:46:53.700Z</when>
<when >2025-08-07T19:47:02.680Z</when>
<when >2025-08-07T19:47:12.780Z</when>
<when >2025-08-07T19:47:22.120Z</when>
<when >2025-08-07T19:47:41.000Z</when>
<when >2025-08-07T19:48:00.310Z</when>
<when >2025-08-07T19:48:19.830Z</when>
<when >2025-08-07T19:48:39.360Z</when>
<when >2025-08-07T19:48:58.960Z</when>
<when >2025-08-07T19:49:17.290Z</when>
<when >2025-08-07T19:49:37.240Z</when>
<when >2025-08-07T19:49:57.020Z</when>
<when >2025-08-07T19:50:16.600Z</when>
<when >2025-08-07T19:50:36.490Z</when>
<when >2025-08-07T19:50:56.290Z</when>
<when >2025-08-07T19:51:16.210Z</when>
<when >2025-08-07T19:51:36.050Z</when>
<when >2025-08-07T19:51:56.010Z</when>
<when >2025-08-07T19:52:15.580Z</when>
<when >2025-08-07T19:52:35.450Z</when>
<when >2025-08-07T19:52:54.890Z</when>
<when >2025-08-07T19:53:14.500Z</when>
<when >2025-08-07T19:53:34.330Z</when>
<when >2025-08-07T19:53:54.200Z</when>
<when >2025-08-07T19:54:14.000Z</when>
<when >2025-08-07T19:54:33.910Z</when>
<when >2025-08-07T19:54:53.740Z</when>
<when >2025-08-07T19:55:13.590Z</when>
<when >2025-08-07T19:55:33.330Z</when>
<when >2025-08-07T19:55:53.280Z</when>
<when >2025-08-07T19:56:12.420Z</when>
<when >2025-08-07T19:56:32.360Z</when>
<when >2025-08-07T19:56:52.140Z</when>
<when >2025-08-07T19:57:12.010Z</when>
<when >2025-08-07T19:57:31.520Z</when>
<when >2025-08-07T19:57:51.080Z</when>
<when >2025-08-07T19:58:07.800Z</when>
<when >2025-08-07T19:58:27.460Z</when>
<when >2025-08-07T19:58:47.050Z</when>
<when >2025-08-07T19:59:06.930Z</when>
<when >2025-08-07T19:59:26.710Z</when>
<when >2025-08-07T19:59:46.400Z</when>
<when >2025-08-07T20:00:06.260Z</when>
<when >2025-08-07T20:00:25.820Z</when>
<when >2025-08-07T20:00:45.690Z</when>
<when >2025-08-07T20:01:00.580Z</when>
<when >2025-08-07T20:01:14.260Z</when>
<when >2025-08-07T20:01:34.000Z</when>
<when >2025-08-07T20:01:53.740Z</when>
<when >2025-08-07T20:02:13.380Z</when>
<when >2025-08-07T20:02:32.860Z</when>
<when >2025-08-07T20:02:52.640Z</when>
<when >2025-08-07T20:03:12.170Z</when>
<when >2025-08-07T20:03:32.120Z</when>
<when >2025-08-07T20:03:51.620Z</when>
<when >2025-08-07T20:04:11.030Z</when>
<when >2025-08-07T20:04:30.550Z</when>
<when >2025-08-07T20:04:50.440Z</when>
<when >2025-08-07T20:05:09.900Z</when>
<when >2025-08-07T20:05:16.040Z</when>
<when >2025-08-07T20:05:32.390Z</when>
<when >2025-08-07T20:05:50.500Z</when>
<when >2025-08-07T20:06:08.380Z</when>
<when >2025-08-07T20:06:25.040Z</when>
<when >2025-08-07T20:06:44.680Z</when>
<when >2025-08-07T20:07:03.960Z</when>
<when >2025-08-07T20:07:23.950Z</when>
<when >2025-08-07T20:07:43.700Z</when>
<when >2025-08-07T20:08:02.810Z</when>
<when >2025-08-07T20:08:22.680Z</when>
<when >2025-08-07T20:08:42.350Z</when>
<when >2025-08-07T20:09:02.210Z</when>
<when >2025-08-07T20:09:21.290Z</when>
<when >2025-08-07T20:09:41.050Z</when>
<when >2025-08-07T20:10:00.900Z</when>
<when >2025-08-07T20:10:20.440Z</when>
<when >2025-08-07T20:10:40.410Z</when>
<when >2025-08-07T20:11:00.350Z</when>
<when >2025-08-07T20:11:19.830Z</when>
<when >2025-08-07T20:11:39.710Z</when>
<when >2025-08-07T20:11:58.950Z</when>
<when >2025-08-07T20:12:18.650Z</when>
<when >2025-08-07T20:12:38.640Z</when>
<when >2025-08-07T20:12:58.080Z</when>
<when >2025-08-07T20:13:17.800Z</when>
<when >2025-08-07T20:13:37.390Z</when>
<when >2025-08-07T20:13:57.250Z</when>
<when >2025-08-07T20:14:17.150Z</when>
<when >2025-08-07T20:14:36.710Z</when>
<when >2025-08-07T20:14:56.380Z</when>
<when >2025-08-07T20:15:16.160Z</when>
<when >2025-08-07T20:15:36.090Z</when>
<when >2025-08-07T20:15:55.920Z</when>
<when >2025-08-07T20:16:15.510Z</when>
<when >2025-08-07T20:16:35.510Z</when>
<when >2025-08-07T20:16:55.210Z</when>
<when >2025-08-07T20:17:14.030Z</when>
<when >2025-08-07T20:17:33.710Z</when>
<when >2025-08-07T20:17:53.240Z</when>
<when >2025-08-07T20:18:13.150Z</when>
<when >2025-08-07T20:18:33.120Z</when>
<when >2025-08-07T20:18:52.580Z</when>
<when >2025-08-07T20:19:12.470Z</when>
<when >2025-08-07T20:19:32.170Z</when>
<when >2025-08-07T20:19:51.840Z</when>
<when >2025-08-07T20:20:11.670Z</when>
<when >2025-08-07T20:20:31.530Z</when>
<when >2025-08-07T20:20:51.230Z</when>
<when >2025-08-07T20:21:10.680Z</when>
<when >2025-08-07T20:21:30.150Z</when>
<when >2025-08-07T20:21:50.120Z</when>
<when >2025-08-07T20:22:09.930Z</when>
<when >2025-08-07T20:22:29.570Z</when>
<when >2025-08-07T20:22:49.110Z</when>
<when >2025-08-07T20:23:09.020Z</when>
<when >2025-08-07T20:23:28.790Z</when>
<when >2025-08-07T20:23:48.290Z</when>
<when >2025-08-07T20:24:07.820Z</when>
<when >2025-08-07T20:24:27.730Z</when>
<when >2025-08-07T20:24:47.460Z</when>
<when >2025-08-07T20:25:07.200Z</when>
<when >2025-08-07T20:25:26.830Z</when>
<when >2025-08-07T20:25:45.570Z</when>
<when >2025-08-07T20:26:05.190Z</when>
<when >2025-08-07T20:26:24.860Z</when>
<when >2025-08-07T20:26:44.730Z</when>
<when >2025-08-07T20:27:04.140Z</when>
<when >2025-08-07T20:27:23.750Z</when>
<when >2025-08-07T20:27:35.930Z</when>
<when >2025-08-07T20:27:41.370Z</when>
<when >2025-08-07T20:27:46.150Z</when>
<when >2025-08-07T20:27:50.740Z</when>
<when >2025-08-07T20:27:55.090Z</when>
<when >2025-08-07T20:28:04.620Z</when>
<when >2025-08-07T20:28:20.210Z</when>
<when >2025-08-07T20:28:39.510Z</when>
<when >2025-08-07T20:28:58.940Z</when>
<when >2025-08-07T20:29:17.400Z</when>
<when >2025-08-07T20:29:37.180Z</when>
<when >2025-08-07T20:29:56.780Z</when>
<when >2025-08-07T20:30:16.770Z</when>
<when >2025-08-07T20:30:36.550Z</when>
<when >2025-08-07T20:30:56.110Z</when>
<when >2025-08-07T20:31:15.690Z</when>
<when >2025-08-07T20:31:35.020Z</when>
<when >2025-08-07T20:31:54.450Z</when>
<when >2025-08-07T20:32:14.360Z</when>
<when >2025-08-07T20:32:34.270Z</when>
<when >2025-08-07T20:32:54.220Z</when>
<when >2025-08-07T20:33:14.060Z</when>
<when >2025-08-07T20:33:33.820Z</when>
<when >2025-08-07T20:33:53.700Z</when>
<when >2025-08-07T20:34:12.880Z</when>
<when >2025-08-07T20:34:32.660Z</when>
<when >2025-08-07T20:34:52.630Z</when>
<when >2025-08-07T20:35:12.630Z</when>
<when >2025-08-07T20:35:32.590Z</when>
<when >2025-08-07T20:35:52.430Z</when>
<when >2025-08-07T20:36:12.010Z</when>
<when >2025-08-07T20:36:31.630Z</when>
<when >2025-08-07T20:36:43.070Z</when>
<when >2025-08-07T20:36:46.360Z</when>
<when >2025-08-07T20:36:49.220Z</when>
<when >2025-08-07T20:36:52.000Z</when>
<when >2025-08-07T20:36:57.360Z</when>
<when >2025-08-07T20:37:05.200Z</when>
<when >2025-08-07T20:37:10.060Z</when>
<when >2025-08-07T20:37:14.010Z</when>
<when >2025-08-07T20:37:20.860Z</when>
<when >2025-08-07T20:37:26.270Z</when>
<when >2025-08-07T20:37:32.290Z</when>
<when >2025-08-07T20:37:38.510Z</when>
<when >2025-08-07T20:37:44.480Z</when>
<when >2025-08-07T20:37:50.560Z</when>
<when >2025-08-07T20:37:53.460Z</when>
<when >2025-08-07T20:37:56.530Z</when>
<when >2025-08-07T20:38:01.470Z</when>
<when >2025-08-07T20:38:06.130Z</when>
<when >2025-08-07T20:38:09.650Z</when>
<when >2025-08-07T20:38:12.180Z</when>
<when >2025-08-07T20:38:13.510Z</when>
<when >2025-08-07T20:38:14.090Z</when>
<when >2025-08-07T20:38:15.620Z</when>
<when >2025-08-07T20:38:16.350Z</when>
<when >2025-08-07T20:38:19.350Z</when>
<when >2025-08-07T20:38:22.230Z</when>
<when >2025-08-07T20:38:32.630Z</when>
<when >2025-08-07T20:38:41.590Z</when>
<when >2025-08-07T20:38:50.070Z</when>
<when >2025-08-07T20:38:58.350Z</when>
<when >2025-08-07T20:39:06.660Z</when>
<when >2025-08-07T20:39:15.450Z</when>
<when >2025-08-07T20:39:26.180Z</when>
<when >2025-08-07T20:39:37.150Z</when>
<when >2025-08-07T20:39:49.810Z</when>
<when >2025-08-07T20:40:01.190Z</when>
<when >2025-08-07T20:40:11.970Z</when>
<when >2025-08-07T20:40:22.390Z</when>
<when >2025-08-07T20:40:32.300Z</when>
<when >2025-08-07T20:40:42.510Z</when>
<when >2025-08-07T20:40:51.660Z</when>
<when >2025-08-07T20:41:01.410Z</when>
<when >2025-08-07T20:41:12.770Z</when>
<when >2025-08-07T20:41:24.260Z</when>
<when >2025-08-07T20:41:35.190Z</when>
<when >2025-08-07T20:41:45.620Z</when>
<when >2025-08-07T20:41:57.220Z</when>
<when >2025-08-07T20:42:05.090Z</when>
<when >2025-08-07T20:42:11.260Z</when>
<when >2025-08-07T20:42:19.190Z</when>
<when >2025-08-07T20:42:26.590Z</when>
<when >2025-08-07T20:42:37.100Z</when>
<when >2025-08-07T20:42:47.610Z</when>
<when >2025-08-07T20:42:58.700Z</when>
<when >2025-08-07T20:43:10.250Z</when>
<when >2025-08-07T20:43:21.690Z</when>
<when >2025-08-07T20:43:33.070Z</when>
<when >2025-08-07T20:43:40.890Z</when>
<when >2025-08-07T20:43:49.170Z</when>
<when >2025-08-07T20:43:55.080Z</when>
<when >2025-08-07T20:43:58.090Z</when>
<when >2025-08-07T20:44:09.770Z</when>
<when >2025-08-07T20:44:21.100Z</when>
<when >2025-08-07T20:44:30.070Z</when>
<when >2025-08-07T20:44:38.400Z</when>
<when >2025-08-07T20:44:49.410Z</when>
<when >2025-08-07T20:45:01.940Z</when>
<when >2025-08-07T20:45:13.630Z</when>
<when >2025-08-07T20:45:24.310Z</when>
<when >2025-08-07T20:45:35.070Z</when>
<when >2025-08-07T20:45:46.520Z</when>
<when >2025-08-07T20:45:58.410Z</when>
<when >2025-08-07T20:46:09.460Z</when>
<when >2025-08-07T20:46:16.900Z</when>
<when >2025-08-07T20:46:20.530Z</when>
<when >2025-08-07T20:46:26.870Z</when>
<when >2025-08-07T20:46:36.650Z</when>
<when >2025-08-07T20:46:41.460Z</when>
<when >2025-08-07T20:46:45.750Z</when>
<when >2025-08-07T20:46:49.960Z</when>
<when >2025-08-07T20:46:55.570Z</when>
<when >2025-08-07T20:47:01.100Z</when>
<when >2025-08-07T20:47:07.620Z</when>
<when >2025-08-07T20:47:12.370Z</when>
<when >2025-08-07T20:47:12.600Z</when>
<when >2025-08-07T20:47:21.620Z</when>
<when >2025-08-07T20:47:31.640Z</when>
<when >2025-08-07T20:47:42.380Z</when>
<when >2025-08-07T20:47:52.500Z</when>
<when >2025-08-07T20:48:03.210Z</when>
<when >2025-08-07T20:48:14.160Z</when>
<when >2025-08-07T20:48:19.520Z</when>
<when >2025-08-07T20:48:27.430Z</when>
<when >2025-08-07T20:48:34.780Z</when>
<when >2025-08-07T20:48:41.110Z</when>
<when >2025-08-07T20:48:48.440Z</when>
<when >2025-08-07T20:48:56.110Z</when>
<when >2025-08-07T20:49:03.470Z</when>
<when >2025-08-07T20:49:10.700Z</when>
<when >2025-08-07T20:49:18.070Z</when>
<when >2025-08-07T20:49:25.520Z</when>
<when >2025-08-07T20:49:33.240Z</when>
<when >2025-08-07T20:49:40.610Z</when>
<when >2025-08-07T20:49:48.010Z</when>
<when >2025-08-07T20:49:53.960Z</when>
<when >2025-08-07T20:50:01.790Z</when>
<when >2025-08-07T20:50:09.820Z</when>
<when >2025-08-07T20:50:14.230Z</when>
<when >2025-08-07T20:50:18.070Z</when>
<when >2025-08-07T20:50:22.460Z</when>
<when >2025-08-07T20:50:26.500Z</when>
<when >2025-08-07T20:50:30.440Z</when>
<when >2025-08-07T20:50:35.320Z</when>
<when >2025-08-07T20:50:39.630Z</when>
<when >2025-08-07T20:50:44.080Z</when>
<when >2025-08-07T20:50:47.440Z</when>
<when >2025-08-07T20:50:50.550Z</when>
<when >2025-08-07T20:50:54.060Z</when>
<when >2025-08-07T20:50:57.330Z</when>
<when >2025-08-07T20:51:00.980Z</when>
<when >2025-08-07T20:51:04.350Z</when>
<when >2025-08-07T20:51:07.400Z</when>
<when >2025-08-07T20:51:10.780Z</when>
<when >2025-08-07T20:51:14.250Z</when>
<when >2025-08-07T20:51:17.650Z</when>
<when >2025-08-07T20:51:22.310Z</when>
<when >2025-08-07T20:51:26.570Z</when>
<when >2025-08-07T20:51:33.000Z</when>
<when >2025-08-07T20:51:37.490Z</when>
<when >2025-08-07T20:51:41.250Z</when>
<when >2025-08-07T20:51:45.070Z</when>
<when >2025-08-07T20:51:48.160Z</when>
<when >2025-08-07T20:51:51.650Z</when>
<when >2025-08-07T20:51:54.660Z</when>
<when >2025-08-07T20:51:57.770Z</when>
<when >2025-08-07T20:52:00.820Z</when>
<when >2025-08-07T20:52:03.480Z</when>
<when >2025-08-07T20:52:09.820Z</when>
<when >2025-08-07T20:52:17.160Z</when>
<when >2025-08-07T20:52:22.540Z</when>
<when >2025-08-07T20:52:25.640Z</when>
<when >2025-08-07T20:52:32.370Z</when>
<when >2025-08-07T20:52:38.770Z</when>
<when >2025-08-07T20:52:45.070Z</when>
<when >2025-08-07T20:52:50.470Z</when>
<when >2025-08-07T20:52:57.360Z</when>
<when >2025-08-07T20:53:04.390Z</when>
<when >2025-08-07T20:53:12.440Z</when>
<when >2025-08-07T20:53:17.150Z</when>
<when >2025-08-07T20:53:19.020Z</when>
<when >2025-08-07T20:53:20.780Z</when>
<when >2025-08-07T20:53:22.980Z</when>
<when >2025-08-07T20:53:25.300Z</when>
<when >2025-08-07T20:53:27.250Z</when>
<when >2025-08-07T20:53:28.520Z</when>
<when >2025-08-07T20:53:32.190Z</when>
<when >2025-08-07T20:53:34.650Z</when>
<when >2025-08-07T20:53:37.370Z</when>
<when >2025-08-07T20:53:40.300Z</when>
<when >2025-08-07T20:53:45.570Z</when>
<when >2025-08-07T20:53:48.900Z</when>
<when >2025-08-07T20:53:53.010Z</when>
<when >2025-08-07T20:53:57.180Z</when>
<when >2025-08-07T20:54:03.030Z</when>
<when >2025-08-07T20:54:09.290Z</when>
<when >2025-08-07T20:54:15.330Z</when>
<when >2025-08-07T20:54:21.210Z</when>
<when >2025-08-07T20:54:27.530Z</when>
<when >2025-08-07T20:54:34.380Z</when>
<when >2025-08-07T20:54:40.930Z</when>
<when >2025-08-07T20:54:47.790Z</when>
<when >2025-08-07T20:54:53.900Z</when>
<when >2025-08-07T20:54:59.130Z</when>
<when >2025-08-07T20:55:04.930Z</when>
<when >2025-08-07T20:55:09.030Z</when>
<when >2025-08-07T20:55:14.890Z</when>
<when >2025-08-07T20:55:19.800Z</when>
<when >2025-08-07T20:55:27.830Z</when>
<when >2025-08-07T20:55:36.290Z</when>
<when >2025-08-07T20:55:43.450Z</when>
<when >2025-08-07T20:55:51.870Z</when>
<when >2025-08-07T20:56:00.150Z</when>
<when >2025-08-07T20:56:08.020Z</when>
<when >2025-08-07T20:56:16.420Z</when>
<when >2025-08-07T20:56:25.520Z</when>
<when >2025-08-07T20:56:34.050Z</when>
<when >2025-08-07T20:56:41.370Z</when>
<when >2025-08-07T20:56:50.090Z</when>
<when >2025-08-07T20:56:56.560Z</when>
<when >2025-08-07T20:57:05.420Z</when>
<when >2025-08-07T20:57:14.420Z</when>
<when >2025-08-07T20:57:17.800Z</when>
<when >2025-08-07T20:57:25.380Z</when>
<when >2025-08-07T20:57:29.030Z</when>
<when >2025-08-07T20:57:30.900Z</when>
<when >2025-08-07T20:57:33.130Z</when>
<when >2025-08-07T20:57:34.850Z</when>
<when >2025-08-07T20:57:34.850Z</when>
<gx:coord >9.687262 45.671448 426</gx:coord>
<gx:coord >9.687262 45.671448 426</gx:coord>
<gx:coord >9.685478 45.671749 447</gx:coord>
<gx:coord >9.682238 45.672272 486</gx:coord>
<gx:coord >9.680027 45.672455 508</gx:coord>
<gx:coord >9.678131 45.672587 539</gx:coord>
<gx:coord >9.672775 45.672354 601</gx:coord>
<gx:coord >9.672122 45.672272 610</gx:coord>
<gx:coord >9.669891 45.671982 642</gx:coord>
<gx:coord >9.667625 45.671469 675</gx:coord>
<gx:coord >9.664485 45.67067 722</gx:coord>
<gx:coord >9.662476 45.670026 745</gx:coord>
<gx:coord >9.660466 45.66925 778</gx:coord>
<gx:coord >9.659059 45.66861 802</gx:coord>
<gx:coord >9.656647 45.667557 834</gx:coord>
<gx:coord >9.654785 45.666581 865</gx:coord>
<gx:coord >9.652561 45.665359 893</gx:coord>
<gx:coord >9.650819 45.664307 924</gx:coord>
<gx:coord >9.648605 45.662904 953</gx:coord>
<gx:coord >9.646545 45.661507 988</gx:coord>
<gx:coord >9.644485 45.660018 1024</gx:coord>
<gx:coord >9.642357 45.658388 1058</gx:coord>
<gx:coord >9.640572 45.657038 1099</gx:coord>
<gx:coord >9.639748 45.656387 1114</gx:coord>
<gx:coord >9.637555 45.654602 1144</gx:coord>
<gx:coord >9.636015 45.65332 1176</gx:coord>
<gx:coord >9.634206 45.651764 1210</gx:coord>
<gx:coord >9.63233 45.650253 1242</gx:coord>
<gx:coord >9.630272 45.648473 1274</gx:coord>
<gx:coord >9.629517 45.647867 1282</gx:coord>
<gx:coord >9.626636 45.645401 1315</gx:coord>
<gx:coord >9.62368 45.64298 1348</gx:coord>
<gx:coord >9.620934 45.640698 1379</gx:coord>
<gx:coord >9.618664 45.638947 1415</gx:coord>
<gx:coord >9.616196 45.636928 1447</gx:coord>
<gx:coord >9.614176 45.635376 1478</gx:coord>
<gx:coord >9.611938 45.633529 1509</gx:coord>
<gx:coord >9.610222 45.6319 1540</gx:coord>
<gx:coord >9.608214 45.629608 1570</gx:coord>
<gx:coord >9.60672 45.627571 1601</gx:coord>
<gx:coord >9.605467 45.625488 1629</gx:coord>
<gx:coord >9.604317 45.623334 1660</gx:coord>
<gx:coord >9.603218 45.620728 1698</gx:coord>
<gx:coord >9.602654 45.618713 1727</gx:coord>
<gx:coord >9.602185 45.616562 1756</gx:coord>
<gx:coord >9.601917 45.613998 1786</gx:coord>
<gx:coord >9.601913 45.611743 1818</gx:coord>
<gx:coord >9.602257 45.609369 1844</gx:coord>
<gx:coord >9.602788 45.607178 1876</gx:coord>
<gx:coord >9.603699 45.6049 1909</gx:coord>
<gx:coord >9.605003 45.602433 1941</gx:coord>
<gx:coord >9.606673 45.600174 1969</gx:coord>
<gx:coord >9.608574 45.598057 1996</gx:coord>
<gx:coord >9.610359 45.596381 2020</gx:coord>
<gx:coord >9.614042 45.593674 2044</gx:coord>
<gx:coord >9.615717 45.592667 2052</gx:coord>
<gx:coord >9.618597 45.591156 2069</gx:coord>
<gx:coord >9.62059 45.590329 2077</gx:coord>
<gx:coord >9.622416 45.589645 2086</gx:coord>
<gx:coord >9.626427 45.588513 2103</gx:coord>
<gx:coord >9.629986 45.587814 2111</gx:coord>
<gx:coord >9.634254 45.587303 2127</gx:coord>
<gx:coord >9.638374 45.58721 2142</gx:coord>
<gx:coord >9.643181 45.587443 2158</gx:coord>
<gx:coord >9.647095 45.587815 2181</gx:coord>
<gx:coord >9.653097 45.588501 2212</gx:coord>
<gx:coord >9.658992 45.589279 2243</gx:coord>
<gx:coord >9.664083 45.590012 2276</gx:coord>
<gx:coord >9.672295 45.591213 2316</gx:coord>
<gx:coord >9.678955 45.592209 2351</gx:coord>
<gx:coord >9.685118 45.593124 2385</gx:coord>
<gx:coord >9.691817 45.594131 2411</gx:coord>
<gx:coord >9.696439 45.594818 2429</gx:coord>
<gx:coord >9.70555 45.596146 2471</gx:coord>
<gx:coord >9.709236 45.596707 2489</gx:coord>
<gx:coord >9.717819 45.597963 2545</gx:coord>
<gx:coord >9.726196 45.599174 2609</gx:coord>
<gx:coord >9.734825 45.600357 2674</gx:coord>
<gx:coord >9.74427 45.601685 2737</gx:coord>
<gx:coord >9.753381 45.602921 2799</gx:coord>
<gx:coord >9.761833 45.604015 2861</gx:coord>
<gx:coord >9.769056 45.60498 2923</gx:coord>
<gx:coord >9.776492 45.605988 2988</gx:coord>
<gx:coord >9.784129 45.606995 3047</gx:coord>
<gx:coord >9.792458 45.608065 3115</gx:coord>
<gx:coord >9.797127 45.608671 3146</gx:coord>
<gx:coord >9.810054 45.610382 3203</gx:coord>
<gx:coord >9.824189 45.612259 3279</gx:coord>
<gx:coord >9.830978 45.61314 3311</gx:coord>
<gx:coord >9.834237 45.613586 3321</gx:coord>
<gx:coord >9.851578 45.61584 3370</gx:coord>
<gx:coord >9.868804 45.618118 3414</gx:coord>
<gx:coord >9.887283 45.620495 3468</gx:coord>
<gx:coord >9.899231 45.622031 3504</gx:coord>
<gx:coord >9.904518 45.622729 3529</gx:coord>
<gx:coord >9.911209 45.623657 3555</gx:coord>
<gx:coord >9.922195 45.625626 3618</gx:coord>
<gx:coord >9.931775 45.62796 3668</gx:coord>
<gx:coord >9.940014 45.630524 3717</gx:coord>
<gx:coord >9.949125 45.633957 3766</gx:coord>
<gx:coord >9.956772 45.637207 3828</gx:coord>
<gx:coord >9.964198 45.640411 3903</gx:coord>
<gx:coord >9.965149 45.640838 3911</gx:coord>
<gx:coord >9.976993 45.645996 4032</gx:coord>
<gx:coord >9.982888 45.648514 4086</gx:coord>
<gx:coord >9.987328 45.650428 4125</gx:coord>
<gx:coord >9.993233 45.652895 4167</gx:coord>
<gx:coord >10.012698 45.661377 4276</gx:coord>
<gx:coord >10.022896 45.666395 4336</gx:coord>
<gx:coord >10.033264 45.671749 4412</gx:coord>
<gx:coord >10.047935 45.679001 4534</gx:coord>
<gx:coord >10.061065 45.684723 4632</gx:coord>
<gx:coord >10.081966 45.693375 4770</gx:coord>
<gx:coord >10.103165 45.702147 4899</gx:coord>
<gx:coord >10.126099 45.711644 5021</gx:coord>
<gx:coord >10.149445 45.721467 5142</gx:coord>
<gx:coord >10.171464 45.730728 5264</gx:coord>
<gx:coord >10.191879 45.739296 5394</gx:coord>
<gx:coord >10.212685 45.748048 5531</gx:coord>
<gx:coord >10.230606 45.755543 5607</gx:coord>
<gx:coord >10.256608 45.766479 5721</gx:coord>
<gx:coord >10.282265 45.777237 5827</gx:coord>
<gx:coord >10.307319 45.78772 5949</gx:coord>
<gx:coord >10.333646 45.798752 6055</gx:coord>
<gx:coord >10.347178 45.804382 6120</gx:coord>
<gx:coord >10.351112 45.806005 6145</gx:coord>
<gx:coord >10.369285 45.813583 6269</gx:coord>
<gx:coord >10.382415 45.819031 6322</gx:coord>
<gx:coord >10.409278 45.830246 6437</gx:coord>
<gx:coord >10.434131 45.840546 6543</gx:coord>
<gx:coord >10.461456 45.851906 6665</gx:coord>
<gx:coord >10.478966 45.859122 6740</gx:coord>
<gx:coord >10.500853 45.868195 6862</gx:coord>
<gx:coord >10.52298 45.87737 6969</gx:coord>
<gx:coord >10.552234 45.889526 7068</gx:coord>
<gx:coord >10.580571 45.901291 7175</gx:coord>
<gx:coord >10.610649 45.913742 7281</gx:coord>
<gx:coord >10.640862 45.926239 7388</gx:coord>
<gx:coord >10.67295 45.939468 7487</gx:coord>
<gx:coord >10.703229 45.951965 7579</gx:coord>
<gx:coord >10.731102 45.963399 7685</gx:coord>
<gx:coord >10.761383 45.975828 7792</gx:coord>
<gx:coord >10.792213 45.988537 7891</gx:coord>
<gx:coord >10.825486 46.002182 7982</gx:coord>
<gx:coord >10.862062 46.017197 8066</gx:coord>
<gx:coord >10.899879 46.032761 8150</gx:coord>
<gx:coord >10.934486 46.046913 8234</gx:coord>
<gx:coord >10.967377 46.060367 8333</gx:coord>
<gx:coord >11.003344 46.074966 8424</gx:coord>
<gx:coord >11.037709 46.088974 8516</gx:coord>
<gx:coord >11.074974 46.104126 8600</gx:coord>
<gx:coord >11.111298 46.11893 8691</gx:coord>
<gx:coord >11.143352 46.131912 8783</gx:coord>
<gx:coord >11.173576 46.144161 8889</gx:coord>
<gx:coord >11.206467 46.157475 8988</gx:coord>
<gx:coord >11.241425 46.171555 9080</gx:coord>
<gx:coord >11.27829 46.18643 9171</gx:coord>
<gx:coord >11.319145 46.20291 9263</gx:coord>
<gx:coord >11.356224 46.217853 9354</gx:coord>
<gx:coord >11.38954 46.231247 9453</gx:coord>
<gx:coord >11.423103 46.244714 9545</gx:coord>
<gx:coord >11.461018 46.259949 9628</gx:coord>
<gx:coord >11.507576 46.278625 9697</gx:coord>
<gx:coord >11.547661 46.294664 9788</gx:coord>
<gx:coord >11.585358 46.309701 9871</gx:coord>
<gx:coord >11.621956 46.324272 9970</gx:coord>
<gx:coord >11.664801 46.341339 10047</gx:coord>
<gx:coord >11.7071 46.358162 10123</gx:coord>
<gx:coord >11.7472 46.374082 10214</gx:coord>
<gx:coord >11.787712 46.390143 10298</gx:coord>
<gx:coord >11.830601 46.407166 10374</gx:coord>
<gx:coord >11.875877 46.425104 10458</gx:coord>
<gx:coord >11.917557 46.441583 10542</gx:coord>
<gx:coord >11.960427 46.458435 10633</gx:coord>
<gx:coord >12.004238 46.475647 10717</gx:coord>
<gx:coord >12.047882 46.492744 10793</gx:coord>
<gx:coord >12.089449 46.509018 10869</gx:coord>
<gx:coord >12.123212 46.522247 10938</gx:coord>
<gx:coord >12.133644 46.526308 10946</gx:coord>
<gx:coord >12.185245 46.546555 10953</gx:coord>
<gx:coord >12.237946 46.567041 10953</gx:coord>
<gx:coord >12.291156 46.587753 10953</gx:coord>
<gx:coord >12.343002 46.607914 10953</gx:coord>
<gx:coord >12.395727 46.628448 10953</gx:coord>
<gx:coord >12.447711 46.64859 10953</gx:coord>
<gx:coord >12.500164 46.668823 10946</gx:coord>
<gx:coord >12.535881 46.682863 10946</gx:coord>
<gx:coord >12.560257 46.693338 10946</gx:coord>
<gx:coord >12.583499 46.704208 10946</gx:coord>
<gx:coord >12.603328 46.714188 10946</gx:coord>
<gx:coord >12.624664 46.725645 10946</gx:coord>
<gx:coord >12.647541 46.738815 10947</gx:coord>
<gx:coord >12.668678 46.751807 10947</gx:coord>
<gx:coord >12.71011 46.778641 10947</gx:coord>
<gx:coord >12.752112 46.805374 10947</gx:coord>
<gx:coord >12.79509 46.832482 10947</gx:coord>
<gx:coord >12.837926 46.859573 10939</gx:coord>
<gx:coord >12.881188 46.886948 10939</gx:coord>
<gx:coord >12.920883 46.912125 10947</gx:coord>
<gx:coord >12.965446 46.940323 10939</gx:coord>
<gx:coord >13.00901 46.96781 10939</gx:coord>
<gx:coord >13.051687 46.994717 10939</gx:coord>
<gx:coord >13.095562 47.022322 10940</gx:coord>
<gx:coord >13.139296 47.049742 10940</gx:coord>
<gx:coord >13.182749 47.076975 10932</gx:coord>
<gx:coord >13.227187 47.10472 10932</gx:coord>
<gx:coord >13.27121 47.132217 10932</gx:coord>
<gx:coord >13.313951 47.15886 10925</gx:coord>
<gx:coord >13.35807 47.186325 10925</gx:coord>
<gx:coord >13.401329 47.213242 10925</gx:coord>
<gx:coord >13.444519 47.240094 10917</gx:coord>
<gx:coord >13.488602 47.267349 10917</gx:coord>
<gx:coord >13.532753 47.294678 10925</gx:coord>
<gx:coord >13.576904 47.322006 10925</gx:coord>
<gx:coord >13.621468 47.349472 10925</gx:coord>
<gx:coord >13.666077 47.376911 10932</gx:coord>
<gx:coord >13.711078 47.404563 10925</gx:coord>
<gx:coord >13.755363 47.431778 10917</gx:coord>
<gx:coord >13.799103 47.458649 10925</gx:coord>
<gx:coord >13.843548 47.485796 10926</gx:coord>
<gx:coord >13.888779 47.513397 10926</gx:coord>
<gx:coord >13.933692 47.540728 10918</gx:coord>
<gx:coord >13.978835 47.568194 10918</gx:coord>
<gx:coord >14.023344 47.595241 10918</gx:coord>
<gx:coord >14.067711 47.621962 10911</gx:coord>
<gx:coord >14.10553 47.643748 10911</gx:coord>
<gx:coord >14.153137 47.670469 10911</gx:coord>
<gx:coord >14.199417 47.696503 10912</gx:coord>
<gx:coord >14.245697 47.722687 10904</gx:coord>
<gx:coord >14.292368 47.749189 10904</gx:coord>
<gx:coord >14.338074 47.775165 10904</gx:coord>
<gx:coord >14.384273 47.801327 10904</gx:coord>
<gx:coord >14.430331 47.82749 10904</gx:coord>
<gx:coord >14.47641 47.853607 10889</gx:coord>
<gx:coord >14.511223 47.873657 10896</gx:coord>
<gx:coord >14.541916 47.892517 10889</gx:coord>
<gx:coord >14.585381 47.92012 10889</gx:coord>
<gx:coord >14.628845 47.947678 10889</gx:coord>
<gx:coord >14.672859 47.975052 10889</gx:coord>
<gx:coord >14.716736 48.00206 10881</gx:coord>
<gx:coord >14.761399 48.029433 10889</gx:coord>
<gx:coord >14.805313 48.056351 10889</gx:coord>
<gx:coord >14.850494 48.084 10896</gx:coord>
<gx:coord >14.89444 48.110916 10896</gx:coord>
<gx:coord >14.93866 48.137807 10904</gx:coord>
<gx:coord >14.983098 48.164795 10904</gx:coord>
<gx:coord >15.027536 48.191849 10904</gx:coord>
<gx:coord >15.071724 48.218622 10896</gx:coord>
<gx:coord >15.085819 48.227141 10912</gx:coord>
<gx:coord >15.122753 48.249532 10987</gx:coord>
<gx:coord >15.163809 48.274384 11055</gx:coord>
<gx:coord >15.204572 48.298924 11124</gx:coord>
<gx:coord >15.242735 48.321921 11185</gx:coord>
<gx:coord >15.287548 48.348875 11185</gx:coord>
<gx:coord >15.331276 48.375084 11185</gx:coord>
<gx:coord >15.376423 48.402191 11185</gx:coord>
<gx:coord >15.421263 48.429177 11185</gx:coord>
<gx:coord >15.465158 48.455429 11185</gx:coord>
<gx:coord >15.510723 48.482574 11186</gx:coord>
<gx:coord >15.55505 48.508921 11186</gx:coord>
<gx:coord >15.600008 48.535689 11178</gx:coord>
<gx:coord >15.644965 48.562363 11178</gx:coord>
<gx:coord >15.689561 48.588852 11178</gx:coord>
<gx:coord >15.73538 48.616013 11178</gx:coord>
<gx:coord >15.780053 48.642387 11178</gx:coord>
<gx:coord >15.825589 48.669247 11178</gx:coord>
<gx:coord >15.8713 48.696121 11171</gx:coord>
<gx:coord >15.916154 48.72241 11171</gx:coord>
<gx:coord >15.961726 48.749176 11171</gx:coord>
<gx:coord >16.006376 48.77536 11171</gx:coord>
<gx:coord >16.051448 48.801682 11171</gx:coord>
<gx:coord >16.097647 48.828644 11171</gx:coord>
<gx:coord >16.142578 48.854874 11163</gx:coord>
<gx:coord >16.187791 48.881241 11164</gx:coord>
<gx:coord >16.233384 48.907641 11172</gx:coord>
<gx:coord >16.279136 48.934037 11172</gx:coord>
<gx:coord >16.325467 48.960804 11164</gx:coord>
<gx:coord >16.370615 48.986847 11156</gx:coord>
<gx:coord >16.416673 49.013351 11156</gx:coord>
<gx:coord >16.462308 49.039581 11156</gx:coord>
<gx:coord >16.50862 49.066152 11156</gx:coord>
<gx:coord >16.554847 49.092545 11156</gx:coord>
<gx:coord >16.600201 49.118546 11156</gx:coord>
<gx:coord >16.646889 49.145291 11150</gx:coord>
<gx:coord >16.692786 49.171453 11150</gx:coord>
<gx:coord >16.736804 49.196545 11142</gx:coord>
<gx:coord >16.783095 49.22287 11142</gx:coord>
<gx:coord >16.829294 49.249008 11142</gx:coord>
<gx:coord >16.87594 49.275358 11135</gx:coord>
<gx:coord >16.923282 49.302172 11142</gx:coord>
<gx:coord >16.969651 49.32843 11142</gx:coord>
<gx:coord >17.016555 49.354889 11150</gx:coord>
<gx:coord >17.063739 49.381393 11150</gx:coord>
<gx:coord >17.111065 49.407944 11150</gx:coord>
<gx:coord >17.158418 49.43452 11150</gx:coord>
<gx:coord >17.206 49.461148 11142</gx:coord>
<gx:coord >17.25251 49.487137 11142</gx:coord>
<gx:coord >17.299755 49.513426 11142</gx:coord>
<gx:coord >17.3464 49.539322 11142</gx:coord>
<gx:coord >17.393881 49.565657 11135</gx:coord>
<gx:coord >17.441374 49.591965 11135</gx:coord>
<gx:coord >17.488283 49.61792 11135</gx:coord>
<gx:coord >17.534774 49.643586 11127</gx:coord>
<gx:coord >17.582245 49.669739 11127</gx:coord>
<gx:coord >17.629716 49.695864 11119</gx:coord>
<gx:coord >17.675773 49.721146 11112</gx:coord>
<gx:coord >17.722506 49.746792 11112</gx:coord>
<gx:coord >17.770237 49.772908 11113</gx:coord>
<gx:coord >17.817152 49.798558 11105</gx:coord>
<gx:coord >17.864203 49.824188 11105</gx:coord>
<gx:coord >17.911546 49.850006 11097</gx:coord>
<gx:coord >17.956708 49.874531 11097</gx:coord>
<gx:coord >18.003701 49.899994 11105</gx:coord>
<gx:coord >18.051477 49.925766 11105</gx:coord>
<gx:coord >18.098936 49.951436 11113</gx:coord>
<gx:coord >18.146812 49.97731 11113</gx:coord>
<gx:coord >18.194877 50.003174 11114</gx:coord>
<gx:coord >18.22415 50.019379 11114</gx:coord>
<gx:coord >18.235969 50.02699 11114</gx:coord>
<gx:coord >18.24599 50.034392 11114</gx:coord>
<gx:coord >18.25429 50.041489 11114</gx:coord>
<gx:coord >18.261518 50.048447 11114</gx:coord>
<gx:coord >18.276573 50.064278 11121</gx:coord>
<gx:coord >18.301367 50.089696 11121</gx:coord>
<gx:coord >18.33358 50.121002 11121</gx:coord>
<gx:coord >18.366617 50.152634 11106</gx:coord>
<gx:coord >18.397349 50.182195 11106</gx:coord>
<gx:coord >18.430577 50.21434 11106</gx:coord>
<gx:coord >18.463415 50.246298 11098</gx:coord>
<gx:coord >18.496568 50.278427 11099</gx:coord>
<gx:coord >18.529333 50.310167 11099</gx:coord>
<gx:coord >18.562341 50.342239 11092</gx:coord>
<gx:coord >18.595228 50.374008 11092</gx:coord>
<gx:coord >18.627536 50.405228 11092</gx:coord>
<gx:coord >18.660204 50.436557 11099</gx:coord>
<gx:coord >18.693386 50.468398 11099</gx:coord>
<gx:coord >18.726716 50.50038 11092</gx:coord>
<gx:coord >18.760384 50.532578 11085</gx:coord>
<gx:coord >18.793704 50.564392 11085</gx:coord>
<gx:coord >18.82688 50.596115 11085</gx:coord>
<gx:coord >18.860201 50.62793 11078</gx:coord>
<gx:coord >18.892581 50.658829 11078</gx:coord>
<gx:coord >18.92601 50.690546 11078</gx:coord>
<gx:coord >18.959274 50.722061 11079</gx:coord>
<gx:coord >18.992615 50.753717 11071</gx:coord>
<gx:coord >19.026687 50.785858 11071</gx:coord>
<gx:coord >19.059753 50.817075 11063</gx:coord>
<gx:coord >19.093018 50.848451 11063</gx:coord>
<gx:coord >19.126129 50.879641 11057</gx:coord>
<gx:coord >19.144974 50.897331 11049</gx:coord>
<gx:coord >19.150951 50.902954 11026</gx:coord>
<gx:coord >19.155731 50.907432 11011</gx:coord>
<gx:coord >19.160602 50.911972 10988</gx:coord>
<gx:coord >19.169509 50.920349 10942</gx:coord>
<gx:coord >19.183242 50.933212 10852</gx:coord>
<gx:coord >19.191284 50.940764 10794</gx:coord>
<gx:coord >19.197693 50.946816 10731</gx:coord>
<gx:coord >19.209671 50.958128 10614</gx:coord>
<gx:coord >19.218503 50.966492 10514</gx:coord>
<gx:coord >19.22934 50.976837 10386</gx:coord>
<gx:coord >19.239807 50.986711 10257</gx:coord>
<gx:coord >19.2502 50.996521 10136</gx:coord>
<gx:coord >19.260864 51.006542 10012</gx:coord>
<gx:coord >19.266357 51.011709 9944</gx:coord>
<gx:coord >19.271698 51.016737 9875</gx:coord>
<gx:coord >19.280635 51.024994 9748</gx:coord>
<gx:coord >19.289023 51.032776 9623</gx:coord>
<gx:coord >19.295883 51.039082 9543</gx:coord>
<gx:coord >19.299927 51.042853 9508</gx:coord>
<gx:coord >19.302521 51.045227 9469</gx:coord>
<gx:coord >19.304315 51.046875 9453</gx:coord>
<gx:coord >19.307061 51.049393 9437</gx:coord>
<gx:coord >19.308014 51.050348 9428</gx:coord>
<gx:coord >19.313431 51.055282 9389</gx:coord>
<gx:coord >19.318924 51.060403 9355</gx:coord>
<gx:coord >19.338387 51.078232 9229</gx:coord>
<gx:coord >19.355011 51.093548 9099</gx:coord>
<gx:coord >19.370381 51.107666 8970</gx:coord>
<gx:coord >19.385757 51.121899 8848</gx:coord>
<gx:coord >19.400787 51.135911 8726</gx:coord>
<gx:coord >19.416504 51.150575 8589</gx:coord>
<gx:coord >19.436225 51.168915 8468</gx:coord>
<gx:coord >19.456119 51.187271 8346</gx:coord>
<gx:coord >19.478834 51.208237 8232</gx:coord>
<gx:coord >19.49858 51.22641 8125</gx:coord>
<gx:coord >19.517657 51.244034 7988</gx:coord>
<gx:coord >19.535599 51.260531 7866</gx:coord>
<gx:coord >19.552917 51.276452 7744</gx:coord>
<gx:coord >19.570139 51.292282 7607</gx:coord>
<gx:coord >19.586025 51.306885 7485</gx:coord>
<gx:coord >19.60289 51.322446 7356</gx:coord>
<gx:coord >19.622269 51.340322 7242</gx:coord>
<gx:coord >19.641699 51.358063 7128</gx:coord>
<gx:coord >19.660108 51.374817 6991</gx:coord>
<gx:coord >19.677963 51.39111 6869</gx:coord>
<gx:coord >19.697266 51.408753 6754</gx:coord>
<gx:coord >19.710388 51.420811 6663</gx:coord>
<gx:coord >19.719925 51.429562 6594</gx:coord>
<gx:coord >19.73345 51.441925 6472</gx:coord>
<gx:coord >19.745846 51.453232 6366</gx:coord>
<gx:coord >19.762955 51.468713 6259</gx:coord>
<gx:coord >19.780502 51.48468 6122</gx:coord>
<gx:coord >19.798699 51.501205 6008</gx:coord>
<gx:coord >19.817703 51.5186 5887</gx:coord>
<gx:coord >19.836112 51.535309 5772</gx:coord>
<gx:coord >19.854202 51.551762 5658</gx:coord>
<gx:coord >19.866791 51.56326 5559</gx:coord>
<gx:coord >19.880066 51.575364 5430</gx:coord>
<gx:coord >19.889634 51.583969 5346</gx:coord>
<gx:coord >19.894485 51.588305 5315</gx:coord>
<gx:coord >19.913314 51.605392 5201</gx:coord>
<gx:coord >19.931335 51.62173 5087</gx:coord>
<gx:coord >19.945297 51.634392 4980</gx:coord>
<gx:coord >19.958075 51.645905 4881</gx:coord>
<gx:coord >19.976262 51.662247 4767</gx:coord>
<gx:coord >19.995563 51.679459 4652</gx:coord>
<gx:coord >20.013809 51.695748 4546</gx:coord>
<gx:coord >20.030441 51.710645 4424</gx:coord>
<gx:coord >20.047154 51.725647 4317</gx:coord>
<gx:coord >20.064524 51.741211 4204</gx:coord>
<gx:coord >20.08255 51.75743 4089</gx:coord>
<gx:coord >20.099106 51.772373 3967</gx:coord>
<gx:coord >20.110626 51.782801 3899</gx:coord>
<gx:coord >20.115585 51.787316 3876</gx:coord>
<gx:coord >20.125351 51.796161 3846</gx:coord>
<gx:coord >20.140241 51.809509 3800</gx:coord>
<gx:coord >20.147171 51.815713 3769</gx:coord>
<gx:coord >20.154114 51.821905 3731</gx:coord>
<gx:coord >20.160283 51.827454 3684</gx:coord>
<gx:coord >20.16861 51.834986 3618</gx:coord>
<gx:coord >20.176773 51.842248 3556</gx:coord>
<gx:coord >20.186413 51.850845 3494</gx:coord>
<gx:coord >20.193329 51.856912 3453</gx:coord>
<gx:coord >20.193985 51.857529 3453</gx:coord>
<gx:coord >20.207272 51.869293 3404</gx:coord>
<gx:coord >20.222193 51.882523 3358</gx:coord>
<gx:coord >20.23713 51.895783 3320</gx:coord>
<gx:coord >20.251177 51.908212 3274</gx:coord>
<gx:coord >20.265538 51.921014 3236</gx:coord>
<gx:coord >20.278702 51.932648 3198</gx:coord>
<gx:coord >20.28717 51.940155 3175</gx:coord>
<gx:coord >20.29732 51.949178 3122</gx:coord>
<gx:coord >20.306737 51.957511 3068</gx:coord>
<gx:coord >20.314636 51.964462 3001</gx:coord>
<gx:coord >20.324097 51.972885 2939</gx:coord>
<gx:coord >20.334091 51.981674 2879</gx:coord>
<gx:coord >20.343628 51.990097 2825</gx:coord>
<gx:coord >20.352783 51.998199 2764</gx:coord>
<gx:coord >20.361982 52.006438 2704</gx:coord>
<gx:coord >20.371242 52.014677 2643</gx:coord>
<gx:coord >20.380894 52.023336 2590</gx:coord>
<gx:coord >20.389919 52.031297 2535</gx:coord>
<gx:coord >20.398943 52.039257 2468</gx:coord>
<gx:coord >20.407026 52.046426 2407</gx:coord>
<gx:coord >20.416412 52.054642 2353</gx:coord>
<gx:coord >20.426254 52.063293 2299</gx:coord>
<gx:coord >20.432281 52.068558 2260</gx:coord>
<gx:coord >20.437003 52.072681 2227</gx:coord>
<gx:coord >20.442505 52.077484 2199</gx:coord>
<gx:coord >20.447617 52.081924 2168</gx:coord>
<gx:coord >20.452576 52.086273 2134</gx:coord>
<gx:coord >20.458348 52.091349 2103</gx:coord>
<gx:coord >20.463841 52.09619 2076</gx:coord>
<gx:coord >20.469208 52.100922 2042</gx:coord>
<gx:coord >20.473336 52.10457 2011</gx:coord>
<gx:coord >20.477182 52.107875 1981</gx:coord>
<gx:coord >20.481644 52.111359 1945</gx:coord>
<gx:coord >20.486298 52.114746 1914</gx:coord>
<gx:coord >20.491562 52.118179 1885</gx:coord>
<gx:coord >20.496292 52.121017 1852</gx:coord>
<gx:coord >20.501587 52.123982 1822</gx:coord>
<gx:coord >20.506531 52.126729 1791</gx:coord>
<gx:coord >20.512181 52.129801 1764</gx:coord>
<gx:coord >20.518066 52.133013 1741</gx:coord>
<gx:coord >20.525818 52.137222 1706</gx:coord>
<gx:coord >20.532663 52.140927 1675</gx:coord>
<gx:coord >20.542786 52.14642 1644</gx:coord>
<gx:coord >20.549774 52.150269 1612</gx:coord>
<gx:coord >20.555969 52.153636 1578</gx:coord>
<gx:coord >20.561776 52.156755 1547</gx:coord>
<gx:coord >20.566563 52.159408 1517</gx:coord>
<gx:coord >20.572135 52.162434 1489</gx:coord>
<gx:coord >20.577164 52.165192 1459</gx:coord>
<gx:coord >20.58197 52.167801 1428</gx:coord>
<gx:coord >20.586809 52.170441 1395</gx:coord>
<gx:coord >20.590668 52.172562 1379</gx:coord>
<gx:coord >20.600307 52.177843 1348</gx:coord>
<gx:coord >20.61142 52.184006 1318</gx:coord>
<gx:coord >20.619376 52.188364 1296</gx:coord>
<gx:coord >20.623771 52.190831 1284</gx:coord>
<gx:coord >20.633423 52.196138 1255</gx:coord>
<gx:coord >20.642526 52.201166 1219</gx:coord>
<gx:coord >20.651321 52.206024 1196</gx:coord>
<gx:coord >20.658221 52.209778 1178</gx:coord>
<gx:coord >20.667637 52.214992 1149</gx:coord>
<gx:coord >20.677185 52.220261 1119</gx:coord>
<gx:coord >20.687561 52.225891 1095</gx:coord>
<gx:coord >20.693817 52.228958 1064</gx:coord>
<gx:coord >20.696716 52.230057 1055</gx:coord>
<gx:coord >20.699539 52.230881 1046</gx:coord>
<gx:coord >20.702794 52.231611 1039</gx:coord>
<gx:coord >20.706406 52.232162 1030</gx:coord>
<gx:coord >20.708836 52.232449 1029</gx:coord>
<gx:coord >20.711136 52.232574 1022</gx:coord>
<gx:coord >20.717233 52.232495 1008</gx:coord>
<gx:coord >20.720764 52.232216 998</gx:coord>
<gx:coord >20.724923 52.231704 990</gx:coord>
<gx:coord >20.729141 52.230972 982</gx:coord>
<gx:coord >20.736223 52.229516 966</gx:coord>
<gx:coord >20.740775 52.228445 959</gx:coord>
<gx:coord >20.745773 52.227219 951</gx:coord>
<gx:coord >20.751447 52.225745 943</gx:coord>
<gx:coord >20.758667 52.223877 913</gx:coord>
<gx:coord >20.766279 52.221835 882</gx:coord>
<gx:coord >20.77342 52.21988 852</gx:coord>
<gx:coord >20.780797 52.217878 822</gx:coord>
<gx:coord >20.788252 52.215783 792</gx:coord>
<gx:coord >20.796356 52.213577 768</gx:coord>
<gx:coord >20.803757 52.211472 724</gx:coord>
<gx:coord >20.811081 52.209412 692</gx:coord>
<gx:coord >20.818176 52.207443 661</gx:coord>
<gx:coord >20.823957 52.205821 646</gx:coord>
<gx:coord >20.829926 52.204147 614</gx:coord>
<gx:coord >20.834122 52.203003 596</gx:coord>
<gx:coord >20.83973 52.201398 569</gx:coord>
<gx:coord >20.84436 52.200095 555</gx:coord>
<gx:coord >20.85158 52.198093 517</gx:coord>
<gx:coord >20.859349 52.195905 494</gx:coord>
<gx:coord >20.866176 52.194043 463</gx:coord>
<gx:coord >20.873317 52.192041 433</gx:coord>
<gx:coord >20.881119 52.189865 402</gx:coord>
<gx:coord >20.888227 52.187898 372</gx:coord>
<gx:coord >20.895996 52.18571 341</gx:coord>
<gx:coord >20.903549 52.183594 303</gx:coord>
<gx:coord >20.911142 52.181428 288</gx:coord>
<gx:coord >20.917053 52.179794 258</gx:coord>
<gx:coord >20.924988 52.177597 227</gx:coord>
<gx:coord >20.930838 52.175934 197</gx:coord>
<gx:coord >20.93845 52.173793 174</gx:coord>
<gx:coord >20.944214 52.172195 143</gx:coord>
<gx:coord >20.950012 52.170547 121</gx:coord>
<gx:coord >20.956726 52.168671 119</gx:coord>
<gx:coord >20.959403 52.167927 111</gx:coord>
<gx:coord >20.960693 52.167572 110</gx:coord>
<gx:coord >20.962219 52.16716 108</gx:coord>
<gx:coord >20.963562 52.166764 115</gx:coord>
<gx:coord >20.963562 52.166764 115</gx:coord>
</gx:Track>
</Placemark>
<Placemark ><name >HA-LGM</name>
<Style ><LineStyle ><color >ff1c1ae3</color>
<width >4</width>
</LineStyle>
<IconStyle ><Icon ><href >http://maps.google.com/mapfiles/kml/shapes/airports.png</href>
</Icon>
</IconStyle>
</Style>
<gx:Track ><extrude >0</extrude>
<when >2025-08-07T20:57:34.850Z</when>
<when >2025-08-07T20:57:39.120Z</when>
<when >2025-08-07T20:57:41.860Z</when>
<when >2025-08-07T20:57:45.190Z</when>
<when >2025-08-07T20:57:47.830Z</when>
<when >2025-08-07T20:57:49.060Z</when>
<when >2025-08-07T20:57:50.930Z</when>
<when >2025-08-07T20:57:54.720Z</when>
<when >2025-08-07T20:57:56.900Z</when>
<when >2025-08-07T20:57:59.570Z</when>
<when >2025-08-07T20:58:01.930Z</when>
<when >2025-08-07T20:58:04.900Z</when>
<when >2025-08-07T20:58:08.830Z</when>
<when >2025-08-07T20:58:11.270Z</when>
<when >2025-08-07T20:58:14.690Z</when>
<when >2025-08-07T20:58:17.670Z</when>
<when >2025-08-07T20:58:21.400Z</when>
<when >2025-08-07T20:58:29.160Z</when>
<when >2025-08-07T20:58:34.580Z</when>
<when >2025-08-07T20:58:37.420Z</when>
<when >2025-08-07T20:58:42.520Z</when>
<when >2025-08-07T20:58:45.570Z</when>
<when >2025-08-07T20:58:48.580Z</when>
<when >2025-08-07T20:58:51.300Z</when>
<when >2025-08-07T20:58:52.500Z</when>
<when >2025-08-07T20:58:54.500Z</when>
<when >2025-08-07T20:58:55.870Z</when>
<when >2025-08-07T20:58:57.990Z</when>
<when >2025-08-07T20:59:01.390Z</when>
<when >2025-08-07T20:59:07.780Z</when>
<when >2025-08-07T20:59:15.990Z</when>
<when >2025-08-07T20:59:23.150Z</when>
<when >2025-08-07T20:59:30.940Z</when>
<when >2025-08-07T20:59:37.310Z</when>
<when >2025-08-07T20:59:45.660Z</when>
<when >2025-08-07T20:59:52.130Z</when>
<when >2025-08-07T20:59:54.550Z</when>
<when >2025-08-07T20:59:56.870Z</when>
<when >2025-08-07T21:00:00.440Z</when>
<when >2025-08-07T21:00:03.170Z</when>
<when >2025-08-07T21:00:10.020Z</when>
<when >2025-08-07T21:00:19.990Z</when>
<when >2025-08-07T21:00:27.570Z</when>
<when >2025-08-07T21:00:36.570Z</when>
<when >2025-08-07T21:00:45.410Z</when>
<when >2025-08-07T21:00:54.200Z</when>
<when >2025-08-07T21:01:00.600Z</when>
<when >2025-08-07T21:01:05.130Z</when>
<when >2025-08-07T21:01:06.940Z</when>
<when >2025-08-07T21:01:12.220Z</when>
<when >2025-08-07T21:01:16.030Z</when>
<when >2025-08-07T21:01:18.620Z</when>
<when >2025-08-07T21:01:25.550Z</when>
<when >2025-08-07T21:01:31.340Z</when>
<when >2025-08-07T21:01:40.980Z</when>
<when >2025-08-07T21:01:44.510Z</when>
<when >2025-08-07T21:01:47.140Z</when>
<when >2025-08-07T21:01:50.480Z</when>
<when >2025-08-07T21:01:53.380Z</when>
<when >2025-08-07T21:02:10.570Z</when>
<when >2025-08-07T21:02:26.740Z</when>
<when >2025-08-07T21:03:06.360Z</when>
<when >2025-08-07T21:03:06.360Z</when>
<gx:coord >20.964013 52.166636 0</gx:coord>
<gx:coord >20.965563 52.166193 0</gx:coord>
<gx:coord >20.967789 52.165581 0</gx:coord>
<gx:coord >20.968251 52.165448 0</gx:coord>
<gx:coord >20.969369 52.165134 0</gx:coord>
<gx:coord >20.970056 52.164936 0</gx:coord>
<gx:coord >20.970801 52.164727 0</gx:coord>
<gx:coord >20.971603 52.164505 0</gx:coord>
<gx:coord >20.972155 52.164354 0</gx:coord>
<gx:coord >20.972824 52.164173 0</gx:coord>
<gx:coord >20.973175 52.164098 0</gx:coord>
<gx:coord >20.973835 52.16399 0</gx:coord>
<gx:coord >20.974827 52.163876 0</gx:coord>
<gx:coord >20.975018 52.163864 0</gx:coord>
<gx:coord >20.975529 52.163842 0</gx:coord>
<gx:coord >20.975857 52.163841 0</gx:coord>
<gx:coord >20.976432 52.163866 0</gx:coord>
<gx:coord >20.977211 52.163898 0</gx:coord>
<gx:coord >20.977535 52.163921 0</gx:coord>
<gx:coord >20.977844 52.16397 0</gx:coord>
<gx:coord >20.978099 52.164145 0</gx:coord>
<gx:coord >20.978146 52.164322 0</gx:coord>
<gx:coord >20.978139 52.164378 0</gx:coord>
<gx:coord >20.978031 52.164494 0</gx:coord>
<gx:coord >20.977942 52.164541 0</gx:coord>
<gx:coord >20.977917 52.164551 0</gx:coord>
<gx:coord >20.977726 52.164608 0</gx:coord>
<gx:coord >20.977609 52.164645 0</gx:coord>
<gx:coord >20.977421 52.1647 0</gx:coord>
<gx:coord >20.97702 52.16482 0</gx:coord>
<gx:coord >20.976491 52.16496 0</gx:coord>
<gx:coord >20.975838 52.165146 0</gx:coord>
<gx:coord >20.975196 52.165332 0</gx:coord>
<gx:coord >20.974666 52.165472 0</gx:coord>
<gx:coord >20.974058 52.165646 0</gx:coord>
<gx:coord >20.973625 52.165764 0</gx:coord>
<gx:coord >20.973489 52.165821 0</gx:coord>
<gx:coord >20.973358 52.165913 0</gx:coord>
<gx:coord >20.973206 52.166061 0</gx:coord>
<gx:coord >20.973148 52.166142 0</gx:coord>
<gx:coord >20.972861 52.166496 0</gx:coord>
<gx:coord >20.972586 52.166798 0</gx:coord>
<gx:coord >20.972271 52.167171 0</gx:coord>
<gx:coord >20.972023 52.167469 0</gx:coord>
<gx:coord >20.971704 52.167846 0</gx:coord>
<gx:coord >20.971375 52.168213 0</gx:coord>
<gx:coord >20.971233 52.16837 0</gx:coord>
<gx:coord >20.971115 52.168428 0</gx:coord>
<gx:coord >20.971012 52.168442 0</gx:coord>
<gx:coord >20.97084 52.168405 0</gx:coord>
<gx:coord >20.970762 52.16837 0</gx:coord>
<gx:coord >20.970726 52.168339 0</gx:coord>
<gx:coord >20.970527 52.1683 0</gx:coord>
<gx:coord >20.97037 52.168277 0</gx:coord>
<gx:coord >20.970211 52.168247 0</gx:coord>
<gx:coord >20.970097 52.168247 0</gx:coord>
<gx:coord >20.970039 52.168259 0</gx:coord>
<gx:coord >20.969982 52.16827 0</gx:coord>
<gx:coord >20.969918 52.168288 0</gx:coord>
<gx:coord >20.969753 52.168304 0</gx:coord>
<gx:coord >20.969753 52.168304 0</gx:coord>
<gx:coord >20.969753 52.168304 0</gx:coord>
<gx:coord >20.969753 52.168304 0</gx:coord>
</gx:Track>
</Placemark>
</Folder>
</Folder>
</kml>
