<?xml version="1.0" encoding="UTF-8"?>
<kml xmlns="http://www.opengis.net/kml/2.2" xmlns:gx="http://www.google.com/kml/ext/2.2"><Folder ><Folder ><name >9H-WBI track</name>
<Placemark ><name >9H-WBI</name>
<Style ><LineStyle ><color >ff1c1ae3</color>
<width >4</width>
</LineStyle>
<IconStyle ><Icon ><href >http://maps.google.com/mapfiles/kml/shapes/airports.png</href>
</Icon>
</IconStyle>
</Style>
<gx:Track ><extrude >0</extrude>
<when >2025-07-31T06:52:11.910Z</when>
<when >2025-07-31T06:52:11.910Z</when>
<when >2025-07-31T06:52:16.020Z</when>
<when >2025-07-31T06:52:17.760Z</when>
<when >2025-07-31T06:52:19.260Z</when>
<when >2025-07-31T06:52:21.630Z</when>
<when >2025-07-31T06:52:27.790Z</when>
<when >2025-07-31T06:52:34.300Z</when>
<when >2025-07-31T06:52:39.050Z</when>
<when >2025-07-31T06:52:44.650Z</when>
<when >2025-07-31T06:52:50.170Z</when>
<when >2025-07-31T06:52:56.220Z</when>
<when >2025-07-31T06:52:59.420Z</when>
<when >2025-07-31T06:53:01.430Z</when>
<when >2025-07-31T06:53:25.400Z</when>
<when >2025-07-31T06:53:29.870Z</when>
<when >2025-07-31T06:53:34.170Z</when>
<when >2025-07-31T06:53:44.360Z</when>
<when >2025-07-31T06:53:55.660Z</when>
<when >2025-07-31T06:54:00.480Z</when>
<when >2025-07-31T06:54:14.400Z</when>
<when >2025-07-31T06:54:21.790Z</when>
<when >2025-07-31T06:54:46.120Z</when>
<when >2025-07-31T06:55:07.630Z</when>
<when >2025-07-31T06:55:27.740Z</when>
<when >2025-07-31T06:55:42.930Z</when>
<when >2025-07-31T06:56:02.850Z</when>
<when >2025-07-31T06:56:08.070Z</when>
<when >2025-07-31T06:56:17.560Z</when>
<when >2025-07-31T06:56:18.980Z</when>
<when >2025-07-31T06:57:00.590Z</when>
<when >2025-07-31T06:57:04.950Z</when>
<when >2025-07-31T06:57:07.470Z</when>
<when >2025-07-31T06:57:10.150Z</when>
<when >2025-07-31T06:57:10.470Z</when>
<when >2025-07-31T06:57:11.280Z</when>
<when >2025-07-31T06:57:11.280Z</when>
<gx:coord >12.26185 41.805004 0</gx:coord>
<gx:coord >12.26185 41.805004 0</gx:coord>
<gx:coord >12.262068 41.805166 0</gx:coord>
<gx:coord >12.262195 41.805225 0</gx:coord>
<gx:coord >12.262303 41.805256 0</gx:coord>
<gx:coord >12.262459 41.805302 0</gx:coord>
<gx:coord >12.262962 41.805446 0</gx:coord>
<gx:coord >12.263505 41.805597 0</gx:coord>
<gx:coord >12.26391 41.805702 0</gx:coord>
<gx:coord >12.264409 41.80584 0</gx:coord>
<gx:coord >12.26494 41.805988 0</gx:coord>
<gx:coord >12.265533 41.80616 0</gx:coord>
<gx:coord >12.265884 41.806249 0</gx:coord>
<gx:coord >12.266108 41.806307 0</gx:coord>
<gx:coord >12.26892 41.807087 0</gx:coord>
<gx:coord >12.269477 41.807238 0</gx:coord>
<gx:coord >12.269908 41.807366 0</gx:coord>
<gx:coord >12.270691 41.807576 0</gx:coord>
<gx:coord >12.271425 41.80796 0</gx:coord>
<gx:coord >12.271401 41.808208 0</gx:coord>
<gx:coord >12.271167 41.808689 0</gx:coord>
<gx:coord >12.271074 41.808879 0</gx:coord>
<gx:coord >12.271058 41.808902 0</gx:coord>
<gx:coord >12.271058 41.808902 0</gx:coord>
<gx:coord >12.271058 41.808902 0</gx:coord>
<gx:coord >12.271058 41.808902 0</gx:coord>
<gx:coord >12.271026 41.80896 0</gx:coord>
<gx:coord >12.270964 41.809078 0</gx:coord>
<gx:coord >12.270786 41.809473 0</gx:coord>
<gx:coord >12.270745 41.809547 0</gx:coord>
<gx:coord >12.268599 41.809403 0</gx:coord>
<gx:coord >12.267177 41.809019 0</gx:coord>
<gx:coord >12.26606 41.808704 0</gx:coord>
<gx:coord >12.264846 41.808367 0</gx:coord>
<gx:coord >12.264597 41.8083 0</gx:coord>
<gx:coord >12.264096 41.808157 0</gx:coord>
<gx:coord >12.264096 41.808157 0</gx:coord>
</gx:Track>
</Placemark>
<Placemark ><name >9H-WBI</name>
<Style ><LineStyle ><color >ff1c1ae3</color>
<width >4</width>
</LineStyle>
<IconStyle ><Icon ><href >http://maps.google.com/mapfiles/kml/shapes/airports.png</href>
</Icon>
</IconStyle>
</Style>
<gx:Track ><altitudeMode >absolute</altitudeMode>
<extrude >1</extrude>
<when >2025-07-31T06:57:27.440Z</when>
<when >2025-07-31T06:57:28.560Z</when>
<when >2025-07-31T06:57:29.650Z</when>
<when >2025-07-31T06:57:31.650Z</when>
<when >2025-07-31T06:57:36.710Z</when>
<when >2025-07-31T06:57:40.770Z</when>
<when >2025-07-31T06:57:43.760Z</when>
<when >2025-07-31T06:57:45.710Z</when>
<when >2025-07-31T06:57:48.450Z</when>
<when >2025-07-31T06:57:49.900Z</when>
<when >2025-07-31T06:57:52.310Z</when>
<when >2025-07-31T06:57:54.580Z</when>
<when >2025-07-31T06:57:56.440Z</when>
<when >2025-07-31T06:57:58.490Z</when>
<when >2025-07-31T06:58:00.510Z</when>
<when >2025-07-31T06:58:02.050Z</when>
<when >2025-07-31T06:58:04.940Z</when>
<when >2025-07-31T06:58:07.870Z</when>
<when >2025-07-31T06:58:10.950Z</when>
<when >2025-07-31T06:58:13.970Z</when>
<when >2025-07-31T06:58:17.440Z</when>
<when >2025-07-31T06:58:20.780Z</when>
<when >2025-07-31T06:58:23.920Z</when>
<when >2025-07-31T06:58:27.170Z</when>
<when >2025-07-31T06:58:29.740Z</when>
<when >2025-07-31T06:58:33.340Z</when>
<when >2025-07-31T06:58:36.420Z</when>
<when >2025-07-31T06:58:37.940Z</when>
<when >2025-07-31T06:58:41.470Z</when>
<when >2025-07-31T06:58:43.620Z</when>
<when >2025-07-31T06:58:46.520Z</when>
<when >2025-07-31T06:58:48.090Z</when>
<when >2025-07-31T06:58:51.310Z</when>
<when >2025-07-31T06:58:53.150Z</when>
<when >2025-07-31T06:58:55.760Z</when>
<when >2025-07-31T06:58:56.740Z</when>
<when >2025-07-31T06:58:59.190Z</when>
<when >2025-07-31T06:59:01.650Z</when>
<when >2025-07-31T06:59:04.580Z</when>
<when >2025-07-31T06:59:07.030Z</when>
<when >2025-07-31T06:59:08.980Z</when>
<when >2025-07-31T06:59:11.480Z</when>
<when >2025-07-31T06:59:13.990Z</when>
<when >2025-07-31T06:59:17.270Z</when>
<when >2025-07-31T06:59:20.420Z</when>
<when >2025-07-31T06:59:23.070Z</when>
<when >2025-07-31T06:59:26.170Z</when>
<when >2025-07-31T06:59:29.100Z</when>
<when >2025-07-31T06:59:32.180Z</when>
<when >2025-07-31T06:59:35.270Z</when>
<when >2025-07-31T06:59:38.080Z</when>
<when >2025-07-31T06:59:41.630Z</when>
<when >2025-07-31T06:59:45.460Z</when>
<when >2025-07-31T06:59:49.580Z</when>
<when >2025-07-31T06:59:53.650Z</when>
<when >2025-07-31T06:59:57.750Z</when>
<when >2025-07-31T07:00:01.910Z</when>
<when >2025-07-31T07:00:06.530Z</when>
<when >2025-07-31T07:00:12.800Z</when>
<when >2025-07-31T07:00:16.560Z</when>
<when >2025-07-31T07:00:18.950Z</when>
<when >2025-07-31T07:00:21.560Z</when>
<when >2025-07-31T07:00:23.730Z</when>
<when >2025-07-31T07:00:25.990Z</when>
<when >2025-07-31T07:00:27.860Z</when>
<when >2025-07-31T07:00:29.830Z</when>
<when >2025-07-31T07:00:31.600Z</when>
<when >2025-07-31T07:00:33.330Z</when>
<when >2025-07-31T07:00:34.420Z</when>
<when >2025-07-31T07:00:35.760Z</when>
<when >2025-07-31T07:00:37.820Z</when>
<when >2025-07-31T07:00:39.370Z</when>
<when >2025-07-31T07:00:41.360Z</when>
<when >2025-07-31T07:00:43.780Z</when>
<when >2025-07-31T07:00:45.990Z</when>
<when >2025-07-31T07:00:48.920Z</when>
<when >2025-07-31T07:00:51.990Z</when>
<when >2025-07-31T07:00:54.880Z</when>
<when >2025-07-31T07:00:57.740Z</when>
<when >2025-07-31T07:01:00.780Z</when>
<when >2025-07-31T07:01:04.070Z</when>
<when >2025-07-31T07:01:07.080Z</when>
<when >2025-07-31T07:01:13.030Z</when>
<when >2025-07-31T07:01:16.160Z</when>
<when >2025-07-31T07:01:23.690Z</when>
<when >2025-07-31T07:01:32.560Z</when>
<when >2025-07-31T07:01:38.910Z</when>
<when >2025-07-31T07:01:42.810Z</when>
<when >2025-07-31T07:01:46.170Z</when>
<when >2025-07-31T07:01:48.940Z</when>
<when >2025-07-31T07:01:51.790Z</when>
<when >2025-07-31T07:01:54.790Z</when>
<when >2025-07-31T07:01:58.200Z</when>
<when >2025-07-31T07:02:01.440Z</when>
<when >2025-07-31T07:02:04.450Z</when>
<when >2025-07-31T07:02:06.390Z</when>
<when >2025-07-31T07:02:08.540Z</when>
<when >2025-07-31T07:02:12.510Z</when>
<when >2025-07-31T07:02:16.660Z</when>
<when >2025-07-31T07:02:21.080Z</when>
<when >2025-07-31T07:02:25.540Z</when>
<when >2025-07-31T07:02:31.320Z</when>
<when >2025-07-31T07:02:37.740Z</when>
<when >2025-07-31T07:02:41.770Z</when>
<when >2025-07-31T07:02:45.430Z</when>
<when >2025-07-31T07:02:48.490Z</when>
<when >2025-07-31T07:02:52.300Z</when>
<when >2025-07-31T07:02:56.120Z</when>
<when >2025-07-31T07:02:57.400Z</when>
<when >2025-07-31T07:02:58.980Z</when>
<when >2025-07-31T07:03:01.110Z</when>
<when >2025-07-31T07:03:05.150Z</when>
<when >2025-07-31T07:03:08.800Z</when>
<when >2025-07-31T07:03:12.070Z</when>
<when >2025-07-31T07:03:15.360Z</when>
<when >2025-07-31T07:03:18.990Z</when>
<when >2025-07-31T07:03:21.730Z</when>
<when >2025-07-31T07:03:24.510Z</when>
<when >2025-07-31T07:03:28.100Z</when>
<when >2025-07-31T07:03:31.240Z</when>
<when >2025-07-31T07:03:34.780Z</when>
<when >2025-07-31T07:03:39.400Z</when>
<when >2025-07-31T07:03:44.690Z</when>
<when >2025-07-31T07:03:49.560Z</when>
<when >2025-07-31T07:03:59.690Z</when>
<when >2025-07-31T07:04:08.090Z</when>
<when >2025-07-31T07:04:11.940Z</when>
<when >2025-07-31T07:04:15.160Z</when>
<when >2025-07-31T07:04:18.120Z</when>
<when >2025-07-31T07:04:21.870Z</when>
<when >2025-07-31T07:04:25.090Z</when>
<when >2025-07-31T07:04:30.780Z</when>
<when >2025-07-31T07:04:39.350Z</when>
<when >2025-07-31T07:04:44.500Z</when>
<when >2025-07-31T07:04:48.400Z</when>
<when >2025-07-31T07:04:51.750Z</when>
<when >2025-07-31T07:04:55.180Z</when>
<when >2025-07-31T07:04:58.960Z</when>
<when >2025-07-31T07:05:05.600Z</when>
<when >2025-07-31T07:05:16.530Z</when>
<when >2025-07-31T07:05:27.480Z</when>
<when >2025-07-31T07:05:38.240Z</when>
<when >2025-07-31T07:05:48.260Z</when>
<when >2025-07-31T07:05:58.780Z</when>
<when >2025-07-31T07:06:09.610Z</when>
<when >2025-07-31T07:06:20.260Z</when>
<when >2025-07-31T07:06:31.200Z</when>
<when >2025-07-31T07:06:43.530Z</when>
<when >2025-07-31T07:06:55.910Z</when>
<when >2025-07-31T07:07:06.830Z</when>
<when >2025-07-31T07:07:18.120Z</when>
<when >2025-07-31T07:07:29.580Z</when>
<when >2025-07-31T07:07:38.130Z</when>
<when >2025-07-31T07:07:51.090Z</when>
<when >2025-07-31T07:08:02.960Z</when>
<when >2025-07-31T07:08:14.010Z</when>
<when >2025-07-31T07:08:25.020Z</when>
<when >2025-07-31T07:08:34.800Z</when>
<when >2025-07-31T07:08:47.310Z</when>
<when >2025-07-31T07:09:00.480Z</when>
<when >2025-07-31T07:09:13.500Z</when>
<when >2025-07-31T07:09:26.050Z</when>
<when >2025-07-31T07:09:38.670Z</when>
<when >2025-07-31T07:09:51.300Z</when>
<when >2025-07-31T07:10:03.980Z</when>
<when >2025-07-31T07:10:17.710Z</when>
<when >2025-07-31T07:10:32.290Z</when>
<when >2025-07-31T07:10:47.460Z</when>
<when >2025-07-31T07:11:02.350Z</when>
<when >2025-07-31T07:11:15.950Z</when>
<when >2025-07-31T07:11:29.420Z</when>
<when >2025-07-31T07:11:42.940Z</when>
<when >2025-07-31T07:11:57.200Z</when>
<when >2025-07-31T07:12:11.890Z</when>
<when >2025-07-31T07:12:26.940Z</when>
<when >2025-07-31T07:12:41.660Z</when>
<when >2025-07-31T07:12:56.340Z</when>
<when >2025-07-31T07:13:09.810Z</when>
<when >2025-07-31T07:13:24.210Z</when>
<when >2025-07-31T07:13:37.600Z</when>
<when >2025-07-31T07:13:45.470Z</when>
<when >2025-07-31T07:13:50.910Z</when>
<when >2025-07-31T07:13:56.530Z</when>
<when >2025-07-31T07:14:02.800Z</when>
<when >2025-07-31T07:14:17.460Z</when>
<when >2025-07-31T07:14:32.060Z</when>
<when >2025-07-31T07:14:48.180Z</when>
<when >2025-07-31T07:15:04.500Z</when>
<when >2025-07-31T07:15:19.110Z</when>
<when >2025-07-31T07:15:34.240Z</when>
<when >2025-07-31T07:15:50.390Z</when>
<when >2025-07-31T07:16:06.830Z</when>
<when >2025-07-31T07:16:22.900Z</when>
<when >2025-07-31T07:16:40.670Z</when>
<when >2025-07-31T07:16:57.990Z</when>
<when >2025-07-31T07:17:15.970Z</when>
<when >2025-07-31T07:17:31.780Z</when>
<when >2025-07-31T07:17:46.710Z</when>
<when >2025-07-31T07:18:02.710Z</when>
<when >2025-07-31T07:18:19.190Z</when>
<when >2025-07-31T07:18:35.200Z</when>
<when >2025-07-31T07:18:52.440Z</when>
<when >2025-07-31T07:19:09.170Z</when>
<when >2025-07-31T07:19:26.430Z</when>
<when >2025-07-31T07:19:42.890Z</when>
<when >2025-07-31T07:20:01.080Z</when>
<when >2025-07-31T07:20:20.410Z</when>
<when >2025-07-31T07:20:40.040Z</when>
<when >2025-07-31T07:20:58.000Z</when>
<when >2025-07-31T07:21:16.440Z</when>
<when >2025-07-31T07:21:36.040Z</when>
<when >2025-07-31T07:21:55.860Z</when>
<when >2025-07-31T07:22:15.450Z</when>
<when >2025-07-31T07:22:35.070Z</when>
<when >2025-07-31T07:22:54.700Z</when>
<when >2025-07-31T07:23:14.600Z</when>
<when >2025-07-31T07:23:34.460Z</when>
<when >2025-07-31T07:23:54.370Z</when>
<when >2025-07-31T07:24:14.100Z</when>
<when >2025-07-31T07:24:33.850Z</when>
<when >2025-07-31T07:24:53.750Z</when>
<when >2025-07-31T07:25:13.560Z</when>
<when >2025-07-31T07:25:33.240Z</when>
<when >2025-07-31T07:25:52.900Z</when>
<when >2025-07-31T07:26:08.520Z</when>
<when >2025-07-31T07:26:15.250Z</when>
<when >2025-07-31T07:26:21.080Z</when>
<when >2025-07-31T07:26:29.710Z</when>
<when >2025-07-31T07:26:49.440Z</when>
<when >2025-07-31T07:27:09.360Z</when>
<when >2025-07-31T07:27:29.040Z</when>
<when >2025-07-31T07:27:48.940Z</when>
<when >2025-07-31T07:28:08.600Z</when>
<when >2025-07-31T07:28:28.300Z</when>
<when >2025-07-31T07:28:48.210Z</when>
<when >2025-07-31T07:29:07.960Z</when>
<when >2025-07-31T07:29:27.520Z</when>
<when >2025-07-31T07:29:47.250Z</when>
<when >2025-07-31T07:30:06.880Z</when>
<when >2025-07-31T07:30:26.640Z</when>
<when >2025-07-31T07:30:46.260Z</when>
<when >2025-07-31T07:31:06.230Z</when>
<when >2025-07-31T07:31:25.920Z</when>
<when >2025-07-31T07:31:45.400Z</when>
<when >2025-07-31T07:32:04.970Z</when>
<when >2025-07-31T07:32:24.570Z</when>
<when >2025-07-31T07:32:44.270Z</when>
<when >2025-07-31T07:33:04.040Z</when>
<when >2025-07-31T07:33:24.010Z</when>
<when >2025-07-31T07:33:43.650Z</when>
<when >2025-07-31T07:34:03.470Z</when>
<when >2025-07-31T07:34:23.240Z</when>
<when >2025-07-31T07:34:43.110Z</when>
<when >2025-07-31T07:35:02.870Z</when>
<when >2025-07-31T07:35:22.310Z</when>
<when >2025-07-31T07:35:41.880Z</when>
<when >2025-07-31T07:36:01.540Z</when>
<when >2025-07-31T07:36:21.030Z</when>
<when >2025-07-31T07:36:40.920Z</when>
<when >2025-07-31T07:37:00.370Z</when>
<when >2025-07-31T07:37:20.230Z</when>
<when >2025-07-31T07:37:40.060Z</when>
<when >2025-07-31T07:37:59.960Z</when>
<when >2025-07-31T07:38:19.670Z</when>
<when >2025-07-31T07:38:39.410Z</when>
<when >2025-07-31T07:38:59.390Z</when>
<when >2025-07-31T07:39:18.970Z</when>
<when >2025-07-31T07:39:38.910Z</when>
<when >2025-07-31T07:39:58.290Z</when>
<when >2025-07-31T07:40:18.020Z</when>
<when >2025-07-31T07:40:37.670Z</when>
<when >2025-07-31T07:40:57.590Z</when>
<when >2025-07-31T07:41:17.220Z</when>
<when >2025-07-31T07:41:36.830Z</when>
<when >2025-07-31T07:41:56.750Z</when>
<when >2025-07-31T07:42:16.500Z</when>
<when >2025-07-31T07:42:36.090Z</when>
<when >2025-07-31T07:42:55.510Z</when>
<when >2025-07-31T07:43:15.340Z</when>
<when >2025-07-31T07:43:35.310Z</when>
<when >2025-07-31T07:43:54.990Z</when>
<when >2025-07-31T07:44:14.910Z</when>
<when >2025-07-31T07:44:34.710Z</when>
<when >2025-07-31T07:44:54.380Z</when>
<when >2025-07-31T07:45:14.340Z</when>
<when >2025-07-31T07:45:34.290Z</when>
<when >2025-07-31T07:45:53.760Z</when>
<when >2025-07-31T07:46:13.430Z</when>
<when >2025-07-31T07:46:33.120Z</when>
<when >2025-07-31T07:46:52.820Z</when>
<when >2025-07-31T07:47:12.760Z</when>
<when >2025-07-31T07:47:32.400Z</when>
<when >2025-07-31T07:47:51.910Z</when>
<when >2025-07-31T07:48:11.740Z</when>
<when >2025-07-31T07:48:31.580Z</when>
<when >2025-07-31T07:48:51.290Z</when>
<when >2025-07-31T07:49:11.160Z</when>
<when >2025-07-31T07:49:30.690Z</when>
<when >2025-07-31T07:49:50.490Z</when>
<when >2025-07-31T07:50:10.310Z</when>
<when >2025-07-31T07:50:30.290Z</when>
<when >2025-07-31T07:50:38.000Z</when>
<when >2025-07-31T07:50:44.640Z</when>
<when >2025-07-31T07:50:59.420Z</when>
<when >2025-07-31T07:51:14.040Z</when>
<when >2025-07-31T07:51:30.110Z</when>
<when >2025-07-31T07:51:37.290Z</when>
<when >2025-07-31T07:51:56.930Z</when>
<when >2025-07-31T07:52:16.770Z</when>
<when >2025-07-31T07:52:36.360Z</when>
<when >2025-07-31T07:52:54.090Z</when>
<when >2025-07-31T07:53:03.250Z</when>
<when >2025-07-31T07:53:11.840Z</when>
<when >2025-07-31T07:53:31.530Z</when>
<when >2025-07-31T07:53:51.500Z</when>
<when >2025-07-31T07:54:11.060Z</when>
<when >2025-07-31T07:54:30.920Z</when>
<when >2025-07-31T07:54:50.510Z</when>
<when >2025-07-31T07:55:10.430Z</when>
<when >2025-07-31T07:55:30.200Z</when>
<when >2025-07-31T07:55:50.090Z</when>
<when >2025-07-31T07:56:09.900Z</when>
<when >2025-07-31T07:56:29.410Z</when>
<when >2025-07-31T07:56:49.130Z</when>
<when >2025-07-31T07:57:08.980Z</when>
<when >2025-07-31T07:57:28.360Z</when>
<when >2025-07-31T07:57:48.130Z</when>
<when >2025-07-31T07:58:07.800Z</when>
<when >2025-07-31T07:58:27.350Z</when>
<when >2025-07-31T07:58:47.230Z</when>
<when >2025-07-31T07:59:06.930Z</when>
<when >2025-07-31T07:59:26.830Z</when>
<when >2025-07-31T07:59:46.610Z</when>
<when >2025-07-31T08:00:06.310Z</when>
<when >2025-07-31T08:00:26.270Z</when>
<when >2025-07-31T08:00:45.830Z</when>
<when >2025-07-31T08:01:05.640Z</when>
<when >2025-07-31T08:01:25.440Z</when>
<when >2025-07-31T08:01:44.980Z</when>
<when >2025-07-31T08:02:04.940Z</when>
<when >2025-07-31T08:02:24.510Z</when>
<when >2025-07-31T08:02:44.320Z</when>
<when >2025-07-31T08:03:03.970Z</when>
<when >2025-07-31T08:03:23.660Z</when>
<when >2025-07-31T08:03:42.980Z</when>
<when >2025-07-31T08:04:02.510Z</when>
<when >2025-07-31T08:04:22.200Z</when>
<when >2025-07-31T08:04:42.030Z</when>
<when >2025-07-31T08:05:01.630Z</when>
<when >2025-07-31T08:05:21.290Z</when>
<when >2025-07-31T08:05:40.770Z</when>
<when >2025-07-31T08:06:00.760Z</when>
<when >2025-07-31T08:06:20.690Z</when>
<when >2025-07-31T08:06:40.130Z</when>
<when >2025-07-31T08:06:59.680Z</when>
<when >2025-07-31T08:07:19.640Z</when>
<when >2025-07-31T08:07:39.150Z</when>
<when >2025-07-31T08:07:59.090Z</when>
<when >2025-07-31T08:08:18.830Z</when>
<when >2025-07-31T08:08:38.470Z</when>
<when >2025-07-31T08:08:58.130Z</when>
<when >2025-07-31T08:09:17.610Z</when>
<when >2025-07-31T08:09:37.510Z</when>
<when >2025-07-31T08:09:57.020Z</when>
<when >2025-07-31T08:10:16.750Z</when>
<when >2025-07-31T08:10:36.510Z</when>
<when >2025-07-31T08:10:56.090Z</when>
<when >2025-07-31T08:11:16.090Z</when>
<when >2025-07-31T08:11:35.760Z</when>
<when >2025-07-31T08:11:55.290Z</when>
<when >2025-07-31T08:12:15.020Z</when>
<when >2025-07-31T08:12:34.590Z</when>
<when >2025-07-31T08:12:54.210Z</when>
<when >2025-07-31T08:13:14.080Z</when>
<when >2025-07-31T08:13:33.790Z</when>
<when >2025-07-31T08:13:53.700Z</when>
<when >2025-07-31T08:14:13.290Z</when>
<when >2025-07-31T08:14:33.250Z</when>
<when >2025-07-31T08:14:53.110Z</when>
<when >2025-07-31T08:15:12.880Z</when>
<when >2025-07-31T08:15:23.930Z</when>
<when >2025-07-31T08:15:33.150Z</when>
<when >2025-07-31T08:15:42.170Z</when>
<when >2025-07-31T08:15:51.670Z</when>
<when >2025-07-31T08:16:11.600Z</when>
<when >2025-07-31T08:16:31.240Z</when>
<when >2025-07-31T08:16:51.010Z</when>
<when >2025-07-31T08:17:10.690Z</when>
<when >2025-07-31T08:17:30.660Z</when>
<when >2025-07-31T08:17:50.200Z</when>
<when >2025-07-31T08:18:10.070Z</when>
<when >2025-07-31T08:18:29.980Z</when>
<when >2025-07-31T08:18:49.620Z</when>
<when >2025-07-31T08:19:09.130Z</when>
<when >2025-07-31T08:19:28.670Z</when>
<when >2025-07-31T08:19:48.390Z</when>
<when >2025-07-31T08:20:08.130Z</when>
<when >2025-07-31T08:20:27.720Z</when>
<when >2025-07-31T08:20:47.290Z</when>
<when >2025-07-31T08:21:07.050Z</when>
<when >2025-07-31T08:21:19.060Z</when>
<when >2025-07-31T08:21:27.930Z</when>
<when >2025-07-31T08:21:37.350Z</when>
<when >2025-07-31T08:21:46.970Z</when>
<when >2025-07-31T08:21:55.780Z</when>
<when >2025-07-31T08:22:05.450Z</when>
<when >2025-07-31T08:22:14.520Z</when>
<when >2025-07-31T08:22:24.810Z</when>
<when >2025-07-31T08:22:35.080Z</when>
<when >2025-07-31T08:22:54.730Z</when>
<when >2025-07-31T08:23:14.270Z</when>
<when >2025-07-31T08:23:34.130Z</when>
<when >2025-07-31T08:23:53.920Z</when>
<when >2025-07-31T08:24:13.730Z</when>
<when >2025-07-31T08:24:33.670Z</when>
<when >2025-07-31T08:24:53.330Z</when>
<when >2025-07-31T08:25:13.260Z</when>
<when >2025-07-31T08:25:32.880Z</when>
<when >2025-07-31T08:25:52.540Z</when>
<when >2025-07-31T08:26:12.400Z</when>
<when >2025-07-31T08:26:31.980Z</when>
<when >2025-07-31T08:26:51.410Z</when>
<when >2025-07-31T08:27:11.180Z</when>
<when >2025-07-31T08:27:30.780Z</when>
<when >2025-07-31T08:27:50.740Z</when>
<when >2025-07-31T08:28:10.210Z</when>
<when >2025-07-31T08:28:29.970Z</when>
<when >2025-07-31T08:28:49.960Z</when>
<when >2025-07-31T08:29:09.450Z</when>
<when >2025-07-31T08:29:28.920Z</when>
<when >2025-07-31T08:29:48.470Z</when>
<when >2025-07-31T08:29:52.990Z</when>
<when >2025-07-31T08:30:00.050Z</when>
<when >2025-07-31T08:30:09.130Z</when>
<when >2025-07-31T08:30:21.000Z</when>
<when >2025-07-31T08:30:32.540Z</when>
<when >2025-07-31T08:30:43.750Z</when>
<when >2025-07-31T08:30:46.130Z</when>
<when >2025-07-31T08:30:48.360Z</when>
<when >2025-07-31T08:30:55.570Z</when>
<when >2025-07-31T08:31:02.000Z</when>
<when >2025-07-31T08:31:05.470Z</when>
<when >2025-07-31T08:31:06.020Z</when>
<when >2025-07-31T08:31:08.440Z</when>
<when >2025-07-31T08:31:18.130Z</when>
<when >2025-07-31T08:31:26.610Z</when>
<when >2025-07-31T08:31:33.940Z</when>
<when >2025-07-31T08:31:39.920Z</when>
<when >2025-07-31T08:31:48.710Z</when>
<when >2025-07-31T08:31:57.030Z</when>
<when >2025-07-31T08:32:07.820Z</when>
<when >2025-07-31T08:32:19.560Z</when>
<when >2025-07-31T08:32:28.230Z</when>
<when >2025-07-31T08:32:37.480Z</when>
<when >2025-07-31T08:32:43.690Z</when>
<when >2025-07-31T08:32:54.880Z</when>
<when >2025-07-31T08:33:02.220Z</when>
<when >2025-07-31T08:33:08.100Z</when>
<when >2025-07-31T08:33:14.500Z</when>
<when >2025-07-31T08:33:24.700Z</when>
<when >2025-07-31T08:33:35.080Z</when>
<when >2025-07-31T08:33:45.980Z</when>
<when >2025-07-31T08:33:54.550Z</when>
<when >2025-07-31T08:34:03.210Z</when>
<when >2025-07-31T08:34:10.070Z</when>
<when >2025-07-31T08:34:14.410Z</when>
<when >2025-07-31T08:34:26.480Z</when>
<when >2025-07-31T08:34:38.050Z</when>
<when >2025-07-31T08:34:47.990Z</when>
<when >2025-07-31T08:34:58.350Z</when>
<when >2025-07-31T08:35:08.930Z</when>
<when >2025-07-31T08:35:19.920Z</when>
<when >2025-07-31T08:35:31.020Z</when>
<when >2025-07-31T08:35:42.220Z</when>
<when >2025-07-31T08:35:53.230Z</when>
<when >2025-07-31T08:36:03.850Z</when>
<when >2025-07-31T08:36:14.780Z</when>
<when >2025-07-31T08:36:26.250Z</when>
<when >2025-07-31T08:36:37.190Z</when>
<when >2025-07-31T08:36:47.840Z</when>
<when >2025-07-31T08:36:58.560Z</when>
<when >2025-07-31T08:37:10.260Z</when>
<when >2025-07-31T08:37:22.990Z</when>
<when >2025-07-31T08:37:27.410Z</when>
<when >2025-07-31T08:37:38.470Z</when>
<when >2025-07-31T08:37:49.530Z</when>
<when >2025-07-31T08:38:00.240Z</when>
<when >2025-07-31T08:38:10.970Z</when>
<when >2025-07-31T08:38:21.880Z</when>
<when >2025-07-31T08:38:32.760Z</when>
<when >2025-07-31T08:38:44.060Z</when>
<when >2025-07-31T08:38:56.380Z</when>
<when >2025-07-31T08:39:07.860Z</when>
<when >2025-07-31T08:39:17.580Z</when>
<when >2025-07-31T08:39:21.840Z</when>
<when >2025-07-31T08:39:25.460Z</when>
<when >2025-07-31T08:39:28.780Z</when>
<when >2025-07-31T08:39:31.970Z</when>
<when >2025-07-31T08:39:35.470Z</when>
<when >2025-07-31T08:39:38.340Z</when>
<when >2025-07-31T08:39:43.940Z</when>
<when >2025-07-31T08:39:47.260Z</when>
<when >2025-07-31T08:39:49.160Z</when>
<when >2025-07-31T08:39:52.380Z</when>
<when >2025-07-31T08:39:54.370Z</when>
<when >2025-07-31T08:40:06.970Z</when>
<when >2025-07-31T08:40:18.640Z</when>
<when >2025-07-31T08:40:24.150Z</when>
<when >2025-07-31T08:40:28.600Z</when>
<when >2025-07-31T08:40:33.820Z</when>
<when >2025-07-31T08:40:38.450Z</when>
<when >2025-07-31T08:40:43.580Z</when>
<when >2025-07-31T08:40:49.060Z</when>
<when >2025-07-31T08:40:55.610Z</when>
<when >2025-07-31T08:41:01.580Z</when>
<when >2025-07-31T08:41:07.310Z</when>
<when >2025-07-31T08:41:13.820Z</when>
<when >2025-07-31T08:41:20.360Z</when>
<when >2025-07-31T08:41:27.420Z</when>
<when >2025-07-31T08:41:35.320Z</when>
<when >2025-07-31T08:41:43.910Z</when>
<when >2025-07-31T08:41:52.430Z</when>
<when >2025-07-31T08:41:59.610Z</when>
<when >2025-07-31T08:42:08.210Z</when>
<when >2025-07-31T08:42:16.110Z</when>
<when >2025-07-31T08:42:22.770Z</when>
<when >2025-07-31T08:42:29.950Z</when>
<when >2025-07-31T08:42:37.600Z</when>
<when >2025-07-31T08:42:46.210Z</when>
<when >2025-07-31T08:42:54.690Z</when>
<when >2025-07-31T08:43:03.130Z</when>
<when >2025-07-31T08:43:11.710Z</when>
<when >2025-07-31T08:43:18.950Z</when>
<when >2025-07-31T08:43:26.430Z</when>
<when >2025-07-31T08:43:33.960Z</when>
<when >2025-07-31T08:43:36.260Z</when>
<when >2025-07-31T08:43:45.950Z</when>
<when >2025-07-31T08:43:54.030Z</when>
<when >2025-07-31T08:44:01.340Z</when>
<when >2025-07-31T08:44:08.240Z</when>
<when >2025-07-31T08:44:14.970Z</when>
<when >2025-07-31T08:44:21.510Z</when>
<when >2025-07-31T08:44:27.150Z</when>
<when >2025-07-31T08:44:33.080Z</when>
<when >2025-07-31T08:44:40.140Z</when>
<when >2025-07-31T08:44:46.020Z</when>
<when >2025-07-31T08:44:51.750Z</when>
<when >2025-07-31T08:44:55.920Z</when>
<when >2025-07-31T08:44:58.990Z</when>
<when >2025-07-31T08:45:01.720Z</when>
<when >2025-07-31T08:45:04.370Z</when>
<when >2025-07-31T08:45:06.640Z</when>
<when >2025-07-31T08:45:08.980Z</when>
<when >2025-07-31T08:45:11.090Z</when>
<when >2025-07-31T08:45:12.960Z</when>
<when >2025-07-31T08:45:15.100Z</when>
<when >2025-07-31T08:45:17.210Z</when>
<when >2025-07-31T08:45:19.720Z</when>
<when >2025-07-31T08:45:22.990Z</when>
<when >2025-07-31T08:45:27.220Z</when>
<when >2025-07-31T08:45:31.060Z</when>
<when >2025-07-31T08:45:35.400Z</when>
<when >2025-07-31T08:45:39.460Z</when>
<when >2025-07-31T08:45:42.950Z</when>
<when >2025-07-31T08:45:46.460Z</when>
<when >2025-07-31T08:45:49.990Z</when>
<when >2025-07-31T08:45:53.700Z</when>
<when >2025-07-31T08:45:57.480Z</when>
<when >2025-07-31T08:46:01.830Z</when>
<when >2025-07-31T08:46:07.010Z</when>
<when >2025-07-31T08:46:13.110Z</when>
<when >2025-07-31T08:46:19.220Z</when>
<when >2025-07-31T08:46:25.330Z</when>
<when >2025-07-31T08:46:31.450Z</when>
<when >2025-07-31T08:46:37.400Z</when>
<when >2025-07-31T08:46:43.790Z</when>
<when >2025-07-31T08:46:49.780Z</when>
<when >2025-07-31T08:46:55.020Z</when>
<when >2025-07-31T08:46:59.630Z</when>
<when >2025-07-31T08:47:05.090Z</when>
<when >2025-07-31T08:47:11.560Z</when>
<when >2025-07-31T08:47:17.650Z</when>
<when >2025-07-31T08:47:24.940Z</when>
<when >2025-07-31T08:47:31.880Z</when>
<when >2025-07-31T08:47:38.290Z</when>
<when >2025-07-31T08:47:44.600Z</when>
<when >2025-07-31T08:47:51.100Z</when>
<when >2025-07-31T08:47:58.170Z</when>
<when >2025-07-31T08:48:05.320Z</when>
<when >2025-07-31T08:48:13.060Z</when>
<when >2025-07-31T08:48:19.150Z</when>
<when >2025-07-31T08:48:26.190Z</when>
<when >2025-07-31T08:48:33.740Z</when>
<when >2025-07-31T08:48:41.540Z</when>
<when >2025-07-31T08:48:49.630Z</when>
<when >2025-07-31T08:48:56.880Z</when>
<when >2025-07-31T08:49:04.850Z</when>
<when >2025-07-31T08:49:11.890Z</when>
<when >2025-07-31T08:49:19.390Z</when>
<when >2025-07-31T08:49:27.590Z</when>
<when >2025-07-31T08:49:34.800Z</when>
<when >2025-07-31T08:49:42.690Z</when>
<when >2025-07-31T08:49:49.960Z</when>
<when >2025-07-31T08:49:57.720Z</when>
<when >2025-07-31T08:50:05.030Z</when>
<when >2025-07-31T08:50:12.240Z</when>
<when >2025-07-31T08:50:19.460Z</when>
<when >2025-07-31T08:50:27.650Z</when>
<when >2025-07-31T08:50:35.100Z</when>
<when >2025-07-31T08:50:42.720Z</when>
<when >2025-07-31T08:50:50.440Z</when>
<when >2025-07-31T08:50:54.940Z</when>
<when >2025-07-31T08:51:01.320Z</when>
<when >2025-07-31T08:51:03.910Z</when>
<when >2025-07-31T08:51:05.030Z</when>
<when >2025-07-31T08:51:07.290Z</when>
<when >2025-07-31T08:51:08.360Z</when>
<when >2025-07-31T08:51:11.120Z</when>
<when >2025-07-31T08:51:11.120Z</when>
<gx:coord >12.251629 41.804718 2</gx:coord>
<gx:coord >12.250586 41.804422 -3</gx:coord>
<gx:coord >12.2495 41.804142 5</gx:coord>
<gx:coord >12.247446 41.803574 12</gx:coord>
<gx:coord >12.242328 41.8022 67</gx:coord>
<gx:coord >12.238195 41.80107 116</gx:coord>
<gx:coord >12.235149 41.800278 147</gx:coord>
<gx:coord >12.233027 41.799683 176</gx:coord>
<gx:coord >12.230343 41.79895 207</gx:coord>
<gx:coord >12.22872 41.798538 231</gx:coord>
<gx:coord >12.22657 41.797951 258</gx:coord>
<gx:coord >12.2241 41.797302 301</gx:coord>
<gx:coord >12.222162 41.796741 331</gx:coord>
<gx:coord >12.21998 41.796158 362</gx:coord>
<gx:coord >12.217883 41.795577 392</gx:coord>
<gx:coord >12.216286 41.795111 407</gx:coord>
<gx:coord >12.21322 41.793994 439</gx:coord>
<gx:coord >12.210282 41.79269 470</gx:coord>
<gx:coord >12.207407 41.791154 493</gx:coord>
<gx:coord >12.204725 41.789339 515</gx:coord>
<gx:coord >12.201659 41.787104 551</gx:coord>
<gx:coord >12.198657 41.78473 575</gx:coord>
<gx:coord >12.196073 41.782608 607</gx:coord>
<gx:coord >12.193264 41.780228 638</gx:coord>
<gx:coord >12.190992 41.778259 661</gx:coord>
<gx:coord >12.18799 41.775559 685</gx:coord>
<gx:coord >12.185371 41.773139 709</gx:coord>
<gx:coord >12.183963 41.771896 718</gx:coord>
<gx:coord >12.180964 41.769088 742</gx:coord>
<gx:coord >12.179111 41.76732 757</gx:coord>
<gx:coord >12.176492 41.764713 778</gx:coord>
<gx:coord >12.175036 41.763153 794</gx:coord>
<gx:coord >12.17266 41.76015 817</gx:coord>
<gx:coord >12.171353 41.758163 834</gx:coord>
<gx:coord >12.169793 41.755463 851</gx:coord>
<gx:coord >12.169275 41.754425 859</gx:coord>
<gx:coord >12.168125 41.751492 882</gx:coord>
<gx:coord >12.167296 41.748642 900</gx:coord>
<gx:coord >12.166734 41.745209 923</gx:coord>
<gx:coord >12.166592 41.741995 945</gx:coord>
<gx:coord >12.166672 41.73967 975</gx:coord>
<gx:coord >12.166921 41.736465 1006</gx:coord>
<gx:coord >12.167231 41.733336 1037</gx:coord>
<gx:coord >12.167733 41.729004 1070</gx:coord>
<gx:coord >12.16817 41.725159 1102</gx:coord>
<gx:coord >12.168508 41.721745 1133</gx:coord>
<gx:coord >12.168857 41.718063 1164</gx:coord>
<gx:coord >12.169293 41.714172 1196</gx:coord>
<gx:coord >12.169606 41.710144 1228</gx:coord>
<gx:coord >12.169918 41.706345 1262</gx:coord>
<gx:coord >12.170233 41.702752 1294</gx:coord>
<gx:coord >12.170542 41.69838 1328</gx:coord>
<gx:coord >12.170871 41.693441 1360</gx:coord>
<gx:coord >12.171191 41.688274 1392</gx:coord>
<gx:coord >12.171478 41.683044 1423</gx:coord>
<gx:coord >12.171702 41.677846 1454</gx:coord>
<gx:coord >12.171957 41.672539 1485</gx:coord>
<gx:coord >12.172227 41.666519 1520</gx:coord>
<gx:coord >12.172532 41.658527 1552</gx:coord>
<gx:coord >12.172727 41.653793 1575</gx:coord>
<gx:coord >12.172852 41.650613 1598</gx:coord>
<gx:coord >12.172976 41.647202 1628</gx:coord>
<gx:coord >12.173043 41.644561 1651</gx:coord>
<gx:coord >12.173171 41.641582 1680</gx:coord>
<gx:coord >12.173235 41.639022 1711</gx:coord>
<gx:coord >12.173363 41.636461 1744</gx:coord>
<gx:coord >12.173413 41.634338 1776</gx:coord>
<gx:coord >12.17349 41.632039 1799</gx:coord>
<gx:coord >12.173554 41.630689 1815</gx:coord>
<gx:coord >12.173663 41.628799 1845</gx:coord>
<gx:coord >12.173746 41.626266 1876</gx:coord>
<gx:coord >12.17385 41.624176 1907</gx:coord>
<gx:coord >12.173975 41.621658 1937</gx:coord>
<gx:coord >12.174065 41.618818 1970</gx:coord>
<gx:coord >12.174257 41.615792 2001</gx:coord>
<gx:coord >12.174412 41.611816 2033</gx:coord>
<gx:coord >12.174599 41.607925 2064</gx:coord>
<gx:coord >12.174787 41.604034 2098</gx:coord>
<gx:coord >12.174959 41.600244 2129</gx:coord>
<gx:coord >12.175161 41.596207 2160</gx:coord>
<gx:coord >12.175343 41.591864 2189</gx:coord>
<gx:coord >12.175534 41.587954 2222</gx:coord>
<gx:coord >12.175918 41.579947 2286</gx:coord>
<gx:coord >12.176098 41.575745 2312</gx:coord>
<gx:coord >12.176556 41.565702 2360</gx:coord>
<gx:coord >12.177159 41.553818 2406</gx:coord>
<gx:coord >12.177721 41.545074 2436</gx:coord>
<gx:coord >12.1786 41.539865 2452</gx:coord>
<gx:coord >12.179942 41.535582 2467</gx:coord>
<gx:coord >12.181528 41.531891 2483</gx:coord>
<gx:coord >12.183463 41.52832 2492</gx:coord>
<gx:coord >12.18596 41.524704 2510</gx:coord>
<gx:coord >12.189269 41.520813 2533</gx:coord>
<gx:coord >12.19278 41.517427 2547</gx:coord>
<gx:coord >12.196322 41.514404 2580</gx:coord>
<gx:coord >12.198976 41.512353 2603</gx:coord>
<gx:coord >12.201595 41.510444 2627</gx:coord>
<gx:coord >12.206997 41.506714 2681</gx:coord>
<gx:coord >12.212615 41.503052 2746</gx:coord>
<gx:coord >12.218713 41.499132 2804</gx:coord>
<gx:coord >12.224725 41.495224 2862</gx:coord>
<gx:coord >12.23259 41.490005 2924</gx:coord>
<gx:coord >12.241891 41.4841 2985</gx:coord>
<gx:coord >12.247883 41.480804 3024</gx:coord>
<gx:coord >12.253626 41.478104 3071</gx:coord>
<gx:coord >12.258698 41.476089 3111</gx:coord>
<gx:coord >12.264675 41.474167 3163</gx:coord>
<gx:coord >12.271791 41.47229 3226</gx:coord>
<gx:coord >12.274283 41.471759 3251</gx:coord>
<gx:coord >12.277094 41.471247 3266</gx:coord>
<gx:coord >12.280717 41.470596 3290</gx:coord>
<gx:coord >12.288591 41.469664 3326</gx:coord>
<gx:coord >12.295574 41.469223 3342</gx:coord>
<gx:coord >12.301816 41.469269 3366</gx:coord>
<gx:coord >12.308328 41.469664 3384</gx:coord>
<gx:coord >12.315237 41.470596 3405</gx:coord>
<gx:coord >12.320401 41.471666 3428</gx:coord>
<gx:coord >12.325786 41.473068 3453</gx:coord>
<gx:coord >12.332153 41.475311 3489</gx:coord>
<gx:coord >12.337646 41.477692 3519</gx:coord>
<gx:coord >12.343523 41.48079 3565</gx:coord>
<gx:coord >12.350755 41.485016 3627</gx:coord>
<gx:coord >12.359044 41.490008 3694</gx:coord>
<gx:coord >12.366901 41.494616 3760</gx:coord>
<gx:coord >12.383402 41.504105 3876</gx:coord>
<gx:coord >12.397177 41.511934 3968</gx:coord>
<gx:coord >12.403181 41.515937 4007</gx:coord>
<gx:coord >12.407589 41.519475 4045</gx:coord>
<gx:coord >12.411421 41.523106 4092</gx:coord>
<gx:coord >12.41555 41.527817 4149</gx:coord>
<gx:coord >12.418795 41.532303 4195</gx:coord>
<gx:coord >12.423813 41.540238 4272</gx:coord>
<gx:coord >12.431094 41.552434 4397</gx:coord>
<gx:coord >12.435774 41.559448 4467</gx:coord>
<gx:coord >12.439894 41.564667 4512</gx:coord>
<gx:coord >12.443741 41.568681 4554</gx:coord>
<gx:coord >12.44834 41.572778 4594</gx:coord>
<gx:coord >12.454025 41.577107 4643</gx:coord>
<gx:coord >12.464613 41.584351 4729</gx:coord>
<gx:coord >12.481938 41.595868 4852</gx:coord>
<gx:coord >12.499503 41.607599 4981</gx:coord>
<gx:coord >12.516813 41.61933 5096</gx:coord>
<gx:coord >12.532845 41.630316 5217</gx:coord>
<gx:coord >12.549836 41.642047 5347</gx:coord>
<gx:coord >12.56721 41.654011 5469</gx:coord>
<gx:coord >12.584456 41.665882 5598</gx:coord>
<gx:coord >12.601943 41.677917 5728</gx:coord>
<gx:coord >12.622333 41.691905 5842</gx:coord>
<gx:coord >12.642704 41.705887 5949</gx:coord>
<gx:coord >12.661119 41.718475 6063</gx:coord>
<gx:coord >12.680139 41.731428 6185</gx:coord>
<gx:coord >12.699301 41.744509 6299</gx:coord>
<gx:coord >12.713741 41.754364 6390</gx:coord>
<gx:coord >12.735773 41.769368 6497</gx:coord>
<gx:coord >12.756063 41.783295 6603</gx:coord>
<gx:coord >12.774992 41.796275 6718</gx:coord>
<gx:coord >12.794203 41.809433 6847</gx:coord>
<gx:coord >12.810995 41.820877 6916</gx:coord>
<gx:coord >12.832862 41.835798 7022</gx:coord>
<gx:coord >12.855814 41.85141 7121</gx:coord>
<gx:coord >12.878848 41.867065 7228</gx:coord>
<gx:coord >12.901207 41.88221 7335</gx:coord>
<gx:coord >12.923854 41.897598 7441</gx:coord>
<gx:coord >12.946077 41.912704 7541</gx:coord>
<gx:coord >12.969233 41.928437 7647</gx:coord>
<gx:coord >12.993696 41.945056 7746</gx:coord>
<gx:coord >13.020396 41.963165 7845</gx:coord>
<gx:coord >13.048075 41.98201 7937</gx:coord>
<gx:coord >13.075519 42.000546 8028</gx:coord>
<gx:coord >13.101009 42.017761 8127</gx:coord>
<gx:coord >13.126165 42.034698 8226</gx:coord>
<gx:coord >13.151384 42.051727 8325</gx:coord>
<gx:coord >13.177976 42.069626 8423</gx:coord>
<gx:coord >13.205941 42.088486 8515</gx:coord>
<gx:coord >13.234593 42.107803 8606</gx:coord>
<gx:coord >13.262496 42.126572 8690</gx:coord>
<gx:coord >13.290774 42.145603 8783</gx:coord>
<gx:coord >13.31709 42.163246 8874</gx:coord>
<gx:coord >13.344893 42.181824 8965</gx:coord>
<gx:coord >13.371192 42.199371 9065</gx:coord>
<gx:coord >13.386074 42.209938 9118</gx:coord>
<gx:coord >13.395954 42.217712 9148</gx:coord>
<gx:coord >13.405443 42.225998 9179</gx:coord>
<gx:coord >13.415329 42.235728 9217</gx:coord>
<gx:coord >13.436966 42.258179 9308</gx:coord>
<gx:coord >13.459875 42.281525 9392</gx:coord>
<gx:coord >13.485015 42.30672 9476</gx:coord>
<gx:coord >13.510756 42.332324 9561</gx:coord>
<gx:coord >13.53397 42.355499 9637</gx:coord>
<gx:coord >13.557895 42.379342 9721</gx:coord>
<gx:coord >13.583908 42.405304 9812</gx:coord>
<gx:coord >13.610063 42.431351 9897</gx:coord>
<gx:coord >13.635719 42.456985 9981</gx:coord>
<gx:coord >13.664757 42.485946 10057</gx:coord>
<gx:coord >13.69296 42.514114 10134</gx:coord>
<gx:coord >13.722243 42.543252 10203</gx:coord>
<gx:coord >13.748204 42.569046 10294</gx:coord>
<gx:coord >13.77286 42.593399 10386</gx:coord>
<gx:coord >13.799339 42.619644 10463</gx:coord>
<gx:coord >13.826544 42.646591 10547</gx:coord>
<gx:coord >13.853385 42.67305 10631</gx:coord>
<gx:coord >13.881663 42.701111 10699</gx:coord>
<gx:coord >13.90944 42.728622 10776</gx:coord>
<gx:coord >13.93801 42.756787 10860</gx:coord>
<gx:coord >13.965348 42.783555 10936</gx:coord>
<gx:coord >13.995863 42.813395 11005</gx:coord>
<gx:coord >14.028519 42.845444 11067</gx:coord>
<gx:coord >14.061519 42.877823 11136</gx:coord>
<gx:coord >14.091731 42.907523 11204</gx:coord>
<gx:coord >14.123186 42.938388 11273</gx:coord>
<gx:coord >14.156842 42.971283 11334</gx:coord>
<gx:coord >14.190567 43.004288 11341</gx:coord>
<gx:coord >14.223654 43.036697 11341</gx:coord>
<gx:coord >14.257252 43.069427 11334</gx:coord>
<gx:coord >14.290722 43.101837 11334</gx:coord>
<gx:coord >14.324894 43.134842 11334</gx:coord>
<gx:coord >14.358939 43.167664 11334</gx:coord>
<gx:coord >14.393005 43.20057 11334</gx:coord>
<gx:coord >14.426814 43.233296 11334</gx:coord>
<gx:coord >14.46082 43.266022 11334</gx:coord>
<gx:coord >14.494352 43.298309 11334</gx:coord>
<gx:coord >14.52883 43.331475 11341</gx:coord>
<gx:coord >14.562506 43.36377 11334</gx:coord>
<gx:coord >14.596383 43.396275 11334</gx:coord>
<gx:coord >14.62313 43.422112 11326</gx:coord>
<gx:coord >14.633661 43.433304 11326</gx:coord>
<gx:coord >14.642094 43.443293 11326</gx:coord>
<gx:coord >14.654127 43.458795 11326</gx:coord>
<gx:coord >14.680939 43.493895 11326</gx:coord>
<gx:coord >14.708458 43.529022 11326</gx:coord>
<gx:coord >14.736051 43.563492 11318</gx:coord>
<gx:coord >14.764252 43.598824 11318</gx:coord>
<gx:coord >14.791813 43.633621 11326</gx:coord>
<gx:coord >14.818987 43.668094 11318</gx:coord>
<gx:coord >14.846809 43.703293 11318</gx:coord>
<gx:coord >14.874147 43.738174 11318</gx:coord>
<gx:coord >14.901166 43.772736 11318</gx:coord>
<gx:coord >14.928589 43.807471 11318</gx:coord>
<gx:coord >14.955989 43.841827 11318</gx:coord>
<gx:coord >14.983978 43.876508 11318</gx:coord>
<gx:coord >15.011412 43.910706 11318</gx:coord>
<gx:coord >15.039564 43.945825 11318</gx:coord>
<gx:coord >15.06716 43.980227 11311</gx:coord>
<gx:coord >15.094321 44.014252 11311</gx:coord>
<gx:coord >15.121467 44.04808 11311</gx:coord>
<gx:coord >15.149125 44.082413 11303</gx:coord>
<gx:coord >15.176762 44.116718 11302</gx:coord>
<gx:coord >15.204293 44.151027 11310</gx:coord>
<gx:coord >15.232217 44.185662 11302</gx:coord>
<gx:coord >15.259742 44.219738 11310</gx:coord>
<gx:coord >15.287543 44.254 11295</gx:coord>
<gx:coord >15.315343 44.288542 11295</gx:coord>
<gx:coord >15.343454 44.323105 11302</gx:coord>
<gx:coord >15.371414 44.357346 11301</gx:coord>
<gx:coord >15.398813 44.390957 11301</gx:coord>
<gx:coord >15.426613 44.42508 11301</gx:coord>
<gx:coord >15.45428 44.459156 11301</gx:coord>
<gx:coord >15.481746 44.492906 11301</gx:coord>
<gx:coord >15.51008 44.527451 11294</gx:coord>
<gx:coord >15.537938 44.561325 11294</gx:coord>
<gx:coord >15.566254 44.59584 11293</gx:coord>
<gx:coord >15.59449 44.630236 11293</gx:coord>
<gx:coord >15.622827 44.664545 11300</gx:coord>
<gx:coord >15.651096 44.6989 11300</gx:coord>
<gx:coord >15.679299 44.733209 11300</gx:coord>
<gx:coord >15.707703 44.767704 11300</gx:coord>
<gx:coord >15.735771 44.801781 11300</gx:coord>
<gx:coord >15.764138 44.836166 11293</gx:coord>
<gx:coord >15.792043 44.869793 11285</gx:coord>
<gx:coord >15.820379 44.904009 11285</gx:coord>
<gx:coord >15.848432 44.93779 11277</gx:coord>
<gx:coord >15.877254 44.972395 11277</gx:coord>
<gx:coord >15.905591 45.006331 11277</gx:coord>
<gx:coord >15.933969 45.040375 11277</gx:coord>
<gx:coord >15.962666 45.074763 11277</gx:coord>
<gx:coord >15.991404 45.109165 11277</gx:coord>
<gx:coord >16.019963 45.143143 11277</gx:coord>
<gx:coord >16.048344 45.176834 11277</gx:coord>
<gx:coord >16.077706 45.211395 11270</gx:coord>
<gx:coord >16.107069 45.24614 11270</gx:coord>
<gx:coord >16.136303 45.28071 11270</gx:coord>
<gx:coord >16.165578 45.315438 11270</gx:coord>
<gx:coord >16.195221 45.350464 11270</gx:coord>
<gx:coord >16.224518 45.385254 11277</gx:coord>
<gx:coord >16.254473 45.420646 11277</gx:coord>
<gx:coord >16.284419 45.455795 11285</gx:coord>
<gx:coord >16.313913 45.490356 11285</gx:coord>
<gx:coord >16.343503 45.525063 11285</gx:coord>
<gx:coord >16.373045 45.559891 11270</gx:coord>
<gx:coord >16.402253 45.594406 11262</gx:coord>
<gx:coord >16.432465 45.6297 11254</gx:coord>
<gx:coord >16.462051 45.664114 11247</gx:coord>
<gx:coord >16.491349 45.698181 11247</gx:coord>
<gx:coord >16.521361 45.733109 11239</gx:coord>
<gx:coord >16.551439 45.767853 11239</gx:coord>
<gx:coord >16.581253 45.802374 11247</gx:coord>
<gx:coord >16.611395 45.837204 11254</gx:coord>
<gx:coord >16.64134 45.871811 11254</gx:coord>
<gx:coord >16.671616 45.906605 11254</gx:coord>
<gx:coord >16.702034 45.941566 11247</gx:coord>
<gx:coord >16.732714 45.976959 11247</gx:coord>
<gx:coord >16.744571 45.990646 11232</gx:coord>
<gx:coord >16.754768 46.002363 11209</gx:coord>
<gx:coord >16.777771 46.028804 11125</gx:coord>
<gx:coord >16.800105 46.054688 11041</gx:coord>
<gx:coord >16.824356 46.082794 10957</gx:coord>
<gx:coord >16.835275 46.095383 10942</gx:coord>
<gx:coord >16.865112 46.12973 10935</gx:coord>
<gx:coord >16.895668 46.164458 10928</gx:coord>
<gx:coord >16.926018 46.19886 10928</gx:coord>
<gx:coord >16.953378 46.230011 10928</gx:coord>
<gx:coord >16.966709 46.24649 10928</gx:coord>
<gx:coord >16.978134 46.261938 10928</gx:coord>
<gx:coord >17.003151 46.298401 10928</gx:coord>
<gx:coord >17.028809 46.335072 10928</gx:coord>
<gx:coord >17.054801 46.371368 10920</gx:coord>
<gx:coord >17.081131 46.407972 10920</gx:coord>
<gx:coord >17.106919 46.444427 10920</gx:coord>
<gx:coord >17.132767 46.481618 10928</gx:coord>
<gx:coord >17.158447 46.518627 10928</gx:coord>
<gx:coord >17.184814 46.555915 10920</gx:coord>
<gx:coord >17.211456 46.593018 10920</gx:coord>
<gx:coord >17.238029 46.629794 10913</gx:coord>
<gx:coord >17.26474 46.666617 10920</gx:coord>
<gx:coord >17.291677 46.704071 10920</gx:coord>
<gx:coord >17.317937 46.740692 10920</gx:coord>
<gx:coord >17.344528 46.77783 10920</gx:coord>
<gx:coord >17.371033 46.814746 10913</gx:coord>
<gx:coord >17.397453 46.851379 10905</gx:coord>
<gx:coord >17.424387 46.888764 10905</gx:coord>
<gx:coord >17.450821 46.92572 10905</gx:coord>
<gx:coord >17.477531 46.96312 10897</gx:coord>
<gx:coord >17.504105 47.000061 10890</gx:coord>
<gx:coord >17.531011 47.037033 10890</gx:coord>
<gx:coord >17.558212 47.074402 10890</gx:coord>
<gx:coord >17.584886 47.110958 10890</gx:coord>
<gx:coord >17.61214 47.148339 10890</gx:coord>
<gx:coord >17.639324 47.185302 10890</gx:coord>
<gx:coord >17.666222 47.222031 10897</gx:coord>
<gx:coord >17.693481 47.259739 10897</gx:coord>
<gx:coord >17.720329 47.296646 10890</gx:coord>
<gx:coord >17.74785 47.333757 10897</gx:coord>
<gx:coord >17.775104 47.370766 10890</gx:coord>
<gx:coord >17.802452 47.407654 10897</gx:coord>
<gx:coord >17.829437 47.444092 10890</gx:coord>
<gx:coord >17.856657 47.480629 10890</gx:coord>
<gx:coord >17.884052 47.517592 10890</gx:coord>
<gx:coord >17.911659 47.554973 10883</gx:coord>
<gx:coord >17.938957 47.591904 10891</gx:coord>
<gx:coord >17.96652 47.628851 10883</gx:coord>
<gx:coord >17.993889 47.665512 10875</gx:coord>
<gx:coord >18.022015 47.703195 10875</gx:coord>
<gx:coord >18.049988 47.74086 10883</gx:coord>
<gx:coord >18.07751 47.777446 10883</gx:coord>
<gx:coord >18.105812 47.814331 10883</gx:coord>
<gx:coord >18.135047 47.851557 10891</gx:coord>
<gx:coord >18.164203 47.887961 10875</gx:coord>
<gx:coord >18.193852 47.92511 10875</gx:coord>
<gx:coord >18.223079 47.962072 10875</gx:coord>
<gx:coord >18.252024 47.998802 10868</gx:coord>
<gx:coord >18.281113 48.035706 10868</gx:coord>
<gx:coord >18.310501 48.072235 10868</gx:coord>
<gx:coord >18.340407 48.10955 10868</gx:coord>
<gx:coord >18.369422 48.14614 10875</gx:coord>
<gx:coord >18.399136 48.183335 10875</gx:coord>
<gx:coord >18.42865 48.220642 10868</gx:coord>
<gx:coord >18.457971 48.257539 10868</gx:coord>
<gx:coord >18.488159 48.295441 10868</gx:coord>
<gx:coord >18.517738 48.332748 10868</gx:coord>
<gx:coord >18.547452 48.36973 10875</gx:coord>
<gx:coord >18.577736 48.407205 10868</gx:coord>
<gx:coord >18.607804 48.444354 10868</gx:coord>
<gx:coord >18.637883 48.481842 10860</gx:coord>
<gx:coord >18.668236 48.519745 10860</gx:coord>
<gx:coord >18.69859 48.557419 10860</gx:coord>
<gx:coord >18.729304 48.595369 10860</gx:coord>
<gx:coord >18.760167 48.633216 10868</gx:coord>
<gx:coord >18.791391 48.671482 10860</gx:coord>
<gx:coord >18.822616 48.709701 10860</gx:coord>
<gx:coord >18.854088 48.747894 10853</gx:coord>
<gx:coord >18.872199 48.768962 10854</gx:coord>
<gx:coord >18.888315 48.786163 10861</gx:coord>
<gx:coord >18.905147 48.802872 10854</gx:coord>
<gx:coord >18.923316 48.819534 10854</gx:coord>
<gx:coord >18.963992 48.855177 10861</gx:coord>
<gx:coord >19.00324 48.890184 10861</gx:coord>
<gx:coord >19.042546 48.925278 10869</gx:coord>
<gx:coord >19.081843 48.960342 10861</gx:coord>
<gx:coord >19.121775 48.996185 10861</gx:coord>
<gx:coord >19.160951 49.030912 10854</gx:coord>
<gx:coord >19.200921 49.066198 10854</gx:coord>
<gx:coord >19.240864 49.101654 10854</gx:coord>
<gx:coord >19.280428 49.136492 10854</gx:coord>
<gx:coord >19.31981 49.170822 10854</gx:coord>
<gx:coord >19.359356 49.205203 10854</gx:coord>
<gx:coord >19.399037 49.239838 10839</gx:coord>
<gx:coord >19.438829 49.27446 10839</gx:coord>
<gx:coord >19.478478 49.308701 10839</gx:coord>
<gx:coord >19.51779 49.343091 10832</gx:coord>
<gx:coord >19.557284 49.377914 10832</gx:coord>
<gx:coord >19.580806 49.399109 10832</gx:coord>
<gx:coord >19.597513 49.415294 10832</gx:coord>
<gx:coord >19.614282 49.4328 10832</gx:coord>
<gx:coord >19.630545 49.451111 10832</gx:coord>
<gx:coord >19.644422 49.468048 10832</gx:coord>
<gx:coord >19.658921 49.487217 10839</gx:coord>
<gx:coord >19.671392 49.505093 10839</gx:coord>
<gx:coord >19.684828 49.526088 10839</gx:coord>
<gx:coord >19.697113 49.547241 10839</gx:coord>
<gx:coord >19.719123 49.587537 10839</gx:coord>
<gx:coord >19.741318 49.627944 10840</gx:coord>
<gx:coord >19.764043 49.668869 10848</gx:coord>
<gx:coord >19.786897 49.709597 10848</gx:coord>
<gx:coord >19.810057 49.75047 10848</gx:coord>
<gx:coord >19.833358 49.79155 10848</gx:coord>
<gx:coord >19.855981 49.832291 10848</gx:coord>
<gx:coord >19.878796 49.873507 10840</gx:coord>
<gx:coord >19.90114 49.913961 10834</gx:coord>
<gx:coord >19.923706 49.954697 10834</gx:coord>
<gx:coord >19.946718 49.995707 10834</gx:coord>
<gx:coord >19.96982 50.036224 10834</gx:coord>
<gx:coord >19.992593 50.076475 10834</gx:coord>
<gx:coord >20.015754 50.117441 10834</gx:coord>
<gx:coord >20.038988 50.158081 10826</gx:coord>
<gx:coord >20.062594 50.199513 10827</gx:coord>
<gx:coord >20.085393 50.239838 10827</gx:coord>
<gx:coord >20.108841 50.281072 10827</gx:coord>
<gx:coord >20.132591 50.322601 10827</gx:coord>
<gx:coord >20.155648 50.363251 10820</gx:coord>
<gx:coord >20.178693 50.403737 10820</gx:coord>
<gx:coord >20.201906 50.444458 10807</gx:coord>
<gx:coord >20.207255 50.453705 10796</gx:coord>
<gx:coord >20.215783 50.468491 10752</gx:coord>
<gx:coord >20.226553 50.487396 10691</gx:coord>
<gx:coord >20.240528 50.511645 10569</gx:coord>
<gx:coord >20.254409 50.535666 10462</gx:coord>
<gx:coord >20.267697 50.558337 10354</gx:coord>
<gx:coord >20.270518 50.563225 10330</gx:coord>
<gx:coord >20.27319 50.567927 10290</gx:coord>
<gx:coord >20.281701 50.582611 10165</gx:coord>
<gx:coord >20.289224 50.595672 10043</gx:coord>
<gx:coord >20.293307 50.602748 9982</gx:coord>
<gx:coord >20.293975 50.603865 9975</gx:coord>
<gx:coord >20.29688 50.608932 9937</gx:coord>
<gx:coord >20.308372 50.628937 9799</gx:coord>
<gx:coord >20.318347 50.646194 9685</gx:coord>
<gx:coord >20.32702 50.661209 9563</gx:coord>
<gx:coord >20.334091 50.673554 9464</gx:coord>
<gx:coord >20.344543 50.691709 9342</gx:coord>
<gx:coord >20.354326 50.708588 9237</gx:coord>
<gx:coord >20.367126 50.730627 9122</gx:coord>
<gx:coord >20.380975 50.754227 9008</gx:coord>
<gx:coord >20.391219 50.771439 8909</gx:coord>
<gx:coord >20.401993 50.789935 8779</gx:coord>
<gx:coord >20.408936 50.801852 8703</gx:coord>
<gx:coord >20.421802 50.824265 8596</gx:coord>
<gx:coord >20.429077 50.838768 8520</gx:coord>
<gx:coord >20.43396 50.850499 8451</gx:coord>
<gx:coord >20.438156 50.863115 8369</gx:coord>
<gx:coord >20.444031 50.883784 8246</gx:coord>
<gx:coord >20.449905 50.904407 8124</gx:coord>
<gx:coord >20.456172 50.926071 8010</gx:coord>
<gx:coord >20.461121 50.942998 7895</gx:coord>
<gx:coord >20.466232 50.960036 7774</gx:coord>
<gx:coord >20.47035 50.973541 7689</gx:coord>
<gx:coord >20.472948 50.981964 7636</gx:coord>
<gx:coord >20.480149 51.005585 7523</gx:coord>
<gx:coord >20.487052 51.027786 7409</gx:coord>
<gx:coord >20.492991 51.046921 7287</gx:coord>
<gx:coord >20.499039 51.066595 7165</gx:coord>
<gx:coord >20.505239 51.086655 7043</gx:coord>
<gx:coord >20.511623 51.107391 6921</gx:coord>
<gx:coord >20.51796 51.128276 6807</gx:coord>
<gx:coord >20.524216 51.149085 6685</gx:coord>
<gx:coord >20.530319 51.169289 6571</gx:coord>
<gx:coord >20.536268 51.188736 6449</gx:coord>
<gx:coord >20.542374 51.208905 6327</gx:coord>
<gx:coord >20.548591 51.229568 6212</gx:coord>
<gx:coord >20.554678 51.249481 6090</gx:coord>
<gx:coord >20.560532 51.268585 5962</gx:coord>
<gx:coord >20.56633 51.287718 5840</gx:coord>
<gx:coord >20.572716 51.308578 5733</gx:coord>
<gx:coord >20.579545 51.330826 5634</gx:coord>
<gx:coord >20.58197 51.338553 5589</gx:coord>
<gx:coord >20.587921 51.357732 5467</gx:coord>
<gx:coord >20.593872 51.376785 5337</gx:coord>
<gx:coord >20.599662 51.395233 5215</gx:coord>
<gx:coord >20.605304 51.413498 5101</gx:coord>
<gx:coord >20.611038 51.432076 4979</gx:coord>
<gx:coord >20.616684 51.45079 4865</gx:coord>
<gx:coord >20.622526 51.469894 4735</gx:coord>
<gx:coord >20.629044 51.490779 4636</gx:coord>
<gx:coord >20.634922 51.509949 4523</gx:coord>
<gx:coord >20.640106 51.526112 4428</gx:coord>
<gx:coord >20.642865 51.5327 4375</gx:coord>
<gx:coord >20.646354 51.538788 4338</gx:coord>
<gx:coord >20.649917 51.543823 4290</gx:coord>
<gx:coord >20.653915 51.548457 4253</gx:coord>
<gx:coord >20.65918 51.553391 4212</gx:coord>
<gx:coord >20.66391 51.557209 4174</gx:coord>
<gx:coord >20.673746 51.564285 4087</gx:coord>
<gx:coord >20.679907 51.568451 4033</gx:coord>
<gx:coord >20.683517 51.570848 4010</gx:coord>
<gx:coord >20.689483 51.574814 3969</gx:coord>
<gx:coord >20.692972 51.577103 3953</gx:coord>
<gx:coord >20.716503 51.592575 3852</gx:coord>
<gx:coord >20.737686 51.606647 3739</gx:coord>
<gx:coord >20.747452 51.613257 3682</gx:coord>
<gx:coord >20.755623 51.618805 3617</gx:coord>
<gx:coord >20.764847 51.625082 3556</gx:coord>
<gx:coord >20.773291 51.630844 3495</gx:coord>
<gx:coord >20.782318 51.636999 3439</gx:coord>
<gx:coord >20.792368 51.64389 3378</gx:coord>
<gx:coord >20.804023 51.651855 3311</gx:coord>
<gx:coord >20.814667 51.659065 3244</gx:coord>
<gx:coord >20.824956 51.666092 3182</gx:coord>
<gx:coord >20.836258 51.673775 3121</gx:coord>
<gx:coord >20.847931 51.681736 3066</gx:coord>
<gx:coord >20.860365 51.690216 3000</gx:coord>
<gx:coord >20.874172 51.699554 2946</gx:coord>
<gx:coord >20.888944 51.709579 2901</gx:coord>
<gx:coord >20.903345 51.71933 2847</gx:coord>
<gx:coord >20.91568 51.72759 2794</gx:coord>
<gx:coord >20.930023 51.737226 2756</gx:coord>
<gx:coord >20.942762 51.74588 2717</gx:coord>
<gx:coord >20.953674 51.753204 2680</gx:coord>
<gx:coord >20.965042 51.760921 2649</gx:coord>
<gx:coord >20.977132 51.769043 2611</gx:coord>
<gx:coord >20.990345 51.778015 2565</gx:coord>
<gx:coord >21.003113 51.786667 2527</gx:coord>
<gx:coord >21.015881 51.795364 2482</gx:coord>
<gx:coord >21.028748 51.804075 2436</gx:coord>
<gx:coord >21.039338 51.811295 2383</gx:coord>
<gx:coord >21.05025 51.818756 2329</gx:coord>
<gx:coord >21.061236 51.826126 2273</gx:coord>
<gx:coord >21.064682 51.828422 2256</gx:coord>
<gx:coord >21.078796 51.837872 2215</gx:coord>
<gx:coord >21.090335 51.845627 2184</gx:coord>
<gx:coord >21.100579 51.852539 2154</gx:coord>
<gx:coord >21.110155 51.858994 2123</gx:coord>
<gx:coord >21.11936 51.865128 2094</gx:coord>
<gx:coord >21.128082 51.871017 2064</gx:coord>
<gx:coord >21.135635 51.876138 2033</gx:coord>
<gx:coord >21.143341 51.881398 2003</gx:coord>
<gx:coord >21.15242 51.887636 1972</gx:coord>
<gx:coord >21.159965 51.892776 1942</gx:coord>
<gx:coord >21.167123 51.897785 1916</gx:coord>
<gx:coord >21.171875 51.90152 1897</gx:coord>
<gx:coord >21.174892 51.904581 1873</gx:coord>
<gx:coord >21.177011 51.907374 1858</gx:coord>
<gx:coord >21.17858 51.910261 1841</gx:coord>
<gx:coord >21.179443 51.912728 1819</gx:coord>
<gx:coord >21.179886 51.91539 1804</gx:coord>
<gx:coord >21.179914 51.917616 1796</gx:coord>
<gx:coord >21.179581 51.919693 1789</gx:coord>
<gx:coord >21.178894 51.92189 1781</gx:coord>
<gx:coord >21.177874 51.923994 1766</gx:coord>
<gx:coord >21.176383 51.926414 1751</gx:coord>
<gx:coord >21.174029 51.929347 1728</gx:coord>
<gx:coord >21.170654 51.933105 1705</gx:coord>
<gx:coord >21.167594 51.936237 1674</gx:coord>
<gx:coord >21.164062 51.939915 1643</gx:coord>
<gx:coord >21.160924 51.943266 1610</gx:coord>
<gx:coord >21.158255 51.946153 1581</gx:coord>
<gx:coord >21.155744 51.949039 1548</gx:coord>
<gx:coord >21.153107 51.952057 1520</gx:coord>
<gx:coord >21.150487 51.955044 1487</gx:coord>
<gx:coord >21.14774 51.958349 1458</gx:coord>
<gx:coord >21.144679 51.961794 1425</gx:coord>
<gx:coord >21.14107 51.965984 1393</gx:coord>
<gx:coord >21.136932 51.970779 1363</gx:coord>
<gx:coord >21.132736 51.975677 1332</gx:coord>
<gx:coord >21.128514 51.980462 1301</gx:coord>
<gx:coord >21.124276 51.985349 1270</gx:coord>
<gx:coord >21.120148 51.990005 1235</gx:coord>
<gx:coord >21.115801 51.995079 1209</gx:coord>
<gx:coord >21.111679 51.999847 1179</gx:coord>
<gx:coord >21.10817 52.003922 1149</gx:coord>
<gx:coord >21.10505 52.007462 1125</gx:coord>
<gx:coord >21.101532 52.01152 1089</gx:coord>
<gx:coord >21.097488 52.016281 1058</gx:coord>
<gx:coord >21.09375 52.020538 1027</gx:coord>
<gx:coord >21.089355 52.025617 997</gx:coord>
<gx:coord >21.085196 52.030459 967</gx:coord>
<gx:coord >21.081351 52.034881 942</gx:coord>
<gx:coord >21.077506 52.03921 906</gx:coord>
<gx:coord >21.073739 52.043586 875</gx:coord>
<gx:coord >21.069502 52.048381 844</gx:coord>
<gx:coord >21.065369 52.053131 807</gx:coord>
<gx:coord >21.061105 52.058064 776</gx:coord>
<gx:coord >21.057731 52.061928 745</gx:coord>
<gx:coord >21.053885 52.06635 715</gx:coord>
<gx:coord >21.049881 52.070984 684</gx:coord>
<gx:coord >21.045685 52.075745 654</gx:coord>
<gx:coord >21.041412 52.080688 623</gx:coord>
<gx:coord >21.037563 52.085111 593</gx:coord>
<gx:coord >21.033404 52.089906 562</gx:coord>
<gx:coord >21.029715 52.094142 532</gx:coord>
<gx:coord >21.025713 52.098704 494</gx:coord>
<gx:coord >21.021476 52.103592 464</gx:coord>
<gx:coord >21.017609 52.107971 440</gx:coord>
<gx:coord >21.013412 52.112732 402</gx:coord>
<gx:coord >21.009521 52.117264 372</gx:coord>
<gx:coord >21.005389 52.122027 341</gx:coord>
<gx:coord >21.001465 52.126496 311</gx:coord>
<gx:coord >20.99762 52.130965 280</gx:coord>
<gx:coord >20.993696 52.135387 250</gx:coord>
<gx:coord >20.98938 52.140381 220</gx:coord>
<gx:coord >20.985378 52.144931 196</gx:coord>
<gx:coord >20.981293 52.149536 159</gx:coord>
<gx:coord >20.977325 52.15416 129</gx:coord>
<gx:coord >20.974862 52.156988 118</gx:coord>
<gx:coord >20.971645 52.160619 113</gx:coord>
<gx:coord >20.970154 52.162308 105</gx:coord>
<gx:coord >20.969683 52.162853 105</gx:coord>
<gx:coord >20.968584 52.16411 105</gx:coord>
<gx:coord >20.968113 52.164622 105</gx:coord>
<gx:coord >20.967093 52.165833 105</gx:coord>
<gx:coord >20.967093 52.165833 105</gx:coord>
</gx:Track>
</Placemark>
<Placemark ><name >9H-WBI</name>
<Style ><LineStyle ><color >ff1c1ae3</color>
<width >4</width>
</LineStyle>
<IconStyle ><Icon ><href >http://maps.google.com/mapfiles/kml/shapes/airports.png</href>
</Icon>
</IconStyle>
</Style>
<gx:Track ><extrude >0</extrude>
<when >2025-07-31T08:51:15.100Z</when>
<when >2025-07-31T08:51:18.630Z</when>
<when >2025-07-31T08:51:19.890Z</when>
<when >2025-07-31T08:51:20.820Z</when>
<when >2025-07-31T08:51:22.430Z</when>
<when >2025-07-31T08:51:23.140Z</when>
<when >2025-07-31T08:51:23.710Z</when>
<when >2025-07-31T08:51:25.680Z</when>
<when >2025-07-31T08:51:26.910Z</when>
<when >2025-07-31T08:51:30.760Z</when>
<when >2025-07-31T08:51:32.630Z</when>
<when >2025-07-31T08:51:34.810Z</when>
<when >2025-07-31T08:51:36.510Z</when>
<when >2025-07-31T08:51:38.600Z</when>
<when >2025-07-31T08:51:41.610Z</when>
<when >2025-07-31T08:51:47.650Z</when>
<when >2025-07-31T08:51:53.700Z</when>
<when >2025-07-31T08:51:57.660Z</when>
<when >2025-07-31T08:52:03.750Z</when>
<when >2025-07-31T08:52:07.090Z</when>
<when >2025-07-31T08:52:09.210Z</when>
<when >2025-07-31T08:52:11.150Z</when>
<when >2025-07-31T08:52:12.550Z</when>
<when >2025-07-31T08:52:14.560Z</when>
<when >2025-07-31T08:52:16.650Z</when>
<when >2025-07-31T08:52:18.930Z</when>
<when >2025-07-31T08:52:21.620Z</when>
<when >2025-07-31T08:52:26.570Z</when>
<when >2025-07-31T08:52:32.320Z</when>
<when >2025-07-31T08:52:40.090Z</when>
<when >2025-07-31T08:52:46.750Z</when>
<when >2025-07-31T08:52:49.410Z</when>
<when >2025-07-31T08:52:52.030Z</when>
<when >2025-07-31T08:52:53.010Z</when>
<when >2025-07-31T08:52:54.920Z</when>
<when >2025-07-31T08:52:56.370Z</when>
<when >2025-07-31T08:52:58.700Z</when>
<when >2025-07-31T08:53:00.750Z</when>
<when >2025-07-31T08:53:03.060Z</when>
<when >2025-07-31T08:53:04.950Z</when>
<when >2025-07-31T08:53:06.860Z</when>
<when >2025-07-31T08:53:09.350Z</when>
<when >2025-07-31T08:53:11.850Z</when>
<when >2025-07-31T08:53:15.810Z</when>
<when >2025-07-31T08:53:21.280Z</when>
<when >2025-07-31T08:53:28.260Z</when>
<when >2025-07-31T08:53:38.180Z</when>
<when >2025-07-31T08:53:46.820Z</when>
<when >2025-07-31T08:53:54.700Z</when>
<when >2025-07-31T08:54:01.090Z</when>
<when >2025-07-31T08:54:08.160Z</when>
<when >2025-07-31T08:54:14.710Z</when>
<when >2025-07-31T08:54:21.350Z</when>
<when >2025-07-31T08:54:27.650Z</when>
<when >2025-07-31T08:54:47.170Z</when>
<when >2025-07-31T08:55:07.150Z</when>
<when >2025-07-31T08:55:23.790Z</when>
<when >2025-07-31T08:55:31.920Z</when>
<when >2025-07-31T08:55:39.020Z</when>
<when >2025-07-31T08:55:45.870Z</when>
<when >2025-07-31T08:55:52.460Z</when>
<when >2025-07-31T08:55:57.500Z</when>
<when >2025-07-31T08:56:02.740Z</when>
<when >2025-07-31T08:56:05.210Z</when>
<when >2025-07-31T08:56:07.820Z</when>
<when >2025-07-31T08:57:13.960Z</when>
<when >2025-07-31T08:57:18.480Z</when>
<when >2025-07-31T08:57:36.730Z</when>
<when >2025-07-31T08:57:42.880Z</when>
<when >2025-07-31T08:57:49.440Z</when>
<when >2025-07-31T08:57:54.580Z</when>
<when >2025-07-31T08:58:00.830Z</when>
<when >2025-07-31T08:58:12.670Z</when>
<when >2025-07-31T08:58:18.340Z</when>
<when >2025-07-31T08:58:45.620Z</when>
<when >2025-07-31T08:59:02.010Z</when>
<when >2025-07-31T08:59:21.900Z</when>
<when >2025-07-31T08:59:21.900Z</when>
<gx:coord >20.965563 52.167555 0</gx:coord>
<gx:coord >20.964527 52.168751 0</gx:coord>
<gx:coord >20.96419 52.169138 0</gx:coord>
<gx:coord >20.963936 52.169415 0</gx:coord>
<gx:coord >20.963707 52.169689 0</gx:coord>
<gx:coord >20.963478 52.169952 0</gx:coord>
<gx:coord >20.963366 52.17008 0</gx:coord>
<gx:coord >20.963013 52.170546 0</gx:coord>
<gx:coord >20.962906 52.170742 0</gx:coord>
<gx:coord >20.962601 52.171429 0</gx:coord>
<gx:coord >20.962524 52.171726 0</gx:coord>
<gx:coord >20.962483 52.172001 0</gx:coord>
<gx:coord >20.962463 52.172222 0</gx:coord>
<gx:coord >20.962448 52.172436 0</gx:coord>
<gx:coord >20.962463 52.172687 0</gx:coord>
<gx:coord >20.962467 52.173088 0</gx:coord>
<gx:coord >20.962503 52.173409 0</gx:coord>
<gx:coord >20.962503 52.173525 0</gx:coord>
<gx:coord >20.962524 52.173637 0</gx:coord>
<gx:coord >20.962561 52.173723 0</gx:coord>
<gx:coord >20.962601 52.173775 0</gx:coord>
<gx:coord >20.962677 52.17382 0</gx:coord>
<gx:coord >20.962718 52.173863 0</gx:coord>
<gx:coord >20.962811 52.173912 0</gx:coord>
<gx:coord >20.962915 52.173944 0</gx:coord>
<gx:coord >20.963058 52.173992 0</gx:coord>
<gx:coord >20.963209 52.174049 0</gx:coord>
<gx:coord >20.963535 52.174164 0</gx:coord>
<gx:coord >20.963954 52.174305 0</gx:coord>
<gx:coord >20.964563 52.174503 0</gx:coord>
<gx:coord >20.965073 52.174654 0</gx:coord>
<gx:coord >20.965233 52.174679 0</gx:coord>
<gx:coord >20.965347 52.174689 0</gx:coord>
<gx:coord >20.965405 52.174679 0</gx:coord>
<gx:coord >20.965519 52.174667 0</gx:coord>
<gx:coord >20.965576 52.174633 0</gx:coord>
<gx:coord >20.965681 52.174608 0</gx:coord>
<gx:coord >20.965748 52.174564 0</gx:coord>
<gx:coord >20.965818 52.174526 0</gx:coord>
<gx:coord >20.965862 52.174484 0</gx:coord>
<gx:coord >20.9659 52.17445 0</gx:coord>
<gx:coord >20.965939 52.174404 0</gx:coord>
<gx:coord >20.965996 52.174347 0</gx:coord>
<gx:coord >20.966072 52.174255 0</gx:coord>
<gx:coord >20.966191 52.17413 0</gx:coord>
<gx:coord >20.966348 52.173933 0</gx:coord>
<gx:coord >20.966682 52.173569 0</gx:coord>
<gx:coord >20.967015 52.173188 0</gx:coord>
<gx:coord >20.967348 52.172804 0</gx:coord>
<gx:coord >20.967636 52.17247 0</gx:coord>
<gx:coord >20.967999 52.172081 0</gx:coord>
<gx:coord >20.96831 52.17171 0</gx:coord>
<gx:coord >20.968584 52.171407 0</gx:coord>
<gx:coord >20.968723 52.171234 0</gx:coord>
<gx:coord >20.968933 52.171005 0</gx:coord>
<gx:coord >20.969105 52.170799 0</gx:coord>
<gx:coord >20.969291 52.170604 0</gx:coord>
<gx:coord >20.969506 52.17036 0</gx:coord>
<gx:coord >20.969781 52.170022 0</gx:coord>
<gx:coord >20.970116 52.169655 0</gx:coord>
<gx:coord >20.970448 52.169266 0</gx:coord>
<gx:coord >20.970726 52.168945 0</gx:coord>
<gx:coord >20.970978 52.168661 0</gx:coord>
<gx:coord >20.971069 52.168568 0</gx:coord>
<gx:coord >20.971107 52.16851 0</gx:coord>
<gx:coord >20.971127 52.168488 0</gx:coord>
<gx:coord >20.971127 52.168488 0</gx:coord>
<gx:coord >20.971031 52.168407 0</gx:coord>
<gx:coord >20.97084 52.168339 0</gx:coord>
<gx:coord >20.970664 52.168277 0</gx:coord>
<gx:coord >20.970497 52.168236 0</gx:coord>
<gx:coord >20.970232 52.168277 0</gx:coord>
<gx:coord >20.969938 52.168288 0</gx:coord>
<gx:coord >20.96982 52.168288 0</gx:coord>
<gx:coord >20.969734 52.168293 0</gx:coord>
<gx:coord >20.969734 52.168293 0</gx:coord>
<gx:coord >20.969734 52.168293 0</gx:coord>
<gx:coord >20.969734 52.168293 0</gx:coord>
</gx:Track>
</Placemark>
</Folder>
</Folder>
</kml>
