<?xml version="1.0" encoding="UTF-8"?>
<kml xmlns="http://www.opengis.net/kml/2.2" xmlns:gx="http://www.google.com/kml/ext/2.2"><Folder ><Folder ><name >9H-WMI track</name>
<Placemark ><name >9H-WMI</name>
<Style ><LineStyle ><color >ff1c1ae3</color>
<width >4</width>
</LineStyle>
<IconStyle ><Icon ><href >http://maps.google.com/mapfiles/kml/shapes/airports.png</href>
</Icon>
</IconStyle>
</Style>
<gx:Track ><extrude >0</extrude>
<when >2025-08-23T15:32:24.920Z</when>
<when >2025-08-23T15:33:25.320Z</when>
<when >2025-08-23T15:33:59.720Z</when>
<when >2025-08-23T15:34:11.370Z</when>
<when >2025-08-23T15:34:31.820Z</when>
<when >2025-08-23T15:34:47.480Z</when>
<when >2025-08-23T15:34:52.850Z</when>
<when >2025-08-23T15:34:57.640Z</when>
<when >2025-08-23T15:35:00.250Z</when>
<when >2025-08-23T15:35:02.600Z</when>
<when >2025-08-23T15:35:04.740Z</when>
<when >2025-08-23T15:35:08.150Z</when>
<when >2025-08-23T15:35:13.000Z</when>
<when >2025-08-23T15:35:17.920Z</when>
<when >2025-08-23T15:35:25.570Z</when>
<when >2025-08-23T15:35:33.610Z</when>
<when >2025-08-23T15:35:38.670Z</when>
<when >2025-08-23T15:35:42.820Z</when>
<when >2025-08-23T15:35:48.620Z</when>
<when >2025-08-23T15:35:54.000Z</when>
<when >2025-08-23T15:35:57.280Z</when>
<when >2025-08-23T15:36:03.480Z</when>
<when >2025-08-23T15:36:06.850Z</when>
<when >2025-08-23T15:36:09.890Z</when>
<when >2025-08-23T15:36:13.140Z</when>
<when >2025-08-23T15:36:19.510Z</when>
<when >2025-08-23T15:36:28.910Z</when>
<when >2025-08-23T15:36:33.000Z</when>
<when >2025-08-23T15:36:39.290Z</when>
<when >2025-08-23T15:36:41.710Z</when>
<when >2025-08-23T15:36:48.290Z</when>
<when >2025-08-23T15:36:54.810Z</when>
<when >2025-08-23T15:36:58.720Z</when>
<when >2025-08-23T15:37:04.730Z</when>
<when >2025-08-23T15:37:09.390Z</when>
<when >2025-08-23T15:37:12.350Z</when>
<when >2025-08-23T15:37:17.280Z</when>
<when >2025-08-23T15:37:22.770Z</when>
<when >2025-08-23T15:37:28.480Z</when>
<when >2025-08-23T15:37:36.100Z</when>
<when >2025-08-23T15:37:40.520Z</when>
<when >2025-08-23T15:37:44.120Z</when>
<when >2025-08-23T15:37:48.000Z</when>
<when >2025-08-23T15:37:53.650Z</when>
<when >2025-08-23T15:37:58.890Z</when>
<when >2025-08-23T15:38:02.950Z</when>
<when >2025-08-23T15:38:05.940Z</when>
<when >2025-08-23T15:38:09.410Z</when>
<when >2025-08-23T15:38:14.310Z</when>
<when >2025-08-23T15:38:19.190Z</when>
<when >2025-08-23T15:38:22.370Z</when>
<when >2025-08-23T15:38:25.570Z</when>
<when >2025-08-23T15:38:28.650Z</when>
<when >2025-08-23T15:38:31.680Z</when>
<when >2025-08-23T15:38:35.000Z</when>
<when >2025-08-23T15:38:41.100Z</when>
<when >2025-08-23T15:38:47.530Z</when>
<when >2025-08-23T15:38:50.550Z</when>
<when >2025-08-23T15:38:53.960Z</when>
<when >2025-08-23T15:38:57.140Z</when>
<when >2025-08-23T15:38:58.390Z</when>
<when >2025-08-23T15:39:03.890Z</when>
<when >2025-08-23T15:39:13.660Z</when>
<when >2025-08-23T15:39:19.540Z</when>
<when >2025-08-23T15:39:32.260Z</when>
<when >2025-08-23T15:39:34.120Z</when>
<when >2025-08-23T15:39:38.060Z</when>
<when >2025-08-23T15:39:42.960Z</when>
<when >2025-08-23T15:39:45.990Z</when>
<when >2025-08-23T15:39:47.480Z</when>
<when >2025-08-23T15:39:50.810Z</when>
<when >2025-08-23T15:39:52.220Z</when>
<when >2025-08-23T15:39:54.300Z</when>
<when >2025-08-23T15:39:54.300Z</when>
<when >2025-08-23T15:39:55.910Z</when>
<when >2025-08-23T15:39:55.910Z</when>
<when >2025-08-23T15:39:57.540Z</when>
<when >2025-08-23T15:39:57.540Z</when>
<when >2025-08-23T15:39:59.010Z</when>
<when >2025-08-23T15:39:59.010Z</when>
<gx:coord >20.965023 52.173717 0</gx:coord>
<gx:coord >20.965014 52.173711 0</gx:coord>
<gx:coord >20.965023 52.173717 0</gx:coord>
<gx:coord >20.965014 52.173711 0</gx:coord>
<gx:coord >20.965004 52.173683 0</gx:coord>
<gx:coord >20.964818 52.173549 0</gx:coord>
<gx:coord >20.9647 52.173502 0</gx:coord>
<gx:coord >20.964523 52.173432 0</gx:coord>
<gx:coord >20.96447 52.173306 0</gx:coord>
<gx:coord >20.964602 52.173176 0</gx:coord>
<gx:coord >20.9647 52.173071 0</gx:coord>
<gx:coord >20.964699 52.173088 0</gx:coord>
<gx:coord >20.964778 52.173002 0</gx:coord>
<gx:coord >20.965014 52.172746 0</gx:coord>
<gx:coord >20.965328 52.172385 0</gx:coord>
<gx:coord >20.965543 52.17214 0</gx:coord>
<gx:coord >20.9659 52.171738 0</gx:coord>
<gx:coord >20.96623 52.171361 0</gx:coord>
<gx:coord >20.966426 52.171128 0</gx:coord>
<gx:coord >20.966682 52.170834 0</gx:coord>
<gx:coord >20.966956 52.170534 0</gx:coord>
<gx:coord >20.967191 52.170243 0</gx:coord>
<gx:coord >20.967503 52.169895 0</gx:coord>
<gx:coord >20.967655 52.169712 0</gx:coord>
<gx:coord >20.967937 52.169405 0</gx:coord>
<gx:coord >20.968427 52.168824 0</gx:coord>
<gx:coord >20.969114 52.168055 0</gx:coord>
<gx:coord >20.969391 52.167732 0</gx:coord>
<gx:coord >20.969677 52.167412 0</gx:coord>
<gx:coord >20.970016 52.167008 0</gx:coord>
<gx:coord >20.97023 52.166782 0</gx:coord>
<gx:coord >20.970764 52.166576 0</gx:coord>
<gx:coord >20.970801 52.166566 0</gx:coord>
<gx:coord >20.971311 52.166438 0</gx:coord>
<gx:coord >20.972137 52.166199 0</gx:coord>
<gx:coord >20.97239 52.166135 0</gx:coord>
<gx:coord >20.973034 52.165947 0</gx:coord>
<gx:coord >20.97345 52.165821 0</gx:coord>
<gx:coord >20.973759 52.165741 0</gx:coord>
<gx:coord >20.974901 52.165425 0</gx:coord>
<gx:coord >20.975019 52.16539 0</gx:coord>
<gx:coord >20.975706 52.165192 0</gx:coord>
<gx:coord >20.976353 52.165006 0</gx:coord>
<gx:coord >20.976981 52.164832 0</gx:coord>
<gx:coord >20.977628 52.164645 0</gx:coord>
<gx:coord >20.978178 52.164494 0</gx:coord>
<gx:coord >20.978825 52.164308 0</gx:coord>
<gx:coord >20.979309 52.164173 0</gx:coord>
<gx:coord >20.979885 52.164017 0</gx:coord>
<gx:coord >20.98063 52.163807 0</gx:coord>
<gx:coord >20.981101 52.163679 0</gx:coord>
<gx:coord >20.981631 52.163528 0</gx:coord>
<gx:coord >20.982208 52.163361 0</gx:coord>
<gx:coord >20.982933 52.163166 0</gx:coord>
<gx:coord >20.983239 52.163074 0</gx:coord>
<gx:coord >20.984135 52.162823 0</gx:coord>
<gx:coord >20.984515 52.162702 0</gx:coord>
<gx:coord >20.984632 52.162632 0</gx:coord>
<gx:coord >20.98473 52.162492 0</gx:coord>
<gx:coord >20.984726 52.162308 0</gx:coord>
<gx:coord >20.984688 52.162228 0</gx:coord>
<gx:coord >20.984573 52.162097 0</gx:coord>
<gx:coord >20.984142 52.161515 0</gx:coord>
<gx:coord >20.984024 52.161364 0</gx:coord>
<gx:coord >20.983671 52.161154 0</gx:coord>
<gx:coord >20.983357 52.161201 0</gx:coord>
<gx:coord >20.983143 52.161266 0</gx:coord>
<gx:coord >20.982867 52.161329 0</gx:coord>
<gx:coord >20.982572 52.16141 0</gx:coord>
<gx:coord >20.982399 52.161461 0</gx:coord>
<gx:coord >20.981886 52.161608 0</gx:coord>
<gx:coord >20.981493 52.161724 0</gx:coord>
<gx:coord >20.981199 52.161806 0</gx:coord>
<gx:coord >20.980663 52.161953 0</gx:coord>
<gx:coord >20.980263 52.162067 0</gx:coord>
<gx:coord >20.980061 52.16212 0</gx:coord>
<gx:coord >20.979826 52.16219 0</gx:coord>
<gx:coord >20.979061 52.162411 0</gx:coord>
<gx:coord >20.97826 52.162628 0</gx:coord>
<gx:coord >20.97826 52.162628 0</gx:coord>
</gx:Track>
</Placemark>
<Placemark ><name >9H-WMI</name>
<Style ><LineStyle ><color >ff1c1ae3</color>
<width >4</width>
</LineStyle>
<IconStyle ><Icon ><href >http://maps.google.com/mapfiles/kml/shapes/airports.png</href>
</Icon>
</IconStyle>
</Style>
<gx:Track ><altitudeMode >absolute</altitudeMode>
<extrude >1</extrude>
<when >2025-08-23T15:40:00.530Z</when>
<when >2025-08-23T15:40:02.250Z</when>
<when >2025-08-23T15:40:04.010Z</when>
<when >2025-08-23T15:40:07.160Z</when>
<when >2025-08-23T15:40:10.280Z</when>
<when >2025-08-23T15:40:13.400Z</when>
<when >2025-08-23T15:40:16.680Z</when>
<when >2025-08-23T15:40:19.460Z</when>
<when >2025-08-23T15:40:20.300Z</when>
<when >2025-08-23T15:40:21.120Z</when>
<when >2025-08-23T15:40:21.390Z</when>
<when >2025-08-23T15:40:24.140Z</when>
<when >2025-08-23T15:40:25.220Z</when>
<when >2025-08-23T15:40:27.890Z</when>
<when >2025-08-23T15:40:30.430Z</when>
<when >2025-08-23T15:40:32.390Z</when>
<when >2025-08-23T15:40:34.250Z</when>
<when >2025-08-23T15:40:37.030Z</when>
<when >2025-08-23T15:40:38.770Z</when>
<when >2025-08-23T15:40:41.840Z</when>
<when >2025-08-23T15:40:43.800Z</when>
<when >2025-08-23T15:40:46.640Z</when>
<when >2025-08-23T15:40:48.350Z</when>
<when >2025-08-23T15:40:50.130Z</when>
<when >2025-08-23T15:40:52.780Z</when>
<when >2025-08-23T15:40:55.190Z</when>
<when >2025-08-23T15:40:58.330Z</when>
<when >2025-08-23T15:41:00.470Z</when>
<when >2025-08-23T15:41:03.390Z</when>
<when >2025-08-23T15:41:05.920Z</when>
<when >2025-08-23T15:41:07.840Z</when>
<when >2025-08-23T15:41:10.890Z</when>
<when >2025-08-23T15:41:12.980Z</when>
<when >2025-08-23T15:41:15.940Z</when>
<when >2025-08-23T15:41:17.620Z</when>
<when >2025-08-23T15:41:19.980Z</when>
<when >2025-08-23T15:41:22.220Z</when>
<when >2025-08-23T15:41:25.300Z</when>
<when >2025-08-23T15:41:26.780Z</when>
<when >2025-08-23T15:41:29.910Z</when>
<when >2025-08-23T15:41:32.310Z</when>
<when >2025-08-23T15:41:35.400Z</when>
<when >2025-08-23T15:41:37.990Z</when>
<when >2025-08-23T15:41:41.100Z</when>
<when >2025-08-23T15:41:44.080Z</when>
<when >2025-08-23T15:41:47.380Z</when>
<when >2025-08-23T15:41:51.360Z</when>
<when >2025-08-23T15:41:54.530Z</when>
<when >2025-08-23T15:41:57.940Z</when>
<when >2025-08-23T15:42:01.250Z</when>
<when >2025-08-23T15:42:05.170Z</when>
<when >2025-08-23T15:42:09.580Z</when>
<when >2025-08-23T15:42:13.450Z</when>
<when >2025-08-23T15:42:15.760Z</when>
<when >2025-08-23T15:42:18.740Z</when>
<when >2025-08-23T15:42:21.570Z</when>
<when >2025-08-23T15:42:25.410Z</when>
<when >2025-08-23T15:42:25.890Z</when>
<when >2025-08-23T15:42:29.010Z</when>
<when >2025-08-23T15:42:32.170Z</when>
<when >2025-08-23T15:42:35.330Z</when>
<when >2025-08-23T15:42:38.380Z</when>
<when >2025-08-23T15:42:41.070Z</when>
<when >2025-08-23T15:42:41.600Z</when>
<when >2025-08-23T15:42:44.890Z</when>
<when >2025-08-23T15:42:47.030Z</when>
<when >2025-08-23T15:42:48.980Z</when>
<when >2025-08-23T15:42:51.460Z</when>
<when >2025-08-23T15:42:54.280Z</when>
<when >2025-08-23T15:42:56.410Z</when>
<when >2025-08-23T15:42:56.650Z</when>
<when >2025-08-23T15:43:00.730Z</when>
<when >2025-08-23T15:43:03.440Z</when>
<when >2025-08-23T15:43:06.550Z</when>
<when >2025-08-23T15:43:09.910Z</when>
<when >2025-08-23T15:43:12.770Z</when>
<when >2025-08-23T15:43:14.960Z</when>
<when >2025-08-23T15:43:17.720Z</when>
<when >2025-08-23T15:43:20.190Z</when>
<when >2025-08-23T15:43:21.880Z</when>
<when >2025-08-23T15:43:23.940Z</when>
<when >2025-08-23T15:43:26.060Z</when>
<when >2025-08-23T15:43:26.490Z</when>
<when >2025-08-23T15:43:28.940Z</when>
<when >2025-08-23T15:43:29.980Z</when>
<when >2025-08-23T15:43:33.970Z</when>
<when >2025-08-23T15:43:37.130Z</when>
<when >2025-08-23T15:43:40.140Z</when>
<when >2025-08-23T15:43:44.000Z</when>
<when >2025-08-23T15:43:47.340Z</when>
<when >2025-08-23T15:43:51.190Z</when>
<when >2025-08-23T15:43:55.200Z</when>
<when >2025-08-23T15:43:57.920Z</when>
<when >2025-08-23T15:44:01.410Z</when>
<when >2025-08-23T15:44:05.190Z</when>
<when >2025-08-23T15:44:07.930Z</when>
<when >2025-08-23T15:44:11.640Z</when>
<when >2025-08-23T15:44:15.780Z</when>
<when >2025-08-23T15:44:17.520Z</when>
<when >2025-08-23T15:44:21.770Z</when>
<when >2025-08-23T15:44:26.900Z</when>
<when >2025-08-23T15:44:30.560Z</when>
<when >2025-08-23T15:44:35.460Z</when>
<when >2025-08-23T15:44:38.180Z</when>
<when >2025-08-23T15:44:38.910Z</when>
<when >2025-08-23T15:44:43.000Z</when>
<when >2025-08-23T15:44:50.290Z</when>
<when >2025-08-23T15:44:52.070Z</when>
<when >2025-08-23T15:44:53.590Z</when>
<when >2025-08-23T15:44:57.530Z</when>
<when >2025-08-23T15:44:59.180Z</when>
<when >2025-08-23T15:44:59.520Z</when>
<when >2025-08-23T15:45:02.160Z</when>
<when >2025-08-23T15:45:04.690Z</when>
<when >2025-08-23T15:45:07.210Z</when>
<when >2025-08-23T15:45:13.030Z</when>
<when >2025-08-23T15:45:18.440Z</when>
<when >2025-08-23T15:45:22.920Z</when>
<when >2025-08-23T15:45:25.500Z</when>
<when >2025-08-23T15:45:30.940Z</when>
<when >2025-08-23T15:45:32.340Z</when>
<when >2025-08-23T15:45:34.220Z</when>
<when >2025-08-23T15:45:34.630Z</when>
<when >2025-08-23T15:45:37.950Z</when>
<when >2025-08-23T15:45:45.930Z</when>
<when >2025-08-23T15:45:55.370Z</when>
<when >2025-08-23T15:46:02.470Z</when>
<when >2025-08-23T15:46:13.230Z</when>
<when >2025-08-23T15:46:22.780Z</when>
<when >2025-08-23T15:46:29.340Z</when>
<when >2025-08-23T15:46:30.580Z</when>
<when >2025-08-23T15:46:33.030Z</when>
<when >2025-08-23T15:46:35.530Z</when>
<when >2025-08-23T15:46:43.700Z</when>
<when >2025-08-23T15:46:50.340Z</when>
<when >2025-08-23T15:47:01.000Z</when>
<when >2025-08-23T15:47:07.020Z</when>
<when >2025-08-23T15:47:11.640Z</when>
<when >2025-08-23T15:47:16.570Z</when>
<when >2025-08-23T15:47:27.900Z</when>
<when >2025-08-23T15:47:39.360Z</when>
<when >2025-08-23T15:47:51.450Z</when>
<when >2025-08-23T15:48:02.010Z</when>
<when >2025-08-23T15:48:12.980Z</when>
<when >2025-08-23T15:48:23.910Z</when>
<when >2025-08-23T15:48:37.280Z</when>
<when >2025-08-23T15:48:49.370Z</when>
<when >2025-08-23T15:49:00.220Z</when>
<when >2025-08-23T15:49:11.170Z</when>
<when >2025-08-23T15:49:22.370Z</when>
<when >2025-08-23T15:49:33.730Z</when>
<when >2025-08-23T15:49:44.320Z</when>
<when >2025-08-23T15:49:46.510Z</when>
<when >2025-08-23T15:49:50.470Z</when>
<when >2025-08-23T15:49:50.660Z</when>
<when >2025-08-23T15:49:57.130Z</when>
<when >2025-08-23T15:50:00.180Z</when>
<when >2025-08-23T15:50:01.960Z</when>
<when >2025-08-23T15:50:05.780Z</when>
<when >2025-08-23T15:50:09.100Z</when>
<when >2025-08-23T15:50:09.330Z</when>
<when >2025-08-23T15:50:14.710Z</when>
<when >2025-08-23T15:50:23.510Z</when>
<when >2025-08-23T15:50:35.460Z</when>
<when >2025-08-23T15:50:48.600Z</when>
<when >2025-08-23T15:50:58.360Z</when>
<when >2025-08-23T15:51:03.830Z</when>
<when >2025-08-23T15:51:13.810Z</when>
<when >2025-08-23T15:51:24.980Z</when>
<when >2025-08-23T15:51:27.630Z</when>
<when >2025-08-23T15:51:29.380Z</when>
<when >2025-08-23T15:51:31.980Z</when>
<when >2025-08-23T15:51:41.300Z</when>
<when >2025-08-23T15:51:51.310Z</when>
<when >2025-08-23T15:51:57.750Z</when>
<when >2025-08-23T15:52:13.300Z</when>
<when >2025-08-23T15:52:28.940Z</when>
<when >2025-08-23T15:52:41.330Z</when>
<when >2025-08-23T15:52:43.330Z</when>
<when >2025-08-23T15:52:58.880Z</when>
<when >2025-08-23T15:53:02.420Z</when>
<when >2025-08-23T15:53:15.370Z</when>
<when >2025-08-23T15:53:25.070Z</when>
<when >2025-08-23T15:53:29.770Z</when>
<when >2025-08-23T15:53:44.940Z</when>
<when >2025-08-23T15:53:58.150Z</when>
<when >2025-08-23T15:54:16.100Z</when>
<when >2025-08-23T15:54:34.240Z</when>
<when >2025-08-23T15:54:52.020Z</when>
<when >2025-08-23T15:54:55.510Z</when>
<when >2025-08-23T15:54:59.710Z</when>
<when >2025-08-23T15:55:10.510Z</when>
<when >2025-08-23T15:55:21.410Z</when>
<when >2025-08-23T15:55:22.250Z</when>
<when >2025-08-23T15:55:25.490Z</when>
<when >2025-08-23T15:55:30.220Z</when>
<when >2025-08-23T15:55:50.110Z</when>
<when >2025-08-23T15:56:08.560Z</when>
<when >2025-08-23T15:56:23.490Z</when>
<when >2025-08-23T15:56:36.090Z</when>
<when >2025-08-23T15:56:54.450Z</when>
<when >2025-08-23T15:57:10.980Z</when>
<when >2025-08-23T15:57:21.630Z</when>
<when >2025-08-23T15:57:40.800Z</when>
<when >2025-08-23T15:57:57.090Z</when>
<when >2025-08-23T15:58:12.180Z</when>
<when >2025-08-23T15:58:18.310Z</when>
<when >2025-08-23T15:58:30.540Z</when>
<when >2025-08-23T15:58:43.910Z</when>
<when >2025-08-23T15:58:47.070Z</when>
<when >2025-08-23T15:59:05.360Z</when>
<when >2025-08-23T15:59:21.750Z</when>
<when >2025-08-23T15:59:36.400Z</when>
<when >2025-08-23T15:59:49.160Z</when>
<when >2025-08-23T15:59:56.920Z</when>
<when >2025-08-23T16:00:13.130Z</when>
<when >2025-08-23T16:00:25.950Z</when>
<when >2025-08-23T16:00:45.510Z</when>
<when >2025-08-23T16:01:03.990Z</when>
<when >2025-08-23T16:01:21.930Z</when>
<when >2025-08-23T16:01:38.260Z</when>
<when >2025-08-23T16:01:56.690Z</when>
<when >2025-08-23T16:02:15.930Z</when>
<when >2025-08-23T16:02:35.630Z</when>
<when >2025-08-23T16:02:55.500Z</when>
<when >2025-08-23T16:03:15.400Z</when>
<when >2025-08-23T16:03:35.390Z</when>
<when >2025-08-23T16:03:54.890Z</when>
<when >2025-08-23T16:04:14.720Z</when>
<when >2025-08-23T16:04:34.400Z</when>
<when >2025-08-23T16:04:53.190Z</when>
<when >2025-08-23T16:05:13.010Z</when>
<when >2025-08-23T16:05:32.870Z</when>
<when >2025-08-23T16:05:52.820Z</when>
<when >2025-08-23T16:06:12.740Z</when>
<when >2025-08-23T16:06:32.000Z</when>
<when >2025-08-23T16:06:51.930Z</when>
<when >2025-08-23T16:07:11.910Z</when>
<when >2025-08-23T16:07:31.900Z</when>
<when >2025-08-23T16:07:51.630Z</when>
<when >2025-08-23T16:08:10.990Z</when>
<when >2025-08-23T16:08:30.580Z</when>
<when >2025-08-23T16:08:50.060Z</when>
<when >2025-08-23T16:09:09.970Z</when>
<when >2025-08-23T16:09:29.580Z</when>
<when >2025-08-23T16:09:48.780Z</when>
<when >2025-08-23T16:10:07.210Z</when>
<when >2025-08-23T16:10:27.200Z</when>
<when >2025-08-23T16:10:46.830Z</when>
<when >2025-08-23T16:11:06.590Z</when>
<when >2025-08-23T16:11:26.450Z</when>
<when >2025-08-23T16:11:46.400Z</when>
<when >2025-08-23T16:12:05.010Z</when>
<when >2025-08-23T16:12:24.750Z</when>
<when >2025-08-23T16:12:44.210Z</when>
<when >2025-08-23T16:13:04.210Z</when>
<when >2025-08-23T16:13:23.520Z</when>
<when >2025-08-23T16:13:42.990Z</when>
<when >2025-08-23T16:14:02.280Z</when>
<when >2025-08-23T16:14:21.450Z</when>
<when >2025-08-23T16:14:41.400Z</when>
<when >2025-08-23T16:15:00.790Z</when>
<when >2025-08-23T16:15:20.650Z</when>
<when >2025-08-23T16:15:39.860Z</when>
<when >2025-08-23T16:15:59.650Z</when>
<when >2025-08-23T16:16:19.640Z</when>
<when >2025-08-23T16:16:39.110Z</when>
<when >2025-08-23T16:16:59.040Z</when>
<when >2025-08-23T16:17:18.930Z</when>
<when >2025-08-23T16:17:38.930Z</when>
<when >2025-08-23T16:17:57.860Z</when>
<when >2025-08-23T16:18:17.700Z</when>
<when >2025-08-23T16:18:29.530Z</when>
<when >2025-08-23T16:18:39.960Z</when>
<when >2025-08-23T16:18:59.480Z</when>
<when >2025-08-23T16:19:19.170Z</when>
<when >2025-08-23T16:19:38.740Z</when>
<when >2025-08-23T16:19:58.350Z</when>
<when >2025-08-23T16:20:17.990Z</when>
<when >2025-08-23T16:20:37.890Z</when>
<when >2025-08-23T16:20:57.850Z</when>
<when >2025-08-23T16:21:17.580Z</when>
<when >2025-08-23T16:21:37.490Z</when>
<when >2025-08-23T16:21:56.730Z</when>
<when >2025-08-23T16:22:16.580Z</when>
<when >2025-08-23T16:22:36.480Z</when>
<when >2025-08-23T16:22:56.140Z</when>
<when >2025-08-23T16:23:15.760Z</when>
<when >2025-08-23T16:23:35.240Z</when>
<when >2025-08-23T16:23:54.770Z</when>
<when >2025-08-23T16:24:14.190Z</when>
<when >2025-08-23T16:24:34.180Z</when>
<when >2025-08-23T16:24:53.650Z</when>
<when >2025-08-23T16:25:13.420Z</when>
<when >2025-08-23T16:25:32.720Z</when>
<when >2025-08-23T16:25:52.600Z</when>
<when >2025-08-23T16:26:12.260Z</when>
<when >2025-08-23T16:26:31.930Z</when>
<when >2025-08-23T16:26:51.740Z</when>
<when >2025-08-23T16:27:11.010Z</when>
<when >2025-08-23T16:27:29.940Z</when>
<when >2025-08-23T16:27:49.690Z</when>
<when >2025-08-23T16:28:09.610Z</when>
<when >2025-08-23T16:28:29.450Z</when>
<when >2025-08-23T16:28:49.090Z</when>
<when >2025-08-23T16:29:08.850Z</when>
<when >2025-08-23T16:29:28.740Z</when>
<when >2025-08-23T16:29:48.560Z</when>
<when >2025-08-23T16:30:08.210Z</when>
<when >2025-08-23T16:30:28.000Z</when>
<when >2025-08-23T16:30:47.540Z</when>
<when >2025-08-23T16:31:07.210Z</when>
<when >2025-08-23T16:31:27.050Z</when>
<when >2025-08-23T16:31:46.600Z</when>
<when >2025-08-23T16:32:06.070Z</when>
<when >2025-08-23T16:32:25.850Z</when>
<when >2025-08-23T16:32:45.410Z</when>
<when >2025-08-23T16:33:05.120Z</when>
<when >2025-08-23T16:33:23.650Z</when>
<when >2025-08-23T16:33:43.070Z</when>
<when >2025-08-23T16:34:03.000Z</when>
<when >2025-08-23T16:34:22.420Z</when>
<when >2025-08-23T16:34:42.190Z</when>
<when >2025-08-23T16:35:01.970Z</when>
<when >2025-08-23T16:35:21.520Z</when>
<when >2025-08-23T16:35:41.160Z</when>
<when >2025-08-23T16:36:00.740Z</when>
<when >2025-08-23T16:36:20.630Z</when>
<when >2025-08-23T16:36:40.240Z</when>
<when >2025-08-23T16:36:59.920Z</when>
<when >2025-08-23T16:37:19.010Z</when>
<when >2025-08-23T16:37:38.880Z</when>
<when >2025-08-23T16:37:58.190Z</when>
<when >2025-08-23T16:38:18.140Z</when>
<when >2025-08-23T16:38:37.440Z</when>
<when >2025-08-23T16:38:57.100Z</when>
<when >2025-08-23T16:39:16.860Z</when>
<when >2025-08-23T16:39:36.710Z</when>
<when >2025-08-23T16:39:55.490Z</when>
<when >2025-08-23T16:40:14.290Z</when>
<when >2025-08-23T16:40:33.710Z</when>
<when >2025-08-23T16:40:53.020Z</when>
<when >2025-08-23T16:41:13.000Z</when>
<when >2025-08-23T16:41:32.650Z</when>
<when >2025-08-23T16:41:52.600Z</when>
<when >2025-08-23T16:42:12.390Z</when>
<when >2025-08-23T16:42:32.090Z</when>
<when >2025-08-23T16:42:51.770Z</when>
<when >2025-08-23T16:43:11.740Z</when>
<when >2025-08-23T16:43:31.600Z</when>
<when >2025-08-23T16:43:51.420Z</when>
<when >2025-08-23T16:44:11.080Z</when>
<when >2025-08-23T16:44:30.670Z</when>
<when >2025-08-23T16:44:50.570Z</when>
<when >2025-08-23T16:45:10.430Z</when>
<when >2025-08-23T16:45:30.380Z</when>
<when >2025-08-23T16:45:49.680Z</when>
<when >2025-08-23T16:46:07.840Z</when>
<when >2025-08-23T16:46:27.180Z</when>
<when >2025-08-23T16:46:47.130Z</when>
<when >2025-08-23T16:47:07.110Z</when>
<when >2025-08-23T16:47:26.710Z</when>
<when >2025-08-23T16:47:46.310Z</when>
<when >2025-08-23T16:48:05.900Z</when>
<when >2025-08-23T16:48:25.700Z</when>
<when >2025-08-23T16:48:45.480Z</when>
<when >2025-08-23T16:49:05.440Z</when>
<when >2025-08-23T16:49:25.380Z</when>
<when >2025-08-23T16:49:44.900Z</when>
<when >2025-08-23T16:50:04.660Z</when>
<when >2025-08-23T16:50:24.490Z</when>
<when >2025-08-23T16:50:44.430Z</when>
<when >2025-08-23T16:51:03.980Z</when>
<when >2025-08-23T16:51:23.860Z</when>
<when >2025-08-23T16:51:43.480Z</when>
<when >2025-08-23T16:52:03.240Z</when>
<when >2025-08-23T16:52:23.170Z</when>
<when >2025-08-23T16:52:43.140Z</when>
<when >2025-08-23T16:53:02.870Z</when>
<when >2025-08-23T16:53:22.450Z</when>
<when >2025-08-23T16:53:42.140Z</when>
<when >2025-08-23T16:54:01.890Z</when>
<when >2025-08-23T16:54:21.530Z</when>
<when >2025-08-23T16:54:41.480Z</when>
<when >2025-08-23T16:55:00.970Z</when>
<when >2025-08-23T16:55:20.770Z</when>
<when >2025-08-23T16:55:40.390Z</when>
<when >2025-08-23T16:56:00.100Z</when>
<when >2025-08-23T16:56:19.980Z</when>
<when >2025-08-23T16:56:39.650Z</when>
<when >2025-08-23T16:56:59.390Z</when>
<when >2025-08-23T16:57:18.640Z</when>
<when >2025-08-23T16:57:38.200Z</when>
<when >2025-08-23T16:57:56.900Z</when>
<when >2025-08-23T16:58:16.660Z</when>
<when >2025-08-23T16:58:36.300Z</when>
<when >2025-08-23T16:58:56.030Z</when>
<when >2025-08-23T16:59:15.820Z</when>
<when >2025-08-23T16:59:35.360Z</when>
<when >2025-08-23T16:59:55.310Z</when>
<when >2025-08-23T17:00:14.590Z</when>
<when >2025-08-23T17:00:33.800Z</when>
<when >2025-08-23T17:00:53.730Z</when>
<when >2025-08-23T17:01:13.510Z</when>
<when >2025-08-23T17:01:33.120Z</when>
<when >2025-08-23T17:01:52.620Z</when>
<when >2025-08-23T17:02:12.350Z</when>
<when >2025-08-23T17:02:31.840Z</when>
<when >2025-08-23T17:02:51.080Z</when>
<when >2025-08-23T17:03:10.760Z</when>
<when >2025-08-23T17:03:30.620Z</when>
<when >2025-08-23T17:03:50.570Z</when>
<when >2025-08-23T17:04:10.190Z</when>
<when >2025-08-23T17:04:29.540Z</when>
<when >2025-08-23T17:04:49.520Z</when>
<when >2025-08-23T17:05:09.020Z</when>
<when >2025-08-23T17:05:28.880Z</when>
<when >2025-08-23T17:05:48.490Z</when>
<when >2025-08-23T17:06:08.080Z</when>
<when >2025-08-23T17:06:27.970Z</when>
<when >2025-08-23T17:06:47.900Z</when>
<when >2025-08-23T17:07:07.580Z</when>
<when >2025-08-23T17:07:27.140Z</when>
<when >2025-08-23T17:07:47.090Z</when>
<when >2025-08-23T17:08:06.690Z</when>
<when >2025-08-23T17:08:25.640Z</when>
<when >2025-08-23T17:08:45.220Z</when>
<when >2025-08-23T17:09:05.180Z</when>
<when >2025-08-23T17:09:24.870Z</when>
<when >2025-08-23T17:09:44.620Z</when>
<when >2025-08-23T17:10:04.240Z</when>
<when >2025-08-23T17:10:23.900Z</when>
<when >2025-08-23T17:10:43.730Z</when>
<when >2025-08-23T17:11:03.460Z</when>
<when >2025-08-23T17:11:23.160Z</when>
<when >2025-08-23T17:11:42.860Z</when>
<when >2025-08-23T17:12:02.710Z</when>
<when >2025-08-23T17:12:21.990Z</when>
<when >2025-08-23T17:12:41.770Z</when>
<when >2025-08-23T17:13:01.660Z</when>
<when >2025-08-23T17:13:21.200Z</when>
<when >2025-08-23T17:13:41.130Z</when>
<when >2025-08-23T17:13:55.160Z</when>
<when >2025-08-23T17:13:59.750Z</when>
<when >2025-08-23T17:14:07.950Z</when>
<when >2025-08-23T17:14:20.260Z</when>
<when >2025-08-23T17:14:25.090Z</when>
<when >2025-08-23T17:14:39.860Z</when>
<when >2025-08-23T17:14:55.770Z</when>
<when >2025-08-23T17:15:10.600Z</when>
<when >2025-08-23T17:15:24.950Z</when>
<when >2025-08-23T17:15:39.480Z</when>
<when >2025-08-23T17:15:52.900Z</when>
<when >2025-08-23T17:16:07.800Z</when>
<when >2025-08-23T17:16:23.180Z</when>
<when >2025-08-23T17:16:39.050Z</when>
<when >2025-08-23T17:16:53.210Z</when>
<when >2025-08-23T17:17:08.080Z</when>
<when >2025-08-23T17:17:22.880Z</when>
<when >2025-08-23T17:17:37.470Z</when>
<when >2025-08-23T17:17:51.090Z</when>
<when >2025-08-23T17:18:05.830Z</when>
<when >2025-08-23T17:18:20.230Z</when>
<when >2025-08-23T17:18:35.140Z</when>
<when >2025-08-23T17:18:49.540Z</when>
<when >2025-08-23T17:19:04.210Z</when>
<when >2025-08-23T17:19:18.800Z</when>
<when >2025-08-23T17:19:32.740Z</when>
<when >2025-08-23T17:19:47.820Z</when>
<when >2025-08-23T17:20:04.090Z</when>
<when >2025-08-23T17:20:19.060Z</when>
<when >2025-08-23T17:20:34.720Z</when>
<when >2025-08-23T17:20:48.540Z</when>
<when >2025-08-23T17:21:02.140Z</when>
<when >2025-08-23T17:21:16.110Z</when>
<when >2025-08-23T17:21:27.210Z</when>
<when >2025-08-23T17:21:36.750Z</when>
<when >2025-08-23T17:21:49.590Z</when>
<when >2025-08-23T17:22:03.240Z</when>
<when >2025-08-23T17:22:16.370Z</when>
<when >2025-08-23T17:22:30.110Z</when>
<when >2025-08-23T17:22:43.520Z</when>
<when >2025-08-23T17:22:56.690Z</when>
<when >2025-08-23T17:23:10.440Z</when>
<when >2025-08-23T17:23:23.930Z</when>
<when >2025-08-23T17:23:37.340Z</when>
<when >2025-08-23T17:23:50.440Z</when>
<when >2025-08-23T17:24:04.160Z</when>
<when >2025-08-23T17:24:15.470Z</when>
<when >2025-08-23T17:24:25.990Z</when>
<when >2025-08-23T17:24:40.980Z</when>
<when >2025-08-23T17:25:00.770Z</when>
<when >2025-08-23T17:25:20.670Z</when>
<when >2025-08-23T17:25:32.120Z</when>
<when >2025-08-23T17:25:45.880Z</when>
<when >2025-08-23T17:26:01.220Z</when>
<when >2025-08-23T17:26:16.340Z</when>
<when >2025-08-23T17:26:31.220Z</when>
<when >2025-08-23T17:26:37.810Z</when>
<when >2025-08-23T17:26:45.060Z</when>
<when >2025-08-23T17:26:59.250Z</when>
<when >2025-08-23T17:27:14.270Z</when>
<when >2025-08-23T17:27:28.520Z</when>
<when >2025-08-23T17:27:43.130Z</when>
<when >2025-08-23T17:27:58.340Z</when>
<when >2025-08-23T17:28:13.880Z</when>
<when >2025-08-23T17:28:30.450Z</when>
<when >2025-08-23T17:28:45.440Z</when>
<when >2025-08-23T17:29:01.910Z</when>
<when >2025-08-23T17:29:13.890Z</when>
<when >2025-08-23T17:29:20.100Z</when>
<when >2025-08-23T17:29:24.020Z</when>
<when >2025-08-23T17:29:26.840Z</when>
<when >2025-08-23T17:29:29.340Z</when>
<when >2025-08-23T17:29:32.080Z</when>
<when >2025-08-23T17:29:34.950Z</when>
<when >2025-08-23T17:29:37.700Z</when>
<when >2025-08-23T17:29:40.680Z</when>
<when >2025-08-23T17:29:44.170Z</when>
<when >2025-08-23T17:29:48.270Z</when>
<when >2025-08-23T17:30:07.850Z</when>
<when >2025-08-23T17:30:21.590Z</when>
<when >2025-08-23T17:30:41.540Z</when>
<when >2025-08-23T17:31:01.040Z</when>
<when >2025-08-23T17:31:20.330Z</when>
<when >2025-08-23T17:31:39.870Z</when>
<when >2025-08-23T17:31:59.570Z</when>
<when >2025-08-23T17:32:19.320Z</when>
<when >2025-08-23T17:32:38.980Z</when>
<when >2025-08-23T17:32:42.810Z</when>
<when >2025-08-23T17:32:46.640Z</when>
<when >2025-08-23T17:32:50.090Z</when>
<when >2025-08-23T17:32:52.730Z</when>
<when >2025-08-23T17:32:56.150Z</when>
<when >2025-08-23T17:33:00.210Z</when>
<when >2025-08-23T17:33:20.170Z</when>
<when >2025-08-23T17:33:33.640Z</when>
<when >2025-08-23T17:33:53.570Z</when>
<when >2025-08-23T17:34:13.120Z</when>
<when >2025-08-23T17:34:33.000Z</when>
<when >2025-08-23T17:34:51.590Z</when>
<when >2025-08-23T17:34:59.160Z</when>
<when >2025-08-23T17:35:10.840Z</when>
<when >2025-08-23T17:35:30.710Z</when>
<when >2025-08-23T17:35:50.400Z</when>
<when >2025-08-23T17:36:09.970Z</when>
<when >2025-08-23T17:36:29.750Z</when>
<when >2025-08-23T17:36:49.370Z</when>
<when >2025-08-23T17:37:08.910Z</when>
<when >2025-08-23T17:37:28.450Z</when>
<when >2025-08-23T17:37:48.430Z</when>
<when >2025-08-23T17:38:08.180Z</when>
<when >2025-08-23T17:38:27.780Z</when>
<when >2025-08-23T17:38:47.720Z</when>
<when >2025-08-23T17:39:07.700Z</when>
<when >2025-08-23T17:39:27.210Z</when>
<when >2025-08-23T17:39:46.900Z</when>
<when >2025-08-23T17:40:06.870Z</when>
<when >2025-08-23T17:40:26.690Z</when>
<when >2025-08-23T17:40:46.660Z</when>
<when >2025-08-23T17:41:06.490Z</when>
<when >2025-08-23T17:41:26.190Z</when>
<when >2025-08-23T17:41:42.540Z</when>
<when >2025-08-23T17:41:58.820Z</when>
<when >2025-08-23T17:42:15.510Z</when>
<when >2025-08-23T17:42:31.510Z</when>
<when >2025-08-23T17:42:46.450Z</when>
<when >2025-08-23T17:42:55.140Z</when>
<when >2025-08-23T17:43:01.550Z</when>
<when >2025-08-23T17:43:10.580Z</when>
<when >2025-08-23T17:43:19.080Z</when>
<when >2025-08-23T17:43:27.530Z</when>
<when >2025-08-23T17:43:35.160Z</when>
<when >2025-08-23T17:43:37.990Z</when>
<when >2025-08-23T17:43:41.630Z</when>
<when >2025-08-23T17:43:44.410Z</when>
<when >2025-08-23T17:43:48.170Z</when>
<when >2025-08-23T17:43:50.410Z</when>
<when >2025-08-23T17:43:53.080Z</when>
<when >2025-08-23T17:43:56.680Z</when>
<when >2025-08-23T17:44:00.500Z</when>
<when >2025-08-23T17:44:06.820Z</when>
<when >2025-08-23T17:44:17.420Z</when>
<when >2025-08-23T17:44:26.780Z</when>
<when >2025-08-23T17:44:35.150Z</when>
<when >2025-08-23T17:44:43.760Z</when>
<when >2025-08-23T17:44:52.960Z</when>
<when >2025-08-23T17:45:01.550Z</when>
<when >2025-08-23T17:45:11.150Z</when>
<when >2025-08-23T17:45:19.760Z</when>
<when >2025-08-23T17:45:28.750Z</when>
<when >2025-08-23T17:45:37.590Z</when>
<when >2025-08-23T17:45:46.820Z</when>
<when >2025-08-23T17:45:56.040Z</when>
<when >2025-08-23T17:46:05.580Z</when>
<when >2025-08-23T17:46:13.950Z</when>
<when >2025-08-23T17:46:22.670Z</when>
<when >2025-08-23T17:46:31.220Z</when>
<when >2025-08-23T17:46:39.620Z</when>
<when >2025-08-23T17:46:49.150Z</when>
<when >2025-08-23T17:46:58.500Z</when>
<when >2025-08-23T17:47:07.570Z</when>
<when >2025-08-23T17:47:16.670Z</when>
<when >2025-08-23T17:47:25.190Z</when>
<when >2025-08-23T17:47:34.630Z</when>
<when >2025-08-23T17:47:42.670Z</when>
<when >2025-08-23T17:47:47.020Z</when>
<when >2025-08-23T17:47:53.000Z</when>
<when >2025-08-23T17:47:59.350Z</when>
<when >2025-08-23T17:48:03.860Z</when>
<when >2025-08-23T17:48:08.430Z</when>
<when >2025-08-23T17:48:10.830Z</when>
<when >2025-08-23T17:48:16.450Z</when>
<when >2025-08-23T17:48:20.710Z</when>
<when >2025-08-23T17:48:26.730Z</when>
<when >2025-08-23T17:48:32.340Z</when>
<when >2025-08-23T17:48:39.590Z</when>
<when >2025-08-23T17:48:48.090Z</when>
<when >2025-08-23T17:48:57.070Z</when>
<when >2025-08-23T17:49:05.530Z</when>
<when >2025-08-23T17:49:14.560Z</when>
<when >2025-08-23T17:49:19.620Z</when>
<when >2025-08-23T17:49:25.360Z</when>
<when >2025-08-23T17:49:31.690Z</when>
<when >2025-08-23T17:49:37.180Z</when>
<when >2025-08-23T17:49:43.380Z</when>
<when >2025-08-23T17:49:49.040Z</when>
<when >2025-08-23T17:49:57.480Z</when>
<when >2025-08-23T17:50:03.710Z</when>
<when >2025-08-23T17:50:09.690Z</when>
<when >2025-08-23T17:50:15.360Z</when>
<when >2025-08-23T17:50:20.820Z</when>
<when >2025-08-23T17:50:27.180Z</when>
<when >2025-08-23T17:50:34.520Z</when>
<when >2025-08-23T17:50:40.690Z</when>
<when >2025-08-23T17:50:45.620Z</when>
<when >2025-08-23T17:50:49.620Z</when>
<when >2025-08-23T17:50:53.850Z</when>
<when >2025-08-23T17:50:56.190Z</when>
<when >2025-08-23T17:50:59.520Z</when>
<when >2025-08-23T17:51:02.600Z</when>
<when >2025-08-23T17:51:11.020Z</when>
<when >2025-08-23T17:51:14.120Z</when>
<when >2025-08-23T17:51:34.110Z</when>
<when >2025-08-23T17:51:54.060Z</when>
<when >2025-08-23T17:51:58.010Z</when>
<when >2025-08-23T17:52:01.330Z</when>
<when >2025-08-23T17:52:04.000Z</when>
<when >2025-08-23T17:52:05.850Z</when>
<when >2025-08-23T17:52:08.260Z</when>
<when >2025-08-23T17:52:10.390Z</when>
<when >2025-08-23T17:52:12.800Z</when>
<when >2025-08-23T17:52:15.490Z</when>
<when >2025-08-23T17:52:18.690Z</when>
<when >2025-08-23T17:52:20.970Z</when>
<when >2025-08-23T17:52:23.760Z</when>
<when >2025-08-23T17:52:26.900Z</when>
<when >2025-08-23T17:52:30.100Z</when>
<when >2025-08-23T17:52:33.710Z</when>
<when >2025-08-23T17:52:37.690Z</when>
<when >2025-08-23T17:52:42.780Z</when>
<when >2025-08-23T17:52:49.110Z</when>
<when >2025-08-23T17:52:54.580Z</when>
<when >2025-08-23T17:52:57.970Z</when>
<when >2025-08-23T17:53:00.210Z</when>
<when >2025-08-23T17:53:02.470Z</when>
<when >2025-08-23T17:53:04.410Z</when>
<when >2025-08-23T17:53:05.990Z</when>
<when >2025-08-23T17:53:07.480Z</when>
<when >2025-08-23T17:53:09.490Z</when>
<when >2025-08-23T17:53:12.550Z</when>
<when >2025-08-23T17:53:15.360Z</when>
<when >2025-08-23T17:53:17.680Z</when>
<when >2025-08-23T17:53:20.690Z</when>
<when >2025-08-23T17:53:24.110Z</when>
<when >2025-08-23T17:53:27.570Z</when>
<when >2025-08-23T17:53:31.640Z</when>
<when >2025-08-23T17:53:36.930Z</when>
<when >2025-08-23T17:53:42.820Z</when>
<when >2025-08-23T17:53:48.880Z</when>
<when >2025-08-23T17:53:55.610Z</when>
<when >2025-08-23T17:54:01.940Z</when>
<when >2025-08-23T17:54:10.390Z</when>
<when >2025-08-23T17:54:16.670Z</when>
<when >2025-08-23T17:54:22.550Z</when>
<when >2025-08-23T17:54:29.590Z</when>
<when >2025-08-23T17:54:35.180Z</when>
<when >2025-08-23T17:54:41.580Z</when>
<when >2025-08-23T17:54:47.800Z</when>
<when >2025-08-23T17:54:55.180Z</when>
<when >2025-08-23T17:55:01.020Z</when>
<when >2025-08-23T17:55:07.860Z</when>
<when >2025-08-23T17:55:13.030Z</when>
<when >2025-08-23T17:55:17.190Z</when>
<when >2025-08-23T17:55:19.980Z</when>
<when >2025-08-23T17:55:22.320Z</when>
<when >2025-08-23T17:55:26.050Z</when>
<when >2025-08-23T17:55:30.180Z</when>
<when >2025-08-23T17:55:33.210Z</when>
<when >2025-08-23T17:55:35.500Z</when>
<when >2025-08-23T17:55:42.850Z</when>
<when >2025-08-23T17:55:51.350Z</when>
<when >2025-08-23T17:55:59.440Z</when>
<when >2025-08-23T17:56:07.780Z</when>
<when >2025-08-23T17:56:16.520Z</when>
<when >2025-08-23T17:56:23.480Z</when>
<when >2025-08-23T17:56:32.260Z</when>
<when >2025-08-23T17:56:41.120Z</when>
<when >2025-08-23T17:56:49.560Z</when>
<when >2025-08-23T17:56:58.000Z</when>
<when >2025-08-23T17:57:04.960Z</when>
<when >2025-08-23T17:57:13.910Z</when>
<when >2025-08-23T17:57:20.740Z</when>
<when >2025-08-23T17:57:22.710Z</when>
<when >2025-08-23T17:57:26.330Z</when>
<when >2025-08-23T17:57:31.260Z</when>
<when >2025-08-23T17:57:31.980Z</when>
<when >2025-08-23T17:57:31.980Z</when>
<gx:coord >20.977373 52.1629 106</gx:coord>
<gx:coord >20.976824 52.163039 106</gx:coord>
<gx:coord >20.974862 52.163598 106</gx:coord>
<gx:coord >20.974197 52.163773 106</gx:coord>
<gx:coord >20.970917 52.164688 107</gx:coord>
<gx:coord >20.968506 52.165367 108</gx:coord>
<gx:coord >20.96405 52.166611 103</gx:coord>
<gx:coord >20.961051 52.167462 138</gx:coord>
<gx:coord >20.960502 52.167602 146</gx:coord>
<gx:coord >20.960007 52.167755 147</gx:coord>
<gx:coord >20.959011 52.16802 153</gx:coord>
<gx:coord >20.95752 52.168393 169</gx:coord>
<gx:coord >20.955165 52.169091 199</gx:coord>
<gx:coord >20.952759 52.169769 229</gx:coord>
<gx:coord >20.950535 52.170395 260</gx:coord>
<gx:coord >20.948103 52.171093 291</gx:coord>
<gx:coord >20.946274 52.1716 321</gx:coord>
<gx:coord >20.944366 52.172195 348</gx:coord>
<gx:coord >20.941925 52.172882 385</gx:coord>
<gx:coord >20.939392 52.173607 415</gx:coord>
<gx:coord >20.937038 52.174305 444</gx:coord>
<gx:coord >20.934998 52.174864 467</gx:coord>
<gx:coord >20.932957 52.175469 498</gx:coord>
<gx:coord >20.930682 52.176121 528</gx:coord>
<gx:coord >20.928327 52.176772 560</gx:coord>
<gx:coord >20.925816 52.177517 591</gx:coord>
<gx:coord >20.923157 52.178238 620</gx:coord>
<gx:coord >20.920715 52.17897 651</gx:coord>
<gx:coord >20.918045 52.179749 686</gx:coord>
<gx:coord >20.915985 52.180344 715</gx:coord>
<gx:coord >20.913574 52.181055 746</gx:coord>
<gx:coord >20.910797 52.181854 777</gx:coord>
<gx:coord >20.908395 52.182452 809</gx:coord>
<gx:coord >20.906355 52.182871 830</gx:coord>
<gx:coord >20.903843 52.18329 861</gx:coord>
<gx:coord >20.901018 52.183522 892</gx:coord>
<gx:coord >20.898743 52.183594 916</gx:coord>
<gx:coord >20.896153 52.183615 945</gx:coord>
<gx:coord >20.893555 52.18364 976</gx:coord>
<gx:coord >20.890274 52.18364 1008</gx:coord>
<gx:coord >20.887604 52.183594 1037</gx:coord>
<gx:coord >20.884853 52.183569 1068</gx:coord>
<gx:coord >20.881653 52.183456 1100</gx:coord>
<gx:coord >20.878296 52.183365 1129</gx:coord>
<gx:coord >20.875168 52.183273 1162</gx:coord>
<gx:coord >20.870972 52.183136 1192</gx:coord>
<gx:coord >20.866804 52.18301 1222</gx:coord>
<gx:coord >20.862579 52.182907 1249</gx:coord>
<gx:coord >20.858688 52.18277 1279</gx:coord>
<gx:coord >20.854562 52.182638 1306</gx:coord>
<gx:coord >20.849609 52.182449 1337</gx:coord>
<gx:coord >20.844203 52.182265 1375</gx:coord>
<gx:coord >20.83871 52.182126 1406</gx:coord>
<gx:coord >20.836563 52.182037 1422</gx:coord>
<gx:coord >20.832596 52.181946 1437</gx:coord>
<gx:coord >20.828018 52.181808 1468</gx:coord>
<gx:coord >20.822859 52.18166 1490</gx:coord>
<gx:coord >20.822231 52.181614 1497</gx:coord>
<gx:coord >20.817601 52.181474 1522</gx:coord>
<gx:coord >20.812454 52.181351 1544</gx:coord>
<gx:coord >20.807877 52.181213 1565</gx:coord>
<gx:coord >20.804653 52.181102 1575</gx:coord>
<gx:coord >20.799561 52.180939 1590</gx:coord>
<gx:coord >20.798721 52.180939 1590</gx:coord>
<gx:coord >20.792847 52.180756 1613</gx:coord>
<gx:coord >20.790998 52.180729 1620</gx:coord>
<gx:coord >20.78629 52.18059 1636</gx:coord>
<gx:coord >20.781424 52.18045 1658</gx:coord>
<gx:coord >20.777206 52.180344 1663</gx:coord>
<gx:coord >20.773734 52.180264 1679</gx:coord>
<gx:coord >20.772714 52.180217 1679</gx:coord>
<gx:coord >20.766279 52.180078 1699</gx:coord>
<gx:coord >20.760727 52.179932 1729</gx:coord>
<gx:coord >20.754471 52.179749 1760</gx:coord>
<gx:coord >20.748215 52.179565 1792</gx:coord>
<gx:coord >20.743713 52.179428 1820</gx:coord>
<gx:coord >20.738525 52.179337 1850</gx:coord>
<gx:coord >20.733398 52.179193 1880</gx:coord>
<gx:coord >20.729294 52.179062 1909</gx:coord>
<gx:coord >20.725403 52.17897 1938</gx:coord>
<gx:coord >20.721235 52.178867 1967</gx:coord>
<gx:coord >20.719299 52.178787 1985</gx:coord>
<gx:coord >20.7164 52.178741 2015</gx:coord>
<gx:coord >20.712357 52.178604 2046</gx:coord>
<gx:coord >20.709229 52.178495 2076</gx:coord>
<gx:coord >20.702591 52.178329 2135</gx:coord>
<gx:coord >20.695419 52.178101 2196</gx:coord>
<gx:coord >20.689926 52.177963 2252</gx:coord>
<gx:coord >20.683646 52.177796 2305</gx:coord>
<gx:coord >20.675964 52.177597 2366</gx:coord>
<gx:coord >20.668106 52.177368 2424</gx:coord>
<gx:coord >20.660706 52.177185 2485</gx:coord>
<gx:coord >20.655289 52.177048 2540</gx:coord>
<gx:coord >20.64888 52.17691 2601</gx:coord>
<gx:coord >20.642133 52.176726 2659</gx:coord>
<gx:coord >20.635699 52.176586 2719</gx:coord>
<gx:coord >20.62895 52.1764 2777</gx:coord>
<gx:coord >20.620422 52.176132 2842</gx:coord>
<gx:coord >20.61765 52.176027 2858</gx:coord>
<gx:coord >20.608861 52.175748 2917</gx:coord>
<gx:coord >20.598894 52.175469 2977</gx:coord>
<gx:coord >20.59166 52.175217 3028</gx:coord>
<gx:coord >20.582493 52.174957 3095</gx:coord>
<gx:coord >20.576529 52.174771 3124</gx:coord>
<gx:coord >20.575352 52.174724 3131</gx:coord>
<gx:coord >20.567169 52.174484 3161</gx:coord>
<gx:coord >20.551967 52.173979 3221</gx:coord>
<gx:coord >20.547638 52.173843 3244</gx:coord>
<gx:coord >20.54451 52.173752 3267</gx:coord>
<gx:coord >20.536508 52.173514 3329</gx:coord>
<gx:coord >20.533218 52.173386 3358</gx:coord>
<gx:coord >20.532227 52.17334 3365</gx:coord>
<gx:coord >20.526962 52.173203 3422</gx:coord>
<gx:coord >20.521912 52.173002 3475</gx:coord>
<gx:coord >20.516586 52.172836 3539</gx:coord>
<gx:coord >20.505589 52.172443 3645</gx:coord>
<gx:coord >20.494461 52.172058 3757</gx:coord>
<gx:coord >20.486206 52.171791 3846</gx:coord>
<gx:coord >20.480321 52.171605 3895</gx:coord>
<gx:coord >20.469884 52.171233 3968</gx:coord>
<gx:coord >20.466995 52.171143 3982</gx:coord>
<gx:coord >20.463763 52.171046 4006</gx:coord>
<gx:coord >20.462899 52.171 4006</gx:coord>
<gx:coord >20.456072 52.170767 4037</gx:coord>
<gx:coord >20.439758 52.170227 4075</gx:coord>
<gx:coord >20.420288 52.169557 4128</gx:coord>
<gx:coord >20.404663 52.169037 4159</gx:coord>
<gx:coord >20.381622 52.168259 4220</gx:coord>
<gx:coord >20.358963 52.16748 4281</gx:coord>
<gx:coord >20.343148 52.166996 4335</gx:coord>
<gx:coord >20.340729 52.166885 4343</gx:coord>
<gx:coord >20.334673 52.166717 4380</gx:coord>
<gx:coord >20.328866 52.166531 4415</gx:coord>
<gx:coord >20.309169 52.165879 4525</gx:coord>
<gx:coord >20.293655 52.165375 4616</gx:coord>
<gx:coord >20.268991 52.164669 4738</gx:coord>
<gx:coord >20.253845 52.164808 4797</gx:coord>
<gx:coord >20.243759 52.165329 4839</gx:coord>
<gx:coord >20.231166 52.166298 4891</gx:coord>
<gx:coord >20.203857 52.168812 4997</gx:coord>
<gx:coord >20.175476 52.171371 5104</gx:coord>
<gx:coord >20.146408 52.173935 5226</gx:coord>
<gx:coord >20.119027 52.176307 5340</gx:coord>
<gx:coord >20.092697 52.178558 5462</gx:coord>
<gx:coord >20.063782 52.181009 5569</gx:coord>
<gx:coord >20.029332 52.183848 5660</gx:coord>
<gx:coord >19.998016 52.186432 5767</gx:coord>
<gx:coord >19.969406 52.188812 5889</gx:coord>
<gx:coord >19.940264 52.191203 6011</gx:coord>
<gx:coord >19.910679 52.193671 6117</gx:coord>
<gx:coord >19.880142 52.196228 6232</gx:coord>
<gx:coord >19.852142 52.198517 6352</gx:coord>
<gx:coord >19.847107 52.198929 6374</gx:coord>
<gx:coord >19.836426 52.199844 6441</gx:coord>
<gx:coord >19.835423 52.199909 6448</gx:coord>
<gx:coord >19.819336 52.201212 6561</gx:coord>
<gx:coord >19.810625 52.201957 6622</gx:coord>
<gx:coord >19.805908 52.202316 6653</gx:coord>
<gx:coord >19.797134 52.203049 6699</gx:coord>
<gx:coord >19.788967 52.203726 6738</gx:coord>
<gx:coord >19.787633 52.203866 6746</gx:coord>
<gx:coord >19.77417 52.204971 6787</gx:coord>
<gx:coord >19.750907 52.206892 6849</gx:coord>
<gx:coord >19.720459 52.209405 6956</gx:coord>
<gx:coord >19.687265 52.212059 7055</gx:coord>
<gx:coord >19.660976 52.214154 7130</gx:coord>
<gx:coord >19.646149 52.215317 7178</gx:coord>
<gx:coord >19.62059 52.217377 7260</gx:coord>
<gx:coord >19.591599 52.219711 7335</gx:coord>
<gx:coord >19.584072 52.220299 7364</gx:coord>
<gx:coord >19.57952 52.220671 7385</gx:coord>
<gx:coord >19.57285 52.22123 7422</gx:coord>
<gx:coord >19.548523 52.223185 7542</gx:coord>
<gx:coord >19.523849 52.225159 7634</gx:coord>
<gx:coord >19.506073 52.226532 7687</gx:coord>
<gx:coord >19.466248 52.229645 7771</gx:coord>
<gx:coord >19.424057 52.232941 7847</gx:coord>
<gx:coord >19.391174 52.235504 7946</gx:coord>
<gx:coord >19.386139 52.235916 7961</gx:coord>
<gx:coord >19.344406 52.239212 8040</gx:coord>
<gx:coord >19.334996 52.239944 8074</gx:coord>
<gx:coord >19.300467 52.242597 8160</gx:coord>
<gx:coord >19.274649 52.244552 8237</gx:coord>
<gx:coord >19.262161 52.245529 8265</gx:coord>
<gx:coord >19.220895 52.248742 8350</gx:coord>
<gx:coord >19.185189 52.251489 8434</gx:coord>
<gx:coord >19.1362 52.255234 8510</gx:coord>
<gx:coord >19.085999 52.258937 8579</gx:coord>
<gx:coord >19.03595 52.262695 8647</gx:coord>
<gx:coord >19.025879 52.263474 8670</gx:coord>
<gx:coord >19.014038 52.264384 8701</gx:coord>
<gx:coord >18.983612 52.266724 8815</gx:coord>
<gx:coord >18.953629 52.268967 8924</gx:coord>
<gx:coord >18.950474 52.269225 8932</gx:coord>
<gx:coord >18.941345 52.269882 8946</gx:coord>
<gx:coord >18.927795 52.270901 8958</gx:coord>
<gx:coord >18.87153 52.275044 9005</gx:coord>
<gx:coord >18.818481 52.278954 9074</gx:coord>
<gx:coord >18.775792 52.282073 9158</gx:coord>
<gx:coord >18.738022 52.284851 9226</gx:coord>
<gx:coord >18.68437 52.288777 9295</gx:coord>
<gx:coord >18.634949 52.292221 9371</gx:coord>
<gx:coord >18.603134 52.294373 9394</gx:coord>
<gx:coord >18.545837 52.298309 9432</gx:coord>
<gx:coord >18.495789 52.301788 9508</gx:coord>
<gx:coord >18.449402 52.305038 9592</gx:coord>
<gx:coord >18.429722 52.30642 9636</gx:coord>
<gx:coord >18.392792 52.309067 9743</gx:coord>
<gx:coord >18.352203 52.311996 9835</gx:coord>
<gx:coord >18.342972 52.312637 9850</gx:coord>
<gx:coord >18.287735 52.316574 9919</gx:coord>
<gx:coord >18.236441 52.32006 9995</gx:coord>
<gx:coord >18.190927 52.323039 10094</gx:coord>
<gx:coord >18.152475 52.325693 10193</gx:coord>
<gx:coord >18.128204 52.327332 10246</gx:coord>
<gx:coord >18.078709 52.330814 10323</gx:coord>
<gx:coord >18.039629 52.333514 10384</gx:coord>
<gx:coord >17.979754 52.337424 10452</gx:coord>
<gx:coord >17.92305 52.341064 10521</gx:coord>
<gx:coord >17.866987 52.344686 10597</gx:coord>
<gx:coord >17.81662 52.347885 10672</gx:coord>
<gx:coord >17.760696 52.351501 10748</gx:coord>
<gx:coord >17.699995 52.355393 10809</gx:coord>
<gx:coord >17.638471 52.35935 10855</gx:coord>
<gx:coord >17.577744 52.363266 10893</gx:coord>
<gx:coord >17.515581 52.367218 10893</gx:coord>
<gx:coord >17.453823 52.370988 10893</gx:coord>
<gx:coord >17.393712 52.374712 10885</gx:coord>
<gx:coord >17.331796 52.378483 10885</gx:coord>
<gx:coord >17.2709 52.382114 10892</gx:coord>
<gx:coord >17.212673 52.385513 10892</gx:coord>
<gx:coord >17.152023 52.389084 10884</gx:coord>
<gx:coord >17.090489 52.392682 10877</gx:coord>
<gx:coord >17.029343 52.396271 10877</gx:coord>
<gx:coord >16.968231 52.399887 10869</gx:coord>
<gx:coord >16.909842 52.403202 10877</gx:coord>
<gx:coord >16.84845 52.406525 10892</gx:coord>
<gx:coord >16.786423 52.409958 10892</gx:coord>
<gx:coord >16.724167 52.413345 10892</gx:coord>
<gx:coord >16.66367 52.416749 10892</gx:coord>
<gx:coord >16.603716 52.420101 10892</gx:coord>
<gx:coord >16.543961 52.42337 10892</gx:coord>
<gx:coord >16.483612 52.42662 10891</gx:coord>
<gx:coord >16.423697 52.429691 10891</gx:coord>
<gx:coord >16.363586 52.432763 10883</gx:coord>
<gx:coord >16.305008 52.435822 10883</gx:coord>
<gx:coord >16.249542 52.438705 10883</gx:coord>
<gx:coord >16.191101 52.441701 10883</gx:coord>
<gx:coord >16.12915 52.444885 10876</gx:coord>
<gx:coord >16.069153 52.447939 10883</gx:coord>
<gx:coord >16.00912 52.450825 10883</gx:coord>
<gx:coord >15.948696 52.453618 10891</gx:coord>
<gx:coord >15.8918 52.456284 10883</gx:coord>
<gx:coord >15.83107 52.459213 10890</gx:coord>
<gx:coord >15.771109 52.462138 10898</gx:coord>
<gx:coord >15.710606 52.46507 10898</gx:coord>
<gx:coord >15.650103 52.46791 10898</gx:coord>
<gx:coord >15.590149 52.470563 10905</gx:coord>
<gx:coord >15.530038 52.47331 10913</gx:coord>
<gx:coord >15.469927 52.476243 10913</gx:coord>
<gx:coord >15.407867 52.478943 10913</gx:coord>
<gx:coord >15.347665 52.481364 10905</gx:coord>
<gx:coord >15.285435 52.484017 10898</gx:coord>
<gx:coord >15.225449 52.486633 10898</gx:coord>
<gx:coord >15.163803 52.489197 10898</gx:coord>
<gx:coord >15.101179 52.491745 10897</gx:coord>
<gx:coord >15.039597 52.494232 10904</gx:coord>
<gx:coord >14.977493 52.496658 10904</gx:coord>
<gx:coord >14.915009 52.49913 10904</gx:coord>
<gx:coord >14.852524 52.501694 10904</gx:coord>
<gx:coord >14.793243 52.504166 10904</gx:coord>
<gx:coord >14.731018 52.506502 10904</gx:coord>
<gx:coord >14.693909 52.507462 10904</gx:coord>
<gx:coord >14.66095 52.507599 10904</gx:coord>
<gx:coord >14.599339 52.50706 10912</gx:coord>
<gx:coord >14.53804 52.506546 10897</gx:coord>
<gx:coord >14.474792 52.506271 10912</gx:coord>
<gx:coord >14.413121 52.506222 10912</gx:coord>
<gx:coord >14.351425 52.50618 10920</gx:coord>
<gx:coord >14.288504 52.506316 10920</gx:coord>
<gx:coord >14.225388 52.50618 10920</gx:coord>
<gx:coord >14.163103 52.50585 10926</gx:coord>
<gx:coord >14.103385 52.505617 10919</gx:coord>
<gx:coord >14.039459 52.505493 10919</gx:coord>
<gx:coord >13.977203 52.505493 10926</gx:coord>
<gx:coord >13.914577 52.505291 10926</gx:coord>
<gx:coord >13.852921 52.50499 10919</gx:coord>
<gx:coord >13.79158 52.504486 10911</gx:coord>
<gx:coord >13.730316 52.504166 10911</gx:coord>
<gx:coord >13.669739 52.503937 10919</gx:coord>
<gx:coord >13.609471 52.503569 10919</gx:coord>
<gx:coord >13.547897 52.503159 10919</gx:coord>
<gx:coord >13.486424 52.502731 10919</gx:coord>
<gx:coord >13.42514 52.502151 10918</gx:coord>
<gx:coord >13.36525 52.501511 10918</gx:coord>
<gx:coord >13.303757 52.500916 10918</gx:coord>
<gx:coord >13.24234 52.500275 10925</gx:coord>
<gx:coord >13.181076 52.49968 10925</gx:coord>
<gx:coord >13.119559 52.499053 10925</gx:coord>
<gx:coord >13.059684 52.498402 10925</gx:coord>
<gx:coord >13.000946 52.497711 10933</gx:coord>
<gx:coord >12.939619 52.496959 10940</gx:coord>
<gx:coord >12.877311 52.496167 10948</gx:coord>
<gx:coord >12.816101 52.495236 10940</gx:coord>
<gx:coord >12.754028 52.494259 10933</gx:coord>
<gx:coord >12.692348 52.493514 10933</gx:coord>
<gx:coord >12.629929 52.492538 10932</gx:coord>
<gx:coord >12.568207 52.491577 10947</gx:coord>
<gx:coord >12.506256 52.490662 10947</gx:coord>
<gx:coord >12.444292 52.489696 10955</gx:coord>
<gx:coord >12.38269 52.488719 10962</gx:coord>
<gx:coord >12.321091 52.48764 10970</gx:coord>
<gx:coord >12.258911 52.48645 10970</gx:coord>
<gx:coord >12.197342 52.48526 10970</gx:coord>
<gx:coord >12.136126 52.484064 10962</gx:coord>
<gx:coord >12.074432 52.482788 10970</gx:coord>
<gx:coord >12.013628 52.48141 10970</gx:coord>
<gx:coord >11.953201 52.480087 10970</gx:coord>
<gx:coord >11.894913 52.478851 10970</gx:coord>
<gx:coord >11.835251 52.477615 10961</gx:coord>
<gx:coord >11.773987 52.476288 10969</gx:coord>
<gx:coord >11.717625 52.475079 10969</gx:coord>
<gx:coord >11.653595 52.473358 10961</gx:coord>
<gx:coord >11.593857 52.471939 10961</gx:coord>
<gx:coord >11.534348 52.470474 10954</gx:coord>
<gx:coord >11.474609 52.468918 10954</gx:coord>
<gx:coord >11.415176 52.467453 10954</gx:coord>
<gx:coord >11.354606 52.466001 10961</gx:coord>
<gx:coord >11.294102 52.464698 10977</gx:coord>
<gx:coord >11.233139 52.463242 10984</gx:coord>
<gx:coord >11.173935 52.461685 10984</gx:coord>
<gx:coord >11.112592 52.459856 10984</gx:coord>
<gx:coord >11.052089 52.457994 10984</gx:coord>
<gx:coord >10.990644 52.456132 10992</gx:coord>
<gx:coord >10.930862 52.454407 10992</gx:coord>
<gx:coord >10.870265 52.452594 10992</gx:coord>
<gx:coord >10.809631 52.450699 10983</gx:coord>
<gx:coord >10.747689 52.448777 10983</gx:coord>
<gx:coord >10.689383 52.447008 10983</gx:coord>
<gx:coord >10.631561 52.445206 10991</gx:coord>
<gx:coord >10.571747 52.443237 10998</gx:coord>
<gx:coord >10.512111 52.441189 10998</gx:coord>
<gx:coord >10.45098 52.439001 10998</gx:coord>
<gx:coord >10.389557 52.437012 11014</gx:coord>
<gx:coord >10.327988 52.435043 11014</gx:coord>
<gx:coord >10.266881 52.432949 11014</gx:coord>
<gx:coord >10.205985 52.430808 11014</gx:coord>
<gx:coord >10.145874 52.428573 11006</gx:coord>
<gx:coord >10.084305 52.426208 11014</gx:coord>
<gx:coord >10.023063 52.423778 11014</gx:coord>
<gx:coord >9.962616 52.421539 11014</gx:coord>
<gx:coord >9.902115 52.41925 11014</gx:coord>
<gx:coord >9.842606 52.416962 11014</gx:coord>
<gx:coord >9.781442 52.414701 11014</gx:coord>
<gx:coord >9.721909 52.412338 11021</gx:coord>
<gx:coord >9.660034 52.409866 11021</gx:coord>
<gx:coord >9.601658 52.407578 11014</gx:coord>
<gx:coord >9.546334 52.405204 11014</gx:coord>
<gx:coord >9.487534 52.402634 11014</gx:coord>
<gx:coord >9.42674 52.400037 11014</gx:coord>
<gx:coord >9.365766 52.397476 11029</gx:coord>
<gx:coord >9.306107 52.394943 11029</gx:coord>
<gx:coord >9.246329 52.392309 11029</gx:coord>
<gx:coord >9.186532 52.389656 11036</gx:coord>
<gx:coord >9.127755 52.387049 11036</gx:coord>
<gx:coord >9.066232 52.384209 11036</gx:coord>
<gx:coord >9.005356 52.381348 11036</gx:coord>
<gx:coord >8.944397 52.378555 11036</gx:coord>
<gx:coord >8.884879 52.375876 11044</gx:coord>
<gx:coord >8.824925 52.373083 11043</gx:coord>
<gx:coord >8.763794 52.370104 11043</gx:coord>
<gx:coord >8.703212 52.367264 11051</gx:coord>
<gx:coord >8.643886 52.364285 11058</gx:coord>
<gx:coord >8.582363 52.361166 11058</gx:coord>
<gx:coord >8.52272 52.358185 11058</gx:coord>
<gx:coord >8.462219 52.355026 11058</gx:coord>
<gx:coord >8.401413 52.351868 11058</gx:coord>
<gx:coord >8.340759 52.348801 11066</gx:coord>
<gx:coord >8.280869 52.345688 11058</gx:coord>
<gx:coord >8.220834 52.342545 11058</gx:coord>
<gx:coord >8.161392 52.339371 11058</gx:coord>
<gx:coord >8.101397 52.336214 11058</gx:coord>
<gx:coord >8.042306 52.333048 11066</gx:coord>
<gx:coord >7.981803 52.329743 11066</gx:coord>
<gx:coord >7.922897 52.326599 11058</gx:coord>
<gx:coord >7.863464 52.323272 11066</gx:coord>
<gx:coord >7.804184 52.319916 11066</gx:coord>
<gx:coord >7.74489 52.316755 11066</gx:coord>
<gx:coord >7.684631 52.313507 11066</gx:coord>
<gx:coord >7.625656 52.31012 11081</gx:coord>
<gx:coord >7.566755 52.3067 11081</gx:coord>
<gx:coord >7.508371 52.303162 11081</gx:coord>
<gx:coord >7.449672 52.299531 11096</gx:coord>
<gx:coord >7.39357 52.296021 11089</gx:coord>
<gx:coord >7.33429 52.292358 11089</gx:coord>
<gx:coord >7.275146 52.288824 11081</gx:coord>
<gx:coord >7.215742 52.285379 11089</gx:coord>
<gx:coord >7.156337 52.281748 11096</gx:coord>
<gx:coord >7.097403 52.277977 11089</gx:coord>
<gx:coord >7.037277 52.274231 11096</gx:coord>
<gx:coord >6.979141 52.270523 11104</gx:coord>
<gx:coord >6.922328 52.266897 11112</gx:coord>
<gx:coord >6.861354 52.262801 11112</gx:coord>
<gx:coord >6.801793 52.258844 11104</gx:coord>
<gx:coord >6.742096 52.254959 11112</gx:coord>
<gx:coord >6.683297 52.251116 11112</gx:coord>
<gx:coord >6.624527 52.247177 11112</gx:coord>
<gx:coord >6.565018 52.243195 11112</gx:coord>
<gx:coord >6.507034 52.239304 11113</gx:coord>
<gx:coord >6.447641 52.235428 11120</gx:coord>
<gx:coord >6.3871 52.23143 11120</gx:coord>
<gx:coord >6.326712 52.227375 11128</gx:coord>
<gx:coord >6.267395 52.22319 11143</gx:coord>
<gx:coord >6.209159 52.219088 11136</gx:coord>
<gx:coord >6.150055 52.214951 11136</gx:coord>
<gx:coord >6.090428 52.210662 11136</gx:coord>
<gx:coord >6.030866 52.206473 11128</gx:coord>
<gx:coord >5.971985 52.202316 11128</gx:coord>
<gx:coord >5.913086 52.198059 11128</gx:coord>
<gx:coord >5.853882 52.19371 11128</gx:coord>
<gx:coord >5.794189 52.189295 11128</gx:coord>
<gx:coord >5.735334 52.184919 11128</gx:coord>
<gx:coord >5.676636 52.18045 11136</gx:coord>
<gx:coord >5.616996 52.175934 11136</gx:coord>
<gx:coord >5.558297 52.171558 11143</gx:coord>
<gx:coord >5.501404 52.167389 11143</gx:coord>
<gx:coord >5.442734 52.162949 11158</gx:coord>
<gx:coord >5.382516 52.158245 11158</gx:coord>
<gx:coord >5.323425 52.153496 11158</gx:coord>
<gx:coord >5.264359 52.148895 11166</gx:coord>
<gx:coord >5.206185 52.144372 11166</gx:coord>
<gx:coord >5.146484 52.139694 11166</gx:coord>
<gx:coord >5.087128 52.134979 11166</gx:coord>
<gx:coord >5.028913 52.130267 11166</gx:coord>
<gx:coord >4.96943 52.125425 11166</gx:coord>
<gx:coord >4.910431 52.120605 11166</gx:coord>
<gx:coord >4.851379 52.115753 11166</gx:coord>
<gx:coord >4.793777 52.110764 11166</gx:coord>
<gx:coord >4.735264 52.105734 11166</gx:coord>
<gx:coord >4.675903 52.100784 11166</gx:coord>
<gx:coord >4.618301 52.096024 11166</gx:coord>
<gx:coord >4.558792 52.09108 11166</gx:coord>
<gx:coord >4.517365 52.087692 11151</gx:coord>
<gx:coord >4.503767 52.086554 11128</gx:coord>
<gx:coord >4.479989 52.084552 11090</gx:coord>
<gx:coord >4.443741 52.081467 10991</gx:coord>
<gx:coord >4.429609 52.080223 10960</gx:coord>
<gx:coord >4.385757 52.076431 10876</gx:coord>
<gx:coord >4.338074 52.072311 10785</gx:coord>
<gx:coord >4.292984 52.068512 10701</gx:coord>
<gx:coord >4.250061 52.064768 10617</gx:coord>
<gx:coord >4.206822 52.06095 10526</gx:coord>
<gx:coord >4.167099 52.057388 10435</gx:coord>
<gx:coord >4.122777 52.053549 10342</gx:coord>
<gx:coord >4.077072 52.049606 10258</gx:coord>
<gx:coord >4.031119 52.045588 10182</gx:coord>
<gx:coord >3.986282 52.041595 10091</gx:coord>
<gx:coord >3.94111 52.037488 9999</gx:coord>
<gx:coord >3.89583 52.033345 9923</gx:coord>
<gx:coord >3.851624 52.029327 9839</gx:coord>
<gx:coord >3.810529 52.025571 9740</gx:coord>
<gx:coord >3.765564 52.021408 9649</gx:coord>
<gx:coord >3.724208 52.01761 9565</gx:coord>
<gx:coord >3.679581 52.013489 9473</gx:coord>
<gx:coord >3.635768 52.009324 9374</gx:coord>
<gx:coord >3.592608 52.00532 9291</gx:coord>
<gx:coord >3.549133 52.001317 9199</gx:coord>
<gx:coord >3.507919 51.997421 9115</gx:coord>
<gx:coord >3.463593 51.993301 9031</gx:coord>
<gx:coord >3.414629 51.988748 8948</gx:coord>
<gx:coord >3.367467 51.984372 8871</gx:coord>
<gx:coord >3.319441 51.979717 8780</gx:coord>
<gx:coord >3.2773 51.97562 8696</gx:coord>
<gx:coord >3.235552 51.971477 8597</gx:coord>
<gx:coord >3.193512 51.967346 8490</gx:coord>
<gx:coord >3.159866 51.964325 8414</gx:coord>
<gx:coord >3.131339 51.962446 8346</gx:coord>
<gx:coord >3.092337 51.960072 8247</gx:coord>
<gx:coord >3.051845 51.957465 8148</gx:coord>
<gx:coord >3.013 51.954951 8048</gx:coord>
<gx:coord >2.972565 51.952423 7965</gx:coord>
<gx:coord >2.9328 51.94983 7858</gx:coord>
<gx:coord >2.89325 51.94713 7759</gx:coord>
<gx:coord >2.853241 51.944412 7660</gx:coord>
<gx:coord >2.814148 51.941777 7561</gx:coord>
<gx:coord >2.774833 51.939123 7454</gx:coord>
<gx:coord >2.737636 51.936609 7363</gx:coord>
<gx:coord >2.699127 51.933975 7264</gx:coord>
<gx:coord >2.668658 51.931908 7203</gx:coord>
<gx:coord >2.640956 51.929999 7157</gx:coord>
<gx:coord >2.601852 51.927246 7126</gx:coord>
<gx:coord >2.552032 51.923813 7088</gx:coord>
<gx:coord >2.501351 51.920363 7035</gx:coord>
<gx:coord >2.47263 51.918407 6974</gx:coord>
<gx:coord >2.437973 51.915985 6883</gx:coord>
<gx:coord >2.400748 51.913426 6791</gx:coord>
<gx:coord >2.363586 51.910904 6692</gx:coord>
<gx:coord >2.325178 51.908259 6608</gx:coord>
<gx:coord >2.308777 51.907607 6563</gx:coord>
<gx:coord >2.290806 51.907281 6517</gx:coord>
<gx:coord >2.255783 51.906784 6425</gx:coord>
<gx:coord >2.218552 51.906006 6334</gx:coord>
<gx:coord >2.183304 51.90509 6243</gx:coord>
<gx:coord >2.14822 51.904209 6143</gx:coord>
<gx:coord >2.110748 51.903259 6052</gx:coord>
<gx:coord >2.072983 51.902252 5968</gx:coord>
<gx:coord >2.033005 51.901291 5884</gx:coord>
<gx:coord >1.996384 51.900375 5801</gx:coord>
<gx:coord >1.956558 51.899414 5716</gx:coord>
<gx:coord >1.927719 51.898636 5662</gx:coord>
<gx:coord >1.912641 51.89853 5654</gx:coord>
<gx:coord >1.90346 51.898995 5643</gx:coord>
<gx:coord >1.897025 51.899647 5643</gx:coord>
<gx:coord >1.891098 51.900558 5645</gx:coord>
<gx:coord >1.884995 51.901794 5645</gx:coord>
<gx:coord >1.878976 51.903278 5645</gx:coord>
<gx:coord >1.87294 51.905182 5644</gx:coord>
<gx:coord >1.867065 51.907471 5646</gx:coord>
<gx:coord >1.860428 51.910492 5647</gx:coord>
<gx:coord >1.853333 51.914246 5647</gx:coord>
<gx:coord >1.819687 51.932877 5647</gx:coord>
<gx:coord >1.795401 51.945501 5647</gx:coord>
<gx:coord >1.760406 51.963135 5647</gx:coord>
<gx:coord >1.725159 51.980988 5647</gx:coord>
<gx:coord >1.690674 51.998474 5647</gx:coord>
<gx:coord >1.656113 52.016235 5647</gx:coord>
<gx:coord >1.621033 52.034322 5647</gx:coord>
<gx:coord >1.586112 52.052245 5647</gx:coord>
<gx:coord >1.550563 52.070214 5632</gx:coord>
<gx:coord >1.543501 52.073287 5617</gx:coord>
<gx:coord >1.535653 52.076173 5594</gx:coord>
<gx:coord >1.528198 52.078314 5579</gx:coord>
<gx:coord >1.522446 52.079636 5563</gx:coord>
<gx:coord >1.514622 52.081014 5540</gx:coord>
<gx:coord >1.505585 52.082382 5525</gx:coord>
<gx:coord >1.459427 52.088882 5487</gx:coord>
<gx:coord >1.428615 52.09377 5441</gx:coord>
<gx:coord >1.383667 52.101334 5380</gx:coord>
<gx:coord >1.339798 52.108658 5319</gx:coord>
<gx:coord >1.295013 52.115982 5259</gx:coord>
<gx:coord >1.253281 52.12262 5205</gx:coord>
<gx:coord >1.236511 52.124913 5182</gx:coord>
<gx:coord >1.209183 52.12825 5137</gx:coord>
<gx:coord >1.164474 52.133286 5068</gx:coord>
<gx:coord >1.120224 52.138367 5030</gx:coord>
<gx:coord >1.076508 52.143677 4977</gx:coord>
<gx:coord >1.032257 52.149216 4923</gx:coord>
<gx:coord >0.988693 52.154572 4878</gx:coord>
<gx:coord >0.945452 52.159874 4832</gx:coord>
<gx:coord >0.901794 52.165283 4777</gx:coord>
<gx:coord >0.857718 52.170721 4724</gx:coord>
<gx:coord >0.814636 52.176027 4678</gx:coord>
<gx:coord >0.771103 52.181396 4617</gx:coord>
<gx:coord >0.727158 52.186707 4556</gx:coord>
<gx:coord >0.683517 52.192062 4511</gx:coord>
<gx:coord >0.640869 52.197235 4465</gx:coord>
<gx:coord >0.597382 52.202454 4412</gx:coord>
<gx:coord >0.554276 52.207672 4358</gx:coord>
<gx:coord >0.510786 52.212897 4305</gx:coord>
<gx:coord >0.466614 52.218063 4252</gx:coord>
<gx:coord >0.423052 52.223138 4198</gx:coord>
<gx:coord >0.380173 52.228134 4153</gx:coord>
<gx:coord >0.344107 52.232449 4092</gx:coord>
<gx:coord >0.308685 52.23674 4015</gx:coord>
<gx:coord >0.27301 52.241014 3939</gx:coord>
<gx:coord >0.237808 52.245071 3855</gx:coord>
<gx:coord >0.206299 52.248734 3787</gx:coord>
<gx:coord >0.18818 52.250837 3741</gx:coord>
<gx:coord >0.174761 52.252047 3718</gx:coord>
<gx:coord >0.15564 52.253448 3665</gx:coord>
<gx:coord >0.137094 52.254701 3619</gx:coord>
<gx:coord >0.118942 52.255875 3573</gx:coord>
<gx:coord >0.103607 52.25647 3526</gx:coord>
<gx:coord >0.096359 52.256287 3503</gx:coord>
<gx:coord >0.088597 52.255632 3477</gx:coord>
<gx:coord >0.082947 52.254747 3453</gx:coord>
<gx:coord >0.075607 52.253174 3437</gx:coord>
<gx:coord >0.071097 52.251954 3422</gx:coord>
<gx:coord >0.065683 52.250092 3406</gx:coord>
<gx:coord >0.059091 52.247392 3391</gx:coord>
<gx:coord >0.05249 52.244247 3375</gx:coord>
<gx:coord >0.041827 52.238733 3353</gx:coord>
<gx:coord >0.024327 52.229376 3307</gx:coord>
<gx:coord >0.008711 52.221137 3261</gx:coord>
<gx:coord >-0.005188 52.213806 3215</gx:coord>
<gx:coord >-0.019608 52.206253 3170</gx:coord>
<gx:coord >-0.035078 52.19814 3116</gx:coord>
<gx:coord >-0.04936 52.190738 3071</gx:coord>
<gx:coord >-0.06485 52.18277 3025</gx:coord>
<gx:coord >-0.079886 52.175003 2978</gx:coord>
<gx:coord >-0.09491 52.167297 2932</gx:coord>
<gx:coord >-0.109711 52.15979 2887</gx:coord>
<gx:coord >-0.125122 52.151962 2841</gx:coord>
<gx:coord >-0.140547 52.144139 2795</gx:coord>
<gx:coord >-0.156398 52.136132 2750</gx:coord>
<gx:coord >-0.17068 52.12901 2696</gx:coord>
<gx:coord >-0.185355 52.121608 2650</gx:coord>
<gx:coord >-0.199509 52.114471 2605</gx:coord>
<gx:coord >-0.213998 52.107223 2551</gx:coord>
<gx:coord >-0.229928 52.09917 2506</gx:coord>
<gx:coord >-0.245819 52.091217 2460</gx:coord>
<gx:coord >-0.261078 52.083618 2422</gx:coord>
<gx:coord >-0.275879 52.076202 2369</gx:coord>
<gx:coord >-0.290833 52.068695 2323</gx:coord>
<gx:coord >-0.306931 52.060638 2269</gx:coord>
<gx:coord >-0.320408 52.053967 2231</gx:coord>
<gx:coord >-0.32802 52.050197 2201</gx:coord>
<gx:coord >-0.338211 52.045258 2170</gx:coord>
<gx:coord >-0.348969 52.040085 2140</gx:coord>
<gx:coord >-0.356271 52.03665 2132</gx:coord>
<gx:coord >-0.363998 52.03299 2125</gx:coord>
<gx:coord >-0.36812 52.031064 2117</gx:coord>
<gx:coord >-0.377045 52.026947 2109</gx:coord>
<gx:coord >-0.383815 52.023802 2094</gx:coord>
<gx:coord >-0.393467 52.019333 2087</gx:coord>
<gx:coord >-0.402178 52.015283 2071</gx:coord>
<gx:coord >-0.413361 52.010101 2049</gx:coord>
<gx:coord >-0.426034 52.00425 2026</gx:coord>
<gx:coord >-0.439296 51.998105 2003</gx:coord>
<gx:coord >-0.451852 51.992332 1980</gx:coord>
<gx:coord >-0.464478 51.986481 1956</gx:coord>
<gx:coord >-0.47202 51.982975 1921</gx:coord>
<gx:coord >-0.480652 51.978972 1895</gx:coord>
<gx:coord >-0.490036 51.974625 1865</gx:coord>
<gx:coord >-0.49823 51.970825 1834</gx:coord>
<gx:coord >-0.506897 51.966797 1799</gx:coord>
<gx:coord >-0.515573 51.962772 1773</gx:coord>
<gx:coord >-0.527649 51.957092 1751</gx:coord>
<gx:coord >-0.536575 51.952972 1715</gx:coord>
<gx:coord >-0.545079 51.949039 1690</gx:coord>
<gx:coord >-0.552826 51.945419 1660</gx:coord>
<gx:coord >-0.560684 51.941803 1629</gx:coord>
<gx:coord >-0.569563 51.937727 1599</gx:coord>
<gx:coord >-0.579529 51.933151 1569</gx:coord>
<gx:coord >-0.587926 51.929394 1561</gx:coord>
<gx:coord >-0.59433 51.926514 1553</gx:coord>
<gx:coord >-0.59954 51.92418 1553</gx:coord>
<gx:coord >-0.604876 51.921852 1553</gx:coord>
<gx:coord >-0.607936 51.920502 1553</gx:coord>
<gx:coord >-0.611938 51.918733 1553</gx:coord>
<gx:coord >-0.615463 51.91713 1553</gx:coord>
<gx:coord >-0.625229 51.912643 1553</gx:coord>
<gx:coord >-0.628732 51.911052 1553</gx:coord>
<gx:coord >-0.651489 51.900811 1553</gx:coord>
<gx:coord >-0.674843 51.890442 1553</gx:coord>
<gx:coord >-0.679445 51.888153 1554</gx:coord>
<gx:coord >-0.682602 51.886147 1546</gx:coord>
<gx:coord >-0.684938 51.884354 1547</gx:coord>
<gx:coord >-0.686417 51.882935 1547</gx:coord>
<gx:coord >-0.688171 51.880933 1542</gx:coord>
<gx:coord >-0.689318 51.879181 1534</gx:coord>
<gx:coord >-0.690506 51.877029 1518</gx:coord>
<gx:coord >-0.691248 51.874603 1503</gx:coord>
<gx:coord >-0.691605 51.871669 1490</gx:coord>
<gx:coord >-0.691471 51.869568 1475</gx:coord>
<gx:coord >-0.690951 51.867004 1467</gx:coord>
<gx:coord >-0.690002 51.864174 1450</gx:coord>
<gx:coord >-0.688872 51.861282 1429</gx:coord>
<gx:coord >-0.687536 51.858124 1396</gx:coord>
<gx:coord >-0.685977 51.854553 1369</gx:coord>
<gx:coord >-0.683899 51.850022 1339</gx:coord>
<gx:coord >-0.681458 51.844622 1303</gx:coord>
<gx:coord >-0.67894 51.839967 1272</gx:coord>
<gx:coord >-0.676624 51.837204 1257</gx:coord>
<gx:coord >-0.674896 51.835591 1243</gx:coord>
<gx:coord >-0.67276 51.834008 1234</gx:coord>
<gx:coord >-0.67076 51.832901 1219</gx:coord>
<gx:coord >-0.668945 51.832053 1211</gx:coord>
<gx:coord >-0.667191 51.831355 1203</gx:coord>
<gx:coord >-0.664599 51.830566 1195</gx:coord>
<gx:coord >-0.660629 51.829632 1180</gx:coord>
<gx:coord >-0.656582 51.829056 1165</gx:coord>
<gx:coord >-0.653381 51.828794 1157</gx:coord>
<gx:coord >-0.649109 51.828655 1142</gx:coord>
<gx:coord >-0.644185 51.828735 1119</gx:coord>
<gx:coord >-0.639286 51.829056 1104</gx:coord>
<gx:coord >-0.633495 51.829651 1088</gx:coord>
<gx:coord >-0.625916 51.83061 1058</gx:coord>
<gx:coord >-0.617832 51.831757 1027</gx:coord>
<gx:coord >-0.609073 51.833084 997</gx:coord>
<gx:coord >-0.600052 51.834567 966</gx:coord>
<gx:coord >-0.591257 51.836014 944</gx:coord>
<gx:coord >-0.580271 51.837936 921</gx:coord>
<gx:coord >-0.572281 51.839315 896</gx:coord>
<gx:coord >-0.564311 51.840729 861</gx:coord>
<gx:coord >-0.55603 51.842155 835</gx:coord>
<gx:coord >-0.548277 51.843475 800</gx:coord>
<gx:coord >-0.54026 51.844849 769</gx:coord>
<gx:coord >-0.532761 51.846158 738</gx:coord>
<gx:coord >-0.523911 51.847695 707</gx:coord>
<gx:coord >-0.51658 51.848969 677</gx:coord>
<gx:coord >-0.508499 51.850348 653</gx:coord>
<gx:coord >-0.502847 51.851349 625</gx:coord>
<gx:coord >-0.498047 51.852164 610</gx:coord>
<gx:coord >-0.4953 51.852676 603</gx:coord>
<gx:coord >-0.49263 51.853141 597</gx:coord>
<gx:coord >-0.489114 51.853775 572</gx:coord>
<gx:coord >-0.484924 51.854538 559</gx:coord>
<gx:coord >-0.482433 51.854965 549</gx:coord>
<gx:coord >-0.480132 51.855377 533</gx:coord>
<gx:coord >-0.473022 51.856586 509</gx:coord>
<gx:coord >-0.465164 51.857889 486</gx:coord>
<gx:coord >-0.457714 51.859222 464</gx:coord>
<gx:coord >-0.450058 51.860496 425</gx:coord>
<gx:coord >-0.441818 51.86194 403</gx:coord>
<gx:coord >-0.43537 51.863068 372</gx:coord>
<gx:coord >-0.427279 51.864487 342</gx:coord>
<gx:coord >-0.419006 51.865896 304</gx:coord>
<gx:coord >-0.410948 51.867325 281</gx:coord>
<gx:coord >-0.402985 51.86869 250</gx:coord>
<gx:coord >-0.396576 51.86976 220</gx:coord>
<gx:coord >-0.38887 51.87111 197</gx:coord>
<gx:coord >-0.38269 51.872181 173</gx:coord>
<gx:coord >-0.381775 51.872367 174</gx:coord>
<gx:coord >-0.376653 51.87323 166</gx:coord>
<gx:coord >-0.374574 51.873596 166</gx:coord>
<gx:coord >-0.37309 51.873825 166</gx:coord>
<gx:coord >-0.37309 51.873825 166</gx:coord>
</gx:Track>
</Placemark>
<Placemark ><name >9H-WMI</name>
<Style ><LineStyle ><color >ff1c1ae3</color>
<width >4</width>
</LineStyle>
<IconStyle ><Icon ><href >http://maps.google.com/mapfiles/kml/shapes/airports.png</href>
</Icon>
</IconStyle>
</Style>
<gx:Track ><extrude >0</extrude>
<when >2025-08-23T17:57:34.240Z</when>
<when >2025-08-23T17:57:36.910Z</when>
<when >2025-08-23T17:57:39.330Z</when>
<when >2025-08-23T17:57:41.810Z</when>
<when >2025-08-23T17:57:44.150Z</when>
<when >2025-08-23T17:57:46.540Z</when>
<when >2025-08-23T17:57:48.700Z</when>
<when >2025-08-23T17:57:50.800Z</when>
<when >2025-08-23T17:57:52.940Z</when>
<when >2025-08-23T17:57:55.420Z</when>
<when >2025-08-23T17:57:56.060Z</when>
<when >2025-08-23T17:57:57.840Z</when>
<when >2025-08-23T17:58:00.420Z</when>
<when >2025-08-23T17:58:02.930Z</when>
<when >2025-08-23T17:58:05.710Z</when>
<when >2025-08-23T17:58:08.190Z</when>
<when >2025-08-23T17:58:10.490Z</when>
<when >2025-08-23T17:58:12.690Z</when>
<when >2025-08-23T17:58:13.230Z</when>
<when >2025-08-23T17:58:15.070Z</when>
<when >2025-08-23T17:58:16.470Z</when>
<when >2025-08-23T17:58:19.330Z</when>
<when >2025-08-23T17:58:21.550Z</when>
<when >2025-08-23T17:58:23.900Z</when>
<when >2025-08-23T17:58:28.990Z</when>
<when >2025-08-23T17:58:34.240Z</when>
<when >2025-08-23T17:58:36.770Z</when>
<when >2025-08-23T17:58:39.050Z</when>
<when >2025-08-23T17:58:41.280Z</when>
<when >2025-08-23T17:58:43.600Z</when>
<when >2025-08-23T17:58:45.880Z</when>
<when >2025-08-23T17:58:47.910Z</when>
<when >2025-08-23T17:58:52.060Z</when>
<when >2025-08-23T17:58:54.060Z</when>
<when >2025-08-23T17:58:56.880Z</when>
<when >2025-08-23T17:59:02.660Z</when>
<when >2025-08-23T17:59:07.420Z</when>
<when >2025-08-23T17:59:12.000Z</when>
<when >2025-08-23T17:59:20.370Z</when>
<when >2025-08-23T17:59:24.720Z</when>
<when >2025-08-23T17:59:27.920Z</when>
<when >2025-08-23T17:59:32.580Z</when>
<when >2025-08-23T17:59:35.190Z</when>
<when >2025-08-23T17:59:40.340Z</when>
<when >2025-08-23T17:59:44.710Z</when>
<when >2025-08-23T17:59:50.400Z</when>
<when >2025-08-23T17:59:55.950Z</when>
<when >2025-08-23T17:59:58.720Z</when>
<when >2025-08-23T18:00:00.760Z</when>
<when >2025-08-23T18:00:03.340Z</when>
<when >2025-08-23T18:00:10.820Z</when>
<when >2025-08-23T18:00:17.200Z</when>
<when >2025-08-23T18:00:24.140Z</when>
<when >2025-08-23T18:00:26.720Z</when>
<when >2025-08-23T18:00:33.720Z</when>
<when >2025-08-23T18:00:38.210Z</when>
<when >2025-08-23T18:00:48.070Z</when>
<when >2025-08-23T18:00:51.110Z</when>
<when >2025-08-23T18:00:52.750Z</when>
<when >2025-08-23T18:00:55.110Z</when>
<when >2025-08-23T18:00:57.280Z</when>
<when >2025-08-23T18:01:03.540Z</when>
<when >2025-08-23T18:01:08.300Z</when>
<when >2025-08-23T18:01:13.550Z</when>
<when >2025-08-23T18:01:16.130Z</when>
<when >2025-08-23T18:01:23.280Z</when>
<when >2025-08-23T18:01:29.990Z</when>
<when >2025-08-23T18:01:39.050Z</when>
<when >2025-08-23T18:01:42.110Z</when>
<when >2025-08-23T18:01:57.520Z</when>
<when >2025-08-23T18:02:02.020Z</when>
<when >2025-08-23T18:02:11.560Z</when>
<when >2025-08-23T18:02:18.590Z</when>
<when >2025-08-23T18:02:22.730Z</when>
<when >2025-08-23T18:02:36.630Z</when>
<when >2025-08-23T18:03:41.840Z</when>
<when >2025-08-23T18:03:41.840Z</when>
<gx:coord >-0.371271 51.874157 0</gx:coord>
<gx:coord >-0.369397 51.874477 0</gx:coord>
<gx:coord >-0.36871 51.874592 0</gx:coord>
<gx:coord >-0.367031 51.874881 0</gx:coord>
<gx:coord >-0.365925 51.875067 0</gx:coord>
<gx:coord >-0.364423 51.875336 0</gx:coord>
<gx:coord >-0.363922 51.875416 0</gx:coord>
<gx:coord >-0.363083 51.875568 0</gx:coord>
<gx:coord >-0.362015 51.875754 0</gx:coord>
<gx:coord >-0.361732 51.875805 0</gx:coord>
<gx:coord >-0.361176 51.875896 0</gx:coord>
<gx:coord >-0.360928 51.87594 0</gx:coord>
<gx:coord >-0.360622 51.875998 0</gx:coord>
<gx:coord >-0.36005 51.876103 0</gx:coord>
<gx:coord >-0.359802 51.876138 0</gx:coord>
<gx:coord >-0.359516 51.876184 0</gx:coord>
<gx:coord >-0.359344 51.876254 0</gx:coord>
<gx:coord >-0.359208 51.876343 0</gx:coord>
<gx:coord >-0.359154 51.876429 0</gx:coord>
<gx:coord >-0.359153 51.8764 0</gx:coord>
<gx:coord >-0.359116 51.876572 0</gx:coord>
<gx:coord >-0.359153 51.876686 0</gx:coord>
<gx:coord >-0.35919 51.876755 0</gx:coord>
<gx:coord >-0.359249 51.876883 0</gx:coord>
<gx:coord >-0.359357 51.877087 0</gx:coord>
<gx:coord >-0.359497 51.877406 0</gx:coord>
<gx:coord >-0.359672 51.877602 0</gx:coord>
<gx:coord >-0.359764 51.877663 0</gx:coord>
<gx:coord >-0.359859 51.877721 0</gx:coord>
<gx:coord >-0.359974 51.877767 0</gx:coord>
<gx:coord >-0.360266 51.877842 0</gx:coord>
<gx:coord >-0.360336 51.87786 0</gx:coord>
<gx:coord >-0.360674 51.877865 0</gx:coord>
<gx:coord >-0.360966 51.877814 0</gx:coord>
<gx:coord >-0.361118 51.877791 0</gx:coord>
<gx:coord >-0.361729 51.877686 0</gx:coord>
<gx:coord >-0.362282 51.877593 0</gx:coord>
<gx:coord >-0.362809 51.877499 0</gx:coord>
<gx:coord >-0.363922 51.877302 0</gx:coord>
<gx:coord >-0.36446 51.877201 0</gx:coord>
<gx:coord >-0.364971 51.877116 0</gx:coord>
<gx:coord >-0.365582 51.877022 0</gx:coord>
<gx:coord >-0.366242 51.876904 0</gx:coord>
<gx:coord >-0.36678 51.876812 0</gx:coord>
<gx:coord >-0.36747 51.876685 0</gx:coord>
<gx:coord >-0.367986 51.876606 0</gx:coord>
<gx:coord >-0.368214 51.876627 0</gx:coord>
<gx:coord >-0.368339 51.876675 0</gx:coord>
<gx:coord >-0.368443 51.876731 0</gx:coord>
<gx:coord >-0.368562 51.876881 0</gx:coord>
<gx:coord >-0.368729 51.87719 0</gx:coord>
<gx:coord >-0.368933 51.877579 0</gx:coord>
<gx:coord >-0.3691 51.877922 0</gx:coord>
<gx:coord >-0.369205 51.878105 0</gx:coord>
<gx:coord >-0.369471 51.87862 0</gx:coord>
<gx:coord >-0.369694 51.879021 0</gx:coord>
<gx:coord >-0.370083 51.879776 0</gx:coord>
<gx:coord >-0.370139 51.879868 0</gx:coord>
<gx:coord >-0.370232 51.879948 0</gx:coord>
<gx:coord >-0.370331 51.87999 0</gx:coord>
<gx:coord >-0.370522 51.88006 0</gx:coord>
<gx:coord >-0.370903 51.880188 0</gx:coord>
<gx:coord >-0.371438 51.880371 0</gx:coord>
<gx:coord >-0.371716 51.880451 0</gx:coord>
<gx:coord >-0.371933 51.880456 0</gx:coord>
<gx:coord >-0.372329 51.880383 0</gx:coord>
<gx:coord >-0.372849 51.880281 0</gx:coord>
<gx:coord >-0.373249 51.8802 0</gx:coord>
<gx:coord >-0.373387 51.880177 0</gx:coord>
<gx:coord >-0.373609 51.880016 0</gx:coord>
<gx:coord >-0.373331 51.879799 0</gx:coord>
<gx:coord >-0.37323 51.879641 0</gx:coord>
<gx:coord >-0.373201 51.879547 0</gx:coord>
<gx:coord >-0.373183 51.879513 0</gx:coord>
<gx:coord >-0.373145 51.879456 0</gx:coord>
<gx:coord >-0.373145 51.879456 0</gx:coord>
<gx:coord >-0.373145 51.879456 0</gx:coord>
</gx:Track>
</Placemark>
</Folder>
</Folder>
</kml>
