<?xml version="1.0" encoding="UTF-8"?>
<kml xmlns="http://www.opengis.net/kml/2.2" xmlns:gx="http://www.google.com/kml/ext/2.2"><Folder ><Folder ><name >9H-WNN track</name>
<Placemark ><name >9H-WNN</name>
<Style ><LineStyle ><color >ff1c1ae3</color>
<width >4</width>
</LineStyle>
<IconStyle ><Icon ><href >http://maps.google.com/mapfiles/kml/shapes/airports.png</href>
</Icon>
</IconStyle>
</Style>
<gx:Track ><extrude >0</extrude>
<when >2025-09-03T17:47:31.280Z</when>
<when >2025-09-03T17:47:31.280Z</when>
<when >2025-09-03T17:48:10.020Z</when>
<when >2025-09-03T17:48:52.140Z</when>
<when >2025-09-03T17:49:00.290Z</when>
<when >2025-09-03T17:50:05.790Z</when>
<when >2025-09-03T17:50:11.110Z</when>
<when >2025-09-03T17:50:31.540Z</when>
<when >2025-09-03T17:50:36.200Z</when>
<when >2025-09-03T17:50:56.850Z</when>
<when >2025-09-03T17:51:16.290Z</when>
<when >2025-09-03T17:51:30.720Z</when>
<when >2025-09-03T17:51:45.890Z</when>
<when >2025-09-03T17:51:57.140Z</when>
<when >2025-09-03T17:53:51.760Z</when>
<when >2025-09-03T17:54:27.490Z</when>
<when >2025-09-03T17:54:42.290Z</when>
<when >2025-09-03T17:54:57.810Z</when>
<when >2025-09-03T17:55:12.020Z</when>
<when >2025-09-03T17:55:32.490Z</when>
<when >2025-09-03T17:55:47.570Z</when>
<when >2025-09-03T17:56:07.380Z</when>
<when >2025-09-03T17:56:46.770Z</when>
<when >2025-09-03T17:57:16.790Z</when>
<when >2025-09-03T17:57:37.540Z</when>
<when >2025-09-03T17:58:01.960Z</when>
<when >2025-09-03T17:58:57.060Z</when>
<when >2025-09-03T17:59:15.960Z</when>
<when >2025-09-03T17:59:26.350Z</when>
<when >2025-09-03T17:59:29.020Z</when>
<when >2025-09-03T17:59:31.510Z</when>
<when >2025-09-03T17:59:33.520Z</when>
<when >2025-09-03T17:59:35.310Z</when>
<when >2025-09-03T17:59:36.810Z</when>
<when >2025-09-03T17:59:38.740Z</when>
<when >2025-09-03T17:59:42.380Z</when>
<when >2025-09-03T17:59:49.070Z</when>
<when >2025-09-03T17:59:58.230Z</when>
<when >2025-09-03T18:00:08.160Z</when>
<when >2025-09-03T18:00:16.670Z</when>
<when >2025-09-03T18:00:25.930Z</when>
<when >2025-09-03T18:00:36.990Z</when>
<when >2025-09-03T18:00:41.130Z</when>
<when >2025-09-03T18:00:44.510Z</when>
<when >2025-09-03T18:00:52.630Z</when>
<when >2025-09-03T18:00:57.520Z</when>
<when >2025-09-03T18:01:02.190Z</when>
<when >2025-09-03T18:01:08.300Z</when>
<when >2025-09-03T18:01:11.950Z</when>
<when >2025-09-03T18:01:31.040Z</when>
<when >2025-09-03T18:01:48.550Z</when>
<when >2025-09-03T18:02:08.400Z</when>
<when >2025-09-03T18:02:26.140Z</when>
<when >2025-09-03T18:02:45.630Z</when>
<when >2025-09-03T18:02:54.480Z</when>
<when >2025-09-03T18:03:03.880Z</when>
<when >2025-09-03T18:03:11.810Z</when>
<when >2025-09-03T18:03:18.850Z</when>
<when >2025-09-03T18:03:20.620Z</when>
<when >2025-09-03T18:03:22.850Z</when>
<when >2025-09-03T18:03:25.320Z</when>
<when >2025-09-03T18:03:26.520Z</when>
<when >2025-09-03T18:03:27.500Z</when>
<when >2025-09-03T18:03:28.900Z</when>
<when >2025-09-03T18:03:31.580Z</when>
<when >2025-09-03T18:03:32.590Z</when>
<when >2025-09-03T18:03:33.930Z</when>
<when >2025-09-03T18:03:35.380Z</when>
<when >2025-09-03T18:03:36.770Z</when>
<when >2025-09-03T18:03:37.910Z</when>
<when >2025-09-03T18:03:39.400Z</when>
<when >2025-09-03T18:03:41.050Z</when>
<when >2025-09-03T18:03:42.190Z</when>
<when >2025-09-03T18:03:45.770Z</when>
<when >2025-09-03T18:04:04.010Z</when>
<when >2025-09-03T18:04:05.680Z</when>
<when >2025-09-03T18:04:07.300Z</when>
<when >2025-09-03T18:04:08.400Z</when>
<when >2025-09-03T18:04:11.160Z</when>
<when >2025-09-03T18:04:11.410Z</when>
<when >2025-09-03T18:04:11.890Z</when>
<when >2025-09-03T18:04:12.570Z</when>
<when >2025-09-03T18:04:14.410Z</when>
<when >2025-09-03T18:04:15.400Z</when>
<when >2025-09-03T18:04:16.420Z</when>
<when >2025-09-03T18:04:17.690Z</when>
<when >2025-09-03T18:04:17.690Z</when>
<when >2025-09-03T18:04:18.820Z</when>
<when >2025-09-03T18:04:20.110Z</when>
<when >2025-09-03T18:04:21.350Z</when>
<when >2025-09-03T18:04:22.530Z</when>
<when >2025-09-03T18:04:22.530Z</when>
<gx:coord >14.494298 35.84705 0</gx:coord>
<gx:coord >14.494298 35.84705 0</gx:coord>
<gx:coord >14.494298 35.847027 0</gx:coord>
<gx:coord >14.4943 35.847027 0</gx:coord>
<gx:coord >14.494298 35.847027 0</gx:coord>
<gx:coord >14.494298 35.847027 0</gx:coord>
<gx:coord >14.4943 35.847027 0</gx:coord>
<gx:coord >14.4943 35.847027 0</gx:coord>
<gx:coord >14.4943 35.847027 0</gx:coord>
<gx:coord >14.494298 35.847015 0</gx:coord>
<gx:coord >14.4943 35.847015 0</gx:coord>
<gx:coord >14.4943 35.847027 0</gx:coord>
<gx:coord >14.4943 35.847027 0</gx:coord>
<gx:coord >14.494298 35.847015 0</gx:coord>
<gx:coord >14.494298 35.847015 0</gx:coord>
<gx:coord >14.4943 35.847015 0</gx:coord>
<gx:coord >14.494298 35.847015 0</gx:coord>
<gx:coord >14.494298 35.847015 0</gx:coord>
<gx:coord >14.494298 35.847015 0</gx:coord>
<gx:coord >14.4943 35.847015 0</gx:coord>
<gx:coord >14.4943 35.847015 0</gx:coord>
<gx:coord >14.4943 35.847015 0</gx:coord>
<gx:coord >14.494298 35.847015 0</gx:coord>
<gx:coord >14.4943 35.847015 0</gx:coord>
<gx:coord >14.494298 35.847015 0</gx:coord>
<gx:coord >14.4943 35.847015 0</gx:coord>
<gx:coord >14.494298 35.847027 0</gx:coord>
<gx:coord >14.494243 35.846981 0</gx:coord>
<gx:coord >14.494085 35.846844 0</gx:coord>
<gx:coord >14.494057 35.846798 0</gx:coord>
<gx:coord >14.494028 35.846706 0</gx:coord>
<gx:coord >14.494064 35.846631 0</gx:coord>
<gx:coord >14.4941 35.846581 0</gx:coord>
<gx:coord >14.494171 35.846512 0</gx:coord>
<gx:coord >14.494239 35.846457 0</gx:coord>
<gx:coord >14.494357 35.846375 0</gx:coord>
<gx:coord >14.494502 35.846259 0</gx:coord>
<gx:coord >14.494729 35.846066 0</gx:coord>
<gx:coord >14.495101 35.845768 0</gx:coord>
<gx:coord >14.495387 35.845528 0</gx:coord>
<gx:coord >14.495645 35.845333 0</gx:coord>
<gx:coord >14.495974 35.845001 0</gx:coord>
<gx:coord >14.496088 35.84483 0</gx:coord>
<gx:coord >14.496131 35.844772 0</gx:coord>
<gx:coord >14.496274 35.844543 0</gx:coord>
<gx:coord >14.496314 35.844443 0</gx:coord>
<gx:coord >14.49636 35.844349 0</gx:coord>
<gx:coord >14.496387 35.844234 0</gx:coord>
<gx:coord >14.496416 35.844187 0</gx:coord>
<gx:coord >14.496475 35.844001 0</gx:coord>
<gx:coord >14.496503 35.843937 0</gx:coord>
<gx:coord >14.496533 35.843827 0</gx:coord>
<gx:coord >14.496562 35.843745 0</gx:coord>
<gx:coord >14.496635 35.843536 0</gx:coord>
<gx:coord >14.496703 35.84333 0</gx:coord>
<gx:coord >14.496796 35.843047 0</gx:coord>
<gx:coord >14.496942 35.842651 0</gx:coord>
<gx:coord >14.497059 35.842314 0</gx:coord>
<gx:coord >14.497074 35.842186 0</gx:coord>
<gx:coord >14.497074 35.842011 0</gx:coord>
<gx:coord >14.497044 35.841953 0</gx:coord>
<gx:coord >14.497032 35.841934 0</gx:coord>
<gx:coord >14.496989 35.841866 0</gx:coord>
<gx:coord >14.496946 35.841831 0</gx:coord>
<gx:coord >14.496918 35.841808 0</gx:coord>
<gx:coord >14.496803 35.84182 0</gx:coord>
<gx:coord >14.496781 35.841836 0</gx:coord>
<gx:coord >14.49676 35.841866 0</gx:coord>
<gx:coord >14.496746 35.8419 0</gx:coord>
<gx:coord >14.496738 35.841918 0</gx:coord>
<gx:coord >14.496723 35.841941 0</gx:coord>
<gx:coord >14.496732 35.84198 0</gx:coord>
<gx:coord >14.496738 35.841988 0</gx:coord>
<gx:coord >14.49676 35.842014 0</gx:coord>
<gx:coord >14.496732 35.842026 0</gx:coord>
<gx:coord >14.496708 35.842034 0</gx:coord>
<gx:coord >14.496606 35.842116 0</gx:coord>
<gx:coord >14.496577 35.842151 0</gx:coord>
<gx:coord >14.496245 35.842415 0</gx:coord>
<gx:coord >14.496303 35.842369 0</gx:coord>
<gx:coord >14.496174 35.842472 0</gx:coord>
<gx:coord >14.496095 35.842523 0</gx:coord>
<gx:coord >14.495931 35.842667 0</gx:coord>
<gx:coord >14.495659 35.842884 0</gx:coord>
<gx:coord >14.495544 35.842976 0</gx:coord>
<gx:coord >14.495189 35.843268 0</gx:coord>
<gx:coord >14.495058 35.843365 0</gx:coord>
<gx:coord >14.494786 35.843594 0</gx:coord>
<gx:coord >14.494643 35.843697 0</gx:coord>
<gx:coord >14.493889 35.844315 0</gx:coord>
<gx:coord >14.493494 35.84463 0</gx:coord>
<gx:coord >14.493494 35.84463 0</gx:coord>
</gx:Track>
</Placemark>
<Placemark ><name >9H-WNN</name>
<Style ><LineStyle ><color >ff1c1ae3</color>
<width >4</width>
</LineStyle>
<IconStyle ><Icon ><href >http://maps.google.com/mapfiles/kml/shapes/airports.png</href>
</Icon>
</IconStyle>
</Style>
<gx:Track ><altitudeMode >absolute</altitudeMode>
<extrude >1</extrude>
<when >2025-09-03T18:04:24.900Z</when>
<when >2025-09-03T18:04:29.640Z</when>
<when >2025-09-03T18:04:29.920Z</when>
<when >2025-09-03T18:04:32.320Z</when>
<when >2025-09-03T18:04:35.670Z</when>
<when >2025-09-03T18:04:37.070Z</when>
<when >2025-09-03T18:04:38.570Z</when>
<when >2025-09-03T18:04:40.500Z</when>
<when >2025-09-03T18:04:41.590Z</when>
<when >2025-09-03T18:04:42.350Z</when>
<when >2025-09-03T18:04:44.590Z</when>
<when >2025-09-03T18:04:45.210Z</when>
<when >2025-09-03T18:04:46.630Z</when>
<when >2025-09-03T18:04:48.510Z</when>
<when >2025-09-03T18:04:51.180Z</when>
<when >2025-09-03T18:04:53.110Z</when>
<when >2025-09-03T18:04:55.520Z</when>
<when >2025-09-03T18:04:58.480Z</when>
<when >2025-09-03T18:05:00.050Z</when>
<when >2025-09-03T18:05:02.200Z</when>
<when >2025-09-03T18:05:04.830Z</when>
<when >2025-09-03T18:05:06.810Z</when>
<when >2025-09-03T18:05:08.700Z</when>
<when >2025-09-03T18:05:11.240Z</when>
<when >2025-09-03T18:05:14.250Z</when>
<when >2025-09-03T18:05:16.930Z</when>
<when >2025-09-03T18:05:18.450Z</when>
<when >2025-09-03T18:05:20.950Z</when>
<when >2025-09-03T18:05:24.350Z</when>
<when >2025-09-03T18:05:26.430Z</when>
<when >2025-09-03T18:05:29.780Z</when>
<when >2025-09-03T18:05:34.250Z</when>
<when >2025-09-03T18:05:37.420Z</when>
<when >2025-09-03T18:05:40.680Z</when>
<when >2025-09-03T18:05:43.820Z</when>
<when >2025-09-03T18:05:46.290Z</when>
<when >2025-09-03T18:05:49.210Z</when>
<when >2025-09-03T18:05:51.490Z</when>
<when >2025-09-03T18:05:54.210Z</when>
<when >2025-09-03T18:05:57.720Z</when>
<when >2025-09-03T18:06:01.160Z</when>
<when >2025-09-03T18:06:05.320Z</when>
<when >2025-09-03T18:06:07.650Z</when>
<when >2025-09-03T18:06:11.920Z</when>
<when >2025-09-03T18:06:13.060Z</when>
<when >2025-09-03T18:06:14.580Z</when>
<when >2025-09-03T18:06:15.200Z</when>
<when >2025-09-03T18:06:16.680Z</when>
<when >2025-09-03T18:06:18.510Z</when>
<when >2025-09-03T18:06:20.010Z</when>
<when >2025-09-03T18:06:21.170Z</when>
<when >2025-09-03T18:06:22.430Z</when>
<when >2025-09-03T18:06:23.810Z</when>
<when >2025-09-03T18:06:25.810Z</when>
<when >2025-09-03T18:06:27.370Z</when>
<when >2025-09-03T18:06:29.090Z</when>
<when >2025-09-03T18:06:30.840Z</when>
<when >2025-09-03T18:06:32.280Z</when>
<when >2025-09-03T18:06:34.620Z</when>
<when >2025-09-03T18:06:36.000Z</when>
<when >2025-09-03T18:06:37.460Z</when>
<when >2025-09-03T18:06:39.170Z</when>
<when >2025-09-03T18:06:40.990Z</when>
<when >2025-09-03T18:06:42.670Z</when>
<when >2025-09-03T18:06:44.830Z</when>
<when >2025-09-03T18:06:46.080Z</when>
<when >2025-09-03T18:06:48.510Z</when>
<when >2025-09-03T18:06:50.420Z</when>
<when >2025-09-03T18:06:52.840Z</when>
<when >2025-09-03T18:06:54.720Z</when>
<when >2025-09-03T18:06:56.870Z</when>
<when >2025-09-03T18:06:58.950Z</when>
<when >2025-09-03T18:07:00.880Z</when>
<when >2025-09-03T18:07:02.510Z</when>
<when >2025-09-03T18:07:04.300Z</when>
<when >2025-09-03T18:07:05.910Z</when>
<when >2025-09-03T18:07:07.420Z</when>
<when >2025-09-03T18:07:09.390Z</when>
<when >2025-09-03T18:07:11.440Z</when>
<when >2025-09-03T18:07:13.550Z</when>
<when >2025-09-03T18:07:15.600Z</when>
<when >2025-09-03T18:07:17.790Z</when>
<when >2025-09-03T18:07:21.210Z</when>
<when >2025-09-03T18:07:24.170Z</when>
<when >2025-09-03T18:07:26.250Z</when>
<when >2025-09-03T18:07:29.900Z</when>
<when >2025-09-03T18:07:33.230Z</when>
<when >2025-09-03T18:07:35.940Z</when>
<when >2025-09-03T18:07:38.050Z</when>
<when >2025-09-03T18:07:40.740Z</when>
<when >2025-09-03T18:07:42.960Z</when>
<when >2025-09-03T18:07:45.270Z</when>
<when >2025-09-03T18:07:49.250Z</when>
<when >2025-09-03T18:07:54.570Z</when>
<when >2025-09-03T18:07:58.720Z</when>
<when >2025-09-03T18:08:03.220Z</when>
<when >2025-09-03T18:08:07.200Z</when>
<when >2025-09-03T18:08:11.920Z</when>
<when >2025-09-03T18:08:17.050Z</when>
<when >2025-09-03T18:08:19.680Z</when>
<when >2025-09-03T18:08:24.360Z</when>
<when >2025-09-03T18:08:28.250Z</when>
<when >2025-09-03T18:08:33.230Z</when>
<when >2025-09-03T18:08:37.730Z</when>
<when >2025-09-03T18:08:42.810Z</when>
<when >2025-09-03T18:08:46.880Z</when>
<when >2025-09-03T18:08:50.370Z</when>
<when >2025-09-03T18:08:54.320Z</when>
<when >2025-09-03T18:08:57.390Z</when>
<when >2025-09-03T18:08:59.980Z</when>
<when >2025-09-03T18:09:01.690Z</when>
<when >2025-09-03T18:09:03.140Z</when>
<when >2025-09-03T18:09:05.040Z</when>
<when >2025-09-03T18:09:07.460Z</when>
<when >2025-09-03T18:09:10.480Z</when>
<when >2025-09-03T18:09:17.570Z</when>
<when >2025-09-03T18:09:26.120Z</when>
<when >2025-09-03T18:09:34.840Z</when>
<when >2025-09-03T18:09:41.870Z</when>
<when >2025-09-03T18:09:44.660Z</when>
<when >2025-09-03T18:09:47.570Z</when>
<when >2025-09-03T18:09:49.590Z</when>
<when >2025-09-03T18:09:52.060Z</when>
<when >2025-09-03T18:09:54.940Z</when>
<when >2025-09-03T18:10:00.950Z</when>
<when >2025-09-03T18:10:03.390Z</when>
<when >2025-09-03T18:10:11.790Z</when>
<when >2025-09-03T18:10:18.170Z</when>
<when >2025-09-03T18:10:24.100Z</when>
<when >2025-09-03T18:10:36.430Z</when>
<when >2025-09-03T18:10:42.570Z</when>
<when >2025-09-03T18:10:46.790Z</when>
<when >2025-09-03T18:10:53.100Z</when>
<when >2025-09-03T18:11:00.520Z</when>
<when >2025-09-03T18:11:03.440Z</when>
<when >2025-09-03T18:11:06.230Z</when>
<when >2025-09-03T18:11:10.870Z</when>
<when >2025-09-03T18:11:18.350Z</when>
<when >2025-09-03T18:11:30.900Z</when>
<when >2025-09-03T18:11:42.980Z</when>
<when >2025-09-03T18:11:54.510Z</when>
<when >2025-09-03T18:12:06.000Z</when>
<when >2025-09-03T18:12:17.180Z</when>
<when >2025-09-03T18:12:27.430Z</when>
<when >2025-09-03T18:12:38.300Z</when>
<when >2025-09-03T18:12:49.990Z</when>
<when >2025-09-03T18:12:59.990Z</when>
<when >2025-09-03T18:13:11.120Z</when>
<when >2025-09-03T18:13:22.280Z</when>
<when >2025-09-03T18:13:29.090Z</when>
<when >2025-09-03T18:13:34.930Z</when>
<when >2025-09-03T18:13:45.290Z</when>
<when >2025-09-03T18:13:57.360Z</when>
<when >2025-09-03T18:14:10.360Z</when>
<when >2025-09-03T18:14:24.460Z</when>
<when >2025-09-03T18:14:36.950Z</when>
<when >2025-09-03T18:14:48.640Z</when>
<when >2025-09-03T18:15:01.170Z</when>
<when >2025-09-03T18:15:13.220Z</when>
<when >2025-09-03T18:15:23.940Z</when>
<when >2025-09-03T18:15:35.190Z</when>
<when >2025-09-03T18:15:40.480Z</when>
<when >2025-09-03T18:15:45.260Z</when>
<when >2025-09-03T18:15:49.510Z</when>
<when >2025-09-03T18:15:54.200Z</when>
<when >2025-09-03T18:15:59.240Z</when>
<when >2025-09-03T18:16:11.950Z</when>
<when >2025-09-03T18:16:26.130Z</when>
<when >2025-09-03T18:16:40.370Z</when>
<when >2025-09-03T18:16:57.160Z</when>
<when >2025-09-03T18:17:09.970Z</when>
<when >2025-09-03T18:17:22.950Z</when>
<when >2025-09-03T18:17:36.450Z</when>
<when >2025-09-03T18:17:51.160Z</when>
<when >2025-09-03T18:18:06.110Z</when>
<when >2025-09-03T18:18:19.730Z</when>
<when >2025-09-03T18:18:34.690Z</when>
<when >2025-09-03T18:18:49.490Z</when>
<when >2025-09-03T18:19:04.610Z</when>
<when >2025-09-03T18:19:18.390Z</when>
<when >2025-09-03T18:19:32.070Z</when>
<when >2025-09-03T18:19:46.840Z</when>
<when >2025-09-03T18:20:02.070Z</when>
<when >2025-09-03T18:20:16.620Z</when>
<when >2025-09-03T18:20:30.840Z</when>
<when >2025-09-03T18:20:46.460Z</when>
<when >2025-09-03T18:21:04.480Z</when>
<when >2025-09-03T18:21:20.790Z</when>
<when >2025-09-03T18:21:37.870Z</when>
<when >2025-09-03T18:21:52.840Z</when>
<when >2025-09-03T18:22:06.540Z</when>
<when >2025-09-03T18:22:20.390Z</when>
<when >2025-09-03T18:22:35.930Z</when>
<when >2025-09-03T18:22:50.320Z</when>
<when >2025-09-03T18:23:04.070Z</when>
<when >2025-09-03T18:23:17.920Z</when>
<when >2025-09-03T18:23:31.360Z</when>
<when >2025-09-03T18:23:45.070Z</when>
<when >2025-09-03T18:23:59.870Z</when>
<when >2025-09-03T18:24:19.870Z</when>
<when >2025-09-03T18:24:35.670Z</when>
<when >2025-09-03T18:24:49.150Z</when>
<when >2025-09-03T18:25:02.690Z</when>
<when >2025-09-03T18:25:19.210Z</when>
<when >2025-09-03T18:25:34.420Z</when>
<when >2025-09-03T18:25:49.550Z</when>
<when >2025-09-03T18:26:05.780Z</when>
<when >2025-09-03T18:26:22.530Z</when>
<when >2025-09-03T18:26:38.770Z</when>
<when >2025-09-03T18:26:44.770Z</when>
<when >2025-09-03T18:27:04.730Z</when>
<when >2025-09-03T18:27:24.680Z</when>
<when >2025-09-03T18:27:44.410Z</when>
<when >2025-09-03T18:28:03.610Z</when>
<when >2025-09-03T18:28:22.830Z</when>
<when >2025-09-03T18:28:42.470Z</when>
<when >2025-09-03T18:29:02.350Z</when>
<when >2025-09-03T18:29:22.150Z</when>
<when >2025-09-03T18:29:41.320Z</when>
<when >2025-09-03T18:29:59.730Z</when>
<when >2025-09-03T18:30:19.340Z</when>
<when >2025-09-03T18:30:39.210Z</when>
<when >2025-09-03T18:30:58.900Z</when>
<when >2025-09-03T18:31:18.730Z</when>
<when >2025-09-03T18:31:37.860Z</when>
<when >2025-09-03T18:31:57.840Z</when>
<when >2025-09-03T18:32:17.380Z</when>
<when >2025-09-03T18:32:37.260Z</when>
<when >2025-09-03T18:32:56.720Z</when>
<when >2025-09-03T18:33:16.330Z</when>
<when >2025-09-03T18:33:35.910Z</when>
<when >2025-09-03T18:33:54.780Z</when>
<when >2025-09-03T18:34:14.290Z</when>
<when >2025-09-03T18:34:34.020Z</when>
<when >2025-09-03T18:34:53.820Z</when>
<when >2025-09-03T18:35:12.990Z</when>
<when >2025-09-03T18:35:32.690Z</when>
<when >2025-09-03T18:35:52.580Z</when>
<when >2025-09-03T18:36:12.400Z</when>
<when >2025-09-03T18:36:31.810Z</when>
<when >2025-09-03T18:36:50.740Z</when>
<when >2025-09-03T18:37:10.450Z</when>
<when >2025-09-03T18:37:29.960Z</when>
<when >2025-09-03T18:37:49.120Z</when>
<when >2025-09-03T18:38:08.180Z</when>
<when >2025-09-03T18:38:28.120Z</when>
<when >2025-09-03T18:38:48.080Z</when>
<when >2025-09-03T18:39:07.140Z</when>
<when >2025-09-03T18:39:26.860Z</when>
<when >2025-09-03T18:39:46.740Z</when>
<when >2025-09-03T18:40:06.650Z</when>
<when >2025-09-03T18:40:26.500Z</when>
<when >2025-09-03T18:40:46.420Z</when>
<when >2025-09-03T18:41:05.910Z</when>
<when >2025-09-03T18:41:25.410Z</when>
<when >2025-09-03T18:41:45.380Z</when>
<when >2025-09-03T18:42:05.070Z</when>
<when >2025-09-03T18:42:24.640Z</when>
<when >2025-09-03T18:42:44.470Z</when>
<when >2025-09-03T18:43:04.390Z</when>
<when >2025-09-03T18:43:24.140Z</when>
<when >2025-09-03T18:43:43.550Z</when>
<when >2025-09-03T18:44:02.690Z</when>
<when >2025-09-03T18:44:22.450Z</when>
<when >2025-09-03T18:44:41.860Z</when>
<when >2025-09-03T18:45:01.070Z</when>
<when >2025-09-03T18:45:20.990Z</when>
<when >2025-09-03T18:45:40.430Z</when>
<when >2025-09-03T18:46:00.350Z</when>
<when >2025-09-03T18:46:20.340Z</when>
<when >2025-09-03T18:46:39.690Z</when>
<when >2025-09-03T18:46:59.370Z</when>
<when >2025-09-03T18:47:18.840Z</when>
<when >2025-09-03T18:47:38.740Z</when>
<when >2025-09-03T18:47:58.460Z</when>
<when >2025-09-03T18:48:18.170Z</when>
<when >2025-09-03T18:48:38.110Z</when>
<when >2025-09-03T18:48:58.090Z</when>
<when >2025-09-03T18:49:17.980Z</when>
<when >2025-09-03T18:49:37.390Z</when>
<when >2025-09-03T18:49:57.070Z</when>
<when >2025-09-03T18:50:17.050Z</when>
<when >2025-09-03T18:50:36.710Z</when>
<when >2025-09-03T18:50:56.590Z</when>
<when >2025-09-03T18:51:16.180Z</when>
<when >2025-09-03T18:51:35.870Z</when>
<when >2025-09-03T18:51:55.510Z</when>
<when >2025-09-03T18:52:15.010Z</when>
<when >2025-09-03T18:52:34.710Z</when>
<when >2025-09-03T18:52:54.570Z</when>
<when >2025-09-03T18:53:13.100Z</when>
<when >2025-09-03T18:53:32.800Z</when>
<when >2025-09-03T18:53:52.720Z</when>
<when >2025-09-03T18:54:12.280Z</when>
<when >2025-09-03T18:54:31.840Z</when>
<when >2025-09-03T18:54:51.490Z</when>
<when >2025-09-03T18:55:11.140Z</when>
<when >2025-09-03T18:55:30.810Z</when>
<when >2025-09-03T18:55:50.320Z</when>
<when >2025-09-03T18:56:10.020Z</when>
<when >2025-09-03T18:56:29.760Z</when>
<when >2025-09-03T18:56:49.300Z</when>
<when >2025-09-03T18:57:08.620Z</when>
<when >2025-09-03T18:57:28.100Z</when>
<when >2025-09-03T18:57:47.730Z</when>
<when >2025-09-03T18:58:07.140Z</when>
<when >2025-09-03T18:58:27.020Z</when>
<when >2025-09-03T18:58:46.450Z</when>
<when >2025-09-03T18:59:05.890Z</when>
<when >2025-09-03T18:59:25.780Z</when>
<when >2025-09-03T18:59:44.850Z</when>
<when >2025-09-03T18:59:44.900Z</when>
<when >2025-09-03T18:59:45.760Z</when>
<when >2025-09-03T19:00:05.380Z</when>
<when >2025-09-03T19:00:25.220Z</when>
<when >2025-09-03T19:00:45.020Z</when>
<when >2025-09-03T19:01:04.470Z</when>
<when >2025-09-03T19:01:24.270Z</when>
<when >2025-09-03T19:01:44.230Z</when>
<when >2025-09-03T19:02:03.910Z</when>
<when >2025-09-03T19:02:23.140Z</when>
<when >2025-09-03T19:02:42.890Z</when>
<when >2025-09-03T19:02:54.150Z</when>
<when >2025-09-03T19:03:02.240Z</when>
<when >2025-09-03T19:03:08.620Z</when>
<when >2025-09-03T19:03:17.140Z</when>
<when >2025-09-03T19:03:23.290Z</when>
<when >2025-09-03T19:03:42.740Z</when>
<when >2025-09-03T19:04:02.000Z</when>
<when >2025-09-03T19:04:21.530Z</when>
<when >2025-09-03T19:04:40.850Z</when>
<when >2025-09-03T19:04:59.700Z</when>
<when >2025-09-03T19:05:19.110Z</when>
<when >2025-09-03T19:05:38.790Z</when>
<when >2025-09-03T19:05:58.430Z</when>
<when >2025-09-03T19:06:18.240Z</when>
<when >2025-09-03T19:06:37.220Z</when>
<when >2025-09-03T19:06:56.840Z</when>
<when >2025-09-03T19:07:16.680Z</when>
<when >2025-09-03T19:07:22.360Z</when>
<when >2025-09-03T19:07:28.300Z</when>
<when >2025-09-03T19:07:35.280Z</when>
<when >2025-09-03T19:07:40.860Z</when>
<when >2025-09-03T19:07:45.780Z</when>
<when >2025-09-03T19:07:51.650Z</when>
<when >2025-09-03T19:07:56.210Z</when>
<when >2025-09-03T19:08:01.800Z</when>
<when >2025-09-03T19:08:06.540Z</when>
<when >2025-09-03T19:08:15.920Z</when>
<when >2025-09-03T19:08:29.440Z</when>
<when >2025-09-03T19:08:49.110Z</when>
<when >2025-09-03T19:09:09.070Z</when>
<when >2025-09-03T19:09:28.100Z</when>
<when >2025-09-03T19:09:47.790Z</when>
<when >2025-09-03T19:10:06.950Z</when>
<when >2025-09-03T19:10:25.640Z</when>
<when >2025-09-03T19:10:45.500Z</when>
<when >2025-09-03T19:11:04.350Z</when>
<when >2025-09-03T19:11:23.980Z</when>
<when >2025-09-03T19:11:43.370Z</when>
<when >2025-09-03T19:12:03.350Z</when>
<when >2025-09-03T19:12:22.940Z</when>
<when >2025-09-03T19:12:42.070Z</when>
<when >2025-09-03T19:13:01.780Z</when>
<when >2025-09-03T19:13:21.360Z</when>
<when >2025-09-03T19:13:41.090Z</when>
<when >2025-09-03T19:14:00.880Z</when>
<when >2025-09-03T19:14:19.970Z</when>
<when >2025-09-03T19:14:39.020Z</when>
<when >2025-09-03T19:14:58.920Z</when>
<when >2025-09-03T19:15:17.790Z</when>
<when >2025-09-03T19:15:37.070Z</when>
<when >2025-09-03T19:15:56.600Z</when>
<when >2025-09-03T19:16:16.310Z</when>
<when >2025-09-03T19:16:36.020Z</when>
<when >2025-09-03T19:16:55.560Z</when>
<when >2025-09-03T19:17:15.300Z</when>
<when >2025-09-03T19:17:35.050Z</when>
<when >2025-09-03T19:17:54.150Z</when>
<when >2025-09-03T19:18:13.750Z</when>
<when >2025-09-03T19:18:33.550Z</when>
<when >2025-09-03T19:18:52.300Z</when>
<when >2025-09-03T19:19:11.700Z</when>
<when >2025-09-03T19:19:31.370Z</when>
<when >2025-09-03T19:19:51.280Z</when>
<when >2025-09-03T19:20:11.000Z</when>
<when >2025-09-03T19:20:30.980Z</when>
<when >2025-09-03T19:20:50.780Z</when>
<when >2025-09-03T19:21:10.490Z</when>
<when >2025-09-03T19:21:30.300Z</when>
<when >2025-09-03T19:21:49.180Z</when>
<when >2025-09-03T19:22:09.110Z</when>
<when >2025-09-03T19:22:29.020Z</when>
<when >2025-09-03T19:22:48.560Z</when>
<when >2025-09-03T19:23:08.550Z</when>
<when >2025-09-03T19:23:28.270Z</when>
<when >2025-09-03T19:23:47.910Z</when>
<when >2025-09-03T19:24:07.700Z</when>
<when >2025-09-03T19:24:27.130Z</when>
<when >2025-09-03T19:24:47.110Z</when>
<when >2025-09-03T19:25:06.080Z</when>
<when >2025-09-03T19:25:24.490Z</when>
<when >2025-09-03T19:25:43.750Z</when>
<when >2025-09-03T19:26:03.200Z</when>
<when >2025-09-03T19:26:23.020Z</when>
<when >2025-09-03T19:26:42.230Z</when>
<when >2025-09-03T19:27:01.970Z</when>
<when >2025-09-03T19:27:21.870Z</when>
<when >2025-09-03T19:27:41.770Z</when>
<when >2025-09-03T19:28:01.450Z</when>
<when >2025-09-03T19:28:21.110Z</when>
<when >2025-09-03T19:28:40.860Z</when>
<when >2025-09-03T19:29:00.350Z</when>
<when >2025-09-03T19:29:20.030Z</when>
<when >2025-09-03T19:29:39.610Z</when>
<when >2025-09-03T19:29:59.150Z</when>
<when >2025-09-03T19:30:19.040Z</when>
<when >2025-09-03T19:30:38.470Z</when>
<when >2025-09-03T19:30:57.840Z</when>
<when >2025-09-03T19:31:17.670Z</when>
<when >2025-09-03T19:31:37.210Z</when>
<when >2025-09-03T19:31:56.760Z</when>
<when >2025-09-03T19:32:16.040Z</when>
<when >2025-09-03T19:32:35.970Z</when>
<when >2025-09-03T19:32:55.780Z</when>
<when >2025-09-03T19:33:15.480Z</when>
<when >2025-09-03T19:33:34.640Z</when>
<when >2025-09-03T19:33:54.590Z</when>
<when >2025-09-03T19:34:12.530Z</when>
<when >2025-09-03T19:34:31.720Z</when>
<when >2025-09-03T19:34:51.380Z</when>
<when >2025-09-03T19:35:10.660Z</when>
<when >2025-09-03T19:35:30.180Z</when>
<when >2025-09-03T19:35:50.100Z</when>
<when >2025-09-03T19:36:09.920Z</when>
<when >2025-09-03T19:36:29.850Z</when>
<when >2025-09-03T19:36:49.830Z</when>
<when >2025-09-03T19:37:09.620Z</when>
<when >2025-09-03T19:37:29.550Z</when>
<when >2025-09-03T19:37:49.470Z</when>
<when >2025-09-03T19:38:09.280Z</when>
<when >2025-09-03T19:38:29.250Z</when>
<when >2025-09-03T19:38:48.850Z</when>
<when >2025-09-03T19:39:08.160Z</when>
<when >2025-09-03T19:39:27.770Z</when>
<when >2025-09-03T19:39:47.380Z</when>
<when >2025-09-03T19:40:06.800Z</when>
<when >2025-09-03T19:40:25.920Z</when>
<when >2025-09-03T19:40:45.630Z</when>
<when >2025-09-03T19:41:04.550Z</when>
<when >2025-09-03T19:41:24.270Z</when>
<when >2025-09-03T19:41:44.150Z</when>
<when >2025-09-03T19:42:03.810Z</when>
<when >2025-09-03T19:42:12.990Z</when>
<when >2025-09-03T19:42:22.490Z</when>
<when >2025-09-03T19:42:34.910Z</when>
<when >2025-09-03T19:42:54.480Z</when>
<when >2025-09-03T19:43:13.540Z</when>
<when >2025-09-03T19:43:33.520Z</when>
<when >2025-09-03T19:43:52.710Z</when>
<when >2025-09-03T19:44:12.480Z</when>
<when >2025-09-03T19:44:31.530Z</when>
<when >2025-09-03T19:44:50.650Z</when>
<when >2025-09-03T19:45:09.370Z</when>
<when >2025-09-03T19:45:29.060Z</when>
<when >2025-09-03T19:45:48.890Z</when>
<when >2025-09-03T19:46:08.710Z</when>
<when >2025-09-03T19:46:28.450Z</when>
<when >2025-09-03T19:46:48.010Z</when>
<when >2025-09-03T19:47:07.430Z</when>
<when >2025-09-03T19:47:26.230Z</when>
<when >2025-09-03T19:47:45.900Z</when>
<when >2025-09-03T19:48:05.730Z</when>
<when >2025-09-03T19:48:25.050Z</when>
<when >2025-09-03T19:48:44.810Z</when>
<when >2025-09-03T19:49:04.010Z</when>
<when >2025-09-03T19:49:23.870Z</when>
<when >2025-09-03T19:49:43.720Z</when>
<when >2025-09-03T19:50:03.260Z</when>
<when >2025-09-03T19:50:23.140Z</when>
<when >2025-09-03T19:50:42.770Z</when>
<when >2025-09-03T19:51:02.280Z</when>
<when >2025-09-03T19:51:21.710Z</when>
<when >2025-09-03T19:51:41.640Z</when>
<when >2025-09-03T19:52:01.180Z</when>
<when >2025-09-03T19:52:20.920Z</when>
<when >2025-09-03T19:52:40.880Z</when>
<when >2025-09-03T19:53:00.540Z</when>
<when >2025-09-03T19:53:20.260Z</when>
<when >2025-09-03T19:53:39.600Z</when>
<when >2025-09-03T19:53:58.430Z</when>
<when >2025-09-03T19:54:18.270Z</when>
<when >2025-09-03T19:54:38.040Z</when>
<when >2025-09-03T19:54:52.320Z</when>
<when >2025-09-03T19:55:02.100Z</when>
<when >2025-09-03T19:55:10.380Z</when>
<when >2025-09-03T19:55:19.220Z</when>
<when >2025-09-03T19:55:28.840Z</when>
<when >2025-09-03T19:55:37.950Z</when>
<when >2025-09-03T19:55:57.300Z</when>
<when >2025-09-03T19:56:17.050Z</when>
<when >2025-09-03T19:56:36.540Z</when>
<when >2025-09-03T19:56:56.410Z</when>
<when >2025-09-03T19:57:16.150Z</when>
<when >2025-09-03T19:57:35.600Z</when>
<when >2025-09-03T19:57:55.230Z</when>
<when >2025-09-03T19:58:14.770Z</when>
<when >2025-09-03T19:58:34.240Z</when>
<when >2025-09-03T19:58:53.820Z</when>
<when >2025-09-03T19:59:13.320Z</when>
<when >2025-09-03T19:59:33.180Z</when>
<when >2025-09-03T19:59:52.920Z</when>
<when >2025-09-03T20:00:12.040Z</when>
<when >2025-09-03T20:00:23.680Z</when>
<when >2025-09-03T20:00:42.040Z</when>
<when >2025-09-03T20:01:01.710Z</when>
<when >2025-09-03T20:01:21.100Z</when>
<when >2025-09-03T20:01:41.020Z</when>
<when >2025-09-03T20:02:00.860Z</when>
<when >2025-09-03T20:02:20.250Z</when>
<when >2025-09-03T20:02:39.890Z</when>
<when >2025-09-03T20:02:59.620Z</when>
<when >2025-09-03T20:03:19.560Z</when>
<when >2025-09-03T20:03:39.540Z</when>
<when >2025-09-03T20:03:59.170Z</when>
<when >2025-09-03T20:04:18.890Z</when>
<when >2025-09-03T20:04:38.830Z</when>
<when >2025-09-03T20:04:58.790Z</when>
<when >2025-09-03T20:05:18.780Z</when>
<when >2025-09-03T20:05:38.360Z</when>
<when >2025-09-03T20:05:57.830Z</when>
<when >2025-09-03T20:06:17.450Z</when>
<when >2025-09-03T20:06:37.190Z</when>
<when >2025-09-03T20:06:56.920Z</when>
<when >2025-09-03T20:07:16.660Z</when>
<when >2025-09-03T20:07:36.230Z</when>
<when >2025-09-03T20:07:55.950Z</when>
<when >2025-09-03T20:08:05.330Z</when>
<when >2025-09-03T20:08:11.790Z</when>
<when >2025-09-03T20:08:21.960Z</when>
<when >2025-09-03T20:08:41.620Z</when>
<when >2025-09-03T20:09:01.470Z</when>
<when >2025-09-03T20:09:20.670Z</when>
<when >2025-09-03T20:09:40.200Z</when>
<when >2025-09-03T20:09:59.880Z</when>
<when >2025-09-03T20:10:19.870Z</when>
<when >2025-09-03T20:10:39.520Z</when>
<when >2025-09-03T20:10:59.130Z</when>
<when >2025-09-03T20:11:19.130Z</when>
<when >2025-09-03T20:11:39.090Z</when>
<when >2025-09-03T20:11:58.790Z</when>
<when >2025-09-03T20:12:18.320Z</when>
<when >2025-09-03T20:12:37.880Z</when>
<when >2025-09-03T20:12:57.800Z</when>
<when >2025-09-03T20:13:17.740Z</when>
<when >2025-09-03T20:13:37.530Z</when>
<when >2025-09-03T20:13:57.390Z</when>
<when >2025-09-03T20:14:16.930Z</when>
<when >2025-09-03T20:14:36.920Z</when>
<when >2025-09-03T20:14:40.940Z</when>
<when >2025-09-03T20:14:45.860Z</when>
<when >2025-09-03T20:14:49.370Z</when>
<when >2025-09-03T20:14:52.960Z</when>
<when >2025-09-03T20:14:55.810Z</when>
<when >2025-09-03T20:15:00.380Z</when>
<when >2025-09-03T20:15:04.130Z</when>
<when >2025-09-03T20:15:11.460Z</when>
<when >2025-09-03T20:15:18.950Z</when>
<when >2025-09-03T20:15:27.230Z</when>
<when >2025-09-03T20:15:35.060Z</when>
<when >2025-09-03T20:15:42.030Z</when>
<when >2025-09-03T20:15:48.910Z</when>
<when >2025-09-03T20:15:55.970Z</when>
<when >2025-09-03T20:16:03.660Z</when>
<when >2025-09-03T20:16:10.690Z</when>
<when >2025-09-03T20:16:19.040Z</when>
<when >2025-09-03T20:16:26.740Z</when>
<when >2025-09-03T20:16:35.050Z</when>
<when >2025-09-03T20:16:45.210Z</when>
<when >2025-09-03T20:16:57.530Z</when>
<when >2025-09-03T20:17:08.030Z</when>
<when >2025-09-03T20:17:17.930Z</when>
<when >2025-09-03T20:17:28.270Z</when>
<when >2025-09-03T20:17:34.760Z</when>
<when >2025-09-03T20:17:36.740Z</when>
<when >2025-09-03T20:17:38.140Z</when>
<when >2025-09-03T20:17:40.380Z</when>
<when >2025-09-03T20:17:45.810Z</when>
<when >2025-09-03T20:17:52.020Z</when>
<when >2025-09-03T20:17:57.500Z</when>
<when >2025-09-03T20:18:02.100Z</when>
<when >2025-09-03T20:18:08.650Z</when>
<when >2025-09-03T20:18:17.640Z</when>
<when >2025-09-03T20:18:19.170Z</when>
<when >2025-09-03T20:18:20.120Z</when>
<when >2025-09-03T20:18:22.590Z</when>
<when >2025-09-03T20:18:25.060Z</when>
<when >2025-09-03T20:18:30.020Z</when>
<when >2025-09-03T20:18:34.610Z</when>
<when >2025-09-03T20:18:37.290Z</when>
<when >2025-09-03T20:18:38.890Z</when>
<when >2025-09-03T20:18:39.940Z</when>
<when >2025-09-03T20:18:43.010Z</when>
<when >2025-09-03T20:18:49.710Z</when>
<when >2025-09-03T20:18:59.160Z</when>
<when >2025-09-03T20:19:09.220Z</when>
<when >2025-09-03T20:19:17.600Z</when>
<when >2025-09-03T20:19:25.640Z</when>
<when >2025-09-03T20:19:33.960Z</when>
<when >2025-09-03T20:19:42.090Z</when>
<when >2025-09-03T20:19:49.420Z</when>
<when >2025-09-03T20:19:56.520Z</when>
<when >2025-09-03T20:20:04.490Z</when>
<when >2025-09-03T20:20:12.790Z</when>
<when >2025-09-03T20:20:21.860Z</when>
<when >2025-09-03T20:20:32.280Z</when>
<when >2025-09-03T20:20:41.730Z</when>
<when >2025-09-03T20:20:50.730Z</when>
<when >2025-09-03T20:21:01.060Z</when>
<when >2025-09-03T20:21:09.940Z</when>
<when >2025-09-03T20:21:18.490Z</when>
<when >2025-09-03T20:21:26.210Z</when>
<when >2025-09-03T20:21:34.950Z</when>
<when >2025-09-03T20:21:39.800Z</when>
<when >2025-09-03T20:21:40.500Z</when>
<when >2025-09-03T20:21:42.890Z</when>
<when >2025-09-03T20:21:52.780Z</when>
<when >2025-09-03T20:22:03.380Z</when>
<when >2025-09-03T20:22:12.350Z</when>
<when >2025-09-03T20:22:24.500Z</when>
<when >2025-09-03T20:22:30.180Z</when>
<when >2025-09-03T20:22:35.390Z</when>
<when >2025-09-03T20:22:40.610Z</when>
<when >2025-09-03T20:22:50.170Z</when>
<when >2025-09-03T20:22:55.920Z</when>
<when >2025-09-03T20:23:01.540Z</when>
<when >2025-09-03T20:23:13.330Z</when>
<when >2025-09-03T20:23:25.320Z</when>
<when >2025-09-03T20:23:37.020Z</when>
<when >2025-09-03T20:23:48.100Z</when>
<when >2025-09-03T20:23:55.380Z</when>
<when >2025-09-03T20:24:00.390Z</when>
<when >2025-09-03T20:24:05.770Z</when>
<when >2025-09-03T20:24:11.860Z</when>
<when >2025-09-03T20:24:17.370Z</when>
<when >2025-09-03T20:24:22.410Z</when>
<when >2025-09-03T20:24:28.300Z</when>
<when >2025-09-03T20:24:33.070Z</when>
<when >2025-09-03T20:24:38.330Z</when>
<when >2025-09-03T20:24:44.200Z</when>
<when >2025-09-03T20:24:50.770Z</when>
<when >2025-09-03T20:24:58.400Z</when>
<when >2025-09-03T20:25:05.010Z</when>
<when >2025-09-03T20:25:12.120Z</when>
<when >2025-09-03T20:25:18.350Z</when>
<when >2025-09-03T20:25:24.580Z</when>
<when >2025-09-03T20:25:30.500Z</when>
<when >2025-09-03T20:25:35.990Z</when>
<when >2025-09-03T20:25:42.670Z</when>
<when >2025-09-03T20:25:47.910Z</when>
<when >2025-09-03T20:25:54.040Z</when>
<when >2025-09-03T20:26:01.610Z</when>
<when >2025-09-03T20:26:03.860Z</when>
<when >2025-09-03T20:26:06.060Z</when>
<when >2025-09-03T20:26:06.750Z</when>
<when >2025-09-03T20:26:10.860Z</when>
<when >2025-09-03T20:26:14.770Z</when>
<when >2025-09-03T20:26:17.730Z</when>
<when >2025-09-03T20:26:19.330Z</when>
<when >2025-09-03T20:26:22.190Z</when>
<when >2025-09-03T20:26:26.230Z</when>
<when >2025-09-03T20:26:28.940Z</when>
<when >2025-09-03T20:26:32.140Z</when>
<when >2025-09-03T20:26:35.070Z</when>
<when >2025-09-03T20:26:37.210Z</when>
<when >2025-09-03T20:26:39.930Z</when>
<when >2025-09-03T20:26:42.290Z</when>
<when >2025-09-03T20:26:45.050Z</when>
<when >2025-09-03T20:26:47.780Z</when>
<when >2025-09-03T20:26:50.570Z</when>
<when >2025-09-03T20:26:52.710Z</when>
<when >2025-09-03T20:26:59.180Z</when>
<when >2025-09-03T20:27:03.420Z</when>
<when >2025-09-03T20:27:06.680Z</when>
<when >2025-09-03T20:27:10.850Z</when>
<when >2025-09-03T20:27:16.220Z</when>
<when >2025-09-03T20:27:21.730Z</when>
<when >2025-09-03T20:27:27.720Z</when>
<when >2025-09-03T20:27:31.350Z</when>
<when >2025-09-03T20:27:36.990Z</when>
<when >2025-09-03T20:27:40.270Z</when>
<when >2025-09-03T20:27:45.410Z</when>
<when >2025-09-03T20:27:48.630Z</when>
<when >2025-09-03T20:27:53.660Z</when>
<when >2025-09-03T20:27:56.720Z</when>
<when >2025-09-03T20:27:57.550Z</when>
<when >2025-09-03T20:27:58.890Z</when>
<when >2025-09-03T20:28:02.460Z</when>
<when >2025-09-03T20:28:06.430Z</when>
<when >2025-09-03T20:28:09.730Z</when>
<when >2025-09-03T20:28:12.950Z</when>
<when >2025-09-03T20:28:16.390Z</when>
<when >2025-09-03T20:28:19.710Z</when>
<when >2025-09-03T20:28:23.450Z</when>
<when >2025-09-03T20:28:26.810Z</when>
<when >2025-09-03T20:28:30.710Z</when>
<when >2025-09-03T20:28:34.740Z</when>
<when >2025-09-03T20:28:38.900Z</when>
<when >2025-09-03T20:28:43.610Z</when>
<when >2025-09-03T20:28:48.120Z</when>
<when >2025-09-03T20:28:53.190Z</when>
<when >2025-09-03T20:28:57.180Z</when>
<when >2025-09-03T20:28:59.980Z</when>
<when >2025-09-03T20:29:03.820Z</when>
<when >2025-09-03T20:29:07.770Z</when>
<when >2025-09-03T20:29:12.210Z</when>
<when >2025-09-03T20:29:19.070Z</when>
<when >2025-09-03T20:29:27.440Z</when>
<when >2025-09-03T20:29:32.580Z</when>
<when >2025-09-03T20:29:37.800Z</when>
<when >2025-09-03T20:29:42.740Z</when>
<when >2025-09-03T20:29:48.160Z</when>
<when >2025-09-03T20:29:53.730Z</when>
<when >2025-09-03T20:29:58.190Z</when>
<when >2025-09-03T20:30:03.000Z</when>
<when >2025-09-03T20:30:08.280Z</when>
<when >2025-09-03T20:30:12.620Z</when>
<when >2025-09-03T20:30:17.770Z</when>
<when >2025-09-03T20:30:20.940Z</when>
<when >2025-09-03T20:30:23.590Z</when>
<when >2025-09-03T20:30:27.960Z</when>
<when >2025-09-03T20:30:32.750Z</when>
<when >2025-09-03T20:30:38.510Z</when>
<when >2025-09-03T20:30:42.770Z</when>
<when >2025-09-03T20:30:46.930Z</when>
<when >2025-09-03T20:30:49.880Z</when>
<when >2025-09-03T20:30:53.870Z</when>
<when >2025-09-03T20:30:57.480Z</when>
<when >2025-09-03T20:31:00.070Z</when>
<when >2025-09-03T20:31:03.170Z</when>
<when >2025-09-03T20:31:06.680Z</when>
<when >2025-09-03T20:31:11.360Z</when>
<when >2025-09-03T20:31:14.660Z</when>
<when >2025-09-03T20:31:17.260Z</when>
<when >2025-09-03T20:31:21.170Z</when>
<when >2025-09-03T20:31:27.530Z</when>
<when >2025-09-03T20:31:35.830Z</when>
<when >2025-09-03T20:31:44.420Z</when>
<when >2025-09-03T20:31:50.900Z</when>
<when >2025-09-03T20:31:59.880Z</when>
<when >2025-09-03T20:32:07.490Z</when>
<when >2025-09-03T20:32:15.490Z</when>
<when >2025-09-03T20:32:22.920Z</when>
<when >2025-09-03T20:32:31.270Z</when>
<when >2025-09-03T20:32:39.830Z</when>
<when >2025-09-03T20:32:46.130Z</when>
<when >2025-09-03T20:32:54.410Z</when>
<when >2025-09-03T20:33:04.170Z</when>
<when >2025-09-03T20:33:11.310Z</when>
<when >2025-09-03T20:33:21.430Z</when>
<when >2025-09-03T20:33:24.840Z</when>
<when >2025-09-03T20:33:29.760Z</when>
<when >2025-09-03T20:33:29.760Z</when>
<gx:coord >14.492837 35.845177 78</gx:coord>
<gx:coord >14.490967 35.846649 86</gx:coord>
<gx:coord >14.490791 35.846852 86</gx:coord>
<gx:coord >14.489422 35.847885 87</gx:coord>
<gx:coord >14.487753 35.849273 88</gx:coord>
<gx:coord >14.486584 35.850204 81</gx:coord>
<gx:coord >14.486 35.85067 83</gx:coord>
<gx:coord >14.484501 35.851913 85</gx:coord>
<gx:coord >14.484158 35.852142 85</gx:coord>
<gx:coord >14.483837 35.852439 85</gx:coord>
<gx:coord >14.481812 35.854065 116</gx:coord>
<gx:coord >14.481468 35.85434 123</gx:coord>
<gx:coord >14.480782 35.854889 130</gx:coord>
<gx:coord >14.479408 35.855988 160</gx:coord>
<gx:coord >14.47776 35.857327 193</gx:coord>
<gx:coord >14.476433 35.858414 225</gx:coord>
<gx:coord >14.474888 35.859695 254</gx:coord>
<gx:coord >14.473228 35.861023 285</gx:coord>
<gx:coord >14.471916 35.862028 316</gx:coord>
<gx:coord >14.470572 35.863053 348</gx:coord>
<gx:coord >14.468822 35.864365 380</gx:coord>
<gx:coord >14.467475 35.865334 406</gx:coord>
<gx:coord >14.46619 35.866241 437</gx:coord>
<gx:coord >14.464378 35.867475 469</gx:coord>
<gx:coord >14.462975 35.86836 496</gx:coord>
<gx:coord >14.460354 35.870087 525</gx:coord>
<gx:coord >14.45906 35.870873 541</gx:coord>
<gx:coord >14.457131 35.872037 557</gx:coord>
<gx:coord >14.45456 35.87362 580</gx:coord>
<gx:coord >14.452982 35.874504 596</gx:coord>
<gx:coord >14.449943 35.87632 627</gx:coord>
<gx:coord >14.446086 35.878601 662</gx:coord>
<gx:coord >14.44334 35.880137 685</gx:coord>
<gx:coord >14.440327 35.881897 706</gx:coord>
<gx:coord >14.437379 35.883582 723</gx:coord>
<gx:coord >14.435291 35.884781 737</gx:coord>
<gx:coord >14.432646 35.886329 754</gx:coord>
<gx:coord >14.430141 35.887711 770</gx:coord>
<gx:coord >14.427223 35.88945 786</gx:coord>
<gx:coord >14.423447 35.891647 810</gx:coord>
<gx:coord >14.420013 35.893661 835</gx:coord>
<gx:coord >14.415607 35.896362 863</gx:coord>
<gx:coord >14.413662 35.897552 879</gx:coord>
<gx:coord >14.40968 35.900015 904</gx:coord>
<gx:coord >14.408102 35.900993 920</gx:coord>
<gx:coord >14.405251 35.902771 942</gx:coord>
<gx:coord >14.404771 35.903088 949</gx:coord>
<gx:coord >14.403251 35.904019 973</gx:coord>
<gx:coord >14.401089 35.905415 1002</gx:coord>
<gx:coord >14.399628 35.9063 1027</gx:coord>
<gx:coord >14.398441 35.907074 1050</gx:coord>
<gx:coord >14.396823 35.908115 1074</gx:coord>
<gx:coord >14.395187 35.909186 1104</gx:coord>
<gx:coord >14.393083 35.910582 1138</gx:coord>
<gx:coord >14.391564 35.911653 1168</gx:coord>
<gx:coord >14.389915 35.912888 1200</gx:coord>
<gx:coord >14.388584 35.914074 1222</gx:coord>
<gx:coord >14.38694 35.915497 1255</gx:coord>
<gx:coord >14.385223 35.917328 1296</gx:coord>
<gx:coord >14.384142 35.918683 1318</gx:coord>
<gx:coord >14.383049 35.92012 1350</gx:coord>
<gx:coord >14.381962 35.921722 1380</gx:coord>
<gx:coord >14.380811 35.923896 1413</gx:coord>
<gx:coord >14.380131 35.92543 1445</gx:coord>
<gx:coord >14.37933 35.927399 1475</gx:coord>
<gx:coord >14.378649 35.929576 1506</gx:coord>
<gx:coord >14.378065 35.932415 1535</gx:coord>
<gx:coord >14.377842 35.93454 1567</gx:coord>
<gx:coord >14.377773 35.936884 1593</gx:coord>
<gx:coord >14.377899 35.939117 1626</gx:coord>
<gx:coord >14.378357 35.941866 1657</gx:coord>
<gx:coord >14.378708 35.943402 1681</gx:coord>
<gx:coord >14.379501 35.946121 1721</gx:coord>
<gx:coord >14.380245 35.948135 1751</gx:coord>
<gx:coord >14.380703 35.94928 1764</gx:coord>
<gx:coord >14.381396 35.951083 1795</gx:coord>
<gx:coord >14.382331 35.953224 1827</gx:coord>
<gx:coord >14.383207 35.955319 1856</gx:coord>
<gx:coord >14.384251 35.95784 1886</gx:coord>
<gx:coord >14.385253 35.960207 1921</gx:coord>
<gx:coord >14.386188 35.962395 1942</gx:coord>
<gx:coord >14.387298 35.965095 1960</gx:coord>
<gx:coord >14.388885 35.969101 1992</gx:coord>
<gx:coord >14.39022 35.972497 2017</gx:coord>
<gx:coord >14.391155 35.974918 2035</gx:coord>
<gx:coord >14.392834 35.979401 2063</gx:coord>
<gx:coord >14.394207 35.9832 2088</gx:coord>
<gx:coord >14.39518 35.985901 2111</gx:coord>
<gx:coord >14.396239 35.988883 2142</gx:coord>
<gx:coord >14.397583 35.99263 2171</gx:coord>
<gx:coord >14.398401 35.995028 2204</gx:coord>
<gx:coord >14.399471 35.997986 2234</gx:coord>
<gx:coord >14.401302 36.003296 2292</gx:coord>
<gx:coord >14.40331 36.008854 2370</gx:coord>
<gx:coord >14.405238 36.014394 2420</gx:coord>
<gx:coord >14.407482 36.020691 2484</gx:coord>
<gx:coord >14.40937 36.026001 2543</gx:coord>
<gx:coord >14.411433 36.031711 2612</gx:coord>
<gx:coord >14.413261 36.036758 2661</gx:coord>
<gx:coord >14.415173 36.041953 2709</gx:coord>
<gx:coord >14.417335 36.047818 2776</gx:coord>
<gx:coord >14.41927 36.053101 2841</gx:coord>
<gx:coord >14.421601 36.05955 2904</gx:coord>
<gx:coord >14.423847 36.065598 2967</gx:coord>
<gx:coord >14.426218 36.071979 3033</gx:coord>
<gx:coord >14.427971 36.076774 3088</gx:coord>
<gx:coord >14.429741 36.081528 3151</gx:coord>
<gx:coord >14.431801 36.086929 3224</gx:coord>
<gx:coord >14.433346 36.091049 3286</gx:coord>
<gx:coord >14.43475 36.094743 3332</gx:coord>
<gx:coord >14.435234 36.096039 3348</gx:coord>
<gx:coord >14.43621 36.098607 3371</gx:coord>
<gx:coord >14.43718 36.101166 3396</gx:coord>
<gx:coord >14.438373 36.104333 3420</gx:coord>
<gx:coord >14.439869 36.108307 3444</gx:coord>
<gx:coord >14.443302 36.117462 3489</gx:coord>
<gx:coord >14.447723 36.129471 3536</gx:coord>
<gx:coord >14.452106 36.141342 3589</gx:coord>
<gx:coord >14.455719 36.151154 3636</gx:coord>
<gx:coord >14.457657 36.156378 3674</gx:coord>
<gx:coord >14.459235 36.160661 3707</gx:coord>
<gx:coord >14.460354 36.163651 3729</gx:coord>
<gx:coord >14.461613 36.167084 3768</gx:coord>
<gx:coord >14.463326 36.171647 3820</gx:coord>
<gx:coord >14.466305 36.179489 3909</gx:coord>
<gx:coord >14.467475 36.182634 3939</gx:coord>
<gx:coord >14.472442 36.195855 4083</gx:coord>
<gx:coord >14.47624 36.205863 4158</gx:coord>
<gx:coord >14.479237 36.213821 4229</gx:coord>
<gx:coord >14.48635 36.232864 4329</gx:coord>
<gx:coord >14.489708 36.24202 4394</gx:coord>
<gx:coord >14.492136 36.248552 4444</gx:coord>
<gx:coord >14.495659 36.257904 4535</gx:coord>
<gx:coord >14.499893 36.269165 4667</gx:coord>
<gx:coord >14.501661 36.273923 4715</gx:coord>
<gx:coord >14.503155 36.277817 4764</gx:coord>
<gx:coord >14.505844 36.284912 4822</gx:coord>
<gx:coord >14.510021 36.296173 4891</gx:coord>
<gx:coord >14.517147 36.315215 5005</gx:coord>
<gx:coord >14.523984 36.333603 5120</gx:coord>
<gx:coord >14.530849 36.35202 5226</gx:coord>
<gx:coord >14.537542 36.370006 5348</gx:coord>
<gx:coord >14.544204 36.38765 5478</gx:coord>
<gx:coord >14.550457 36.404176 5615</gx:coord>
<gx:coord >14.556768 36.420888 5729</gx:coord>
<gx:coord >14.56358 36.439133 5851</gx:coord>
<gx:coord >14.569858 36.455849 5988</gx:coord>
<gx:coord >14.576283 36.473007 6095</gx:coord>
<gx:coord >14.582863 36.490448 6225</gx:coord>
<gx:coord >14.586513 36.501144 6284</gx:coord>
<gx:coord >14.589376 36.511665 6338</gx:coord>
<gx:coord >14.593116 36.528424 6437</gx:coord>
<gx:coord >14.597441 36.548255 6544</gx:coord>
<gx:coord >14.602203 36.569458 6658</gx:coord>
<gx:coord >14.607492 36.592619 6757</gx:coord>
<gx:coord >14.612217 36.6129 6864</gx:coord>
<gx:coord >14.616901 36.633306 6978</gx:coord>
<gx:coord >14.621634 36.653789 7085</gx:coord>
<gx:coord >14.626484 36.674831 7199</gx:coord>
<gx:coord >14.63075 36.693079 7298</gx:coord>
<gx:coord >14.634991 36.711182 7429</gx:coord>
<gx:coord >14.637588 36.720498 7479</gx:coord>
<gx:coord >14.640713 36.728989 7515</gx:coord>
<gx:coord >14.64386 36.73558 7552</gx:coord>
<gx:coord >14.648165 36.742936 7588</gx:coord>
<gx:coord >14.653015 36.750275 7631</gx:coord>
<gx:coord >14.667263 36.770599 7739</gx:coord>
<gx:coord >14.68214 36.791931 7838</gx:coord>
<gx:coord >14.69772 36.814534 7937</gx:coord>
<gx:coord >14.715777 36.841069 8013</gx:coord>
<gx:coord >14.729203 36.860946 8090</gx:coord>
<gx:coord >14.743951 36.882733 8196</gx:coord>
<gx:coord >14.758437 36.904175 8288</gx:coord>
<gx:coord >14.773631 36.926605 8393</gx:coord>
<gx:coord >14.790523 36.951351 8492</gx:coord>
<gx:coord >14.806415 36.974579 8584</gx:coord>
<gx:coord >14.822527 36.998229 8683</gx:coord>
<gx:coord >14.839424 37.023041 8774</gx:coord>
<gx:coord >14.855912 37.047226 8866</gx:coord>
<gx:coord >14.872085 37.07085 8957</gx:coord>
<gx:coord >14.887819 37.093918 9056</gx:coord>
<gx:coord >14.905044 37.119079 9140</gx:coord>
<gx:coord >14.922479 37.144589 9224</gx:coord>
<gx:coord >14.939069 37.168762 9308</gx:coord>
<gx:coord >14.955899 37.193344 9414</gx:coord>
<gx:coord >14.974657 37.220718 9483</gx:coord>
<gx:coord >14.995562 37.251194 9559</gx:coord>
<gx:coord >15.015096 37.279587 9635</gx:coord>
<gx:coord >15.036283 37.310362 9705</gx:coord>
<gx:coord >15.054673 37.337036 9796</gx:coord>
<gx:coord >15.071489 37.361343 9903</gx:coord>
<gx:coord >15.088229 37.385637 9995</gx:coord>
<gx:coord >15.106844 37.412567 10086</gx:coord>
<gx:coord >15.125193 37.439117 10170</gx:coord>
<gx:coord >15.14214 37.463608 10269</gx:coord>
<gx:coord >15.157909 37.486422 10369</gx:coord>
<gx:coord >15.174749 37.510757 10476</gx:coord>
<gx:coord >15.191579 37.535019 10567</gx:coord>
<gx:coord >15.209317 37.56058 10651</gx:coord>
<gx:coord >15.233421 37.595352 10719</gx:coord>
<gx:coord >15.253173 37.623779 10803</gx:coord>
<gx:coord >15.269862 37.647819 10895</gx:coord>
<gx:coord >15.286401 37.671561 10994</gx:coord>
<gx:coord >15.306351 37.70018 11070</gx:coord>
<gx:coord >15.325152 37.727144 11147</gx:coord>
<gx:coord >15.343004 37.752748 11246</gx:coord>
<gx:coord >15.362947 37.781191 11330</gx:coord>
<gx:coord >15.383666 37.810845 11414</gx:coord>
<gx:coord >15.403429 37.839055 11482</gx:coord>
<gx:coord >15.410654 37.849297 11503</gx:coord>
<gx:coord >15.434836 37.883978 11512</gx:coord>
<gx:coord >15.458582 37.917938 11512</gx:coord>
<gx:coord >15.482961 37.952689 11512</gx:coord>
<gx:coord >15.506068 37.985555 11512</gx:coord>
<gx:coord >15.529115 38.018282 11512</gx:coord>
<gx:coord >15.553715 38.053056 11511</gx:coord>
<gx:coord >15.577912 38.087173 11503</gx:coord>
<gx:coord >15.602019 38.121115 11503</gx:coord>
<gx:coord >15.624708 38.153237 11496</gx:coord>
<gx:coord >15.647338 38.185404 11496</gx:coord>
<gx:coord >15.670683 38.218596 11479</gx:coord>
<gx:coord >15.694388 38.252113 11479</gx:coord>
<gx:coord >15.717734 38.284979 11479</gx:coord>
<gx:coord >15.742181 38.319122 11479</gx:coord>
<gx:coord >15.764621 38.350571 11486</gx:coord>
<gx:coord >15.788548 38.384415 11478</gx:coord>
<gx:coord >15.812132 38.417725 11486</gx:coord>
<gx:coord >15.835717 38.450729 11486</gx:coord>
<gx:coord >15.859839 38.484421 11486</gx:coord>
<gx:coord >15.883424 38.517288 11486</gx:coord>
<gx:coord >15.907166 38.550374 11486</gx:coord>
<gx:coord >15.929758 38.582016 11494</gx:coord>
<gx:coord >15.953044 38.614609 11501</gx:coord>
<gx:coord >15.976927 38.647842 11494</gx:coord>
<gx:coord >16.001221 38.681698 11494</gx:coord>
<gx:coord >16.024536 38.714144 11494</gx:coord>
<gx:coord >16.048889 38.747941 11494</gx:coord>
<gx:coord >16.072759 38.781097 11494</gx:coord>
<gx:coord >16.096881 38.814651 11486</gx:coord>
<gx:coord >16.120789 38.847749 11486</gx:coord>
<gx:coord >16.143812 38.879608 11477</gx:coord>
<gx:coord >16.167875 38.912933 11477</gx:coord>
<gx:coord >16.19128 38.945206 11470</gx:coord>
<gx:coord >16.215698 38.978887 11470</gx:coord>
<gx:coord >16.239166 39.011169 11470</gx:coord>
<gx:coord >16.263527 39.04454 11470</gx:coord>
<gx:coord >16.287659 39.077624 11477</gx:coord>
<gx:coord >16.312249 39.111282 11477</gx:coord>
<gx:coord >16.336243 39.144147 11477</gx:coord>
<gx:coord >16.360553 39.177475 11477</gx:coord>
<gx:coord >16.384735 39.210571 11470</gx:coord>
<gx:coord >16.409574 39.244492 11462</gx:coord>
<gx:coord >16.433899 39.277659 11462</gx:coord>
<gx:coord >16.457281 39.30954 11456</gx:coord>
<gx:coord >16.4823 39.343577 11456</gx:coord>
<gx:coord >16.506779 39.376831 11448</gx:coord>
<gx:coord >16.531067 39.409821 11448</gx:coord>
<gx:coord >16.555083 39.442383 11449</gx:coord>
<gx:coord >16.579224 39.47518 11457</gx:coord>
<gx:coord >16.603699 39.508372 11449</gx:coord>
<gx:coord >16.628046 39.541306 11450</gx:coord>
<gx:coord >16.652348 39.574127 11450</gx:coord>
<gx:coord >16.676025 39.606039 11451</gx:coord>
<gx:coord >16.700891 39.639542 11451</gx:coord>
<gx:coord >16.724774 39.671768 11459</gx:coord>
<gx:coord >16.748169 39.70324 11452</gx:coord>
<gx:coord >16.773499 39.737409 11452</gx:coord>
<gx:coord >16.797546 39.769763 11452</gx:coord>
<gx:coord >16.822278 39.802917 11453</gx:coord>
<gx:coord >16.846877 39.835876 11453</gx:coord>
<gx:coord >16.871338 39.868547 11438</gx:coord>
<gx:coord >16.895719 39.901154 11438</gx:coord>
<gx:coord >16.919445 39.932742 11438</gx:coord>
<gx:coord >16.944663 39.966353 11438</gx:coord>
<gx:coord >16.968567 39.998245 11430</gx:coord>
<gx:coord >16.992798 40.030563 11422</gx:coord>
<gx:coord >17.017822 40.063797 11421</gx:coord>
<gx:coord >17.042847 40.097031 11429</gx:coord>
<gx:coord >17.067383 40.129486 11421</gx:coord>
<gx:coord >17.091858 40.161942 11428</gx:coord>
<gx:coord >17.11645 40.194506 11428</gx:coord>
<gx:coord >17.141113 40.227081 11420</gx:coord>
<gx:coord >17.165405 40.259171 11419</gx:coord>
<gx:coord >17.190108 40.291707 11419</gx:coord>
<gx:coord >17.213745 40.322845 11419</gx:coord>
<gx:coord >17.239258 40.356445 11418</gx:coord>
<gx:coord >17.263489 40.388306 11418</gx:coord>
<gx:coord >17.287487 40.419865 11402</gx:coord>
<gx:coord >17.312081 40.452126 11410</gx:coord>
<gx:coord >17.336863 40.484573 11410</gx:coord>
<gx:coord >17.360657 40.515656 11410</gx:coord>
<gx:coord >17.384866 40.547185 11410</gx:coord>
<gx:coord >17.410217 40.580292 11410</gx:coord>
<gx:coord >17.434937 40.612518 11401</gx:coord>
<gx:coord >17.459473 40.644562 11401</gx:coord>
<gx:coord >17.483704 40.676102 11401</gx:coord>
<gx:coord >17.509033 40.709061 11401</gx:coord>
<gx:coord >17.533868 40.741448 11395</gx:coord>
<gx:coord >17.558275 40.773196 11395</gx:coord>
<gx:coord >17.583435 40.805786 11387</gx:coord>
<gx:coord >17.608462 40.838044 11387</gx:coord>
<gx:coord >17.633301 40.87001 11387</gx:coord>
<gx:coord >17.658775 40.902844 11388</gx:coord>
<gx:coord >17.683806 40.935152 11388</gx:coord>
<gx:coord >17.709106 40.967789 11396</gx:coord>
<gx:coord >17.733826 40.999557 11389</gx:coord>
<gx:coord >17.759155 41.032104 11389</gx:coord>
<gx:coord >17.784851 41.065018 11397</gx:coord>
<gx:coord >17.809025 41.09599 11397</gx:coord>
<gx:coord >17.835144 41.129471 11390</gx:coord>
<gx:coord >17.859375 41.160507 11428</gx:coord>
<gx:coord >17.859962 41.161209 11466</gx:coord>
<gx:coord >17.860596 41.162064 11424</gx:coord>
<gx:coord >17.88562 41.194061 11382</gx:coord>
<gx:coord >17.910961 41.226336 11375</gx:coord>
<gx:coord >17.936492 41.258876 11367</gx:coord>
<gx:coord >17.96171 41.291183 11353</gx:coord>
<gx:coord >17.986755 41.323151 11353</gx:coord>
<gx:coord >18.012451 41.355789 11361</gx:coord>
<gx:coord >18.038053 41.388382 11361</gx:coord>
<gx:coord >18.063895 41.421158 11361</gx:coord>
<gx:coord >18.090075 41.454256 11361</gx:coord>
<gx:coord >18.106468 41.473984 11361</gx:coord>
<gx:coord >18.117733 41.486423 11361</gx:coord>
<gx:coord >18.128783 41.497689 11362</gx:coord>
<gx:coord >18.142922 41.510651 11361</gx:coord>
<gx:coord >18.153971 41.519806 11355</gx:coord>
<gx:coord >18.189208 41.5475 11354</gx:coord>
<gx:coord >18.225488 41.576828 11354</gx:coord>
<gx:coord >18.261525 41.605911 11354</gx:coord>
<gx:coord >18.296731 41.634064 11354</gx:coord>
<gx:coord >18.333435 41.663132 11354</gx:coord>
<gx:coord >18.369971 41.692184 11362</gx:coord>
<gx:coord >18.405595 41.720444 11363</gx:coord>
<gx:coord >18.445858 41.752121 11363</gx:coord>
<gx:coord >18.483794 41.78203 11363</gx:coord>
<gx:coord >18.520905 41.811311 11347</gx:coord>
<gx:coord >18.558655 41.84111 11347</gx:coord>
<gx:coord >18.595297 41.870041 11347</gx:coord>
<gx:coord >18.605784 41.878784 11347</gx:coord>
<gx:coord >18.616583 41.888718 11347</gx:coord>
<gx:coord >18.62783 41.900366 11347</gx:coord>
<gx:coord >18.636183 41.91037 11347</gx:coord>
<gx:coord >18.642051 41.918335 11347</gx:coord>
<gx:coord >18.6491 41.929368 11347</gx:coord>
<gx:coord >18.654083 41.938678 11347</gx:coord>
<gx:coord >18.658873 41.949572 11347</gx:coord>
<gx:coord >18.661811 41.957904 11347</gx:coord>
<gx:coord >18.667582 41.977707 11347</gx:coord>
<gx:coord >18.675697 42.004395 11347</gx:coord>
<gx:coord >18.688868 42.043762 11347</gx:coord>
<gx:coord >18.702101 42.082626 11346</gx:coord>
<gx:coord >18.714827 42.121349 11339</gx:coord>
<gx:coord >18.727694 42.16127 11339</gx:coord>
<gx:coord >18.739492 42.198715 11339</gx:coord>
<gx:coord >18.751789 42.237442 11339</gx:coord>
<gx:coord >18.764399 42.276947 11346</gx:coord>
<gx:coord >18.776529 42.314634 11345</gx:coord>
<gx:coord >18.789555 42.355133 11345</gx:coord>
<gx:coord >18.802039 42.394135 11345</gx:coord>
<gx:coord >18.814461 42.43277 11345</gx:coord>
<gx:coord >18.827117 42.47212 11344</gx:coord>
<gx:coord >18.840117 42.512695 11344</gx:coord>
<gx:coord >18.853369 42.55382 11344</gx:coord>
<gx:coord >18.865953 42.592877 11336</gx:coord>
<gx:coord >18.879111 42.633051 11336</gx:coord>
<gx:coord >18.892141 42.672947 11343</gx:coord>
<gx:coord >18.905161 42.71283 11350</gx:coord>
<gx:coord >18.91801 42.751992 11358</gx:coord>
<gx:coord >18.930879 42.792114 11358</gx:coord>
<gx:coord >18.943112 42.830109 11349</gx:coord>
<gx:coord >18.956334 42.870621 11341</gx:coord>
<gx:coord >18.969173 42.910172 11341</gx:coord>
<gx:coord >18.982936 42.95226 11340</gx:coord>
<gx:coord >18.996256 42.993347 11340</gx:coord>
<gx:coord >19.009797 43.034637 11340</gx:coord>
<gx:coord >19.023416 43.076043 11339</gx:coord>
<gx:coord >19.036049 43.114563 11347</gx:coord>
<gx:coord >19.050424 43.157835 11347</gx:coord>
<gx:coord >19.063898 43.198563 11362</gx:coord>
<gx:coord >19.077823 43.241135 11369</gx:coord>
<gx:coord >19.090576 43.280221 11369</gx:coord>
<gx:coord >19.104898 43.323654 11376</gx:coord>
<gx:coord >19.118369 43.364201 11354</gx:coord>
<gx:coord >19.132307 43.406479 11369</gx:coord>
<gx:coord >19.146293 43.44846 11361</gx:coord>
<gx:coord >19.160091 43.489659 11361</gx:coord>
<gx:coord >19.174085 43.531044 11361</gx:coord>
<gx:coord >19.187557 43.571265 11361</gx:coord>
<gx:coord >19.201036 43.612015 11369</gx:coord>
<gx:coord >19.213874 43.650925 11376</gx:coord>
<gx:coord >19.227735 43.692444 11376</gx:coord>
<gx:coord >19.241246 43.732615 11369</gx:coord>
<gx:coord >19.255175 43.773907 11384</gx:coord>
<gx:coord >19.268806 43.814484 11384</gx:coord>
<gx:coord >19.282858 43.856232 11384</gx:coord>
<gx:coord >19.296635 43.897084 11376</gx:coord>
<gx:coord >19.310452 43.937988 11384</gx:coord>
<gx:coord >19.323839 43.977387 11384</gx:coord>
<gx:coord >19.338109 44.01947 11392</gx:coord>
<gx:coord >19.350913 44.057178 11399</gx:coord>
<gx:coord >19.364425 44.096512 11399</gx:coord>
<gx:coord >19.37779 44.135665 11393</gx:coord>
<gx:coord >19.391189 44.174927 11377</gx:coord>
<gx:coord >19.404937 44.215502 11377</gx:coord>
<gx:coord >19.418201 44.254187 11377</gx:coord>
<gx:coord >19.4318 44.293989 11377</gx:coord>
<gx:coord >19.445466 44.33435 11377</gx:coord>
<gx:coord >19.458945 44.3741 11377</gx:coord>
<gx:coord >19.472482 44.413605 11370</gx:coord>
<gx:coord >19.486129 44.453151 11370</gx:coord>
<gx:coord >19.499817 44.492981 11370</gx:coord>
<gx:coord >19.513811 44.533127 11362</gx:coord>
<gx:coord >19.527595 44.572697 11371</gx:coord>
<gx:coord >19.541146 44.611725 11371</gx:coord>
<gx:coord >19.555061 44.65165 11378</gx:coord>
<gx:coord >19.568794 44.691405 11378</gx:coord>
<gx:coord >19.582728 44.73144 11378</gx:coord>
<gx:coord >19.596729 44.771941 11386</gx:coord>
<gx:coord >19.610663 44.812022 11386</gx:coord>
<gx:coord >19.624463 44.851685 11386</gx:coord>
<gx:coord >19.637669 44.889679 11386</gx:coord>
<gx:coord >19.652187 44.931564 11401</gx:coord>
<gx:coord >19.666264 44.971789 11401</gx:coord>
<gx:coord >19.680399 45.012104 11394</gx:coord>
<gx:coord >19.6944 45.051906 11394</gx:coord>
<gx:coord >19.708267 45.091196 11386</gx:coord>
<gx:coord >19.722603 45.131696 11386</gx:coord>
<gx:coord >19.735465 45.168193 11378</gx:coord>
<gx:coord >19.749233 45.207138 11378</gx:coord>
<gx:coord >19.763358 45.24678 11378</gx:coord>
<gx:coord >19.777352 45.28624 11371</gx:coord>
<gx:coord >19.791535 45.325773 11378</gx:coord>
<gx:coord >19.806139 45.366552 11386</gx:coord>
<gx:coord >19.820743 45.407518 11386</gx:coord>
<gx:coord >19.835227 45.448471 11394</gx:coord>
<gx:coord >19.849875 45.489716 11394</gx:coord>
<gx:coord >19.864393 45.529907 11394</gx:coord>
<gx:coord >19.879627 45.571838 11386</gx:coord>
<gx:coord >19.894231 45.612442 11386</gx:coord>
<gx:coord >19.908257 45.651871 11386</gx:coord>
<gx:coord >19.923036 45.693832 11386</gx:coord>
<gx:coord >19.937782 45.735106 11386</gx:coord>
<gx:coord >19.952408 45.775607 11386</gx:coord>
<gx:coord >19.966981 45.815689 11378</gx:coord>
<gx:coord >19.982188 45.857437 11378</gx:coord>
<gx:coord >19.996792 45.897903 11378</gx:coord>
<gx:coord >20.01153 45.938507 11378</gx:coord>
<gx:coord >20.026669 45.980118 11386</gx:coord>
<gx:coord >20.041005 46.019714 11394</gx:coord>
<gx:coord >20.056229 46.061251 11394</gx:coord>
<gx:coord >20.072021 46.104355 11401</gx:coord>
<gx:coord >20.087295 46.14624 11395</gx:coord>
<gx:coord >20.093927 46.166656 11395</gx:coord>
<gx:coord >20.099281 46.186384 11402</gx:coord>
<gx:coord >20.105667 46.214501 11402</gx:coord>
<gx:coord >20.11528 46.25719 11402</gx:coord>
<gx:coord >20.125237 46.298668 11410</gx:coord>
<gx:coord >20.135662 46.342072 11410</gx:coord>
<gx:coord >20.14571 46.383957 11410</gx:coord>
<gx:coord >20.155893 46.426849 11402</gx:coord>
<gx:coord >20.165955 46.46863 11387</gx:coord>
<gx:coord >20.175705 46.509829 11395</gx:coord>
<gx:coord >20.185569 46.550171 11387</gx:coord>
<gx:coord >20.196167 46.592738 11379</gx:coord>
<gx:coord >20.206671 46.635727 11387</gx:coord>
<gx:coord >20.216835 46.678953 11379</gx:coord>
<gx:coord >20.226768 46.721924 11379</gx:coord>
<gx:coord >20.236682 46.763992 11379</gx:coord>
<gx:coord >20.246865 46.806519 11387</gx:coord>
<gx:coord >20.256712 46.847992 11395</gx:coord>
<gx:coord >20.266747 46.890486 11395</gx:coord>
<gx:coord >20.27724 46.933966 11402</gx:coord>
<gx:coord >20.287422 46.975388 11402</gx:coord>
<gx:coord >20.298086 47.018505 11402</gx:coord>
<gx:coord >20.308298 47.060774 11402</gx:coord>
<gx:coord >20.31858 47.103184 11403</gx:coord>
<gx:coord >20.329033 47.146591 11396</gx:coord>
<gx:coord >20.339144 47.188281 11388</gx:coord>
<gx:coord >20.349564 47.230865 11388</gx:coord>
<gx:coord >20.35999 47.273192 11388</gx:coord>
<gx:coord >20.370624 47.316486 11380</gx:coord>
<gx:coord >20.380977 47.35815 11380</gx:coord>
<gx:coord >20.391724 47.401154 11380</gx:coord>
<gx:coord >20.402245 47.44362 11380</gx:coord>
<gx:coord >20.412598 47.485703 11388</gx:coord>
<gx:coord >20.423232 47.52909 11380</gx:coord>
<gx:coord >20.433609 47.571121 11380</gx:coord>
<gx:coord >20.444252 47.613739 11380</gx:coord>
<gx:coord >20.454641 47.655572 11388</gx:coord>
<gx:coord >20.464642 47.696306 11388</gx:coord>
<gx:coord >20.475206 47.738482 11388</gx:coord>
<gx:coord >20.486206 47.782059 11388</gx:coord>
<gx:coord >20.49321 47.811356 11388</gx:coord>
<gx:coord >20.49733 47.834198 11380</gx:coord>
<gx:coord >20.499527 47.851547 11380</gx:coord>
<gx:coord >20.500969 47.870911 11380</gx:coord>
<gx:coord >20.501545 47.892337 11373</gx:coord>
<gx:coord >20.501106 47.912567 11380</gx:coord>
<gx:coord >20.499596 47.954727 11380</gx:coord>
<gx:coord >20.498634 47.998352 11380</gx:coord>
<gx:coord >20.49781 48.041245 11380</gx:coord>
<gx:coord >20.49678 48.084549 11380</gx:coord>
<gx:coord >20.495629 48.127705 11380</gx:coord>
<gx:coord >20.494502 48.171112 11388</gx:coord>
<gx:coord >20.493477 48.21406 11388</gx:coord>
<gx:coord >20.492319 48.256348 11388</gx:coord>
<gx:coord >20.491164 48.300647 11388</gx:coord>
<gx:coord >20.489995 48.343552 11388</gx:coord>
<gx:coord >20.488851 48.387141 11396</gx:coord>
<gx:coord >20.487812 48.430939 11396</gx:coord>
<gx:coord >20.486755 48.474518 11395</gx:coord>
<gx:coord >20.486051 48.516586 11387</gx:coord>
<gx:coord >20.4869 48.54216 11379</gx:coord>
<gx:coord >20.489502 48.582413 11372</gx:coord>
<gx:coord >20.492671 48.625809 11373</gx:coord>
<gx:coord >20.495429 48.669247 11373</gx:coord>
<gx:coord >20.497814 48.71296 11365</gx:coord>
<gx:coord >20.500199 48.756766 11373</gx:coord>
<gx:coord >20.50246 48.79953 11373</gx:coord>
<gx:coord >20.504573 48.842377 11365</gx:coord>
<gx:coord >20.506686 48.885818 11365</gx:coord>
<gx:coord >20.508869 48.929398 11365</gx:coord>
<gx:coord >20.511122 48.973343 11365</gx:coord>
<gx:coord >20.513306 49.016327 11365</gx:coord>
<gx:coord >20.515594 49.059728 11373</gx:coord>
<gx:coord >20.517835 49.103161 11373</gx:coord>
<gx:coord >20.520066 49.146927 11381</gx:coord>
<gx:coord >20.522244 49.190586 11381</gx:coord>
<gx:coord >20.524362 49.233353 11381</gx:coord>
<gx:coord >20.526757 49.275467 11381</gx:coord>
<gx:coord >20.529327 49.317813 11381</gx:coord>
<gx:coord >20.532884 49.360153 11366</gx:coord>
<gx:coord >20.536616 49.402954 11360</gx:coord>
<gx:coord >20.540314 49.445114 11360</gx:coord>
<gx:coord >20.543711 49.487137 11352</gx:coord>
<gx:coord >20.547036 49.529068 11360</gx:coord>
<gx:coord >20.549349 49.54953 11360</gx:coord>
<gx:coord >20.552023 49.563171 11352</gx:coord>
<gx:coord >20.557733 49.585052 11360</gx:coord>
<gx:coord >20.568864 49.626068 11361</gx:coord>
<gx:coord >20.580065 49.66877 11361</gx:coord>
<gx:coord >20.590532 49.709597 11353</gx:coord>
<gx:coord >20.601295 49.751075 11353</gx:coord>
<gx:coord >20.612086 49.792831 11361</gx:coord>
<gx:coord >20.623194 49.835707 11361</gx:coord>
<gx:coord >20.634203 49.877792 11362</gx:coord>
<gx:coord >20.645118 49.919769 11369</gx:coord>
<gx:coord >20.656301 49.962375 11369</gx:coord>
<gx:coord >20.667524 50.004959 11369</gx:coord>
<gx:coord >20.678582 50.047028 11369</gx:coord>
<gx:coord >20.689483 50.088672 11369</gx:coord>
<gx:coord >20.700411 50.130341 11362</gx:coord>
<gx:coord >20.711381 50.17214 11362</gx:coord>
<gx:coord >20.722739 50.215108 11369</gx:coord>
<gx:coord >20.733803 50.257141 11369</gx:coord>
<gx:coord >20.744934 50.299393 11362</gx:coord>
<gx:coord >20.75592 50.340752 11355</gx:coord>
<gx:coord >20.767426 50.38344 11347</gx:coord>
<gx:coord >20.769726 50.391815 11332</gx:coord>
<gx:coord >20.772544 50.402206 11301</gx:coord>
<gx:coord >20.774568 50.409622 11268</gx:coord>
<gx:coord >20.776631 50.417191 11233</gx:coord>
<gx:coord >20.778338 50.423336 11203</gx:coord>
<gx:coord >20.780929 50.432785 11137</gx:coord>
<gx:coord >20.783164 50.441026 11066</gx:coord>
<gx:coord >20.787289 50.45668 10936</gx:coord>
<gx:coord >20.791478 50.472495 10821</gx:coord>
<gx:coord >20.796303 50.490557 10699</gx:coord>
<gx:coord >20.800878 50.507721 10570</gx:coord>
<gx:coord >20.804839 50.522771 10448</gx:coord>
<gx:coord >20.808684 50.537155 10327</gx:coord>
<gx:coord >20.812856 50.553216 10212</gx:coord>
<gx:coord >20.817088 50.569417 10090</gx:coord>
<gx:coord >20.821393 50.585617 9968</gx:coord>
<gx:coord >20.82607 50.603214 9831</gx:coord>
<gx:coord >20.830672 50.620624 9709</gx:coord>
<gx:coord >20.83572 50.639059 9587</gx:coord>
<gx:coord >20.84186 50.661255 9458</gx:coord>
<gx:coord >20.849082 50.687897 9336</gx:coord>
<gx:coord >20.85495 50.710004 9214</gx:coord>
<gx:coord >20.860825 50.731651 9084</gx:coord>
<gx:coord >20.866674 50.753082 8962</gx:coord>
<gx:coord >20.870535 50.767273 8869</gx:coord>
<gx:coord >20.871425 50.770477 8846</gx:coord>
<gx:coord >20.87239 50.773911 8814</gx:coord>
<gx:coord >20.873801 50.779083 8761</gx:coord>
<gx:coord >20.876999 50.790866 8647</gx:coord>
<gx:coord >20.880556 50.803848 8519</gx:coord>
<gx:coord >20.883674 50.815384 8410</gx:coord>
<gx:coord >20.886346 50.825226 8332</gx:coord>
<gx:coord >20.89035 50.839652 8240</gx:coord>
<gx:coord >20.895538 50.858785 8114</gx:coord>
<gx:coord >20.896454 50.862091 8084</gx:coord>
<gx:coord >20.896988 50.864046 8069</gx:coord>
<gx:coord >20.898361 50.869213 8028</gx:coord>
<gx:coord >20.899887 50.874567 7954</gx:coord>
<gx:coord >20.902751 50.885147 7837</gx:coord>
<gx:coord >20.90538 50.894956 7721</gx:coord>
<gx:coord >20.907131 50.901215 7659</gx:coord>
<gx:coord >20.908096 50.904831 7628</gx:coord>
<gx:coord >20.908616 50.906937 7612</gx:coord>
<gx:coord >20.910471 50.913528 7556</gx:coord>
<gx:coord >20.914459 50.928241 7462</gx:coord>
<gx:coord >20.919825 50.948181 7333</gx:coord>
<gx:coord >20.925674 50.969859 7203</gx:coord>
<gx:coord >20.930365 50.987274 7073</gx:coord>
<gx:coord >20.934906 51.003796 6959</gx:coord>
<gx:coord >20.93956 51.02088 6830</gx:coord>
<gx:coord >20.944247 51.038086 6700</gx:coord>
<gx:coord >20.948627 51.053833 6570</gx:coord>
<gx:coord >20.952709 51.068756 6441</gx:coord>
<gx:coord >20.957312 51.08519 6311</gx:coord>
<gx:coord >20.96199 51.102579 6190</gx:coord>
<gx:coord >20.967178 51.121293 6068</gx:coord>
<gx:coord >20.9729 51.142195 5939</gx:coord>
<gx:coord >20.978171 51.161499 5802</gx:coord>
<gx:coord >20.983144 51.179626 5680</gx:coord>
<gx:coord >20.988786 51.200089 5550</gx:coord>
<gx:coord >20.993611 51.217804 5421</gx:coord>
<gx:coord >20.998154 51.234322 5299</gx:coord>
<gx:coord >21.002426 51.249917 5177</gx:coord>
<gx:coord >21.007047 51.266464 5046</gx:coord>
<gx:coord >21.009674 51.276033 4988</gx:coord>
<gx:coord >21.010239 51.277954 4980</gx:coord>
<gx:coord >21.011429 51.282364 4965</gx:coord>
<gx:coord >21.016623 51.301437 4903</gx:coord>
<gx:coord >21.022034 51.320956 4849</gx:coord>
<gx:coord >21.026644 51.337692 4804</gx:coord>
<gx:coord >21.032583 51.359024 4742</gx:coord>
<gx:coord >21.035309 51.368905 4699</gx:coord>
<gx:coord >21.037903 51.378029 4649</gx:coord>
<gx:coord >21.040192 51.386315 4591</gx:coord>
<gx:coord >21.045054 51.403336 4468</gx:coord>
<gx:coord >21.047949 51.413773 4400</gx:coord>
<gx:coord >21.05072 51.42365 4349</gx:coord>
<gx:coord >21.056137 51.443388 4241</gx:coord>
<gx:coord >21.061935 51.464011 4127</gx:coord>
<gx:coord >21.067276 51.48333 4005</gx:coord>
<gx:coord >21.07252 51.502258 3890</gx:coord>
<gx:coord >21.075592 51.513403 3816</gx:coord>
<gx:coord >21.078161 51.52272 3759</gx:coord>
<gx:coord >21.080759 51.531738 3698</gx:coord>
<gx:coord >21.083527 51.541567 3632</gx:coord>
<gx:coord >21.086121 51.550691 3569</gx:coord>
<gx:coord >21.088486 51.559071 3502</gx:coord>
<gx:coord >21.090851 51.567636 3435</gx:coord>
<gx:coord >21.093156 51.576004 3377</gx:coord>
<gx:coord >21.09568 51.585251 3312</gx:coord>
<gx:coord >21.098352 51.594864 3250</gx:coord>
<gx:coord >21.101379 51.605809 3182</gx:coord>
<gx:coord >21.104736 51.617844 3121</gx:coord>
<gx:coord >21.107854 51.629013 3066</gx:coord>
<gx:coord >21.110992 51.640304 3000</gx:coord>
<gx:coord >21.113867 51.650345 2938</gx:coord>
<gx:coord >21.116688 51.660233 2871</gx:coord>
<gx:coord >21.119385 51.669586 2809</gx:coord>
<gx:coord >21.121902 51.678431 2748</gx:coord>
<gx:coord >21.124344 51.688439 2687</gx:coord>
<gx:coord >21.125641 51.697284 2633</gx:coord>
<gx:coord >21.126264 51.706879 2574</gx:coord>
<gx:coord >21.126556 51.718559 2516</gx:coord>
<gx:coord >21.126633 51.721771 2491</gx:coord>
<gx:coord >21.126709 51.725495 2459</gx:coord>
<gx:coord >21.126709 51.72702 2443</gx:coord>
<gx:coord >21.126857 51.733154 2377</gx:coord>
<gx:coord >21.127014 51.739414 2315</gx:coord>
<gx:coord >21.127154 51.744278 2277</gx:coord>
<gx:coord >21.127229 51.746704 2252</gx:coord>
<gx:coord >21.127396 51.751331 2219</gx:coord>
<gx:coord >21.1276 51.757233 2187</gx:coord>
<gx:coord >21.127777 51.761945 2156</gx:coord>
<gx:coord >21.127971 51.7668 2126</gx:coord>
<gx:coord >21.128194 51.771149 2093</gx:coord>
<gx:coord >21.128311 51.77484 2061</gx:coord>
<gx:coord >21.128491 51.778885 2033</gx:coord>
<gx:coord >21.128639 51.782684 2001</gx:coord>
<gx:coord >21.128862 51.787079 1969</gx:coord>
<gx:coord >21.12901 51.791016 1937</gx:coord>
<gx:coord >21.129227 51.795696 1910</gx:coord>
<gx:coord >21.129381 51.798843 1892</gx:coord>
<gx:coord >21.129827 51.80864 1863</gx:coord>
<gx:coord >21.130198 51.814911 1843</gx:coord>
<gx:coord >21.130421 51.820038 1835</gx:coord>
<gx:coord >21.130792 51.82608 1819</gx:coord>
<gx:coord >21.131134 51.834148 1796</gx:coord>
<gx:coord >21.131534 51.841782 1772</gx:coord>
<gx:coord >21.131973 51.850767 1743</gx:coord>
<gx:coord >21.132202 51.855608 1735</gx:coord>
<gx:coord >21.132584 51.863615 1736</gx:coord>
<gx:coord >21.132736 51.867852 1736</gx:coord>
<gx:coord >21.133093 51.874695 1736</gx:coord>
<gx:coord >21.133316 51.87886 1736</gx:coord>
<gx:coord >21.133613 51.884995 1736</gx:coord>
<gx:coord >21.133804 51.889173 1729</gx:coord>
<gx:coord >21.133835 51.890396 1721</gx:coord>
<gx:coord >21.133909 51.892273 1714</gx:coord>
<gx:coord >21.134086 51.896528 1684</gx:coord>
<gx:coord >21.134262 51.90152 1656</gx:coord>
<gx:coord >21.134399 51.905652 1626</gx:coord>
<gx:coord >21.134556 51.909609 1592</gx:coord>
<gx:coord >21.134796 51.914108 1561</gx:coord>
<gx:coord >21.134949 51.918407 1529</gx:coord>
<gx:coord >21.135184 51.922923 1496</gx:coord>
<gx:coord >21.135406 51.927429 1467</gx:coord>
<gx:coord >21.135655 51.93242 1434</gx:coord>
<gx:coord >21.13589 51.93754 1407</gx:coord>
<gx:coord >21.136126 51.94308 1366</gx:coord>
<gx:coord >21.136361 51.948992 1333</gx:coord>
<gx:coord >21.136597 51.954392 1302</gx:coord>
<gx:coord >21.136475 51.961212 1271</gx:coord>
<gx:coord >21.135559 51.96579 1256</gx:coord>
<gx:coord >21.134338 51.969269 1248</gx:coord>
<gx:coord >21.13205 51.973846 1232</gx:coord>
<gx:coord >21.12915 51.978287 1224</gx:coord>
<gx:coord >21.12561 51.983115 1212</gx:coord>
<gx:coord >21.119725 51.990284 1195</gx:coord>
<gx:coord >21.112671 51.998611 1172</gx:coord>
<gx:coord >21.108322 52.003647 1141</gx:coord>
<gx:coord >21.103795 52.008905 1111</gx:coord>
<gx:coord >21.099701 52.013672 1080</gx:coord>
<gx:coord >21.095476 52.018588 1044</gx:coord>
<gx:coord >21.091156 52.023514 1017</gx:coord>
<gx:coord >21.087237 52.027991 983</gx:coord>
<gx:coord >21.08345 52.032394 952</gx:coord>
<gx:coord >21.079636 52.036835 925</gx:coord>
<gx:coord >21.076015 52.040886 891</gx:coord>
<gx:coord >21.072159 52.045395 868</gx:coord>
<gx:coord >21.069794 52.048096 860</gx:coord>
<gx:coord >21.06781 52.050339 845</gx:coord>
<gx:coord >21.064793 52.053781 817</gx:coord>
<gx:coord >21.061478 52.057663 779</gx:coord>
<gx:coord >21.057281 52.062424 751</gx:coord>
<gx:coord >21.054435 52.065699 724</gx:coord>
<gx:coord >21.051636 52.069016 708</gx:coord>
<gx:coord >21.05004 52.070819 700</gx:coord>
<gx:coord >21.047287 52.073959 676</gx:coord>
<gx:coord >21.045096 52.076452 660</gx:coord>
<gx:coord >21.043472 52.078354 643</gx:coord>
<gx:coord >21.041641 52.08046 630</gx:coord>
<gx:coord >21.039682 52.08269 614</gx:coord>
<gx:coord >21.037064 52.085724 587</gx:coord>
<gx:coord >21.035209 52.087811 574</gx:coord>
<gx:coord >21.033936 52.08934 564</gx:coord>
<gx:coord >21.031876 52.091675 548</gx:coord>
<gx:coord >21.028617 52.095352 517</gx:coord>
<gx:coord >21.024379 52.100147 486</gx:coord>
<gx:coord >21.02022 52.104942 463</gx:coord>
<gx:coord >21.016924 52.108713 433</gx:coord>
<gx:coord >21.01253 52.113787 402</gx:coord>
<gx:coord >21.008606 52.118225 364</gx:coord>
<gx:coord >21.004715 52.122757 334</gx:coord>
<gx:coord >21.000994 52.127008 303</gx:coord>
<gx:coord >20.996857 52.131683 273</gx:coord>
<gx:coord >20.992519 52.136691 250</gx:coord>
<gx:coord >20.98938 52.140322 219</gx:coord>
<gx:coord >20.98526 52.145004 189</gx:coord>
<gx:coord >20.980988 52.149948 159</gx:coord>
<gx:coord >20.977097 52.154343 128</gx:coord>
<gx:coord >20.972061 52.16011 118</gx:coord>
<gx:coord >20.971095 52.161224 107</gx:coord>
<gx:coord >20.968628 52.164047 106</gx:coord>
<gx:coord >20.968628 52.164047 106</gx:coord>
</gx:Track>
</Placemark>
<Placemark ><name >9H-WNN</name>
<Style ><LineStyle ><color >ff1c1ae3</color>
<width >4</width>
</LineStyle>
<IconStyle ><Icon ><href >http://maps.google.com/mapfiles/kml/shapes/airports.png</href>
</Icon>
</IconStyle>
</Style>
<gx:Track ><extrude >0</extrude>
<when >2025-09-03T20:33:31.560Z</when>
<when >2025-09-03T20:33:35.050Z</when>
<when >2025-09-03T20:33:36.810Z</when>
<when >2025-09-03T20:33:38.450Z</when>
<when >2025-09-03T20:33:39.990Z</when>
<when >2025-09-03T20:33:43.380Z</when>
<when >2025-09-03T20:33:45.250Z</when>
<when >2025-09-03T20:33:46.880Z</when>
<when >2025-09-03T20:33:48.490Z</when>
<when >2025-09-03T20:33:51.860Z</when>
<when >2025-09-03T20:33:54.990Z</when>
<when >2025-09-03T20:33:56.650Z</when>
<when >2025-09-03T20:33:57.740Z</when>
<when >2025-09-03T20:33:59.780Z</when>
<when >2025-09-03T20:34:03.230Z</when>
<when >2025-09-03T20:34:05.300Z</when>
<when >2025-09-03T20:34:07.200Z</when>
<when >2025-09-03T20:34:10.720Z</when>
<when >2025-09-03T20:34:14.380Z</when>
<when >2025-09-03T20:34:17.790Z</when>
<when >2025-09-03T20:34:24.520Z</when>
<when >2025-09-03T20:34:30.330Z</when>
<when >2025-09-03T20:34:37.350Z</when>
<when >2025-09-03T20:34:40.310Z</when>
<when >2025-09-03T20:34:43.680Z</when>
<when >2025-09-03T20:34:45.380Z</when>
<when >2025-09-03T20:34:47.030Z</when>
<when >2025-09-03T20:34:48.630Z</when>
<when >2025-09-03T20:34:51.830Z</when>
<when >2025-09-03T20:34:58.470Z</when>
<when >2025-09-03T20:35:05.640Z</when>
<when >2025-09-03T20:35:12.600Z</when>
<when >2025-09-03T20:35:16.100Z</when>
<when >2025-09-03T20:35:17.570Z</when>
<when >2025-09-03T20:35:21.860Z</when>
<when >2025-09-03T20:35:24.940Z</when>
<when >2025-09-03T20:35:26.560Z</when>
<when >2025-09-03T20:35:28.220Z</when>
<when >2025-09-03T20:35:31.470Z</when>
<when >2025-09-03T20:35:38.290Z</when>
<when >2025-09-03T20:35:48.250Z</when>
<when >2025-09-03T20:35:54.690Z</when>
<when >2025-09-03T20:35:59.600Z</when>
<when >2025-09-03T20:36:03.120Z</when>
<when >2025-09-03T20:36:05.070Z</when>
<when >2025-09-03T20:36:08.670Z</when>
<when >2025-09-03T20:36:11.900Z</when>
<when >2025-09-03T20:36:17.380Z</when>
<when >2025-09-03T20:36:23.830Z</when>
<when >2025-09-03T20:36:37.260Z</when>
<when >2025-09-03T20:36:54.040Z</when>
<when >2025-09-03T20:37:00.770Z</when>
<when >2025-09-03T20:37:00.770Z</when>
<gx:coord >20.968349 52.164366 0</gx:coord>
<gx:coord >20.967064 52.165833 0</gx:coord>
<gx:coord >20.966587 52.16637 0</gx:coord>
<gx:coord >20.966191 52.166833 0</gx:coord>
<gx:coord >20.9657 52.167392 0</gx:coord>
<gx:coord >20.965195 52.167984 0</gx:coord>
<gx:coord >20.964739 52.168498 0</gx:coord>
<gx:coord >20.964484 52.168777 0</gx:coord>
<gx:coord >20.964279 52.169025 0</gx:coord>
<gx:coord >20.963758 52.169627 0</gx:coord>
<gx:coord >20.963444 52.169976 0</gx:coord>
<gx:coord >20.96323 52.170238 0</gx:coord>
<gx:coord >20.963097 52.170422 0</gx:coord>
<gx:coord >20.962993 52.170592 0</gx:coord>
<gx:coord >20.962791 52.170937 0</gx:coord>
<gx:coord >20.962696 52.171154 0</gx:coord>
<gx:coord >20.962582 52.171486 0</gx:coord>
<gx:coord >20.962503 52.171803 0</gx:coord>
<gx:coord >20.962467 52.172115 0</gx:coord>
<gx:coord >20.962444 52.172373 0</gx:coord>
<gx:coord >20.962448 52.172813 0</gx:coord>
<gx:coord >20.962483 52.173246 0</gx:coord>
<gx:coord >20.962503 52.173595 0</gx:coord>
<gx:coord >20.962639 52.173798 0</gx:coord>
<gx:coord >20.962772 52.173878 0</gx:coord>
<gx:coord >20.962906 52.173946 0</gx:coord>
<gx:coord >20.963039 52.174004 0</gx:coord>
<gx:coord >20.963135 52.174049 0</gx:coord>
<gx:coord >20.963383 52.174118 0</gx:coord>
<gx:coord >20.963936 52.174313 0</gx:coord>
<gx:coord >20.964584 52.174519 0</gx:coord>
<gx:coord >20.965171 52.174724 0</gx:coord>
<gx:coord >20.965366 52.174793 0</gx:coord>
<gx:coord >20.965462 52.174862 0</gx:coord>
<gx:coord >20.965652 52.175045 0</gx:coord>
<gx:coord >20.965672 52.175182 0</gx:coord>
<gx:coord >20.965642 52.175283 0</gx:coord>
<gx:coord >20.965642 52.175306 0</gx:coord>
<gx:coord >20.965563 52.175422 0</gx:coord>
<gx:coord >20.965367 52.17562 0</gx:coord>
<gx:coord >20.965061 52.175983 0</gx:coord>
<gx:coord >20.964896 52.176167 0</gx:coord>
<gx:coord >20.964756 52.176235 0</gx:coord>
<gx:coord >20.964565 52.176212 0</gx:coord>
<gx:coord >20.964527 52.176189 0</gx:coord>
<gx:coord >20.964432 52.176121 0</gx:coord>
<gx:coord >20.964386 52.176086 0</gx:coord>
<gx:coord >20.964229 52.176039 0</gx:coord>
<gx:coord >20.964031 52.175972 0</gx:coord>
<gx:coord >20.96364 52.175841 0</gx:coord>
<gx:coord >20.963385 52.17576 0</gx:coord>
<gx:coord >20.963385 52.17576 0</gx:coord>
<gx:coord >20.963385 52.17576 0</gx:coord>
</gx:Track>
</Placemark>
</Folder>
</Folder>
</kml>
