<?xml version="1.0" encoding="UTF-8"?>
<kml xmlns="http://www.opengis.net/kml/2.2" xmlns:gx="http://www.google.com/kml/ext/2.2"><Folder ><Folder ><name >HA-LGM track</name>
<Placemark ><name >HA-LGM</name>
<Style ><LineStyle ><color >ff1c1ae3</color>
<width >4</width>
</LineStyle>
<IconStyle ><Icon ><href >http://maps.google.com/mapfiles/kml/shapes/airports.png</href>
</Icon>
</IconStyle>
</Style>
<gx:Track ><extrude >0</extrude>
<when >2025-07-13T10:42:49.700Z</when>
<when >2025-07-13T10:42:49.700Z</when>
<when >2025-07-13T10:42:54.750Z</when>
<when >2025-07-13T10:44:10.350Z</when>
<when >2025-07-13T10:44:45.060Z</when>
<when >2025-07-13T10:44:52.320Z</when>
<when >2025-07-13T10:44:59.140Z</when>
<when >2025-07-13T10:45:04.790Z</when>
<when >2025-07-13T10:45:08.050Z</when>
<when >2025-07-13T10:45:11.010Z</when>
<when >2025-07-13T10:45:14.430Z</when>
<when >2025-07-13T10:45:16.680Z</when>
<when >2025-07-13T10:45:20.980Z</when>
<when >2025-07-13T10:45:22.320Z</when>
<when >2025-07-13T10:45:24.940Z</when>
<when >2025-07-13T10:45:26.960Z</when>
<when >2025-07-13T10:45:31.200Z</when>
<when >2025-07-13T10:45:39.700Z</when>
<when >2025-07-13T10:45:44.100Z</when>
<when >2025-07-13T10:45:47.170Z</when>
<when >2025-07-13T10:45:51.600Z</when>
<when >2025-07-13T10:45:55.100Z</when>
<when >2025-07-13T10:46:01.470Z</when>
<when >2025-07-13T10:46:07.210Z</when>
<when >2025-07-13T10:46:27.060Z</when>
<when >2025-07-13T10:46:42.320Z</when>
<when >2025-07-13T10:46:47.330Z</when>
<when >2025-07-13T10:47:12.750Z</when>
<when >2025-07-13T10:47:27.610Z</when>
<when >2025-07-13T10:48:07.540Z</when>
<when >2025-07-13T10:48:38.010Z</when>
<when >2025-07-13T10:48:48.170Z</when>
<when >2025-07-13T10:49:17.880Z</when>
<when >2025-07-13T10:49:43.040Z</when>
<when >2025-07-13T10:50:13.530Z</when>
<when >2025-07-13T10:51:03.150Z</when>
<when >2025-07-13T10:51:27.940Z</when>
<when >2025-07-13T10:51:34.630Z</when>
<when >2025-07-13T10:51:53.890Z</when>
<when >2025-07-13T10:52:03.800Z</when>
<when >2025-07-13T10:52:13.320Z</when>
<when >2025-07-13T10:52:17.060Z</when>
<when >2025-07-13T10:52:19.790Z</when>
<when >2025-07-13T10:52:23.220Z</when>
<when >2025-07-13T10:52:29.790Z</when>
<when >2025-07-13T10:52:36.340Z</when>
<when >2025-07-13T10:52:43.300Z</when>
<when >2025-07-13T10:52:47.210Z</when>
<when >2025-07-13T10:52:50.360Z</when>
<when >2025-07-13T10:52:57.390Z</when>
<when >2025-07-13T10:53:04.320Z</when>
<when >2025-07-13T10:53:11.120Z</when>
<when >2025-07-13T10:53:20.670Z</when>
<when >2025-07-13T10:53:30.450Z</when>
<when >2025-07-13T10:53:39.840Z</when>
<when >2025-07-13T10:53:48.900Z</when>
<when >2025-07-13T10:53:54.010Z</when>
<when >2025-07-13T10:53:55.610Z</when>
<when >2025-07-13T10:53:56.960Z</when>
<when >2025-07-13T10:53:59.260Z</when>
<when >2025-07-13T10:54:00.280Z</when>
<when >2025-07-13T10:54:01.500Z</when>
<when >2025-07-13T10:54:02.970Z</when>
<when >2025-07-13T10:54:04.720Z</when>
<when >2025-07-13T10:54:07.320Z</when>
<when >2025-07-13T10:54:11.640Z</when>
<when >2025-07-13T10:54:29.140Z</when>
<when >2025-07-13T10:54:31.220Z</when>
<when >2025-07-13T10:54:33.240Z</when>
<when >2025-07-13T10:54:34.630Z</when>
<when >2025-07-13T10:54:34.990Z</when>
<when >2025-07-13T10:54:36.140Z</when>
<when >2025-07-13T10:54:37.110Z</when>
<when >2025-07-13T10:54:38.000Z</when>
<when >2025-07-13T10:54:39.320Z</when>
<when >2025-07-13T10:54:39.890Z</when>
<when >2025-07-13T10:54:40.610Z</when>
<when >2025-07-13T10:54:41.650Z</when>
<when >2025-07-13T10:54:42.740Z</when>
<when >2025-07-13T10:54:43.770Z</when>
<when >2025-07-13T10:54:44.610Z</when>
<when >2025-07-13T10:54:45.350Z</when>
<when >2025-07-13T10:54:46.620Z</when>
<when >2025-07-13T10:54:47.010Z</when>
<when >2025-07-13T10:54:48.930Z</when>
<when >2025-07-13T10:54:48.930Z</when>
<gx:coord >20.962051 52.179577 0</gx:coord>
<gx:coord >20.962051 52.179577 0</gx:coord>
<gx:coord >20.962067 52.179577 0</gx:coord>
<gx:coord >20.962071 52.179577 0</gx:coord>
<gx:coord >20.962071 52.179612 0</gx:coord>
<gx:coord >20.962048 52.17968 0</gx:coord>
<gx:coord >20.962009 52.179749 0</gx:coord>
<gx:coord >20.961973 52.17981 0</gx:coord>
<gx:coord >20.961953 52.179845 0</gx:coord>
<gx:coord >20.961914 52.179863 0</gx:coord>
<gx:coord >20.961895 52.179897 0</gx:coord>
<gx:coord >20.961875 52.179915 0</gx:coord>
<gx:coord >20.961819 52.179955 0</gx:coord>
<gx:coord >20.961796 52.179961 0</gx:coord>
<gx:coord >20.961761 52.179989 0</gx:coord>
<gx:coord >20.961757 52.179996 0</gx:coord>
<gx:coord >20.961757 52.180031 0</gx:coord>
<gx:coord >20.961819 52.180115 0</gx:coord>
<gx:coord >20.961836 52.180147 0</gx:coord>
<gx:coord >20.961857 52.180161 0</gx:coord>
<gx:coord >20.961914 52.180182 0</gx:coord>
<gx:coord >20.961933 52.180206 0</gx:coord>
<gx:coord >20.962012 52.180217 0</gx:coord>
<gx:coord >20.962051 52.180206 0</gx:coord>
<gx:coord >20.962071 52.180206 0</gx:coord>
<gx:coord >20.962067 52.180206 0</gx:coord>
<gx:coord >20.962071 52.180206 0</gx:coord>
<gx:coord >20.962071 52.180206 0</gx:coord>
<gx:coord >20.962071 52.180206 0</gx:coord>
<gx:coord >20.962067 52.180206 0</gx:coord>
<gx:coord >20.962067 52.180206 0</gx:coord>
<gx:coord >20.962071 52.180206 0</gx:coord>
<gx:coord >20.962071 52.180206 0</gx:coord>
<gx:coord >20.962067 52.180206 0</gx:coord>
<gx:coord >20.962067 52.180206 0</gx:coord>
<gx:coord >20.962067 52.180206 0</gx:coord>
<gx:coord >20.961934 52.180194 0</gx:coord>
<gx:coord >20.961836 52.180182 0</gx:coord>
<gx:coord >20.961304 52.180103 0</gx:coord>
<gx:coord >20.960903 52.180046 0</gx:coord>
<gx:coord >20.960443 52.179984 0</gx:coord>
<gx:coord >20.960227 52.179949 0</gx:coord>
<gx:coord >20.96009 52.179915 0</gx:coord>
<gx:coord >20.959893 52.179845 0</gx:coord>
<gx:coord >20.959619 52.179752 0</gx:coord>
<gx:coord >20.959324 52.179635 0</gx:coord>
<gx:coord >20.959072 52.17952 0</gx:coord>
<gx:coord >20.9589 52.179474 0</gx:coord>
<gx:coord >20.958775 52.179437 0</gx:coord>
<gx:coord >20.958519 52.179359 0</gx:coord>
<gx:coord >20.958271 52.179279 0</gx:coord>
<gx:coord >20.958023 52.179199 0</gx:coord>
<gx:coord >20.95768 52.179073 0</gx:coord>
<gx:coord >20.957284 52.178937 0</gx:coord>
<gx:coord >20.956833 52.178774 0</gx:coord>
<gx:coord >20.956345 52.178604 0</gx:coord>
<gx:coord >20.956135 52.178524 0</gx:coord>
<gx:coord >20.956068 52.178471 0</gx:coord>
<gx:coord >20.956059 52.178421 0</gx:coord>
<gx:coord >20.956078 52.178341 0</gx:coord>
<gx:coord >20.956097 52.178295 0</gx:coord>
<gx:coord >20.956146 52.178262 0</gx:coord>
<gx:coord >20.956205 52.178227 0</gx:coord>
<gx:coord >20.956268 52.178169 0</gx:coord>
<gx:coord >20.956342 52.178111 0</gx:coord>
<gx:coord >20.956402 52.178043 0</gx:coord>
<gx:coord >20.956459 52.177975 0</gx:coord>
<gx:coord >20.956519 52.177901 0</gx:coord>
<gx:coord >20.956593 52.177814 0</gx:coord>
<gx:coord >20.956688 52.177711 0</gx:coord>
<gx:coord >20.956735 52.177657 0</gx:coord>
<gx:coord >20.956833 52.17754 0</gx:coord>
<gx:coord >20.956951 52.177412 0</gx:coord>
<gx:coord >20.957068 52.177273 0</gx:coord>
<gx:coord >20.957279 52.177048 0</gx:coord>
<gx:coord >20.957375 52.176945 0</gx:coord>
<gx:coord >20.957559 52.176726 0</gx:coord>
<gx:coord >20.957735 52.17654 0</gx:coord>
<gx:coord >20.957947 52.176292 0</gx:coord>
<gx:coord >20.958049 52.176167 0</gx:coord>
<gx:coord >20.958366 52.175812 0</gx:coord>
<gx:coord >20.958481 52.175678 0</gx:coord>
<gx:coord >20.958881 52.175217 0</gx:coord>
<gx:coord >20.95903 52.17505 0</gx:coord>
<gx:coord >20.959678 52.174305 0</gx:coord>
<gx:coord >20.959678 52.174305 0</gx:coord>
</gx:Track>
</Placemark>
<Placemark ><name >HA-LGM</name>
<Style ><LineStyle ><color >ff1c1ae3</color>
<width >4</width>
</LineStyle>
<IconStyle ><Icon ><href >http://maps.google.com/mapfiles/kml/shapes/airports.png</href>
</Icon>
</IconStyle>
</Style>
<gx:Track ><altitudeMode >absolute</altitudeMode>
<extrude >1</extrude>
<when >2025-07-13T10:54:52.480Z</when>
<when >2025-07-13T10:54:55.880Z</when>
<when >2025-07-13T10:54:56.930Z</when>
<when >2025-07-13T10:54:59.340Z</when>
<when >2025-07-13T10:55:01.440Z</when>
<when >2025-07-13T10:55:02.820Z</when>
<when >2025-07-13T10:55:07.170Z</when>
<when >2025-07-13T10:55:09.130Z</when>
<when >2025-07-13T10:55:13.150Z</when>
<when >2025-07-13T10:55:14.030Z</when>
<when >2025-07-13T10:55:15.170Z</when>
<when >2025-07-13T10:55:16.280Z</when>
<when >2025-07-13T10:55:18.600Z</when>
<when >2025-07-13T10:55:21.590Z</when>
<when >2025-07-13T10:55:23.770Z</when>
<when >2025-07-13T10:55:26.950Z</when>
<when >2025-07-13T10:55:29.690Z</when>
<when >2025-07-13T10:55:32.180Z</when>
<when >2025-07-13T10:55:35.260Z</when>
<when >2025-07-13T10:55:37.810Z</when>
<when >2025-07-13T10:55:40.370Z</when>
<when >2025-07-13T10:55:42.850Z</when>
<when >2025-07-13T10:55:44.880Z</when>
<when >2025-07-13T10:55:46.970Z</when>
<when >2025-07-13T10:55:49.080Z</when>
<when >2025-07-13T10:55:51.490Z</when>
<when >2025-07-13T10:55:54.070Z</when>
<when >2025-07-13T10:55:56.450Z</when>
<when >2025-07-13T10:55:58.530Z</when>
<when >2025-07-13T10:56:00.850Z</when>
<when >2025-07-13T10:56:03.580Z</when>
<when >2025-07-13T10:56:05.890Z</when>
<when >2025-07-13T10:56:08.510Z</when>
<when >2025-07-13T10:56:11.380Z</when>
<when >2025-07-13T10:56:14.440Z</when>
<when >2025-07-13T10:56:16.790Z</when>
<when >2025-07-13T10:56:19.210Z</when>
<when >2025-07-13T10:56:21.860Z</when>
<when >2025-07-13T10:56:24.000Z</when>
<when >2025-07-13T10:56:26.570Z</when>
<when >2025-07-13T10:56:28.880Z</when>
<when >2025-07-13T10:56:31.370Z</when>
<when >2025-07-13T10:56:33.430Z</when>
<when >2025-07-13T10:56:35.830Z</when>
<when >2025-07-13T10:56:38.150Z</when>
<when >2025-07-13T10:56:40.570Z</when>
<when >2025-07-13T10:56:43.390Z</when>
<when >2025-07-13T10:56:45.510Z</when>
<when >2025-07-13T10:56:47.550Z</when>
<when >2025-07-13T10:56:50.070Z</when>
<when >2025-07-13T10:56:52.360Z</when>
<when >2025-07-13T10:56:54.880Z</when>
<when >2025-07-13T10:56:56.410Z</when>
<when >2025-07-13T10:56:58.720Z</when>
<when >2025-07-13T10:57:00.600Z</when>
<when >2025-07-13T10:57:02.050Z</when>
<when >2025-07-13T10:57:04.610Z</when>
<when >2025-07-13T10:57:07.690Z</when>
<when >2025-07-13T10:57:10.760Z</when>
<when >2025-07-13T10:57:12.760Z</when>
<when >2025-07-13T10:57:15.560Z</when>
<when >2025-07-13T10:57:18.880Z</when>
<when >2025-07-13T10:57:22.180Z</when>
<when >2025-07-13T10:57:25.340Z</when>
<when >2025-07-13T10:57:28.560Z</when>
<when >2025-07-13T10:57:31.710Z</when>
<when >2025-07-13T10:57:34.610Z</when>
<when >2025-07-13T10:57:37.920Z</when>
<when >2025-07-13T10:57:40.780Z</when>
<when >2025-07-13T10:57:43.460Z</when>
<when >2025-07-13T10:57:45.980Z</when>
<when >2025-07-13T10:57:47.960Z</when>
<when >2025-07-13T10:57:50.380Z</when>
<when >2025-07-13T10:57:52.550Z</when>
<when >2025-07-13T10:57:55.270Z</when>
<when >2025-07-13T10:57:57.780Z</when>
<when >2025-07-13T10:57:59.870Z</when>
<when >2025-07-13T10:58:02.310Z</when>
<when >2025-07-13T10:58:05.020Z</when>
<when >2025-07-13T10:58:07.190Z</when>
<when >2025-07-13T10:58:09.550Z</when>
<when >2025-07-13T10:58:11.660Z</when>
<when >2025-07-13T10:58:13.870Z</when>
<when >2025-07-13T10:58:15.850Z</when>
<when >2025-07-13T10:58:18.180Z</when>
<when >2025-07-13T10:58:20.140Z</when>
<when >2025-07-13T10:58:22.170Z</when>
<when >2025-07-13T10:58:24.300Z</when>
<when >2025-07-13T10:58:28.230Z</when>
<when >2025-07-13T10:58:32.350Z</when>
<when >2025-07-13T10:58:36.660Z</when>
<when >2025-07-13T10:58:40.730Z</when>
<when >2025-07-13T10:58:45.010Z</when>
<when >2025-07-13T10:58:48.950Z</when>
<when >2025-07-13T10:58:52.440Z</when>
<when >2025-07-13T10:58:55.910Z</when>
<when >2025-07-13T10:58:59.870Z</when>
<when >2025-07-13T10:59:03.930Z</when>
<when >2025-07-13T10:59:07.710Z</when>
<when >2025-07-13T10:59:11.780Z</when>
<when >2025-07-13T10:59:16.740Z</when>
<when >2025-07-13T10:59:21.220Z</when>
<when >2025-07-13T10:59:26.370Z</when>
<when >2025-07-13T10:59:31.320Z</when>
<when >2025-07-13T10:59:35.640Z</when>
<when >2025-07-13T10:59:38.300Z</when>
<when >2025-07-13T10:59:46.100Z</when>
<when >2025-07-13T10:59:54.280Z</when>
<when >2025-07-13T11:00:02.670Z</when>
<when >2025-07-13T11:00:08.530Z</when>
<when >2025-07-13T11:00:12.420Z</when>
<when >2025-07-13T11:00:17.490Z</when>
<when >2025-07-13T11:00:22.570Z</when>
<when >2025-07-13T11:00:27.450Z</when>
<when >2025-07-13T11:00:32.700Z</when>
<when >2025-07-13T11:00:43.240Z</when>
<when >2025-07-13T11:00:48.580Z</when>
<when >2025-07-13T11:00:52.650Z</when>
<when >2025-07-13T11:00:56.180Z</when>
<when >2025-07-13T11:00:59.590Z</when>
<when >2025-07-13T11:01:03.080Z</when>
<when >2025-07-13T11:01:10.070Z</when>
<when >2025-07-13T11:01:18.380Z</when>
<when >2025-07-13T11:01:20.850Z</when>
<when >2025-07-13T11:01:33.030Z</when>
<when >2025-07-13T11:01:44.060Z</when>
<when >2025-07-13T11:01:54.420Z</when>
<when >2025-07-13T11:01:58.980Z</when>
<when >2025-07-13T11:02:07.270Z</when>
<when >2025-07-13T11:02:11.470Z</when>
<when >2025-07-13T11:02:14.540Z</when>
<when >2025-07-13T11:02:16.170Z</when>
<when >2025-07-13T11:02:21.650Z</when>
<when >2025-07-13T11:02:24.180Z</when>
<when >2025-07-13T11:02:25.680Z</when>
<when >2025-07-13T11:02:28.700Z</when>
<when >2025-07-13T11:02:38.310Z</when>
<when >2025-07-13T11:02:49.390Z</when>
<when >2025-07-13T11:02:59.290Z</when>
<when >2025-07-13T11:03:09.930Z</when>
<when >2025-07-13T11:03:15.230Z</when>
<when >2025-07-13T11:03:26.990Z</when>
<when >2025-07-13T11:03:38.140Z</when>
<when >2025-07-13T11:03:49.710Z</when>
<when >2025-07-13T11:04:00.800Z</when>
<when >2025-07-13T11:04:12.570Z</when>
<when >2025-07-13T11:04:24.170Z</when>
<when >2025-07-13T11:04:35.770Z</when>
<when >2025-07-13T11:04:47.740Z</when>
<when >2025-07-13T11:05:00.100Z</when>
<when >2025-07-13T11:05:11.530Z</when>
<when >2025-07-13T11:05:21.770Z</when>
<when >2025-07-13T11:05:31.900Z</when>
<when >2025-07-13T11:05:35.840Z</when>
<when >2025-07-13T11:05:44.760Z</when>
<when >2025-07-13T11:06:00.240Z</when>
<when >2025-07-13T11:06:13.840Z</when>
<when >2025-07-13T11:06:27.530Z</when>
<when >2025-07-13T11:06:41.440Z</when>
<when >2025-07-13T11:06:54.140Z</when>
<when >2025-07-13T11:07:07.680Z</when>
<when >2025-07-13T11:07:22.220Z</when>
<when >2025-07-13T11:07:35.430Z</when>
<when >2025-07-13T11:07:48.630Z</when>
<when >2025-07-13T11:07:59.090Z</when>
<when >2025-07-13T11:08:10.820Z</when>
<when >2025-07-13T11:08:23.250Z</when>
<when >2025-07-13T11:08:37.980Z</when>
<when >2025-07-13T11:08:51.660Z</when>
<when >2025-07-13T11:09:06.500Z</when>
<when >2025-07-13T11:09:21.080Z</when>
<when >2025-07-13T11:09:32.780Z</when>
<when >2025-07-13T11:09:44.400Z</when>
<when >2025-07-13T11:09:57.130Z</when>
<when >2025-07-13T11:10:11.730Z</when>
<when >2025-07-13T11:10:26.790Z</when>
<when >2025-07-13T11:10:36.770Z</when>
<when >2025-07-13T11:10:49.650Z</when>
<when >2025-07-13T11:11:01.460Z</when>
<when >2025-07-13T11:11:17.510Z</when>
<when >2025-07-13T11:11:30.530Z</when>
<when >2025-07-13T11:11:44.350Z</when>
<when >2025-07-13T11:11:59.170Z</when>
<when >2025-07-13T11:12:16.410Z</when>
<when >2025-07-13T11:12:36.220Z</when>
<when >2025-07-13T11:12:56.020Z</when>
<when >2025-07-13T11:13:15.900Z</when>
<when >2025-07-13T11:13:34.090Z</when>
<when >2025-07-13T11:13:53.690Z</when>
<when >2025-07-13T11:14:12.620Z</when>
<when >2025-07-13T11:14:32.490Z</when>
<when >2025-07-13T11:14:52.400Z</when>
<when >2025-07-13T11:15:07.440Z</when>
<when >2025-07-13T11:15:18.460Z</when>
<when >2025-07-13T11:15:37.900Z</when>
<when >2025-07-13T11:15:53.750Z</when>
<when >2025-07-13T11:16:06.820Z</when>
<when >2025-07-13T11:16:23.920Z</when>
<when >2025-07-13T11:16:37.420Z</when>
<when >2025-07-13T11:16:53.070Z</when>
<when >2025-07-13T11:17:10.570Z</when>
<when >2025-07-13T11:17:26.960Z</when>
<when >2025-07-13T11:17:44.990Z</when>
<when >2025-07-13T11:17:53.060Z</when>
<when >2025-07-13T11:18:12.440Z</when>
<when >2025-07-13T11:18:32.070Z</when>
<when >2025-07-13T11:18:51.860Z</when>
<when >2025-07-13T11:19:11.700Z</when>
<when >2025-07-13T11:19:31.400Z</when>
<when >2025-07-13T11:19:51.340Z</when>
<when >2025-07-13T11:20:11.140Z</when>
<when >2025-07-13T11:20:30.750Z</when>
<when >2025-07-13T11:20:50.380Z</when>
<when >2025-07-13T11:21:10.360Z</when>
<when >2025-07-13T11:21:30.220Z</when>
<when >2025-07-13T11:21:49.810Z</when>
<when >2025-07-13T11:22:09.780Z</when>
<when >2025-07-13T11:22:29.490Z</when>
<when >2025-07-13T11:22:49.370Z</when>
<when >2025-07-13T11:23:09.010Z</when>
<when >2025-07-13T11:23:28.860Z</when>
<when >2025-07-13T11:23:48.840Z</when>
<when >2025-07-13T11:24:08.440Z</when>
<when >2025-07-13T11:24:28.270Z</when>
<when >2025-07-13T11:24:48.000Z</when>
<when >2025-07-13T11:25:07.760Z</when>
<when >2025-07-13T11:25:27.400Z</when>
<when >2025-07-13T11:25:47.110Z</when>
<when >2025-07-13T11:26:06.550Z</when>
<when >2025-07-13T11:26:26.520Z</when>
<when >2025-07-13T11:26:46.070Z</when>
<when >2025-07-13T11:27:05.760Z</when>
<when >2025-07-13T11:27:25.730Z</when>
<when >2025-07-13T11:27:45.340Z</when>
<when >2025-07-13T11:28:05.050Z</when>
<when >2025-07-13T11:28:25.050Z</when>
<when >2025-07-13T11:28:45.030Z</when>
<when >2025-07-13T11:29:04.620Z</when>
<when >2025-07-13T11:29:24.440Z</when>
<when >2025-07-13T11:29:44.120Z</when>
<when >2025-07-13T11:30:03.870Z</when>
<when >2025-07-13T11:30:23.310Z</when>
<when >2025-07-13T11:30:42.810Z</when>
<when >2025-07-13T11:31:02.650Z</when>
<when >2025-07-13T11:31:22.370Z</when>
<when >2025-07-13T11:31:42.200Z</when>
<when >2025-07-13T11:32:01.980Z</when>
<when >2025-07-13T11:32:21.590Z</when>
<when >2025-07-13T11:32:41.540Z</when>
<when >2025-07-13T11:33:01.520Z</when>
<when >2025-07-13T11:33:21.490Z</when>
<when >2025-07-13T11:33:41.460Z</when>
<when >2025-07-13T11:34:00.870Z</when>
<when >2025-07-13T11:34:20.710Z</when>
<when >2025-07-13T11:34:40.530Z</when>
<when >2025-07-13T11:35:00.360Z</when>
<when >2025-07-13T11:35:20.180Z</when>
<when >2025-07-13T11:35:39.800Z</when>
<when >2025-07-13T11:35:59.260Z</when>
<when >2025-07-13T11:36:18.800Z</when>
<when >2025-07-13T11:36:38.460Z</when>
<when >2025-07-13T11:36:58.230Z</when>
<when >2025-07-13T11:37:17.810Z</when>
<when >2025-07-13T11:37:37.390Z</when>
<when >2025-07-13T11:37:56.980Z</when>
<when >2025-07-13T11:38:16.840Z</when>
<when >2025-07-13T11:38:36.520Z</when>
<when >2025-07-13T11:38:56.110Z</when>
<when >2025-07-13T11:39:15.750Z</when>
<when >2025-07-13T11:39:35.660Z</when>
<when >2025-07-13T11:39:55.390Z</when>
<when >2025-07-13T11:40:14.940Z</when>
<when >2025-07-13T11:40:34.800Z</when>
<when >2025-07-13T11:40:54.600Z</when>
<when >2025-07-13T11:41:14.290Z</when>
<when >2025-07-13T11:41:33.890Z</when>
<when >2025-07-13T11:41:53.540Z</when>
<when >2025-07-13T11:42:13.250Z</when>
<when >2025-07-13T11:42:33.100Z</when>
<when >2025-07-13T11:42:52.610Z</when>
<when >2025-07-13T11:43:12.430Z</when>
<when >2025-07-13T11:43:32.130Z</when>
<when >2025-07-13T11:43:51.610Z</when>
<when >2025-07-13T11:44:11.340Z</when>
<when >2025-07-13T11:44:31.100Z</when>
<when >2025-07-13T11:44:50.850Z</when>
<when >2025-07-13T11:45:10.580Z</when>
<when >2025-07-13T11:45:30.360Z</when>
<when >2025-07-13T11:45:50.030Z</when>
<when >2025-07-13T11:46:09.740Z</when>
<when >2025-07-13T11:46:29.210Z</when>
<when >2025-07-13T11:46:48.980Z</when>
<when >2025-07-13T11:47:08.660Z</when>
<when >2025-07-13T11:47:28.640Z</when>
<when >2025-07-13T11:47:48.500Z</when>
<when >2025-07-13T11:48:07.980Z</when>
<when >2025-07-13T11:48:27.830Z</when>
<when >2025-07-13T11:48:47.250Z</when>
<when >2025-07-13T11:49:06.760Z</when>
<when >2025-07-13T11:49:26.630Z</when>
<when >2025-07-13T11:49:46.340Z</when>
<when >2025-07-13T11:50:05.670Z</when>
<when >2025-07-13T11:50:25.250Z</when>
<when >2025-07-13T11:50:44.670Z</when>
<when >2025-07-13T11:51:04.570Z</when>
<when >2025-07-13T11:51:24.400Z</when>
<when >2025-07-13T11:51:44.280Z</when>
<when >2025-07-13T11:52:04.140Z</when>
<when >2025-07-13T11:52:24.020Z</when>
<when >2025-07-13T11:52:43.570Z</when>
<when >2025-07-13T11:53:03.100Z</when>
<when >2025-07-13T11:53:22.830Z</when>
<when >2025-07-13T11:53:42.760Z</when>
<when >2025-07-13T11:54:02.560Z</when>
<when >2025-07-13T11:54:22.240Z</when>
<when >2025-07-13T11:54:42.140Z</when>
<when >2025-07-13T11:55:02.030Z</when>
<when >2025-07-13T11:55:21.820Z</when>
<when >2025-07-13T11:55:41.580Z</when>
<when >2025-07-13T11:56:01.000Z</when>
<when >2025-07-13T11:56:20.580Z</when>
<when >2025-07-13T11:56:40.510Z</when>
<when >2025-07-13T11:57:00.150Z</when>
<when >2025-07-13T11:57:19.840Z</when>
<when >2025-07-13T11:57:39.420Z</when>
<when >2025-07-13T11:57:59.190Z</when>
<when >2025-07-13T11:58:18.960Z</when>
<when >2025-07-13T11:58:38.610Z</when>
<when >2025-07-13T11:58:58.260Z</when>
<when >2025-07-13T11:59:18.080Z</when>
<when >2025-07-13T11:59:37.950Z</when>
<when >2025-07-13T11:59:57.740Z</when>
<when >2025-07-13T12:00:17.510Z</when>
<when >2025-07-13T12:00:37.300Z</when>
<when >2025-07-13T12:00:56.770Z</when>
<when >2025-07-13T12:01:16.610Z</when>
<when >2025-07-13T12:01:36.460Z</when>
<when >2025-07-13T12:01:56.020Z</when>
<when >2025-07-13T12:02:15.790Z</when>
<when >2025-07-13T12:02:35.580Z</when>
<when >2025-07-13T12:02:55.350Z</when>
<when >2025-07-13T12:03:15.260Z</when>
<when >2025-07-13T12:03:35.170Z</when>
<when >2025-07-13T12:03:54.800Z</when>
<when >2025-07-13T12:04:14.370Z</when>
<when >2025-07-13T12:04:33.940Z</when>
<when >2025-07-13T12:04:53.920Z</when>
<when >2025-07-13T12:05:13.760Z</when>
<when >2025-07-13T12:05:33.210Z</when>
<when >2025-07-13T12:05:52.760Z</when>
<when >2025-07-13T12:06:12.440Z</when>
<when >2025-07-13T12:06:32.120Z</when>
<when >2025-07-13T12:06:51.670Z</when>
<when >2025-07-13T12:07:11.260Z</when>
<when >2025-07-13T12:07:30.920Z</when>
<when >2025-07-13T12:07:50.590Z</when>
<when >2025-07-13T12:08:10.460Z</when>
<when >2025-07-13T12:08:30.180Z</when>
<when >2025-07-13T12:08:49.780Z</when>
<when >2025-07-13T12:09:09.670Z</when>
<when >2025-07-13T12:09:29.450Z</when>
<when >2025-07-13T12:09:49.190Z</when>
<when >2025-07-13T12:10:08.790Z</when>
<when >2025-07-13T12:10:28.650Z</when>
<when >2025-07-13T12:10:48.590Z</when>
<when >2025-07-13T12:11:08.500Z</when>
<when >2025-07-13T12:11:28.340Z</when>
<when >2025-07-13T12:11:48.100Z</when>
<when >2025-07-13T12:12:07.880Z</when>
<when >2025-07-13T12:12:27.340Z</when>
<when >2025-07-13T12:12:47.000Z</when>
<when >2025-07-13T12:13:06.710Z</when>
<when >2025-07-13T12:13:26.520Z</when>
<when >2025-07-13T12:13:46.420Z</when>
<when >2025-07-13T12:14:06.160Z</when>
<when >2025-07-13T12:14:25.790Z</when>
<when >2025-07-13T12:14:45.780Z</when>
<when >2025-07-13T12:15:05.350Z</when>
<when >2025-07-13T12:15:25.300Z</when>
<when >2025-07-13T12:15:45.150Z</when>
<when >2025-07-13T12:16:04.860Z</when>
<when >2025-07-13T12:16:24.770Z</when>
<when >2025-07-13T12:16:44.500Z</when>
<when >2025-07-13T12:17:04.170Z</when>
<when >2025-07-13T12:17:23.980Z</when>
<when >2025-07-13T12:17:43.770Z</when>
<when >2025-07-13T12:18:03.330Z</when>
<when >2025-07-13T12:18:23.100Z</when>
<when >2025-07-13T12:18:42.550Z</when>
<when >2025-07-13T12:19:02.490Z</when>
<when >2025-07-13T12:19:22.120Z</when>
<when >2025-07-13T12:19:41.740Z</when>
<when >2025-07-13T12:20:01.710Z</when>
<when >2025-07-13T12:20:21.380Z</when>
<when >2025-07-13T12:20:41.030Z</when>
<when >2025-07-13T12:21:00.630Z</when>
<when >2025-07-13T12:21:20.230Z</when>
<when >2025-07-13T12:21:40.040Z</when>
<when >2025-07-13T12:21:59.610Z</when>
<when >2025-07-13T12:22:19.360Z</when>
<when >2025-07-13T12:22:39.180Z</when>
<when >2025-07-13T12:22:59.160Z</when>
<when >2025-07-13T12:23:18.700Z</when>
<when >2025-07-13T12:23:38.490Z</when>
<when >2025-07-13T12:23:58.360Z</when>
<when >2025-07-13T12:24:16.240Z</when>
<when >2025-07-13T12:24:36.090Z</when>
<when >2025-07-13T12:24:55.840Z</when>
<when >2025-07-13T12:25:15.790Z</when>
<when >2025-07-13T12:25:35.730Z</when>
<when >2025-07-13T12:25:55.450Z</when>
<when >2025-07-13T12:26:15.430Z</when>
<when >2025-07-13T12:26:34.940Z</when>
<when >2025-07-13T12:26:54.550Z</when>
<when >2025-07-13T12:26:56.600Z</when>
<when >2025-07-13T12:27:01.760Z</when>
<when >2025-07-13T12:27:06.930Z</when>
<when >2025-07-13T12:27:13.670Z</when>
<when >2025-07-13T12:27:18.030Z</when>
<when >2025-07-13T12:27:20.490Z</when>
<when >2025-07-13T12:27:27.590Z</when>
<when >2025-07-13T12:27:34.060Z</when>
<when >2025-07-13T12:27:37.180Z</when>
<when >2025-07-13T12:27:40.330Z</when>
<when >2025-07-13T12:27:44.780Z</when>
<when >2025-07-13T12:27:49.670Z</when>
<when >2025-07-13T12:27:57.810Z</when>
<when >2025-07-13T12:28:02.270Z</when>
<when >2025-07-13T12:28:05.320Z</when>
<when >2025-07-13T12:28:09.310Z</when>
<when >2025-07-13T12:28:15.410Z</when>
<when >2025-07-13T12:28:20.730Z</when>
<when >2025-07-13T12:28:24.380Z</when>
<when >2025-07-13T12:28:25.910Z</when>
<when >2025-07-13T12:28:26.860Z</when>
<when >2025-07-13T12:28:30.040Z</when>
<when >2025-07-13T12:28:30.850Z</when>
<when >2025-07-13T12:28:36.970Z</when>
<when >2025-07-13T12:28:41.900Z</when>
<when >2025-07-13T12:28:47.690Z</when>
<when >2025-07-13T12:28:52.590Z</when>
<when >2025-07-13T12:28:56.000Z</when>
<when >2025-07-13T12:29:03.240Z</when>
<when >2025-07-13T12:29:15.870Z</when>
<when >2025-07-13T12:29:26.170Z</when>
<when >2025-07-13T12:29:34.420Z</when>
<when >2025-07-13T12:29:44.780Z</when>
<when >2025-07-13T12:29:51.240Z</when>
<when >2025-07-13T12:30:03.570Z</when>
<when >2025-07-13T12:30:16.220Z</when>
<when >2025-07-13T12:30:20.140Z</when>
<when >2025-07-13T12:30:24.210Z</when>
<when >2025-07-13T12:30:34.770Z</when>
<when >2025-07-13T12:30:50.740Z</when>
<when >2025-07-13T12:30:54.450Z</when>
<when >2025-07-13T12:30:59.240Z</when>
<when >2025-07-13T12:31:11.920Z</when>
<when >2025-07-13T12:31:22.870Z</when>
<when >2025-07-13T12:31:32.980Z</when>
<when >2025-07-13T12:31:42.380Z</when>
<when >2025-07-13T12:31:47.180Z</when>
<when >2025-07-13T12:31:50.140Z</when>
<when >2025-07-13T12:32:06.570Z</when>
<when >2025-07-13T12:32:23.410Z</when>
<when >2025-07-13T12:32:39.960Z</when>
<when >2025-07-13T12:32:56.040Z</when>
<when >2025-07-13T12:33:10.860Z</when>
<when >2025-07-13T12:33:25.570Z</when>
<when >2025-07-13T12:33:40.750Z</when>
<when >2025-07-13T12:33:57.320Z</when>
<when >2025-07-13T12:34:13.470Z</when>
<when >2025-07-13T12:34:20.850Z</when>
<when >2025-07-13T12:34:24.730Z</when>
<when >2025-07-13T12:34:28.300Z</when>
<when >2025-07-13T12:34:31.930Z</when>
<when >2025-07-13T12:34:35.680Z</when>
<when >2025-07-13T12:34:39.220Z</when>
<when >2025-07-13T12:34:43.310Z</when>
<when >2025-07-13T12:34:47.650Z</when>
<when >2025-07-13T12:34:51.890Z</when>
<when >2025-07-13T12:34:55.440Z</when>
<when >2025-07-13T12:35:00.050Z</when>
<when >2025-07-13T12:35:04.080Z</when>
<when >2025-07-13T12:35:09.080Z</when>
<when >2025-07-13T12:35:16.960Z</when>
<when >2025-07-13T12:35:31.170Z</when>
<when >2025-07-13T12:35:45.430Z</when>
<when >2025-07-13T12:35:58.060Z</when>
<when >2025-07-13T12:36:10.860Z</when>
<when >2025-07-13T12:36:23.580Z</when>
<when >2025-07-13T12:36:37.020Z</when>
<when >2025-07-13T12:36:50.010Z</when>
<when >2025-07-13T12:37:02.760Z</when>
<when >2025-07-13T12:37:15.290Z</when>
<when >2025-07-13T12:37:27.750Z</when>
<when >2025-07-13T12:37:41.090Z</when>
<when >2025-07-13T12:37:55.700Z</when>
<when >2025-07-13T12:38:11.720Z</when>
<when >2025-07-13T12:38:27.040Z</when>
<when >2025-07-13T12:38:42.520Z</when>
<when >2025-07-13T12:38:54.650Z</when>
<when >2025-07-13T12:38:59.320Z</when>
<when >2025-07-13T12:39:06.920Z</when>
<when >2025-07-13T12:39:12.600Z</when>
<when >2025-07-13T12:39:17.330Z</when>
<when >2025-07-13T12:39:23.720Z</when>
<when >2025-07-13T12:39:42.930Z</when>
<when >2025-07-13T12:40:02.520Z</when>
<when >2025-07-13T12:40:22.300Z</when>
<when >2025-07-13T12:40:42.250Z</when>
<when >2025-07-13T12:41:01.970Z</when>
<when >2025-07-13T12:41:21.580Z</when>
<when >2025-07-13T12:41:41.150Z</when>
<when >2025-07-13T12:42:00.920Z</when>
<when >2025-07-13T12:42:20.520Z</when>
<when >2025-07-13T12:42:40.390Z</when>
<when >2025-07-13T12:43:00.230Z</when>
<when >2025-07-13T12:43:19.940Z</when>
<when >2025-07-13T12:43:25.030Z</when>
<when >2025-07-13T12:43:28.700Z</when>
<when >2025-07-13T12:43:32.160Z</when>
<when >2025-07-13T12:43:35.810Z</when>
<when >2025-07-13T12:43:38.760Z</when>
<when >2025-07-13T12:43:42.410Z</when>
<when >2025-07-13T12:43:46.740Z</when>
<when >2025-07-13T12:44:06.570Z</when>
<when >2025-07-13T12:44:24.780Z</when>
<when >2025-07-13T12:44:44.650Z</when>
<when >2025-07-13T12:45:04.470Z</when>
<when >2025-07-13T12:45:24.380Z</when>
<when >2025-07-13T12:45:44.320Z</when>
<when >2025-07-13T12:46:04.070Z</when>
<when >2025-07-13T12:46:23.830Z</when>
<when >2025-07-13T12:46:43.740Z</when>
<when >2025-07-13T12:47:03.290Z</when>
<when >2025-07-13T12:47:17.240Z</when>
<when >2025-07-13T12:47:32.750Z</when>
<when >2025-07-13T12:47:43.780Z</when>
<when >2025-07-13T12:47:58.930Z</when>
<when >2025-07-13T12:48:14.420Z</when>
<when >2025-07-13T12:48:30.760Z</when>
<when >2025-07-13T12:48:47.080Z</when>
<when >2025-07-13T12:48:52.360Z</when>
<when >2025-07-13T12:49:12.190Z</when>
<when >2025-07-13T12:49:31.950Z</when>
<when >2025-07-13T12:49:51.740Z</when>
<when >2025-07-13T12:50:11.290Z</when>
<when >2025-07-13T12:50:17.890Z</when>
<when >2025-07-13T12:50:33.450Z</when>
<when >2025-07-13T12:50:49.860Z</when>
<when >2025-07-13T12:51:06.180Z</when>
<when >2025-07-13T12:51:14.360Z</when>
<when >2025-07-13T12:51:24.680Z</when>
<when >2025-07-13T12:51:32.640Z</when>
<when >2025-07-13T12:51:40.770Z</when>
<when >2025-07-13T12:51:50.000Z</when>
<when >2025-07-13T12:52:00.810Z</when>
<when >2025-07-13T12:52:04.420Z</when>
<when >2025-07-13T12:52:12.880Z</when>
<when >2025-07-13T12:52:21.220Z</when>
<when >2025-07-13T12:52:29.950Z</when>
<when >2025-07-13T12:52:37.870Z</when>
<when >2025-07-13T12:52:46.080Z</when>
<when >2025-07-13T12:52:53.740Z</when>
<when >2025-07-13T12:53:01.610Z</when>
<when >2025-07-13T12:53:10.060Z</when>
<when >2025-07-13T12:53:17.820Z</when>
<when >2025-07-13T12:53:26.510Z</when>
<when >2025-07-13T12:53:33.970Z</when>
<when >2025-07-13T12:53:41.510Z</when>
<when >2025-07-13T12:53:49.660Z</when>
<when >2025-07-13T12:53:57.430Z</when>
<when >2025-07-13T12:54:05.590Z</when>
<when >2025-07-13T12:54:13.310Z</when>
<when >2025-07-13T12:54:21.270Z</when>
<when >2025-07-13T12:54:25.100Z</when>
<when >2025-07-13T12:54:28.940Z</when>
<when >2025-07-13T12:54:31.770Z</when>
<when >2025-07-13T12:54:34.920Z</when>
<when >2025-07-13T12:54:38.390Z</when>
<when >2025-07-13T12:54:41.020Z</when>
<when >2025-07-13T12:54:44.380Z</when>
<when >2025-07-13T12:54:47.860Z</when>
<when >2025-07-13T12:54:51.210Z</when>
<when >2025-07-13T12:54:53.700Z</when>
<when >2025-07-13T12:54:56.780Z</when>
<when >2025-07-13T12:54:59.670Z</when>
<when >2025-07-13T12:55:02.840Z</when>
<when >2025-07-13T12:55:05.890Z</when>
<when >2025-07-13T12:55:09.240Z</when>
<when >2025-07-13T12:55:12.110Z</when>
<when >2025-07-13T12:55:15.500Z</when>
<when >2025-07-13T12:55:18.020Z</when>
<when >2025-07-13T12:55:20.660Z</when>
<when >2025-07-13T12:55:24.250Z</when>
<when >2025-07-13T12:55:31.620Z</when>
<when >2025-07-13T12:55:51.490Z</when>
<when >2025-07-13T12:56:11.230Z</when>
<when >2025-07-13T12:56:18.740Z</when>
<when >2025-07-13T12:56:22.060Z</when>
<when >2025-07-13T12:56:30.490Z</when>
<when >2025-07-13T12:56:39.130Z</when>
<when >2025-07-13T12:56:47.550Z</when>
<when >2025-07-13T12:56:56.280Z</when>
<when >2025-07-13T12:57:02.120Z</when>
<when >2025-07-13T12:57:05.750Z</when>
<when >2025-07-13T12:57:09.240Z</when>
<when >2025-07-13T12:57:12.670Z</when>
<when >2025-07-13T12:57:15.720Z</when>
<when >2025-07-13T12:57:19.010Z</when>
<when >2025-07-13T12:57:22.520Z</when>
<when >2025-07-13T12:57:24.400Z</when>
<when >2025-07-13T12:57:27.760Z</when>
<when >2025-07-13T12:57:31.170Z</when>
<when >2025-07-13T12:57:34.650Z</when>
<when >2025-07-13T12:57:37.480Z</when>
<when >2025-07-13T12:57:40.350Z</when>
<when >2025-07-13T12:57:44.930Z</when>
<when >2025-07-13T12:57:50.330Z</when>
<when >2025-07-13T12:57:56.790Z</when>
<when >2025-07-13T12:58:02.780Z</when>
<when >2025-07-13T12:58:08.900Z</when>
<when >2025-07-13T12:58:14.650Z</when>
<when >2025-07-13T12:58:19.800Z</when>
<when >2025-07-13T12:58:26.370Z</when>
<when >2025-07-13T12:58:32.660Z</when>
<when >2025-07-13T12:58:38.530Z</when>
<when >2025-07-13T12:58:44.510Z</when>
<when >2025-07-13T12:58:51.930Z</when>
<when >2025-07-13T12:58:58.410Z</when>
<when >2025-07-13T12:59:05.020Z</when>
<when >2025-07-13T12:59:09.770Z</when>
<when >2025-07-13T12:59:13.720Z</when>
<when >2025-07-13T12:59:18.260Z</when>
<when >2025-07-13T12:59:26.080Z</when>
<when >2025-07-13T12:59:43.150Z</when>
<when >2025-07-13T13:00:02.600Z</when>
<when >2025-07-13T13:00:22.570Z</when>
<when >2025-07-13T13:00:42.390Z</when>
<when >2025-07-13T13:00:45.130Z</when>
<when >2025-07-13T13:00:55.480Z</when>
<when >2025-07-13T13:00:59.430Z</when>
<when >2025-07-13T13:01:04.400Z</when>
<when >2025-07-13T13:01:08.540Z</when>
<when >2025-07-13T13:01:11.030Z</when>
<when >2025-07-13T13:01:14.840Z</when>
<when >2025-07-13T13:01:17.340Z</when>
<when >2025-07-13T13:01:20.300Z</when>
<when >2025-07-13T13:01:22.720Z</when>
<when >2025-07-13T13:01:29.420Z</when>
<when >2025-07-13T13:01:49.160Z</when>
<when >2025-07-13T13:02:09.160Z</when>
<when >2025-07-13T13:02:29.060Z</when>
<when >2025-07-13T13:02:48.800Z</when>
<when >2025-07-13T13:03:08.540Z</when>
<when >2025-07-13T13:03:28.270Z</when>
<when >2025-07-13T13:03:48.020Z</when>
<when >2025-07-13T13:03:58.120Z</when>
<when >2025-07-13T13:04:02.290Z</when>
<when >2025-07-13T13:04:05.790Z</when>
<when >2025-07-13T13:04:07.770Z</when>
<when >2025-07-13T13:04:10.670Z</when>
<when >2025-07-13T13:04:13.500Z</when>
<when >2025-07-13T13:04:16.230Z</when>
<when >2025-07-13T13:04:19.000Z</when>
<when >2025-07-13T13:04:20.850Z</when>
<when >2025-07-13T13:04:23.260Z</when>
<when >2025-07-13T13:04:26.460Z</when>
<when >2025-07-13T13:04:30.660Z</when>
<when >2025-07-13T13:04:36.280Z</when>
<when >2025-07-13T13:04:40.550Z</when>
<when >2025-07-13T13:04:42.970Z</when>
<when >2025-07-13T13:04:48.030Z</when>
<when >2025-07-13T13:04:53.790Z</when>
<when >2025-07-13T13:04:57.320Z</when>
<when >2025-07-13T13:05:00.250Z</when>
<when >2025-07-13T13:05:02.960Z</when>
<when >2025-07-13T13:05:05.650Z</when>
<when >2025-07-13T13:05:08.140Z</when>
<when >2025-07-13T13:05:10.280Z</when>
<when >2025-07-13T13:05:12.400Z</when>
<when >2025-07-13T13:05:14.750Z</when>
<when >2025-07-13T13:05:16.940Z</when>
<when >2025-07-13T13:05:19.420Z</when>
<when >2025-07-13T13:05:21.890Z</when>
<when >2025-07-13T13:05:24.330Z</when>
<when >2025-07-13T13:05:27.970Z</when>
<when >2025-07-13T13:05:31.200Z</when>
<when >2025-07-13T13:05:35.180Z</when>
<when >2025-07-13T13:05:40.190Z</when>
<when >2025-07-13T13:05:44.630Z</when>
<when >2025-07-13T13:05:51.310Z</when>
<when >2025-07-13T13:05:56.970Z</when>
<when >2025-07-13T13:06:02.540Z</when>
<when >2025-07-13T13:06:09.640Z</when>
<when >2025-07-13T13:06:15.790Z</when>
<when >2025-07-13T13:06:22.040Z</when>
<when >2025-07-13T13:06:27.540Z</when>
<when >2025-07-13T13:06:33.560Z</when>
<when >2025-07-13T13:06:38.750Z</when>
<when >2025-07-13T13:06:50.910Z</when>
<when >2025-07-13T13:06:56.050Z</when>
<when >2025-07-13T13:07:03.000Z</when>
<when >2025-07-13T13:07:09.590Z</when>
<when >2025-07-13T13:07:17.020Z</when>
<when >2025-07-13T13:07:23.250Z</when>
<when >2025-07-13T13:07:30.240Z</when>
<when >2025-07-13T13:07:36.800Z</when>
<when >2025-07-13T13:07:43.290Z</when>
<when >2025-07-13T13:07:49.730Z</when>
<when >2025-07-13T13:07:55.530Z</when>
<when >2025-07-13T13:08:01.950Z</when>
<when >2025-07-13T13:08:09.110Z</when>
<when >2025-07-13T13:08:16.880Z</when>
<when >2025-07-13T13:08:19.500Z</when>
<when >2025-07-13T13:08:23.360Z</when>
<when >2025-07-13T13:08:24.890Z</when>
<when >2025-07-13T13:08:27.260Z</when>
<when >2025-07-13T13:08:35.730Z</when>
<when >2025-07-13T13:08:44.140Z</when>
<when >2025-07-13T13:08:52.610Z</when>
<when >2025-07-13T13:09:01.140Z</when>
<when >2025-07-13T13:09:10.320Z</when>
<when >2025-07-13T13:09:19.190Z</when>
<when >2025-07-13T13:09:26.440Z</when>
<when >2025-07-13T13:09:34.540Z</when>
<when >2025-07-13T13:09:43.390Z</when>
<when >2025-07-13T13:09:52.050Z</when>
<when >2025-07-13T13:10:00.220Z</when>
<when >2025-07-13T13:10:07.940Z</when>
<when >2025-07-13T13:10:14.700Z</when>
<when >2025-07-13T13:10:18.690Z</when>
<when >2025-07-13T13:10:20.980Z</when>
<when >2025-07-13T13:10:20.980Z</when>
<gx:coord >20.960972 52.172815 113</gx:coord>
<gx:coord >20.962143 52.171463 113</gx:coord>
<gx:coord >20.962753 52.170822 105</gx:coord>
<gx:coord >20.963898 52.169495 105</gx:coord>
<gx:coord >20.964661 52.168579 105</gx:coord>
<gx:coord >20.965445 52.167741 105</gx:coord>
<gx:coord >20.967878 52.164948 105</gx:coord>
<gx:coord >20.968933 52.163681 105</gx:coord>
<gx:coord >20.971095 52.16127 98</gx:coord>
<gx:coord >20.971756 52.160568 113</gx:coord>
<gx:coord >20.972508 52.159641 120</gx:coord>
<gx:coord >20.973206 52.15892 113</gx:coord>
<gx:coord >20.974808 52.157135 143</gx:coord>
<gx:coord >20.976715 52.154984 181</gx:coord>
<gx:coord >20.97808 52.153403 219</gx:coord>
<gx:coord >20.979885 52.151308 258</gx:coord>
<gx:coord >20.981689 52.14926 288</gx:coord>
<gx:coord >20.98318 52.147491 319</gx:coord>
<gx:coord >20.984907 52.145443 349</gx:coord>
<gx:coord >20.986633 52.143448 379</gx:coord>
<gx:coord >20.988159 52.141663 418</gx:coord>
<gx:coord >20.989615 52.139996 448</gx:coord>
<gx:coord >20.990906 52.13855 471</gx:coord>
<gx:coord >20.992203 52.137039 494</gx:coord>
<gx:coord >20.993539 52.135574 532</gx:coord>
<gx:coord >20.995026 52.133881 555</gx:coord>
<gx:coord >20.996628 52.132141 593</gx:coord>
<gx:coord >20.998169 52.130499 623</gx:coord>
<gx:coord >20.999451 52.129074 654</gx:coord>
<gx:coord >21.000977 52.127335 684</gx:coord>
<gx:coord >21.002579 52.125595 715</gx:coord>
<gx:coord >21.004054 52.123936 753</gx:coord>
<gx:coord >21.005478 52.122162 783</gx:coord>
<gx:coord >21.006958 52.120072 814</gx:coord>
<gx:coord >21.008148 52.117767 837</gx:coord>
<gx:coord >21.008606 52.115936 867</gx:coord>
<gx:coord >21.008841 52.11388 898</gx:coord>
<gx:coord >21.008606 52.111785 921</gx:coord>
<gx:coord >21.008214 52.110203 951</gx:coord>
<gx:coord >21.007233 52.108154 974</gx:coord>
<gx:coord >21.006095 52.106478 1012</gx:coord>
<gx:coord >21.004562 52.104721 1035</gx:coord>
<gx:coord >21.00296 52.103348 1058</gx:coord>
<gx:coord >21.0009 52.101883 1088</gx:coord>
<gx:coord >20.998688 52.100647 1111</gx:coord>
<gx:coord >20.996017 52.099457 1134</gx:coord>
<gx:coord >20.992597 52.098239 1157</gx:coord>
<gx:coord >20.989914 52.097488 1180</gx:coord>
<gx:coord >20.987015 52.096893 1187</gx:coord>
<gx:coord >20.983582 52.09639 1210</gx:coord>
<gx:coord >20.980148 52.096115 1218</gx:coord>
<gx:coord >20.976257 52.096115 1233</gx:coord>
<gx:coord >20.974045 52.096161 1241</gx:coord>
<gx:coord >20.970468 52.09647 1256</gx:coord>
<gx:coord >20.967484 52.096893 1263</gx:coord>
<gx:coord >20.965131 52.097308 1271</gx:coord>
<gx:coord >20.961227 52.098175 1286</gx:coord>
<gx:coord >20.956421 52.099594 1302</gx:coord>
<gx:coord >20.951712 52.101078 1317</gx:coord>
<gx:coord >20.948715 52.102112 1332</gx:coord>
<gx:coord >20.944571 52.103592 1347</gx:coord>
<gx:coord >20.939331 52.105453 1378</gx:coord>
<gx:coord >20.93399 52.107376 1408</gx:coord>
<gx:coord >20.928802 52.109253 1439</gx:coord>
<gx:coord >20.923697 52.111087 1469</gx:coord>
<gx:coord >20.918503 52.112961 1492</gx:coord>
<gx:coord >20.913574 52.114765 1530</gx:coord>
<gx:coord >20.908203 52.116714 1568</gx:coord>
<gx:coord >20.90298 52.118582 1599</gx:coord>
<gx:coord >20.898664 52.120118 1622</gx:coord>
<gx:coord >20.893936 52.121796 1652</gx:coord>
<gx:coord >20.89066 52.123004 1683</gx:coord>
<gx:coord >20.886422 52.124494 1713</gx:coord>
<gx:coord >20.882568 52.12587 1751</gx:coord>
<gx:coord >20.877609 52.127655 1782</gx:coord>
<gx:coord >20.873003 52.129289 1820</gx:coord>
<gx:coord >20.869393 52.130546 1835</gx:coord>
<gx:coord >20.864842 52.132175 1873</gx:coord>
<gx:coord >20.85982 52.133944 1903</gx:coord>
<gx:coord >20.856018 52.1353 1942</gx:coord>
<gx:coord >20.851593 52.136856 1964</gx:coord>
<gx:coord >20.847813 52.13818 1995</gx:coord>
<gx:coord >20.843733 52.139577 2033</gx:coord>
<gx:coord >20.839809 52.140927 2064</gx:coord>
<gx:coord >20.835493 52.142463 2094</gx:coord>
<gx:coord >20.831805 52.14372 2117</gx:coord>
<gx:coord >20.828116 52.145024 2155</gx:coord>
<gx:coord >20.823898 52.146469 2185</gx:coord>
<gx:coord >20.816659 52.149027 2239</gx:coord>
<gx:coord >20.808945 52.151688 2307</gx:coord>
<gx:coord >20.800552 52.154617 2361</gx:coord>
<gx:coord >20.792999 52.157227 2429</gx:coord>
<gx:coord >20.78476 52.16011 2498</gx:coord>
<gx:coord >20.777265 52.162714 2551</gx:coord>
<gx:coord >20.770673 52.165041 2605</gx:coord>
<gx:coord >20.764239 52.167276 2665</gx:coord>
<gx:coord >20.756912 52.169861 2719</gx:coord>
<gx:coord >20.748858 52.172722 2795</gx:coord>
<gx:coord >20.74173 52.175262 2848</gx:coord>
<gx:coord >20.734177 52.178009 2917</gx:coord>
<gx:coord >20.724792 52.181305 2970</gx:coord>
<gx:coord >20.715942 52.184372 3039</gx:coord>
<gx:coord >20.705933 52.187852 3092</gx:coord>
<gx:coord >20.696202 52.191157 3161</gx:coord>
<gx:coord >20.687805 52.194043 3207</gx:coord>
<gx:coord >20.682526 52.195816 3229</gx:coord>
<gx:coord >20.667343 52.200989 3290</gx:coord>
<gx:coord >20.649981 52.206845 3344</gx:coord>
<gx:coord >20.631943 52.212936 3389</gx:coord>
<gx:coord >20.618905 52.217366 3427</gx:coord>
<gx:coord >20.610504 52.220261 3466</gx:coord>
<gx:coord >20.599289 52.224106 3519</gx:coord>
<gx:coord >20.58815 52.227905 3580</gx:coord>
<gx:coord >20.576922 52.231797 3641</gx:coord>
<gx:coord >20.565229 52.235847 3717</gx:coord>
<gx:coord >20.54153 52.243947 3831</gx:coord>
<gx:coord >20.528793 52.247955 3892</gx:coord>
<gx:coord >20.518875 52.250381 3946</gx:coord>
<gx:coord >20.510376 52.252001 3984</gx:coord>
<gx:coord >20.501556 52.253128 4014</gx:coord>
<gx:coord >20.492783 52.253769 4068</gx:coord>
<gx:coord >20.474749 52.254515 4159</gx:coord>
<gx:coord >20.453639 52.255166 4273</gx:coord>
<gx:coord >20.447006 52.255417 4289</gx:coord>
<gx:coord >20.414963 52.256516 4403</gx:coord>
<gx:coord >20.385995 52.257773 4525</gx:coord>
<gx:coord >20.358058 52.259077 4647</gx:coord>
<gx:coord >20.345993 52.259628 4700</gx:coord>
<gx:coord >20.323792 52.260681 4830</gx:coord>
<gx:coord >20.312729 52.26123 4898</gx:coord>
<gx:coord >20.30426 52.261597 4936</gx:coord>
<gx:coord >20.300145 52.261777 4974</gx:coord>
<gx:coord >20.28547 52.262475 5096</gx:coord>
<gx:coord >20.279312 52.262741 5134</gx:coord>
<gx:coord >20.275345 52.262924 5172</gx:coord>
<gx:coord >20.26741 52.26329 5203</gx:coord>
<gx:coord >20.242231 52.264477 5332</gx:coord>
<gx:coord >20.213089 52.265762 5454</gx:coord>
<gx:coord >20.186829 52.266897 5576</gx:coord>
<gx:coord >20.158892 52.268108 5698</gx:coord>
<gx:coord >20.144767 52.268713 5767</gx:coord>
<gx:coord >20.113297 52.270065 5874</gx:coord>
<gx:coord >20.0834 52.27132 5988</gx:coord>
<gx:coord >20.051956 52.272675 6094</gx:coord>
<gx:coord >20.021877 52.273927 6216</gx:coord>
<gx:coord >19.989471 52.275238 6331</gx:coord>
<gx:coord >19.957581 52.27652 6445</gx:coord>
<gx:coord >19.925354 52.277791 6552</gx:coord>
<gx:coord >19.892426 52.279175 6666</gx:coord>
<gx:coord >19.857712 52.28064 6765</gx:coord>
<gx:coord >19.825535 52.282027 6887</gx:coord>
<gx:coord >19.796906 52.28334 7001</gx:coord>
<gx:coord >19.768406 52.284773 7116</gx:coord>
<gx:coord >19.757577 52.285379 7161</gx:coord>
<gx:coord >19.732701 52.286729 7215</gx:coord>
<gx:coord >19.688834 52.289103 7298</gx:coord>
<gx:coord >19.649754 52.291198 7390</gx:coord>
<gx:coord >19.609909 52.293274 7489</gx:coord>
<gx:coord >19.569473 52.295334 7580</gx:coord>
<gx:coord >19.5322 52.297203 7695</gx:coord>
<gx:coord >19.492493 52.299133 7779</gx:coord>
<gx:coord >19.449646 52.301206 7878</gx:coord>
<gx:coord >19.410172 52.303116 7977</gx:coord>
<gx:coord >19.371033 52.304947 8076</gx:coord>
<gx:coord >19.3396 52.306458 8160</gx:coord>
<gx:coord >19.30494 52.308096 8266</gx:coord>
<gx:coord >19.268112 52.309845 8365</gx:coord>
<gx:coord >19.224034 52.311913 8449</gx:coord>
<gx:coord >19.183273 52.313828 8541</gx:coord>
<gx:coord >19.139125 52.315917 8640</gx:coord>
<gx:coord >19.09462 52.317947 8723</gx:coord>
<gx:coord >19.059004 52.319688 8830</gx:coord>
<gx:coord >19.024734 52.321289 8937</gx:coord>
<gx:coord >18.986258 52.322993 9043</gx:coord>
<gx:coord >18.94247 52.324902 9135</gx:coord>
<gx:coord >18.897247 52.326782 9211</gx:coord>
<gx:coord >18.867188 52.328018 9280</gx:coord>
<gx:coord >18.828683 52.329696 9379</gx:coord>
<gx:coord >18.792899 52.331233 9455</gx:coord>
<gx:coord >18.744638 52.333327 9523</gx:coord>
<gx:coord >18.705087 52.33505 9623</gx:coord>
<gx:coord >18.663483 52.336853 9714</gx:coord>
<gx:coord >18.618546 52.338684 9798</gx:coord>
<gx:coord >18.566345 52.340822 9874</gx:coord>
<gx:coord >18.505763 52.34329 9920</gx:coord>
<gx:coord >18.44424 52.345664 9981</gx:coord>
<gx:coord >18.381882 52.34816 10019</gx:coord>
<gx:coord >18.323898 52.350449 10086</gx:coord>
<gx:coord >18.261004 52.35274 10140</gx:coord>
<gx:coord >18.199158 52.35498 10208</gx:coord>
<gx:coord >18.13446 52.357361 10262</gx:coord>
<gx:coord >18.068542 52.359924 10323</gx:coord>
<gx:coord >18.018598 52.361864 10406</gx:coord>
<gx:coord >17.982254 52.36322 10467</gx:coord>
<gx:coord >17.917099 52.365555 10505</gx:coord>
<gx:coord >17.864162 52.367543 10597</gx:coord>
<gx:coord >17.820358 52.369125 10658</gx:coord>
<gx:coord >17.762833 52.371094 10733</gx:coord>
<gx:coord >17.717808 52.372618 10825</gx:coord>
<gx:coord >17.665231 52.374387 10908</gx:coord>
<gx:coord >17.607346 52.376266 10992</gx:coord>
<gx:coord >17.552778 52.378064 11076</gx:coord>
<gx:coord >17.49321 52.379974 11152</gx:coord>
<gx:coord >17.466125 52.380844 11167</gx:coord>
<gx:coord >17.402115 52.382904 11183</gx:coord>
<gx:coord >17.336426 52.384954 11183</gx:coord>
<gx:coord >17.269669 52.386978 11182</gx:coord>
<gx:coord >17.203413 52.388911 11174</gx:coord>
<gx:coord >17.13773 52.390726 11174</gx:coord>
<gx:coord >17.0704 52.392588 11174</gx:coord>
<gx:coord >17.003937 52.394485 11174</gx:coord>
<gx:coord >16.937637 52.396408 11174</gx:coord>
<gx:coord >16.871626 52.398268 11182</gx:coord>
<gx:coord >16.803432 52.400037 11189</gx:coord>
<gx:coord >16.736603 52.401718 11189</gx:coord>
<gx:coord >16.670532 52.403366 11189</gx:coord>
<gx:coord >16.602859 52.404968 11189</gx:coord>
<gx:coord >16.536713 52.406525 11181</gx:coord>
<gx:coord >16.469879 52.408081 11181</gx:coord>
<gx:coord >16.403351 52.409637 11173</gx:coord>
<gx:coord >16.336975 52.411102 11173</gx:coord>
<gx:coord >16.270523 52.412613 11165</gx:coord>
<gx:coord >16.204599 52.414049 11165</gx:coord>
<gx:coord >16.137896 52.415446 11165</gx:coord>
<gx:coord >16.07254 52.416687 11165</gx:coord>
<gx:coord >16.006393 52.418015 11165</gx:coord>
<gx:coord >15.940933 52.419205 11164</gx:coord>
<gx:coord >15.875473 52.420441 11157</gx:coord>
<gx:coord >15.81066 52.421637 11157</gx:coord>
<gx:coord >15.744036 52.422754 11157</gx:coord>
<gx:coord >15.67894 52.423828 11149</gx:coord>
<gx:coord >15.612869 52.424881 11164</gx:coord>
<gx:coord >15.54589 52.425873 11157</gx:coord>
<gx:coord >15.480499 52.426849 11164</gx:coord>
<gx:coord >15.41374 52.427922 11157</gx:coord>
<gx:coord >15.347214 52.428955 11163</gx:coord>
<gx:coord >15.279157 52.42997 11171</gx:coord>
<gx:coord >15.213004 52.430854 11171</gx:coord>
<gx:coord >15.145595 52.431692 11179</gx:coord>
<gx:coord >15.079041 52.43248 11179</gx:coord>
<gx:coord >15.011673 52.433121 11171</gx:coord>
<gx:coord >14.94545 52.433899 11186</gx:coord>
<gx:coord >14.879456 52.43454 11186</gx:coord>
<gx:coord >14.812088 52.435135 11186</gx:coord>
<gx:coord >14.744908 52.435696 11186</gx:coord>
<gx:coord >14.677582 52.436234 11186</gx:coord>
<gx:coord >14.610367 52.436737 11179</gx:coord>
<gx:coord >14.543762 52.437286 11179</gx:coord>
<gx:coord >14.476057 52.437744 11171</gx:coord>
<gx:coord >14.40904 52.438117 11163</gx:coord>
<gx:coord >14.341278 52.438522 11162</gx:coord>
<gx:coord >14.273673 52.438861 11162</gx:coord>
<gx:coord >14.208221 52.439163 11162</gx:coord>
<gx:coord >14.141693 52.439392 11162</gx:coord>
<gx:coord >14.074977 52.439653 11162</gx:coord>
<gx:coord >14.008255 52.439804 11170</gx:coord>
<gx:coord >13.942749 52.439886 11162</gx:coord>
<gx:coord >13.875889 52.439979 11155</gx:coord>
<gx:coord >13.810599 52.440025 11170</gx:coord>
<gx:coord >13.745346 52.440125 11170</gx:coord>
<gx:coord >13.679705 52.440118 11170</gx:coord>
<gx:coord >13.61363 52.440118 11169</gx:coord>
<gx:coord >13.548584 52.439987 11169</gx:coord>
<gx:coord >13.482819 52.439758 11169</gx:coord>
<gx:coord >13.417358 52.439667 11161</gx:coord>
<gx:coord >13.351212 52.439575 11161</gx:coord>
<gx:coord >13.285531 52.43942 11169</gx:coord>
<gx:coord >13.220139 52.439117 11169</gx:coord>
<gx:coord >13.154526 52.438843 11169</gx:coord>
<gx:coord >13.088074 52.438522 11161</gx:coord>
<gx:coord >13.02233 52.43821 11161</gx:coord>
<gx:coord >12.95639 52.437698 11161</gx:coord>
<gx:coord >12.890091 52.437286 11161</gx:coord>
<gx:coord >12.823486 52.436829 11169</gx:coord>
<gx:coord >12.757034 52.436188 11176</gx:coord>
<gx:coord >12.691193 52.435547 11176</gx:coord>
<gx:coord >12.624893 52.434906 11176</gx:coord>
<gx:coord >12.558629 52.434253 11176</gx:coord>
<gx:coord >12.491534 52.433508 11176</gx:coord>
<gx:coord >12.42569 52.432892 11176</gx:coord>
<gx:coord >12.358991 52.432251 11176</gx:coord>
<gx:coord >12.29248 52.431519 11183</gx:coord>
<gx:coord >12.226998 52.430668 11183</gx:coord>
<gx:coord >12.160721 52.429871 11183</gx:coord>
<gx:coord >12.094142 52.428899 11176</gx:coord>
<gx:coord >12.027893 52.427994 11176</gx:coord>
<gx:coord >11.962228 52.426991 11175</gx:coord>
<gx:coord >11.895604 52.425966 11175</gx:coord>
<gx:coord >11.829681 52.424927 11175</gx:coord>
<gx:coord >11.763306 52.423874 11175</gx:coord>
<gx:coord >11.698242 52.422754 11175</gx:coord>
<gx:coord >11.63208 52.421585 11175</gx:coord>
<gx:coord >11.566696 52.420441 11175</gx:coord>
<gx:coord >11.500096 52.419123 11175</gx:coord>
<gx:coord >11.433563 52.417648 11167</gx:coord>
<gx:coord >11.368637 52.416367 11167</gx:coord>
<gx:coord >11.302338 52.415176 11167</gx:coord>
<gx:coord >11.237444 52.413909 11167</gx:coord>
<gx:coord >11.172485 52.412567 11166</gx:coord>
<gx:coord >11.105804 52.411057 11174</gx:coord>
<gx:coord >11.040115 52.409546 11174</gx:coord>
<gx:coord >10.975185 52.407997 11174</gx:coord>
<gx:coord >10.909895 52.406508 11174</gx:coord>
<gx:coord >10.84484 52.404971 11181</gx:coord>
<gx:coord >10.778059 52.403389 11181</gx:coord>
<gx:coord >10.711748 52.401759 11189</gx:coord>
<gx:coord >10.64481 52.400037 11189</gx:coord>
<gx:coord >10.578265 52.398268 11189</gx:coord>
<gx:coord >10.51178 52.396408 11181</gx:coord>
<gx:coord >10.446243 52.394577 11181</gx:coord>
<gx:coord >10.380554 52.392746 11174</gx:coord>
<gx:coord >10.314331 52.390961 11174</gx:coord>
<gx:coord >10.248184 52.389084 11181</gx:coord>
<gx:coord >10.181109 52.387049 11181</gx:coord>
<gx:coord >10.114365 52.38501 11181</gx:coord>
<gx:coord >10.047625 52.382999 11189</gx:coord>
<gx:coord >9.98085 52.380981 11189</gx:coord>
<gx:coord >9.914246 52.37883 11189</gx:coord>
<gx:coord >9.848145 52.376575 11197</gx:coord>
<gx:coord >9.782854 52.374387 11197</gx:coord>
<gx:coord >9.717331 52.372147 11197</gx:coord>
<gx:coord >9.651018 52.369778 11189</gx:coord>
<gx:coord >9.585571 52.36745 11181</gx:coord>
<gx:coord >9.519732 52.36503 11181</gx:coord>
<gx:coord >9.454041 52.362671 11174</gx:coord>
<gx:coord >9.387741 52.360291 11181</gx:coord>
<gx:coord >9.321594 52.357819 11181</gx:coord>
<gx:coord >9.255668 52.355347 11181</gx:coord>
<gx:coord >9.18975 52.352879 11181</gx:coord>
<gx:coord >9.123383 52.350403 11189</gx:coord>
<gx:coord >9.056931 52.347885 11204</gx:coord>
<gx:coord >8.990479 52.345276 11203</gx:coord>
<gx:coord >8.924508 52.342638 11211</gx:coord>
<gx:coord >8.858433 52.339891 11211</gx:coord>
<gx:coord >8.794098 52.337128 11203</gx:coord>
<gx:coord >8.728245 52.334259 11196</gx:coord>
<gx:coord >8.662484 52.331419 11188</gx:coord>
<gx:coord >8.59743 52.328626 11188</gx:coord>
<gx:coord >8.532218 52.325879 11188</gx:coord>
<gx:coord >8.466614 52.323086 11188</gx:coord>
<gx:coord >8.401566 52.32019 11203</gx:coord>
<gx:coord >8.335953 52.317261 11188</gx:coord>
<gx:coord >8.270115 52.314195 11196</gx:coord>
<gx:coord >8.205414 52.311127 11188</gx:coord>
<gx:coord >8.141105 52.308003 11196</gx:coord>
<gx:coord >8.076364 52.304884 11196</gx:coord>
<gx:coord >8.010483 52.301788 11203</gx:coord>
<gx:coord >7.944641 52.29863 11211</gx:coord>
<gx:coord >7.880886 52.29562 11218</gx:coord>
<gx:coord >7.816772 52.292362 11218</gx:coord>
<gx:coord >7.752502 52.28901 11226</gx:coord>
<gx:coord >7.688217 52.285583 11218</gx:coord>
<gx:coord >7.624669 52.282167 11211</gx:coord>
<gx:coord >7.561105 52.278815 11203</gx:coord>
<gx:coord >7.496796 52.275467 11196</gx:coord>
<gx:coord >7.432957 52.272111 11196</gx:coord>
<gx:coord >7.368164 52.268738 11203</gx:coord>
<gx:coord >7.30423 52.265305 11211</gx:coord>
<gx:coord >7.240524 52.261917 11226</gx:coord>
<gx:coord >7.176348 52.258378 11226</gx:coord>
<gx:coord >7.112156 52.254747 11234</gx:coord>
<gx:coord >7.04875 52.251163 11234</gx:coord>
<gx:coord >6.985971 52.247578 11234</gx:coord>
<gx:coord >6.922485 52.243901 11226</gx:coord>
<gx:coord >6.86002 52.24027 11226</gx:coord>
<gx:coord >6.796722 52.236511 11218</gx:coord>
<gx:coord >6.73407 52.232728 11218</gx:coord>
<gx:coord >6.672546 52.229004 11211</gx:coord>
<gx:coord >6.610184 52.22525 11203</gx:coord>
<gx:coord >6.549377 52.221588 11211</gx:coord>
<gx:coord >6.48819 52.217834 11211</gx:coord>
<gx:coord >6.426926 52.214035 11211</gx:coord>
<gx:coord >6.365635 52.210243 11212</gx:coord>
<gx:coord >6.304034 52.206426 11212</gx:coord>
<gx:coord >6.242353 52.202516 11219</gx:coord>
<gx:coord >6.181412 52.198563 11227</gx:coord>
<gx:coord >6.120377 52.194626 11227</gx:coord>
<gx:coord >6.05896 52.190598 11235</gx:coord>
<gx:coord >5.996933 52.186523 11235</gx:coord>
<gx:coord >5.935599 52.182452 11235</gx:coord>
<gx:coord >5.874782 52.178355 11242</gx:coord>
<gx:coord >5.812945 52.174165 11250</gx:coord>
<gx:coord >5.752598 52.170115 11242</gx:coord>
<gx:coord >5.691376 52.165924 11242</gx:coord>
<gx:coord >5.629959 52.161758 11235</gx:coord>
<gx:coord >5.568891 52.1575 11235</gx:coord>
<gx:coord >5.50776 52.153263 11235</gx:coord>
<gx:coord >5.446396 52.148941 11235</gx:coord>
<gx:coord >5.385498 52.144698 11235</gx:coord>
<gx:coord >5.322798 52.140368 11242</gx:coord>
<gx:coord >5.261117 52.135993 11242</gx:coord>
<gx:coord >5.199358 52.131477 11242</gx:coord>
<gx:coord >5.13603 52.126775 11257</gx:coord>
<gx:coord >5.073471 52.12207 11257</gx:coord>
<gx:coord >5.010834 52.11731 11257</gx:coord>
<gx:coord >4.948007 52.112577 11265</gx:coord>
<gx:coord >4.885635 52.107925 11265</gx:coord>
<gx:coord >4.822006 52.103165 11273</gx:coord>
<gx:coord >4.759369 52.098358 11273</gx:coord>
<gx:coord >4.696263 52.09349 11273</gx:coord>
<gx:coord >4.632856 52.088556 11265</gx:coord>
<gx:coord >4.569168 52.083618 11273</gx:coord>
<gx:coord >4.507141 52.07878 11265</gx:coord>
<gx:coord >4.443741 52.073776 11265</gx:coord>
<gx:coord >4.380646 52.068787 11265</gx:coord>
<gx:coord >4.323959 52.064209 11265</gx:coord>
<gx:coord >4.261754 52.059181 11265</gx:coord>
<gx:coord >4.199053 52.054107 11265</gx:coord>
<gx:coord >4.136274 52.048986 11256</gx:coord>
<gx:coord >4.07373 52.043819 11256</gx:coord>
<gx:coord >4.011765 52.03862 11249</gx:coord>
<gx:coord >3.949585 52.033401 11256</gx:coord>
<gx:coord >3.88814 52.028224 11256</gx:coord>
<gx:coord >3.826695 52.023057 11256</gx:coord>
<gx:coord >3.820103 52.022545 11249</gx:coord>
<gx:coord >3.804173 52.021195 11234</gx:coord>
<gx:coord >3.787842 52.019806 11180</gx:coord>
<gx:coord >3.766898 52.018029 11119</gx:coord>
<gx:coord >3.753244 52.016865 11058</gx:coord>
<gx:coord >3.745346 52.01619 11028</gx:coord>
<gx:coord >3.723502 52.014258 10898</gx:coord>
<gx:coord >3.702316 52.012436 10784</gx:coord>
<gx:coord >3.692583 52.011558 10738</gx:coord>
<gx:coord >3.68248 52.010696 10685</gx:coord>
<gx:coord >3.668727 52.00951 10616</gx:coord>
<gx:coord >3.653033 52.00816 10555</gx:coord>
<gx:coord >3.62643 52.005926 10472</gx:coord>
<gx:coord >3.612289 52.004745 10411</gx:coord>
<gx:coord >3.602888 52.003924 10373</gx:coord>
<gx:coord >3.590393 52.002869 10296</gx:coord>
<gx:coord >3.570709 52.001175 10159</gx:coord>
<gx:coord >3.553543 51.999619 10053</gx:coord>
<gx:coord >3.541914 51.998617 9969</gx:coord>
<gx:coord >3.536891 51.998151 9938</gx:coord>
<gx:coord >3.533674 51.997872 9908</gx:coord>
<gx:coord >3.523178 51.996918 9870</gx:coord>
<gx:coord >3.520569 51.996615 9854</gx:coord>
<gx:coord >3.5009 51.994263 9793</gx:coord>
<gx:coord >3.48526 51.991791 9740</gx:coord>
<gx:coord >3.46756 51.988266 9679</gx:coord>
<gx:coord >3.452454 51.984651 9626</gx:coord>
<gx:coord >3.44223 51.981812 9588</gx:coord>
<gx:coord >3.421064 51.975294 9527</gx:coord>
<gx:coord >3.385162 51.963867 9435</gx:coord>
<gx:coord >3.356171 51.954666 9344</gx:coord>
<gx:coord >3.333095 51.947316 9245</gx:coord>
<gx:coord >3.304374 51.938192 9115</gx:coord>
<gx:coord >3.286168 51.93242 9054</gx:coord>
<gx:coord >3.252424 51.921666 8940</gx:coord>
<gx:coord >3.217974 51.910819 8841</gx:coord>
<gx:coord >3.207626 51.907562 8818</gx:coord>
<gx:coord >3.196394 51.903976 8810</gx:coord>
<gx:coord >3.167751 51.894852 8795</gx:coord>
<gx:coord >3.124771 51.881259 8780</gx:coord>
<gx:coord >3.114395 51.878 8765</gx:coord>
<gx:coord >3.101425 51.873857 8734</gx:coord>
<gx:coord >3.067703 51.86329 8635</gx:coord>
<gx:coord >3.038559 51.854119 8513</gx:coord>
<gx:coord >3.011398 51.845553 8384</gx:coord>
<gx:coord >2.986984 51.837779 8285</gx:coord>
<gx:coord >2.97388 51.833542 8231</gx:coord>
<gx:coord >2.966086 51.83107 8224</gx:coord>
<gx:coord >2.923328 51.8172 8140</gx:coord>
<gx:coord >2.879715 51.803051 8064</gx:coord>
<gx:coord >2.837143 51.789178 7980</gx:coord>
<gx:coord >2.7948 51.775445 7896</gx:coord>
<gx:coord >2.755935 51.763092 7812</gx:coord>
<gx:coord >2.717854 51.751053 7728</gx:coord>
<gx:coord >2.678289 51.738556 7645</gx:coord>
<gx:coord >2.635234 51.724915 7561</gx:coord>
<gx:coord >2.594147 51.711995 7485</gx:coord>
<gx:coord >2.575477 51.706421 7446</gx:coord>
<gx:coord >2.56485 51.703895 7424</gx:coord>
<gx:coord >2.555313 51.702079 7401</gx:coord>
<gx:coord >2.545265 51.700745 7378</gx:coord>
<gx:coord >2.534866 51.699845 7355</gx:coord>
<gx:coord >2.524777 51.699463 7332</gx:coord>
<gx:coord >2.51358 51.699612 7317</gx:coord>
<gx:coord >2.502062 51.700378 7294</gx:coord>
<gx:coord >2.49063 51.70166 7271</gx:coord>
<gx:coord >2.48098 51.703171 7256</gx:coord>
<gx:coord >2.468872 51.70571 7241</gx:coord>
<gx:coord >2.458954 51.708317 7210</gx:coord>
<gx:coord >2.446685 51.712189 7195</gx:coord>
<gx:coord >2.428721 51.718689 7157</gx:coord>
<gx:coord >2.394562 51.730709 7088</gx:coord>
<gx:coord >2.360611 51.742021 7005</gx:coord>
<gx:coord >2.330141 51.751923 6905</gx:coord>
<gx:coord >2.29978 51.76181 6799</gx:coord>
<gx:coord >2.269821 51.771582 6700</gx:coord>
<gx:coord >2.238159 51.782056 6593</gx:coord>
<gx:coord >2.207718 51.792204 6486</gx:coord>
<gx:coord >2.177594 51.802139 6387</gx:coord>
<gx:coord >2.148347 51.811661 6281</gx:coord>
<gx:coord >2.119293 51.82116 6174</gx:coord>
<gx:coord >2.088219 51.831299 6075</gx:coord>
<gx:coord >2.054666 51.842377 5983</gx:coord>
<gx:coord >2.018515 51.854324 5907</gx:coord>
<gx:coord >1.982513 51.866226 5816</gx:coord>
<gx:coord >1.947479 51.877767 5731</gx:coord>
<gx:coord >1.919935 51.886871 5670</gx:coord>
<gx:coord >1.908951 51.890476 5655</gx:coord>
<gx:coord >1.891924 51.896481 5655</gx:coord>
<gx:coord >1.880075 51.901276 5647</gx:coord>
<gx:coord >1.870346 51.905823 5647</gx:coord>
<gx:coord >1.857553 51.912402 5647</gx:coord>
<gx:coord >1.819992 51.932098 5647</gx:coord>
<gx:coord >1.781006 51.952148 5647</gx:coord>
<gx:coord >1.741867 51.972244 5609</gx:coord>
<gx:coord >1.702194 51.992661 5556</gx:coord>
<gx:coord >1.663487 52.012676 5502</gx:coord>
<gx:coord >1.624956 52.032553 5449</gx:coord>
<gx:coord >1.586456 52.052307 5403</gx:coord>
<gx:coord >1.547817 52.072076 5358</gx:coord>
<gx:coord >1.509476 52.091721 5304</gx:coord>
<gx:coord >1.470598 52.111553 5251</gx:coord>
<gx:coord >1.431832 52.131337 5198</gx:coord>
<gx:coord >1.393585 52.150818 5144</gx:coord>
<gx:coord >1.383022 52.155591 5129</gx:coord>
<gx:coord >1.375017 52.158524 5114</gx:coord>
<gx:coord >1.366959 52.160934 5099</gx:coord>
<gx:coord >1.358773 52.162807 5083</gx:coord>
<gx:coord >1.351242 52.164047 5076</gx:coord>
<gx:coord >1.342529 52.165041 5060</gx:coord>
<gx:coord >1.331151 52.165879 5053</gx:coord>
<gx:coord >1.281241 52.168998 5022</gx:coord>
<gx:coord >1.23502 52.172583 4969</gx:coord>
<gx:coord >1.185346 52.176726 4908</gx:coord>
<gx:coord >1.136143 52.180822 4862</gx:coord>
<gx:coord >1.085606 52.184919 4809</gx:coord>
<gx:coord >1.035233 52.188858 4748</gx:coord>
<gx:coord >0.985641 52.192703 4702</gx:coord>
<gx:coord >0.936349 52.196417 4648</gx:coord>
<gx:coord >0.886612 52.200165 4595</gx:coord>
<gx:coord >0.8381 52.203819 4534</gx:coord>
<gx:coord >0.804443 52.206345 4480</gx:coord>
<gx:coord >0.767787 52.209126 4450</gx:coord>
<gx:coord >0.742597 52.211035 4419</gx:coord>
<gx:coord >0.707245 52.213715 4336</gx:coord>
<gx:coord >0.671539 52.21637 4252</gx:coord>
<gx:coord >0.633754 52.219135 4168</gx:coord>
<gx:coord >0.595694 52.221881 4092</gx:coord>
<gx:coord >0.583688 52.222766 4084</gx:coord>
<gx:coord >0.537872 52.226212 4069</gx:coord>
<gx:coord >0.492325 52.229599 4076</gx:coord>
<gx:coord >0.446516 52.232914 4076</gx:coord>
<gx:coord >0.401472 52.236126 4076</gx:coord>
<gx:coord >0.3862 52.237198 4061</gx:coord>
<gx:coord >0.350113 52.239761 3970</gx:coord>
<gx:coord >0.312483 52.242411 3886</gx:coord>
<gx:coord >0.274811 52.245117 3810</gx:coord>
<gx:coord >0.256374 52.246461 3772</gx:coord>
<gx:coord >0.232925 52.248138 3756</gx:coord>
<gx:coord >0.215607 52.249283 3756</gx:coord>
<gx:coord >0.198539 52.250418 3756</gx:coord>
<gx:coord >0.179626 52.251675 3756</gx:coord>
<gx:coord >0.157623 52.253128 3749</gx:coord>
<gx:coord >0.150199 52.25363 3741</gx:coord>
<gx:coord >0.13317 52.254794 3695</gx:coord>
<gx:coord >0.116425 52.25592 3650</gx:coord>
<gx:coord >0.099258 52.257202 3604</gx:coord>
<gx:coord >0.083339 52.258378 3551</gx:coord>
<gx:coord >0.067368 52.259674 3497</gx:coord>
<gx:coord >0.052109 52.260956 3436</gx:coord>
<gx:coord >0.036647 52.262242 3383</gx:coord>
<gx:coord >0.020294 52.263565 3337</gx:coord>
<gx:coord >0.004959 52.264755 3276</gx:coord>
<gx:coord >-0.01152 52.266037 3223</gx:coord>
<gx:coord >-0.026132 52.267084 3170</gx:coord>
<gx:coord >-0.04097 52.268234 3108</gx:coord>
<gx:coord >-0.056763 52.269516 3054</gx:coord>
<gx:coord >-0.071869 52.270798 3001</gx:coord>
<gx:coord >-0.087357 52.272079 2940</gx:coord>
<gx:coord >-0.102386 52.273315 2887</gx:coord>
<gx:coord >-0.118025 52.274439 2826</gx:coord>
<gx:coord >-0.125558 52.274625 2811</gx:coord>
<gx:coord >-0.132523 52.274323 2795</gx:coord>
<gx:coord >-0.138271 52.273741 2772</gx:coord>
<gx:coord >-0.144424 52.272766 2750</gx:coord>
<gx:coord >-0.150909 52.271255 2734</gx:coord>
<gx:coord >-0.155378 52.269923 2719</gx:coord>
<gx:coord >-0.16095 52.267782 2704</gx:coord>
<gx:coord >-0.165939 52.26535 2681</gx:coord>
<gx:coord >-0.171204 52.262238 2666</gx:coord>
<gx:coord >-0.174332 52.259903 2650</gx:coord>
<gx:coord >-0.177508 52.256982 2635</gx:coord>
<gx:coord >-0.180333 52.253863 2620</gx:coord>
<gx:coord >-0.1828 52.250381 2605</gx:coord>
<gx:coord >-0.184479 52.246948 2590</gx:coord>
<gx:coord >-0.185623 52.243378 2574</gx:coord>
<gx:coord >-0.186234 52.23967 2559</gx:coord>
<gx:coord >-0.186081 52.235687 2544</gx:coord>
<gx:coord >-0.185512 52.232914 2529</gx:coord>
<gx:coord >-0.184555 52.229828 2521</gx:coord>
<gx:coord >-0.182765 52.225838 2513</gx:coord>
<gx:coord >-0.178528 52.217785 2506</gx:coord>
<gx:coord >-0.167007 52.196182 2498</gx:coord>
<gx:coord >-0.155792 52.174393 2498</gx:coord>
<gx:coord >-0.151443 52.166153 2490</gx:coord>
<gx:coord >-0.149493 52.16262 2475</gx:coord>
<gx:coord >-0.14447 52.153124 2430</gx:coord>
<gx:coord >-0.139448 52.143534 2384</gx:coord>
<gx:coord >-0.134739 52.134177 2338</gx:coord>
<gx:coord >-0.13011 52.12468 2285</gx:coord>
<gx:coord >-0.127441 52.118442 2254</gx:coord>
<gx:coord >-0.126343 52.114299 2231</gx:coord>
<gx:coord >-0.125885 52.110123 2209</gx:coord>
<gx:coord >-0.126264 52.106385 2193</gx:coord>
<gx:coord >-0.127206 52.102754 2178</gx:coord>
<gx:coord >-0.128775 52.09917 2155</gx:coord>
<gx:coord >-0.131302 52.095337 2140</gx:coord>
<gx:coord >-0.133013 52.093258 2132</gx:coord>
<gx:coord >-0.136466 52.089859 2117</gx:coord>
<gx:coord >-0.140457 52.086777 2102</gx:coord>
<gx:coord >-0.145255 52.083807 2079</gx:coord>
<gx:coord >-0.149384 52.081696 2071</gx:coord>
<gx:coord >-0.153961 52.079727 2056</gx:coord>
<gx:coord >-0.161656 52.076871 2041</gx:coord>
<gx:coord >-0.171073 52.073659 2018</gx:coord>
<gx:coord >-0.182138 52.069981 1988</gx:coord>
<gx:coord >-0.192496 52.066537 1949</gx:coord>
<gx:coord >-0.203094 52.063019 1919</gx:coord>
<gx:coord >-0.213013 52.059723 1896</gx:coord>
<gx:coord >-0.221863 52.056747 1858</gx:coord>
<gx:coord >-0.233067 52.053036 1828</gx:coord>
<gx:coord >-0.243759 52.049515 1797</gx:coord>
<gx:coord >-0.253549 52.04624 1767</gx:coord>
<gx:coord >-0.263519 52.042923 1736</gx:coord>
<gx:coord >-0.275678 52.038791 1706</gx:coord>
<gx:coord >-0.286508 52.035207 1675</gx:coord>
<gx:coord >-0.29718 52.031669 1645</gx:coord>
<gx:coord >-0.305176 52.028961 1614</gx:coord>
<gx:coord >-0.311203 52.026901 1591</gx:coord>
<gx:coord >-0.318451 52.024384 1584</gx:coord>
<gx:coord >-0.331039 52.020081 1584</gx:coord>
<gx:coord >-0.358311 52.010814 1568</gx:coord>
<gx:coord >-0.389633 52.000214 1568</gx:coord>
<gx:coord >-0.421953 51.989027 1576</gx:coord>
<gx:coord >-0.453186 51.978012 1576</gx:coord>
<gx:coord >-0.457424 51.976551 1576</gx:coord>
<gx:coord >-0.474609 51.970546 1568</gx:coord>
<gx:coord >-0.480652 51.968445 1568</gx:coord>
<gx:coord >-0.488129 51.965836 1568</gx:coord>
<gx:coord >-0.494385 51.963638 1568</gx:coord>
<gx:coord >-0.497995 51.962446 1568</gx:coord>
<gx:coord >-0.503387 51.960571 1568</gx:coord>
<gx:coord >-0.506897 51.959335 1568</gx:coord>
<gx:coord >-0.510941 51.957916 1568</gx:coord>
<gx:coord >-0.514374 51.956726 1568</gx:coord>
<gx:coord >-0.523376 51.953568 1568</gx:coord>
<gx:coord >-0.54924 51.94455 1568</gx:coord>
<gx:coord >-0.575256 51.93544 1568</gx:coord>
<gx:coord >-0.601044 51.926422 1568</gx:coord>
<gx:coord >-0.626984 51.917358 1568</gx:coord>
<gx:coord >-0.652431 51.908399 1568</gx:coord>
<gx:coord >-0.678327 51.899228 1568</gx:coord>
<gx:coord >-0.704164 51.890259 1568</gx:coord>
<gx:coord >-0.717526 51.88559 1568</gx:coord>
<gx:coord >-0.722733 51.8834 1568</gx:coord>
<gx:coord >-0.726547 51.881305 1568</gx:coord>
<gx:coord >-0.728607 51.879955 1568</gx:coord>
<gx:coord >-0.731201 51.877907 1568</gx:coord>
<gx:coord >-0.733185 51.875998 1568</gx:coord>
<gx:coord >-0.735092 51.873484 1568</gx:coord>
<gx:coord >-0.736455 51.870941 1568</gx:coord>
<gx:coord >-0.736975 51.869431 1568</gx:coord>
<gx:coord >-0.737534 51.8672 1568</gx:coord>
<gx:coord >-0.737686 51.864221 1576</gx:coord>
<gx:coord >-0.737457 51.86045 1576</gx:coord>
<gx:coord >-0.736529 51.855331 1576</gx:coord>
<gx:coord >-0.735779 51.851931 1568</gx:coord>
<gx:coord >-0.735119 51.849289 1553</gx:coord>
<gx:coord >-0.734024 51.844762 1523</gx:coord>
<gx:coord >-0.732651 51.839548 1500</gx:coord>
<gx:coord >-0.731482 51.83638 1477</gx:coord>
<gx:coord >-0.730133 51.833869 1462</gx:coord>
<gx:coord >-0.728455 51.831634 1447</gx:coord>
<gx:coord >-0.726434 51.829651 1431</gx:coord>
<gx:coord >-0.724258 51.827817 1416</gx:coord>
<gx:coord >-0.722122 51.826513 1408</gx:coord>
<gx:coord >-0.719986 51.825349 1393</gx:coord>
<gx:coord >-0.717081 51.824203 1386</gx:coord>
<gx:coord >-0.714417 51.823348 1370</gx:coord>
<gx:coord >-0.711288 51.822556 1363</gx:coord>
<gx:coord >-0.708008 51.821951 1347</gx:coord>
<gx:coord >-0.704575 51.821486 1340</gx:coord>
<gx:coord >-0.699636 51.821136 1317</gx:coord>
<gx:coord >-0.69519 51.82102 1302</gx:coord>
<gx:coord >-0.689697 51.82116 1279</gx:coord>
<gx:coord >-0.682602 51.821672 1264</gx:coord>
<gx:coord >-0.676422 51.822324 1233</gx:coord>
<gx:coord >-0.667048 51.823471 1203</gx:coord>
<gx:coord >-0.659551 51.824524 1165</gx:coord>
<gx:coord >-0.651682 51.82576 1134</gx:coord>
<gx:coord >-0.642014 51.827258 1111</gx:coord>
<gx:coord >-0.634079 51.828562 1081</gx:coord>
<gx:coord >-0.626068 51.829912 1050</gx:coord>
<gx:coord >-0.618896 51.831215 1020</gx:coord>
<gx:coord >-0.611343 51.832518 982</gx:coord>
<gx:coord >-0.605011 51.833589 974</gx:coord>
<gx:coord >-0.59007 51.836151 944</gx:coord>
<gx:coord >-0.583572 51.837313 928</gx:coord>
<gx:coord >-0.575001 51.838806 898</gx:coord>
<gx:coord >-0.566711 51.840293 867</gx:coord>
<gx:coord >-0.557556 51.841827 837</gx:coord>
<gx:coord >-0.549545 51.843226 806</gx:coord>
<gx:coord >-0.540854 51.844711 776</gx:coord>
<gx:coord >-0.532913 51.846112 745</gx:coord>
<gx:coord >-0.525055 51.847508 715</gx:coord>
<gx:coord >-0.51712 51.848858 677</gx:coord>
<gx:coord >-0.51027 51.850067 654</gx:coord>
<gx:coord >-0.502701 51.851372 631</gx:coord>
<gx:coord >-0.494756 51.852768 601</gx:coord>
<gx:coord >-0.486368 51.854187 570</gx:coord>
<gx:coord >-0.48378 51.854631 555</gx:coord>
<gx:coord >-0.479538 51.855377 540</gx:coord>
<gx:coord >-0.47798 51.855652 525</gx:coord>
<gx:coord >-0.475753 51.856064 517</gx:coord>
<gx:coord >-0.467661 51.857483 486</gx:coord>
<gx:coord >-0.459793 51.858856 464</gx:coord>
<gx:coord >-0.451813 51.860217 433</gx:coord>
<gx:coord >-0.443536 51.861603 410</gx:coord>
<gx:coord >-0.434851 51.863159 380</gx:coord>
<gx:coord >-0.427205 51.864487 349</gx:coord>
<gx:coord >-0.419485 51.865814 311</gx:coord>
<gx:coord >-0.411606 51.867153 281</gx:coord>
<gx:coord >-0.403376 51.868515 250</gx:coord>
<gx:coord >-0.394592 51.870086 220</gx:coord>
<gx:coord >-0.38681 51.871483 197</gx:coord>
<gx:coord >-0.380096 51.872647 166</gx:coord>
<gx:coord >-0.374146 51.873671 166</gx:coord>
<gx:coord >-0.370407 51.874322 159</gx:coord>
<gx:coord >-0.36871 51.874603 166</gx:coord>
<gx:coord >-0.36871 51.874603 166</gx:coord>
</gx:Track>
</Placemark>
<Placemark ><name >HA-LGM</name>
<Style ><LineStyle ><color >ff1c1ae3</color>
<width >4</width>
</LineStyle>
<IconStyle ><Icon ><href >http://maps.google.com/mapfiles/kml/shapes/airports.png</href>
</Icon>
</IconStyle>
</Style>
<gx:Track ><extrude >0</extrude>
<when >2025-07-13T13:10:21.950Z</when>
<when >2025-07-13T13:10:24.090Z</when>
<when >2025-07-13T13:10:28.220Z</when>
<when >2025-07-13T13:10:32.190Z</when>
<when >2025-07-13T13:10:33.890Z</when>
<when >2025-07-13T13:10:33.890Z</when>
<when >2025-07-13T13:10:35.740Z</when>
<when >2025-07-13T13:10:36.730Z</when>
<when >2025-07-13T13:10:37.880Z</when>
<when >2025-07-13T13:10:41.620Z</when>
<when >2025-07-13T13:10:48.070Z</when>
<when >2025-07-13T13:10:49.620Z</when>
<when >2025-07-13T13:10:50.960Z</when>
<when >2025-07-13T13:10:52.000Z</when>
<when >2025-07-13T13:10:52.890Z</when>
<when >2025-07-13T13:10:53.720Z</when>
<when >2025-07-13T13:10:54.920Z</when>
<when >2025-07-13T13:10:57.390Z</when>
<when >2025-07-13T13:10:59.250Z</when>
<when >2025-07-13T13:11:07.150Z</when>
<when >2025-07-13T13:11:09.580Z</when>
<when >2025-07-13T13:11:12.880Z</when>
<when >2025-07-13T13:11:15.280Z</when>
<when >2025-07-13T13:11:17.300Z</when>
<when >2025-07-13T13:11:18.930Z</when>
<when >2025-07-13T13:11:20.200Z</when>
<when >2025-07-13T13:11:21.260Z</when>
<when >2025-07-13T13:11:24.390Z</when>
<when >2025-07-13T13:11:27.080Z</when>
<when >2025-07-13T13:11:30.430Z</when>
<when >2025-07-13T13:11:36.440Z</when>
<when >2025-07-13T13:11:41.640Z</when>
<when >2025-07-13T13:11:48.180Z</when>
<when >2025-07-13T13:11:51.960Z</when>
<when >2025-07-13T13:11:55.010Z</when>
<when >2025-07-13T13:11:58.940Z</when>
<when >2025-07-13T13:12:04.480Z</when>
<when >2025-07-13T13:12:08.430Z</when>
<when >2025-07-13T13:12:12.860Z</when>
<when >2025-07-13T13:12:19.250Z</when>
<when >2025-07-13T13:12:22.000Z</when>
<when >2025-07-13T13:12:28.320Z</when>
<when >2025-07-13T13:12:30.750Z</when>
<when >2025-07-13T13:12:31.860Z</when>
<when >2025-07-13T13:12:34.120Z</when>
<when >2025-07-13T13:12:37.360Z</when>
<when >2025-07-13T13:12:39.720Z</when>
<when >2025-07-13T13:12:45.820Z</when>
<when >2025-07-13T13:12:54.330Z</when>
<when >2025-07-13T13:13:00.330Z</when>
<when >2025-07-13T13:13:05.040Z</when>
<when >2025-07-13T13:13:09.880Z</when>
<when >2025-07-13T13:13:13.900Z</when>
<when >2025-07-13T13:13:26.670Z</when>
<when >2025-07-13T13:13:31.060Z</when>
<when >2025-07-13T13:13:38.830Z</when>
<when >2025-07-13T13:13:41.440Z</when>
<when >2025-07-13T13:13:48.270Z</when>
<when >2025-07-13T13:13:55.270Z</when>
<when >2025-07-13T13:13:59.810Z</when>
<when >2025-07-13T13:14:05.520Z</when>
<when >2025-07-13T13:14:16.360Z</when>
<when >2025-07-13T13:14:20.050Z</when>
<when >2025-07-13T13:14:35.170Z</when>
<when >2025-07-13T13:14:43.150Z</when>
<when >2025-07-13T13:14:43.750Z</when>
<when >2025-07-13T13:14:59.260Z</when>
<when >2025-07-13T13:15:11.360Z</when>
<when >2025-07-13T13:15:14.740Z</when>
<when >2025-07-13T13:15:33.430Z</when>
<when >2025-07-13T13:15:39.460Z</when>
<when >2025-07-13T13:18:43.320Z</when>
<when >2025-07-13T13:21:22.850Z</when>
<when >2025-07-13T13:21:52.730Z</when>
<when >2025-07-13T13:22:07.880Z</when>
<when >2025-07-13T13:22:28.330Z</when>
<when >2025-07-13T13:22:33.250Z</when>
<when >2025-07-13T13:22:53.600Z</when>
<when >2025-07-13T13:22:58.420Z</when>
<when >2025-07-13T13:23:15.180Z</when>
<when >2025-07-13T13:23:22.810Z</when>
<when >2025-07-13T13:23:45.330Z</when>
<when >2025-07-13T13:23:53.040Z</when>
<when >2025-07-13T13:24:13.360Z</when>
<when >2025-07-13T13:24:58.580Z</when>
<when >2025-07-13T13:25:49.730Z</when>
<when >2025-07-13T13:28:53.860Z</when>
<when >2025-07-13T13:30:03.730Z</when>
<when >2025-07-13T13:30:34.890Z</when>
<when >2025-07-13T13:32:33.080Z</when>
<when >2025-07-13T13:35:14.340Z</when>
<when >2025-07-13T13:35:39.340Z</when>
<when >2025-07-13T13:36:23.940Z</when>
<when >2025-07-13T13:39:29.050Z</when>
<when >2025-07-13T13:41:11.580Z</when>
<when >2025-07-13T13:42:44.030Z</when>
<when >2025-07-13T13:43:09.780Z</when>
<when >2025-07-13T13:45:24.340Z</when>
<when >2025-07-13T13:45:34.270Z</when>
<when >2025-07-13T13:48:09.290Z</when>
<when >2025-07-13T13:50:06.880Z</when>
<when >2025-07-13T13:50:06.880Z</when>
<gx:coord >-0.367641 51.874776 0</gx:coord>
<gx:coord >-0.366306 51.875009 0</gx:coord>
<gx:coord >-0.363588 51.875484 0</gx:coord>
<gx:coord >-0.361919 51.875777 0</gx:coord>
<gx:coord >-0.361361 51.875874 0</gx:coord>
<gx:coord >-0.361214 51.875894 0</gx:coord>
<gx:coord >-0.360737 51.875975 0</gx:coord>
<gx:coord >-0.360527 51.87601 0</gx:coord>
<gx:coord >-0.360222 51.876068 0</gx:coord>
<gx:coord >-0.359802 51.876148 0</gx:coord>
<gx:coord >-0.35932 51.876228 0</gx:coord>
<gx:coord >-0.359171 51.876297 0</gx:coord>
<gx:coord >-0.359134 51.876331 0</gx:coord>
<gx:coord >-0.359097 51.876377 0</gx:coord>
<gx:coord >-0.35906 51.876446 0</gx:coord>
<gx:coord >-0.359041 51.876503 0</gx:coord>
<gx:coord >-0.359058 51.876557 0</gx:coord>
<gx:coord >-0.359153 51.876709 0</gx:coord>
<gx:coord >-0.359208 51.876823 0</gx:coord>
<gx:coord >-0.359402 51.877255 0</gx:coord>
<gx:coord >-0.359497 51.877441 0</gx:coord>
<gx:coord >-0.359592 51.877569 0</gx:coord>
<gx:coord >-0.359821 51.877721 0</gx:coord>
<gx:coord >-0.359969 51.877773 0</gx:coord>
<gx:coord >-0.360184 51.877837 0</gx:coord>
<gx:coord >-0.360336 51.87786 0</gx:coord>
<gx:coord >-0.360489 51.87786 0</gx:coord>
<gx:coord >-0.36087 51.877825 0</gx:coord>
<gx:coord >-0.361137 51.877779 0</gx:coord>
<gx:coord >-0.361491 51.877716 0</gx:coord>
<gx:coord >-0.362072 51.877616 0</gx:coord>
<gx:coord >-0.362753 51.877499 0</gx:coord>
<gx:coord >-0.363421 51.877384 0</gx:coord>
<gx:coord >-0.364108 51.877258 0</gx:coord>
<gx:coord >-0.364497 51.87719 0</gx:coord>
<gx:coord >-0.365124 51.877081 0</gx:coord>
<gx:coord >-0.36581 51.876964 0</gx:coord>
<gx:coord >-0.366372 51.876869 0</gx:coord>
<gx:coord >-0.366993 51.876766 0</gx:coord>
<gx:coord >-0.367912 51.876606 0</gx:coord>
<gx:coord >-0.368357 51.876526 0</gx:coord>
<gx:coord >-0.3689 51.876429 0</gx:coord>
<gx:coord >-0.369044 51.876434 0</gx:coord>
<gx:coord >-0.369118 51.876457 0</gx:coord>
<gx:coord >-0.369263 51.87651 0</gx:coord>
<gx:coord >-0.369415 51.87664 0</gx:coord>
<gx:coord >-0.369473 51.876766 0</gx:coord>
<gx:coord >-0.369601 51.877007 0</gx:coord>
<gx:coord >-0.36993 51.877651 0</gx:coord>
<gx:coord >-0.370159 51.878058 0</gx:coord>
<gx:coord >-0.370325 51.878403 0</gx:coord>
<gx:coord >-0.370473 51.878654 0</gx:coord>
<gx:coord >-0.370579 51.878873 0</gx:coord>
<gx:coord >-0.371382 51.880371 0</gx:coord>
<gx:coord >-0.37159 51.880782 0</gx:coord>
<gx:coord >-0.371958 51.88147 0</gx:coord>
<gx:coord >-0.372124 51.881759 0</gx:coord>
<gx:coord >-0.372329 51.882133 0</gx:coord>
<gx:coord >-0.372772 51.882376 0</gx:coord>
<gx:coord >-0.373135 51.882329 0</gx:coord>
<gx:coord >-0.373517 51.882259 0</gx:coord>
<gx:coord >-0.374165 51.88212 0</gx:coord>
<gx:coord >-0.37424 51.882111 0</gx:coord>
<gx:coord >-0.374432 51.881992 0</gx:coord>
<gx:coord >-0.374413 51.881863 0</gx:coord>
<gx:coord >-0.374317 51.881724 0</gx:coord>
<gx:coord >-0.374222 51.881573 0</gx:coord>
<gx:coord >-0.374184 51.881493 0</gx:coord>
<gx:coord >-0.374166 51.88147 0</gx:coord>
<gx:coord >-0.374148 51.881447 0</gx:coord>
<gx:coord >-0.374146 51.881443 0</gx:coord>
<gx:coord >-0.374146 51.881433 0</gx:coord>
<gx:coord >-0.374146 51.881457 0</gx:coord>
<gx:coord >-0.374165 51.881445 0</gx:coord>
<gx:coord >-0.374165 51.881445 0</gx:coord>
<gx:coord >-0.374146 51.881468 0</gx:coord>
<gx:coord >-0.374146 51.881457 0</gx:coord>
<gx:coord >-0.374146 51.881457 0</gx:coord>
<gx:coord >-0.374148 51.881458 0</gx:coord>
<gx:coord >-0.374146 51.881457 0</gx:coord>
<gx:coord >-0.374148 51.881458 0</gx:coord>
<gx:coord >-0.374148 51.881458 0</gx:coord>
<gx:coord >-0.374146 51.881457 0</gx:coord>
<gx:coord >-0.374148 51.881458 0</gx:coord>
<gx:coord >-0.374165 51.881457 0</gx:coord>
<gx:coord >-0.374165 51.881457 0</gx:coord>
<gx:coord >-0.374165 51.881457 0</gx:coord>
<gx:coord >-0.374185 51.881481 0</gx:coord>
<gx:coord >-0.374185 51.881481 0</gx:coord>
<gx:coord >-0.374148 51.881447 0</gx:coord>
<gx:coord >-0.374148 51.881435 0</gx:coord>
<gx:coord >-0.374146 51.881457 0</gx:coord>
<gx:coord >-0.374165 51.881445 0</gx:coord>
<gx:coord >-0.374146 51.881457 0</gx:coord>
<gx:coord >-0.374166 51.881413 0</gx:coord>
<gx:coord >-0.374146 51.881457 0</gx:coord>
<gx:coord >-0.374148 51.881458 0</gx:coord>
<gx:coord >-0.374166 51.881458 0</gx:coord>
<gx:coord >-0.374166 51.881458 0</gx:coord>
<gx:coord >-0.374165 51.881457 0</gx:coord>
<gx:coord >-0.374148 51.881458 0</gx:coord>
<gx:coord >-0.374148 51.881458 0</gx:coord>
</gx:Track>
</Placemark>
</Folder>
</Folder>
</kml>
