<?xml version="1.0" encoding="UTF-8"?>
<kml xmlns="http://www.opengis.net/kml/2.2" xmlns:gx="http://www.google.com/kml/ext/2.2"><Folder ><Folder ><name >9H-WAQ track</name>
<Placemark ><name >9H-WAQ</name>
<Style ><LineStyle ><color >ff1c1ae3</color>
<width >4</width>
</LineStyle>
<IconStyle ><Icon ><href >http://maps.google.com/mapfiles/kml/shapes/airports.png</href>
</Icon>
</IconStyle>
</Style>
<gx:Track ><extrude >0</extrude>
<when >2025-07-09T04:30:39.870Z</when>
<when >2025-07-09T04:30:39.870Z</when>
<when >2025-07-09T04:30:59.710Z</when>
<when >2025-07-09T04:31:39.890Z</when>
<when >2025-07-09T04:31:49.770Z</when>
<when >2025-07-09T04:32:19.600Z</when>
<when >2025-07-09T04:32:49.990Z</when>
<when >2025-07-09T04:32:54.760Z</when>
<when >2025-07-09T04:33:19.380Z</when>
<when >2025-07-09T04:33:39.060Z</when>
<when >2025-07-09T04:34:29.060Z</when>
<when >2025-07-09T04:34:48.900Z</when>
<when >2025-07-09T04:35:09.500Z</when>
<when >2025-07-09T04:35:39.500Z</when>
<when >2025-07-09T04:35:59.600Z</when>
<when >2025-07-09T04:36:19.630Z</when>
<when >2025-07-09T04:36:40.000Z</when>
<when >2025-07-09T04:36:45.230Z</when>
<when >2025-07-09T04:37:05.210Z</when>
<when >2025-07-09T04:37:43.200Z</when>
<when >2025-07-09T04:37:56.290Z</when>
<when >2025-07-09T04:38:04.420Z</when>
<when >2025-07-09T04:38:09.630Z</when>
<when >2025-07-09T04:38:13.570Z</when>
<when >2025-07-09T04:38:16.160Z</when>
<when >2025-07-09T04:38:19.080Z</when>
<when >2025-07-09T04:38:21.260Z</when>
<when >2025-07-09T04:38:30.830Z</when>
<when >2025-07-09T04:38:39.880Z</when>
<when >2025-07-09T04:38:47.950Z</when>
<when >2025-07-09T04:38:54.340Z</when>
<when >2025-07-09T04:38:59.700Z</when>
<when >2025-07-09T04:39:05.030Z</when>
<when >2025-07-09T04:39:10.220Z</when>
<when >2025-07-09T04:39:15.970Z</when>
<when >2025-07-09T04:39:19.460Z</when>
<when >2025-07-09T04:39:23.490Z</when>
<when >2025-07-09T04:39:29.240Z</when>
<when >2025-07-09T04:39:37.040Z</when>
<when >2025-07-09T04:39:45.040Z</when>
<when >2025-07-09T04:39:52.010Z</when>
<when >2025-07-09T04:39:55.190Z</when>
<when >2025-07-09T04:40:01.680Z</when>
<when >2025-07-09T04:40:06.640Z</when>
<when >2025-07-09T04:40:12.460Z</when>
<when >2025-07-09T04:40:16.240Z</when>
<when >2025-07-09T04:40:20.950Z</when>
<when >2025-07-09T04:40:25.400Z</when>
<when >2025-07-09T04:40:31.990Z</when>
<when >2025-07-09T04:40:36.130Z</when>
<when >2025-07-09T04:40:41.600Z</when>
<when >2025-07-09T04:40:47.810Z</when>
<when >2025-07-09T04:40:49.280Z</when>
<when >2025-07-09T04:40:50.970Z</when>
<when >2025-07-09T04:40:53.050Z</when>
<when >2025-07-09T04:40:55.660Z</when>
<when >2025-07-09T04:40:58.460Z</when>
<when >2025-07-09T04:41:02.490Z</when>
<when >2025-07-09T04:41:07.750Z</when>
<when >2025-07-09T04:41:12.960Z</when>
<when >2025-07-09T04:41:19.190Z</when>
<when >2025-07-09T04:41:25.460Z</when>
<when >2025-07-09T04:41:28.910Z</when>
<when >2025-07-09T04:41:33.770Z</when>
<when >2025-07-09T04:41:37.130Z</when>
<when >2025-07-09T04:41:41.880Z</when>
<when >2025-07-09T04:41:47.030Z</when>
<when >2025-07-09T04:41:51.840Z</when>
<when >2025-07-09T04:41:54.930Z</when>
<when >2025-07-09T04:42:02.920Z</when>
<when >2025-07-09T04:42:07.220Z</when>
<when >2025-07-09T04:42:12.200Z</when>
<when >2025-07-09T04:42:16.550Z</when>
<when >2025-07-09T04:42:22.090Z</when>
<when >2025-07-09T04:42:27.600Z</when>
<when >2025-07-09T04:42:32.490Z</when>
<when >2025-07-09T04:42:36.760Z</when>
<when >2025-07-09T04:42:41.050Z</when>
<when >2025-07-09T04:42:46.700Z</when>
<when >2025-07-09T04:42:50.760Z</when>
<when >2025-07-09T04:42:52.000Z</when>
<when >2025-07-09T04:42:53.190Z</when>
<when >2025-07-09T04:42:54.170Z</when>
<when >2025-07-09T04:42:56.350Z</when>
<when >2025-07-09T04:42:58.590Z</when>
<when >2025-07-09T04:43:01.950Z</when>
<when >2025-07-09T04:43:06.890Z</when>
<when >2025-07-09T04:43:13.960Z</when>
<when >2025-07-09T04:43:19.410Z</when>
<when >2025-07-09T04:43:21.590Z</when>
<when >2025-07-09T04:43:25.780Z</when>
<when >2025-07-09T04:43:28.650Z</when>
<when >2025-07-09T04:43:32.580Z</when>
<when >2025-07-09T04:43:37.960Z</when>
<when >2025-07-09T04:43:54.960Z</when>
<when >2025-07-09T04:43:56.690Z</when>
<when >2025-07-09T04:43:57.170Z</when>
<when >2025-07-09T04:43:58.370Z</when>
<when >2025-07-09T04:43:58.750Z</when>
<when >2025-07-09T04:44:01.920Z</when>
<when >2025-07-09T04:44:03.170Z</when>
<when >2025-07-09T04:44:04.490Z</when>
<when >2025-07-09T04:44:06.030Z</when>
<when >2025-07-09T04:44:07.790Z</when>
<when >2025-07-09T04:44:10.240Z</when>
<when >2025-07-09T04:44:11.050Z</when>
<when >2025-07-09T04:44:11.050Z</when>
<gx:coord >20.962772 52.176487 0</gx:coord>
<gx:coord >20.962772 52.176487 0</gx:coord>
<gx:coord >20.962758 52.176493 0</gx:coord>
<gx:coord >20.962772 52.176487 0</gx:coord>
<gx:coord >20.962758 52.176493 0</gx:coord>
<gx:coord >20.962758 52.176493 0</gx:coord>
<gx:coord >20.962772 52.176487 0</gx:coord>
<gx:coord >20.962777 52.176493 0</gx:coord>
<gx:coord >20.962777 52.176493 0</gx:coord>
<gx:coord >20.962777 52.176493 0</gx:coord>
<gx:coord >20.962772 52.176487 0</gx:coord>
<gx:coord >20.962772 52.176487 0</gx:coord>
<gx:coord >20.962758 52.176493 0</gx:coord>
<gx:coord >20.962772 52.176487 0</gx:coord>
<gx:coord >20.962777 52.176493 0</gx:coord>
<gx:coord >20.962772 52.176487 0</gx:coord>
<gx:coord >20.962772 52.176487 0</gx:coord>
<gx:coord >20.962772 52.176487 0</gx:coord>
<gx:coord >20.962772 52.176487 0</gx:coord>
<gx:coord >20.962639 52.176453 0</gx:coord>
<gx:coord >20.962463 52.176388 0</gx:coord>
<gx:coord >20.962267 52.17633 0</gx:coord>
<gx:coord >20.962086 52.17627 0</gx:coord>
<gx:coord >20.962012 52.176132 0</gx:coord>
<gx:coord >20.962071 52.176027 0</gx:coord>
<gx:coord >20.962219 52.175926 0</gx:coord>
<gx:coord >20.962287 52.175865 0</gx:coord>
<gx:coord >20.96262 52.175503 0</gx:coord>
<gx:coord >20.962954 52.175108 0</gx:coord>
<gx:coord >20.963287 52.174713 0</gx:coord>
<gx:coord >20.963601 52.174352 0</gx:coord>
<gx:coord >20.963915 52.174002 0</gx:coord>
<gx:coord >20.964222 52.17366 0</gx:coord>
<gx:coord >20.964543 52.173281 0</gx:coord>
<gx:coord >20.96489 52.172882 0</gx:coord>
<gx:coord >20.965171 52.172571 0</gx:coord>
<gx:coord >20.965424 52.172276 0</gx:coord>
<gx:coord >20.965779 52.171884 0</gx:coord>
<gx:coord >20.966112 52.1715 0</gx:coord>
<gx:coord >20.966426 52.171139 0</gx:coord>
<gx:coord >20.96674 52.170755 0</gx:coord>
<gx:coord >20.966911 52.17057 0</gx:coord>
<gx:coord >20.96725 52.170174 0</gx:coord>
<gx:coord >20.96756 52.169815 0</gx:coord>
<gx:coord >20.967917 52.169405 0</gx:coord>
<gx:coord >20.968153 52.169138 0</gx:coord>
<gx:coord >20.968475 52.168774 0</gx:coord>
<gx:coord >20.9688 52.168405 0</gx:coord>
<gx:coord >20.969238 52.167904 0</gx:coord>
<gx:coord >20.969486 52.167618 0</gx:coord>
<gx:coord >20.96981 52.167252 0</gx:coord>
<gx:coord >20.970135 52.166885 0</gx:coord>
<gx:coord >20.970213 52.166798 0</gx:coord>
<gx:coord >20.97035 52.166717 0</gx:coord>
<gx:coord >20.970554 52.166634 0</gx:coord>
<gx:coord >20.970821 52.166566 0</gx:coord>
<gx:coord >20.971135 52.166484 0</gx:coord>
<gx:coord >20.971546 52.16637 0</gx:coord>
<gx:coord >20.972116 52.166205 0</gx:coord>
<gx:coord >20.972724 52.166042 0</gx:coord>
<gx:coord >20.973415 52.165844 0</gx:coord>
<gx:coord >20.97414 52.165638 0</gx:coord>
<gx:coord >20.974529 52.16553 0</gx:coord>
<gx:coord >20.975075 52.165375 0</gx:coord>
<gx:coord >20.97549 52.165262 0</gx:coord>
<gx:coord >20.976059 52.165099 0</gx:coord>
<gx:coord >20.976726 52.164913 0</gx:coord>
<gx:coord >20.977364 52.164734 0</gx:coord>
<gx:coord >20.977783 52.164619 0</gx:coord>
<gx:coord >20.978904 52.164296 0</gx:coord>
<gx:coord >20.979512 52.164133 0</gx:coord>
<gx:coord >20.98011 52.163956 0</gx:coord>
<gx:coord >20.980689 52.163796 0</gx:coord>
<gx:coord >20.981336 52.16361 0</gx:coord>
<gx:coord >20.981944 52.163447 0</gx:coord>
<gx:coord >20.982533 52.163272 0</gx:coord>
<gx:coord >20.983024 52.163132 0</gx:coord>
<gx:coord >20.983592 52.162981 0</gx:coord>
<gx:coord >20.98423 52.1628 0</gx:coord>
<gx:coord >20.984593 52.162667 0</gx:coord>
<gx:coord >20.984669 52.162594 0</gx:coord>
<gx:coord >20.984711 52.162527 0</gx:coord>
<gx:coord >20.98473 52.162469 0</gx:coord>
<gx:coord >20.984726 52.162342 0</gx:coord>
<gx:coord >20.98465 52.162193 0</gx:coord>
<gx:coord >20.984495 52.161992 0</gx:coord>
<gx:coord >20.984279 52.161701 0</gx:coord>
<gx:coord >20.984004 52.161329 0</gx:coord>
<gx:coord >20.983715 52.16114 0</gx:coord>
<gx:coord >20.983573 52.161142 0</gx:coord>
<gx:coord >20.983337 52.161189 0</gx:coord>
<gx:coord >20.98318 52.161235 0</gx:coord>
<gx:coord >20.983028 52.161289 0</gx:coord>
<gx:coord >20.982952 52.161312 0</gx:coord>
<gx:coord >20.982876 52.161335 0</gx:coord>
<gx:coord >20.982685 52.161381 0</gx:coord>
<gx:coord >20.982609 52.161404 0</gx:coord>
<gx:coord >20.982437 52.161449 0</gx:coord>
<gx:coord >20.982342 52.161484 0</gx:coord>
<gx:coord >20.981572 52.161701 0</gx:coord>
<gx:coord >20.981121 52.161829 0</gx:coord>
<gx:coord >20.980721 52.161942 0</gx:coord>
<gx:coord >20.979983 52.162155 0</gx:coord>
<gx:coord >20.979061 52.162411 0</gx:coord>
<gx:coord >20.977844 52.16276 0</gx:coord>
<gx:coord >20.977249 52.162926 0</gx:coord>
<gx:coord >20.977249 52.162926 0</gx:coord>
</gx:Track>
</Placemark>
<Placemark ><name >9H-WAQ</name>
<Style ><LineStyle ><color >ff1c1ae3</color>
<width >4</width>
</LineStyle>
<IconStyle ><Icon ><href >http://maps.google.com/mapfiles/kml/shapes/airports.png</href>
</Icon>
</IconStyle>
</Style>
<gx:Track ><altitudeMode >absolute</altitudeMode>
<extrude >1</extrude>
<when >2025-07-09T04:44:12.840Z</when>
<when >2025-07-09T04:44:14.550Z</when>
<when >2025-07-09T04:44:15.600Z</when>
<when >2025-07-09T04:44:17.100Z</when>
<when >2025-07-09T04:44:18.410Z</when>
<when >2025-07-09T04:44:19.410Z</when>
<when >2025-07-09T04:44:20.930Z</when>
<when >2025-07-09T04:44:22.500Z</when>
<when >2025-07-09T04:44:23.630Z</when>
<when >2025-07-09T04:44:24.510Z</when>
<when >2025-07-09T04:44:26.670Z</when>
<when >2025-07-09T04:44:27.990Z</when>
<when >2025-07-09T04:44:29.290Z</when>
<when >2025-07-09T04:44:32.060Z</when>
<when >2025-07-09T04:44:34.630Z</when>
<when >2025-07-09T04:44:37.140Z</when>
<when >2025-07-09T04:44:40.220Z</when>
<when >2025-07-09T04:44:42.880Z</when>
<when >2025-07-09T04:44:45.390Z</when>
<when >2025-07-09T04:44:47.750Z</when>
<when >2025-07-09T04:44:50.330Z</when>
<when >2025-07-09T04:44:52.240Z</when>
<when >2025-07-09T04:44:54.720Z</when>
<when >2025-07-09T04:44:56.680Z</when>
<when >2025-07-09T04:44:59.040Z</when>
<when >2025-07-09T04:45:01.320Z</when>
<when >2025-07-09T04:45:03.840Z</when>
<when >2025-07-09T04:45:05.950Z</when>
<when >2025-07-09T04:45:08.280Z</when>
<when >2025-07-09T04:45:10.540Z</when>
<when >2025-07-09T04:45:13.340Z</when>
<when >2025-07-09T04:45:15.530Z</when>
<when >2025-07-09T04:45:18.070Z</when>
<when >2025-07-09T04:45:21.200Z</when>
<when >2025-07-09T04:45:23.820Z</when>
<when >2025-07-09T04:45:26.430Z</when>
<when >2025-07-09T04:45:28.860Z</when>
<when >2025-07-09T04:45:31.580Z</when>
<when >2025-07-09T04:45:34.340Z</when>
<when >2025-07-09T04:45:36.470Z</when>
<when >2025-07-09T04:45:38.960Z</when>
<when >2025-07-09T04:45:40.990Z</when>
<when >2025-07-09T04:45:43.440Z</when>
<when >2025-07-09T04:45:46.040Z</when>
<when >2025-07-09T04:45:47.880Z</when>
<when >2025-07-09T04:45:50.790Z</when>
<when >2025-07-09T04:45:54.160Z</when>
<when >2025-07-09T04:45:57.730Z</when>
<when >2025-07-09T04:46:01.520Z</when>
<when >2025-07-09T04:46:04.920Z</when>
<when >2025-07-09T04:46:07.890Z</when>
<when >2025-07-09T04:46:11.580Z</when>
<when >2025-07-09T04:46:15.650Z</when>
<when >2025-07-09T04:46:18.390Z</when>
<when >2025-07-09T04:46:22.210Z</when>
<when >2025-07-09T04:46:25.590Z</when>
<when >2025-07-09T04:46:28.610Z</when>
<when >2025-07-09T04:46:30.370Z</when>
<when >2025-07-09T04:46:32.850Z</when>
<when >2025-07-09T04:46:35.900Z</when>
<when >2025-07-09T04:46:38.460Z</when>
<when >2025-07-09T04:46:41.630Z</when>
<when >2025-07-09T04:46:45.120Z</when>
<when >2025-07-09T04:46:47.940Z</when>
<when >2025-07-09T04:46:50.660Z</when>
<when >2025-07-09T04:46:54.030Z</when>
<when >2025-07-09T04:46:56.670Z</when>
<when >2025-07-09T04:46:59.910Z</when>
<when >2025-07-09T04:47:02.600Z</when>
<when >2025-07-09T04:47:05.220Z</when>
<when >2025-07-09T04:47:07.750Z</when>
<when >2025-07-09T04:47:09.930Z</when>
<when >2025-07-09T04:47:12.210Z</when>
<when >2025-07-09T04:47:14.590Z</when>
<when >2025-07-09T04:47:16.900Z</when>
<when >2025-07-09T04:47:19.190Z</when>
<when >2025-07-09T04:47:21.880Z</when>
<when >2025-07-09T04:47:23.870Z</when>
<when >2025-07-09T04:47:26.330Z</when>
<when >2025-07-09T04:47:28.310Z</when>
<when >2025-07-09T04:47:32.430Z</when>
<when >2025-07-09T04:47:36.220Z</when>
<when >2025-07-09T04:47:39.780Z</when>
<when >2025-07-09T04:47:43.850Z</when>
<when >2025-07-09T04:47:47.070Z</when>
<when >2025-07-09T04:47:50.340Z</when>
<when >2025-07-09T04:47:53.920Z</when>
<when >2025-07-09T04:47:57.710Z</when>
<when >2025-07-09T04:48:01.970Z</when>
<when >2025-07-09T04:48:06.170Z</when>
<when >2025-07-09T04:48:10.540Z</when>
<when >2025-07-09T04:48:14.550Z</when>
<when >2025-07-09T04:48:18.580Z</when>
<when >2025-07-09T04:48:22.630Z</when>
<when >2025-07-09T04:48:26.810Z</when>
<when >2025-07-09T04:48:31.090Z</when>
<when >2025-07-09T04:48:35.150Z</when>
<when >2025-07-09T04:48:36.230Z</when>
<when >2025-07-09T04:48:38.430Z</when>
<when >2025-07-09T04:48:47.120Z</when>
<when >2025-07-09T04:48:54.870Z</when>
<when >2025-07-09T04:49:02.090Z</when>
<when >2025-07-09T04:49:07.830Z</when>
<when >2025-07-09T04:49:10.060Z</when>
<when >2025-07-09T04:49:12.460Z</when>
<when >2025-07-09T04:49:16.250Z</when>
<when >2025-07-09T04:49:19.530Z</when>
<when >2025-07-09T04:49:20.490Z</when>
<when >2025-07-09T04:49:23.570Z</when>
<when >2025-07-09T04:49:27.590Z</when>
<when >2025-07-09T04:49:29.310Z</when>
<when >2025-07-09T04:49:33.290Z</when>
<when >2025-07-09T04:49:41.910Z</when>
<when >2025-07-09T04:49:50.660Z</when>
<when >2025-07-09T04:49:59.520Z</when>
<when >2025-07-09T04:50:08.540Z</when>
<when >2025-07-09T04:50:18.350Z</when>
<when >2025-07-09T04:50:28.650Z</when>
<when >2025-07-09T04:50:37.950Z</when>
<when >2025-07-09T04:50:47.900Z</when>
<when >2025-07-09T04:50:58.040Z</when>
<when >2025-07-09T04:51:08.330Z</when>
<when >2025-07-09T04:51:18.430Z</when>
<when >2025-07-09T04:51:28.200Z</when>
<when >2025-07-09T04:51:38.300Z</when>
<when >2025-07-09T04:51:49.120Z</when>
<when >2025-07-09T04:51:59.580Z</when>
<when >2025-07-09T04:52:10.330Z</when>
<when >2025-07-09T04:52:21.810Z</when>
<when >2025-07-09T04:52:33.010Z</when>
<when >2025-07-09T04:52:44.170Z</when>
<when >2025-07-09T04:52:55.760Z</when>
<when >2025-07-09T04:53:07.490Z</when>
<when >2025-07-09T04:53:18.970Z</when>
<when >2025-07-09T04:53:30.700Z</when>
<when >2025-07-09T04:53:41.950Z</when>
<when >2025-07-09T04:53:53.630Z</when>
<when >2025-07-09T04:54:05.280Z</when>
<when >2025-07-09T04:54:17.900Z</when>
<when >2025-07-09T04:54:30.750Z</when>
<when >2025-07-09T04:54:43.220Z</when>
<when >2025-07-09T04:54:55.530Z</when>
<when >2025-07-09T04:55:08.540Z</when>
<when >2025-07-09T04:55:20.490Z</when>
<when >2025-07-09T04:55:32.090Z</when>
<when >2025-07-09T04:55:39.280Z</when>
<when >2025-07-09T04:55:54.040Z</when>
<when >2025-07-09T04:55:59.790Z</when>
<when >2025-07-09T04:56:10.930Z</when>
<when >2025-07-09T04:56:14.670Z</when>
<when >2025-07-09T04:56:16.670Z</when>
<when >2025-07-09T04:56:30.490Z</when>
<when >2025-07-09T04:56:44.550Z</when>
<when >2025-07-09T04:56:58.280Z</when>
<when >2025-07-09T04:57:10.920Z</when>
<when >2025-07-09T04:57:22.130Z</when>
<when >2025-07-09T04:57:39.930Z</when>
<when >2025-07-09T04:57:45.150Z</when>
<when >2025-07-09T04:57:58.650Z</when>
<when >2025-07-09T04:58:13.450Z</when>
<when >2025-07-09T04:58:29.650Z</when>
<when >2025-07-09T04:58:45.880Z</when>
<when >2025-07-09T04:58:57.770Z</when>
<when >2025-07-09T04:59:09.920Z</when>
<when >2025-07-09T04:59:14.720Z</when>
<when >2025-07-09T04:59:29.540Z</when>
<when >2025-07-09T04:59:44.540Z</when>
<when >2025-07-09T05:00:01.450Z</when>
<when >2025-07-09T05:00:17.980Z</when>
<when >2025-07-09T05:00:25.910Z</when>
<when >2025-07-09T05:00:31.340Z</when>
<when >2025-07-09T05:00:43.830Z</when>
<when >2025-07-09T05:00:48.030Z</when>
<when >2025-07-09T05:00:55.530Z</when>
<when >2025-07-09T05:00:59.360Z</when>
<when >2025-07-09T05:01:15.770Z</when>
<when >2025-07-09T05:01:33.960Z</when>
<when >2025-07-09T05:01:38.850Z</when>
<when >2025-07-09T05:01:47.430Z</when>
<when >2025-07-09T05:01:55.110Z</when>
<when >2025-07-09T05:02:09.050Z</when>
<when >2025-07-09T05:02:23.400Z</when>
<when >2025-07-09T05:02:33.580Z</when>
<when >2025-07-09T05:02:46.160Z</when>
<when >2025-07-09T05:02:53.640Z</when>
<when >2025-07-09T05:02:56.700Z</when>
<when >2025-07-09T05:03:15.760Z</when>
<when >2025-07-09T05:03:19.920Z</when>
<when >2025-07-09T05:03:25.940Z</when>
<when >2025-07-09T05:03:32.150Z</when>
<when >2025-07-09T05:03:42.630Z</when>
<when >2025-07-09T05:03:49.120Z</when>
<when >2025-07-09T05:03:54.740Z</when>
<when >2025-07-09T05:04:11.680Z</when>
<when >2025-07-09T05:04:28.680Z</when>
<when >2025-07-09T05:04:34.980Z</when>
<when >2025-07-09T05:04:54.720Z</when>
<when >2025-07-09T05:05:14.500Z</when>
<when >2025-07-09T05:05:33.880Z</when>
<when >2025-07-09T05:05:53.450Z</when>
<when >2025-07-09T05:06:12.950Z</when>
<when >2025-07-09T05:06:32.730Z</when>
<when >2025-07-09T05:06:52.710Z</when>
<when >2025-07-09T05:07:12.630Z</when>
<when >2025-07-09T05:07:32.600Z</when>
<when >2025-07-09T05:07:52.030Z</when>
<when >2025-07-09T05:08:12.010Z</when>
<when >2025-07-09T05:08:31.640Z</when>
<when >2025-07-09T05:08:51.180Z</when>
<when >2025-07-09T05:09:10.880Z</when>
<when >2025-07-09T05:09:30.430Z</when>
<when >2025-07-09T05:09:50.230Z</when>
<when >2025-07-09T05:10:10.010Z</when>
<when >2025-07-09T05:10:29.960Z</when>
<when >2025-07-09T05:10:49.840Z</when>
<when >2025-07-09T05:11:09.650Z</when>
<when >2025-07-09T05:11:29.560Z</when>
<when >2025-07-09T05:11:49.280Z</when>
<when >2025-07-09T05:12:08.770Z</when>
<when >2025-07-09T05:12:28.480Z</when>
<when >2025-07-09T05:12:48.240Z</when>
<when >2025-07-09T05:13:07.860Z</when>
<when >2025-07-09T05:13:27.480Z</when>
<when >2025-07-09T05:13:47.310Z</when>
<when >2025-07-09T05:14:07.150Z</when>
<when >2025-07-09T05:14:26.740Z</when>
<when >2025-07-09T05:14:46.620Z</when>
<when >2025-07-09T05:15:06.570Z</when>
<when >2025-07-09T05:15:26.190Z</when>
<when >2025-07-09T05:15:45.800Z</when>
<when >2025-07-09T05:16:05.430Z</when>
<when >2025-07-09T05:16:25.130Z</when>
<when >2025-07-09T05:16:45.090Z</when>
<when >2025-07-09T05:17:04.740Z</when>
<when >2025-07-09T05:17:24.580Z</when>
<when >2025-07-09T05:17:44.390Z</when>
<when >2025-07-09T05:18:03.900Z</when>
<when >2025-07-09T05:18:23.530Z</when>
<when >2025-07-09T05:18:43.370Z</when>
<when >2025-07-09T05:19:03.120Z</when>
<when >2025-07-09T05:19:22.870Z</when>
<when >2025-07-09T05:19:42.410Z</when>
<when >2025-07-09T05:20:01.820Z</when>
<when >2025-07-09T05:20:21.490Z</when>
<when >2025-07-09T05:20:41.400Z</when>
<when >2025-07-09T05:21:01.370Z</when>
<when >2025-07-09T05:21:21.310Z</when>
<when >2025-07-09T05:21:41.170Z</when>
<when >2025-07-09T05:22:00.900Z</when>
<when >2025-07-09T05:22:20.550Z</when>
<when >2025-07-09T05:22:40.090Z</when>
<when >2025-07-09T05:22:59.690Z</when>
<when >2025-07-09T05:23:19.340Z</when>
<when >2025-07-09T05:23:39.150Z</when>
<when >2025-07-09T05:23:58.810Z</when>
<when >2025-07-09T05:24:18.370Z</when>
<when >2025-07-09T05:24:38.280Z</when>
<when >2025-07-09T05:24:58.170Z</when>
<when >2025-07-09T05:25:18.060Z</when>
<when >2025-07-09T05:25:37.610Z</when>
<when >2025-07-09T05:25:57.530Z</when>
<when >2025-07-09T05:26:17.160Z</when>
<when >2025-07-09T05:26:36.800Z</when>
<when >2025-07-09T05:26:56.680Z</when>
<when >2025-07-09T05:27:16.500Z</when>
<when >2025-07-09T05:27:36.400Z</when>
<when >2025-07-09T05:27:56.270Z</when>
<when >2025-07-09T05:28:15.870Z</when>
<when >2025-07-09T05:28:35.720Z</when>
<when >2025-07-09T05:28:55.640Z</when>
<when >2025-07-09T05:29:15.110Z</when>
<when >2025-07-09T05:29:35.010Z</when>
<when >2025-07-09T05:29:54.600Z</when>
<when >2025-07-09T05:30:14.490Z</when>
<when >2025-07-09T05:30:34.270Z</when>
<when >2025-07-09T05:30:54.180Z</when>
<when >2025-07-09T05:31:14.020Z</when>
<when >2025-07-09T05:31:33.750Z</when>
<when >2025-07-09T05:31:53.690Z</when>
<when >2025-07-09T05:32:13.380Z</when>
<when >2025-07-09T05:32:33.140Z</when>
<when >2025-07-09T05:32:52.840Z</when>
<when >2025-07-09T05:33:12.440Z</when>
<when >2025-07-09T05:33:21.500Z</when>
<when >2025-07-09T05:33:30.740Z</when>
<when >2025-07-09T05:33:40.020Z</when>
<when >2025-07-09T05:33:50.330Z</when>
<when >2025-07-09T05:33:58.920Z</when>
<when >2025-07-09T05:34:08.150Z</when>
<when >2025-07-09T05:34:18.110Z</when>
<when >2025-07-09T05:34:28.230Z</when>
<when >2025-07-09T05:34:37.540Z</when>
<when >2025-07-09T05:34:48.170Z</when>
<when >2025-07-09T05:35:07.760Z</when>
<when >2025-07-09T05:35:27.530Z</when>
<when >2025-07-09T05:35:47.480Z</when>
<when >2025-07-09T05:36:07.400Z</when>
<when >2025-07-09T05:36:27.100Z</when>
<when >2025-07-09T05:36:47.030Z</when>
<when >2025-07-09T05:37:06.870Z</when>
<when >2025-07-09T05:37:26.710Z</when>
<when >2025-07-09T05:37:46.380Z</when>
<when >2025-07-09T05:38:06.100Z</when>
<when >2025-07-09T05:38:25.900Z</when>
<when >2025-07-09T05:38:45.750Z</when>
<when >2025-07-09T05:39:05.360Z</when>
<when >2025-07-09T05:39:20.820Z</when>
<when >2025-07-09T05:39:26.550Z</when>
<when >2025-07-09T05:39:31.630Z</when>
<when >2025-07-09T05:39:37.790Z</when>
<when >2025-07-09T05:39:43.110Z</when>
<when >2025-07-09T05:40:02.670Z</when>
<when >2025-07-09T05:40:22.220Z</when>
<when >2025-07-09T05:40:42.200Z</when>
<when >2025-07-09T05:41:02.000Z</when>
<when >2025-07-09T05:41:21.690Z</when>
<when >2025-07-09T05:41:41.410Z</when>
<when >2025-07-09T05:42:01.170Z</when>
<when >2025-07-09T05:42:21.010Z</when>
<when >2025-07-09T05:42:40.940Z</when>
<when >2025-07-09T05:43:00.650Z</when>
<when >2025-07-09T05:43:20.540Z</when>
<when >2025-07-09T05:43:40.120Z</when>
<when >2025-07-09T05:43:59.910Z</when>
<when >2025-07-09T05:44:19.820Z</when>
<when >2025-07-09T05:44:39.380Z</when>
<when >2025-07-09T05:44:59.320Z</when>
<when >2025-07-09T05:45:18.950Z</when>
<when >2025-07-09T05:45:38.740Z</when>
<when >2025-07-09T05:45:58.600Z</when>
<when >2025-07-09T05:46:18.240Z</when>
<when >2025-07-09T05:46:37.930Z</when>
<when >2025-07-09T05:46:57.750Z</when>
<when >2025-07-09T05:47:17.400Z</when>
<when >2025-07-09T05:47:37.390Z</when>
<when >2025-07-09T05:47:57.120Z</when>
<when >2025-07-09T05:48:16.900Z</when>
<when >2025-07-09T05:48:36.760Z</when>
<when >2025-07-09T05:48:56.620Z</when>
<when >2025-07-09T05:49:16.150Z</when>
<when >2025-07-09T05:49:35.640Z</when>
<when >2025-07-09T05:49:55.580Z</when>
<when >2025-07-09T05:50:07.450Z</when>
<when >2025-07-09T05:50:13.290Z</when>
<when >2025-07-09T05:50:19.940Z</when>
<when >2025-07-09T05:50:31.740Z</when>
<when >2025-07-09T05:50:39.210Z</when>
<when >2025-07-09T05:50:48.010Z</when>
<when >2025-07-09T05:50:54.240Z</when>
<when >2025-07-09T05:50:59.000Z</when>
<when >2025-07-09T05:51:05.060Z</when>
<when >2025-07-09T05:51:07.980Z</when>
<when >2025-07-09T05:51:09.430Z</when>
<when >2025-07-09T05:51:11.410Z</when>
<when >2025-07-09T05:51:15.450Z</when>
<when >2025-07-09T05:51:20.540Z</when>
<when >2025-07-09T05:51:26.650Z</when>
<when >2025-07-09T05:51:32.790Z</when>
<when >2025-07-09T05:51:38.860Z</when>
<when >2025-07-09T05:51:58.440Z</when>
<when >2025-07-09T05:52:18.000Z</when>
<when >2025-07-09T05:52:37.780Z</when>
<when >2025-07-09T05:52:55.620Z</when>
<when >2025-07-09T05:53:04.850Z</when>
<when >2025-07-09T05:53:21.720Z</when>
<when >2025-07-09T05:53:41.180Z</when>
<when >2025-07-09T05:54:01.120Z</when>
<when >2025-07-09T05:54:20.780Z</when>
<when >2025-07-09T05:54:40.690Z</when>
<when >2025-07-09T05:54:51.720Z</when>
<when >2025-07-09T05:55:00.990Z</when>
<when >2025-07-09T05:55:10.280Z</when>
<when >2025-07-09T05:55:20.270Z</when>
<when >2025-07-09T05:55:29.220Z</when>
<when >2025-07-09T05:55:39.290Z</when>
<when >2025-07-09T05:55:43.940Z</when>
<when >2025-07-09T05:55:48.340Z</when>
<when >2025-07-09T05:55:58.920Z</when>
<when >2025-07-09T05:56:08.860Z</when>
<when >2025-07-09T05:56:18.470Z</when>
<when >2025-07-09T05:56:28.880Z</when>
<when >2025-07-09T05:56:38.950Z</when>
<when >2025-07-09T05:56:53.870Z</when>
<when >2025-07-09T05:57:05.240Z</when>
<when >2025-07-09T05:57:11.510Z</when>
<when >2025-07-09T05:57:17.740Z</when>
<when >2025-07-09T05:57:23.720Z</when>
<when >2025-07-09T05:57:29.100Z</when>
<when >2025-07-09T05:57:42.640Z</when>
<when >2025-07-09T05:57:55.290Z</when>
<when >2025-07-09T05:58:00.210Z</when>
<when >2025-07-09T05:58:03.150Z</when>
<when >2025-07-09T05:58:12.220Z</when>
<when >2025-07-09T05:58:22.070Z</when>
<when >2025-07-09T05:58:31.270Z</when>
<when >2025-07-09T05:58:36.480Z</when>
<when >2025-07-09T05:58:47.830Z</when>
<when >2025-07-09T05:58:59.060Z</when>
<when >2025-07-09T05:59:10.500Z</when>
<when >2025-07-09T05:59:23.300Z</when>
<when >2025-07-09T05:59:35.880Z</when>
<when >2025-07-09T05:59:46.910Z</when>
<when >2025-07-09T05:59:58.150Z</when>
<when >2025-07-09T06:00:10.460Z</when>
<when >2025-07-09T06:00:21.900Z</when>
<when >2025-07-09T06:00:33.300Z</when>
<when >2025-07-09T06:00:45.060Z</when>
<when >2025-07-09T06:00:56.900Z</when>
<when >2025-07-09T06:01:07.910Z</when>
<when >2025-07-09T06:01:18.890Z</when>
<when >2025-07-09T06:01:30.630Z</when>
<when >2025-07-09T06:01:42.520Z</when>
<when >2025-07-09T06:01:54.290Z</when>
<when >2025-07-09T06:02:05.890Z</when>
<when >2025-07-09T06:02:17.570Z</when>
<when >2025-07-09T06:02:29.170Z</when>
<when >2025-07-09T06:02:40.220Z</when>
<when >2025-07-09T06:02:48.920Z</when>
<when >2025-07-09T06:02:55.080Z</when>
<when >2025-07-09T06:03:03.700Z</when>
<when >2025-07-09T06:03:20.960Z</when>
<when >2025-07-09T06:03:35.520Z</when>
<when >2025-07-09T06:03:50.730Z</when>
<when >2025-07-09T06:04:06.670Z</when>
<when >2025-07-09T06:04:14.120Z</when>
<when >2025-07-09T06:04:30.460Z</when>
<when >2025-07-09T06:04:50.430Z</when>
<when >2025-07-09T06:05:10.040Z</when>
<when >2025-07-09T06:05:29.840Z</when>
<when >2025-07-09T06:05:44.970Z</when>
<when >2025-07-09T06:05:52.490Z</when>
<when >2025-07-09T06:06:08.860Z</when>
<when >2025-07-09T06:06:24.920Z</when>
<when >2025-07-09T06:06:29.700Z</when>
<when >2025-07-09T06:06:33.720Z</when>
<when >2025-07-09T06:06:38.160Z</when>
<when >2025-07-09T06:06:41.810Z</when>
<when >2025-07-09T06:06:48.370Z</when>
<when >2025-07-09T06:07:03.010Z</when>
<when >2025-07-09T06:07:15.820Z</when>
<when >2025-07-09T06:07:28.130Z</when>
<when >2025-07-09T06:07:40.890Z</when>
<when >2025-07-09T06:07:51.440Z</when>
<when >2025-07-09T06:07:56.520Z</when>
<when >2025-07-09T06:08:00.690Z</when>
<when >2025-07-09T06:08:04.720Z</when>
<when >2025-07-09T06:08:09.010Z</when>
<when >2025-07-09T06:08:15.690Z</when>
<when >2025-07-09T06:08:27.610Z</when>
<when >2025-07-09T06:08:39.960Z</when>
<when >2025-07-09T06:08:53.930Z</when>
<when >2025-07-09T06:09:07.290Z</when>
<when >2025-07-09T06:09:21.020Z</when>
<when >2025-07-09T06:09:32.170Z</when>
<when >2025-07-09T06:09:37.860Z</when>
<when >2025-07-09T06:09:48.880Z</when>
<when >2025-07-09T06:09:58.140Z</when>
<when >2025-07-09T06:10:08.030Z</when>
<when >2025-07-09T06:10:16.440Z</when>
<when >2025-07-09T06:10:20.320Z</when>
<when >2025-07-09T06:10:25.090Z</when>
<when >2025-07-09T06:10:29.010Z</when>
<when >2025-07-09T06:10:33.200Z</when>
<when >2025-07-09T06:10:37.050Z</when>
<when >2025-07-09T06:10:40.780Z</when>
<when >2025-07-09T06:10:43.100Z</when>
<when >2025-07-09T06:10:43.890Z</when>
<when >2025-07-09T06:10:45.290Z</when>
<when >2025-07-09T06:10:48.830Z</when>
<when >2025-07-09T06:10:57.630Z</when>
<when >2025-07-09T06:11:06.290Z</when>
<when >2025-07-09T06:11:15.070Z</when>
<when >2025-07-09T06:11:26.890Z</when>
<when >2025-07-09T06:11:35.990Z</when>
<when >2025-07-09T06:11:44.600Z</when>
<when >2025-07-09T06:11:51.190Z</when>
<when >2025-07-09T06:11:59.680Z</when>
<when >2025-07-09T06:12:06.220Z</when>
<when >2025-07-09T06:12:11.820Z</when>
<when >2025-07-09T06:12:15.770Z</when>
<when >2025-07-09T06:12:23.690Z</when>
<when >2025-07-09T06:12:30.530Z</when>
<when >2025-07-09T06:12:34.760Z</when>
<when >2025-07-09T06:12:37.590Z</when>
<when >2025-07-09T06:12:40.680Z</when>
<when >2025-07-09T06:12:43.780Z</when>
<when >2025-07-09T06:12:46.810Z</when>
<when >2025-07-09T06:12:49.910Z</when>
<when >2025-07-09T06:12:52.560Z</when>
<when >2025-07-09T06:12:55.380Z</when>
<when >2025-07-09T06:12:58.500Z</when>
<when >2025-07-09T06:13:01.710Z</when>
<when >2025-07-09T06:13:04.760Z</when>
<when >2025-07-09T06:13:07.900Z</when>
<when >2025-07-09T06:13:10.900Z</when>
<when >2025-07-09T06:13:13.900Z</when>
<when >2025-07-09T06:13:16.820Z</when>
<when >2025-07-09T06:13:20.770Z</when>
<when >2025-07-09T06:13:28.430Z</when>
<when >2025-07-09T06:13:35.110Z</when>
<when >2025-07-09T06:13:40.680Z</when>
<when >2025-07-09T06:13:43.550Z</when>
<when >2025-07-09T06:13:46.230Z</when>
<when >2025-07-09T06:13:49.090Z</when>
<when >2025-07-09T06:13:51.570Z</when>
<when >2025-07-09T06:13:54.410Z</when>
<when >2025-07-09T06:13:56.330Z</when>
<when >2025-07-09T06:14:01.980Z</when>
<when >2025-07-09T06:14:04.570Z</when>
<when >2025-07-09T06:14:07.470Z</when>
<when >2025-07-09T06:14:10.070Z</when>
<when >2025-07-09T06:14:12.150Z</when>
<when >2025-07-09T06:14:14.730Z</when>
<when >2025-07-09T06:14:17.370Z</when>
<when >2025-07-09T06:14:19.800Z</when>
<when >2025-07-09T06:14:22.090Z</when>
<when >2025-07-09T06:14:24.460Z</when>
<when >2025-07-09T06:14:26.930Z</when>
<when >2025-07-09T06:14:29.270Z</when>
<when >2025-07-09T06:14:32.170Z</when>
<when >2025-07-09T06:14:34.630Z</when>
<when >2025-07-09T06:14:37.270Z</when>
<when >2025-07-09T06:14:39.370Z</when>
<when >2025-07-09T06:14:42.300Z</when>
<when >2025-07-09T06:14:44.520Z</when>
<when >2025-07-09T06:14:48.460Z</when>
<when >2025-07-09T06:14:54.670Z</when>
<when >2025-07-09T06:14:58.220Z</when>
<when >2025-07-09T06:15:01.780Z</when>
<when >2025-07-09T06:15:05.470Z</when>
<when >2025-07-09T06:15:09.230Z</when>
<when >2025-07-09T06:15:12.780Z</when>
<when >2025-07-09T06:15:16.230Z</when>
<when >2025-07-09T06:15:19.400Z</when>
<when >2025-07-09T06:15:22.890Z</when>
<when >2025-07-09T06:15:26.990Z</when>
<when >2025-07-09T06:15:30.510Z</when>
<when >2025-07-09T06:15:33.570Z</when>
<when >2025-07-09T06:15:36.560Z</when>
<when >2025-07-09T06:15:39.500Z</when>
<when >2025-07-09T06:15:42.650Z</when>
<when >2025-07-09T06:15:45.250Z</when>
<when >2025-07-09T06:15:48.630Z</when>
<when >2025-07-09T06:15:51.310Z</when>
<when >2025-07-09T06:15:54.230Z</when>
<when >2025-07-09T06:15:57.030Z</when>
<when >2025-07-09T06:15:59.550Z</when>
<when >2025-07-09T06:16:03.200Z</when>
<when >2025-07-09T06:16:06.120Z</when>
<when >2025-07-09T06:16:08.050Z</when>
<when >2025-07-09T06:16:09.970Z</when>
<when >2025-07-09T06:16:11.720Z</when>
<when >2025-07-09T06:16:13.930Z</when>
<when >2025-07-09T06:16:15.850Z</when>
<when >2025-07-09T06:16:18.040Z</when>
<when >2025-07-09T06:16:20.160Z</when>
<when >2025-07-09T06:16:23.480Z</when>
<when >2025-07-09T06:16:26.750Z</when>
<when >2025-07-09T06:16:30.740Z</when>
<when >2025-07-09T06:16:34.820Z</when>
<when >2025-07-09T06:16:37.660Z</when>
<when >2025-07-09T06:16:41.780Z</when>
<when >2025-07-09T06:16:46.350Z</when>
<when >2025-07-09T06:16:57.830Z</when>
<when >2025-07-09T06:17:04.410Z</when>
<when >2025-07-09T06:17:11.330Z</when>
<when >2025-07-09T06:17:18.510Z</when>
<when >2025-07-09T06:17:26.070Z</when>
<when >2025-07-09T06:17:32.590Z</when>
<when >2025-07-09T06:17:40.710Z</when>
<when >2025-07-09T06:17:47.920Z</when>
<when >2025-07-09T06:17:54.580Z</when>
<when >2025-07-09T06:18:02.070Z</when>
<when >2025-07-09T06:18:09.350Z</when>
<when >2025-07-09T06:18:18.070Z</when>
<when >2025-07-09T06:18:23.590Z</when>
<when >2025-07-09T06:18:29.510Z</when>
<when >2025-07-09T06:18:36.300Z</when>
<when >2025-07-09T06:18:43.090Z</when>
<when >2025-07-09T06:18:51.260Z</when>
<when >2025-07-09T06:18:59.770Z</when>
<when >2025-07-09T06:19:08.230Z</when>
<when >2025-07-09T06:19:15.300Z</when>
<when >2025-07-09T06:19:22.970Z</when>
<when >2025-07-09T06:19:29.920Z</when>
<when >2025-07-09T06:19:38.070Z</when>
<when >2025-07-09T06:19:45.240Z</when>
<when >2025-07-09T06:19:54.990Z</when>
<when >2025-07-09T06:20:03.740Z</when>
<when >2025-07-09T06:20:11.260Z</when>
<when >2025-07-09T06:20:12.220Z</when>
<when >2025-07-09T06:20:12.220Z</when>
<gx:coord >20.976257 52.163177 113</gx:coord>
<gx:coord >20.974862 52.163598 113</gx:coord>
<gx:coord >20.974121 52.163818 113</gx:coord>
<gx:coord >20.9729 52.164157 113</gx:coord>
<gx:coord >20.971603 52.164505 113</gx:coord>
<gx:coord >20.970764 52.164734 113</gx:coord>
<gx:coord >20.969369 52.165134 113</gx:coord>
<gx:coord >20.967957 52.165507 105</gx:coord>
<gx:coord >20.966936 52.165833 105</gx:coord>
<gx:coord >20.965958 52.166107 113</gx:coord>
<gx:coord >20.963669 52.166748 120</gx:coord>
<gx:coord >20.962296 52.167114 128</gx:coord>
<gx:coord >20.961208 52.167415 128</gx:coord>
<gx:coord >20.958023 52.168304 159</gx:coord>
<gx:coord >20.955276 52.169083 189</gx:coord>
<gx:coord >20.952454 52.169861 219</gx:coord>
<gx:coord >20.949173 52.170731 258</gx:coord>
<gx:coord >20.946376 52.171512 288</gx:coord>
<gx:coord >20.94363 52.172303 319</gx:coord>
<gx:coord >20.940962 52.173095 341</gx:coord>
<gx:coord >20.938137 52.173886 379</gx:coord>
<gx:coord >20.93605 52.174484 410</gx:coord>
<gx:coord >20.93335 52.175283 433</gx:coord>
<gx:coord >20.931244 52.175903 456</gx:coord>
<gx:coord >20.928574 52.176682 501</gx:coord>
<gx:coord >20.926208 52.177331 540</gx:coord>
<gx:coord >20.923383 52.178169 562</gx:coord>
<gx:coord >20.920951 52.178867 600</gx:coord>
<gx:coord >20.918283 52.179612 631</gx:coord>
<gx:coord >20.91585 52.18031 654</gx:coord>
<gx:coord >20.912789 52.181148 692</gx:coord>
<gx:coord >20.9102 52.181893 722</gx:coord>
<gx:coord >20.907218 52.182638 753</gx:coord>
<gx:coord >20.90353 52.183476 783</gx:coord>
<gx:coord >20.900345 52.18396 814</gx:coord>
<gx:coord >20.896938 52.184314 844</gx:coord>
<gx:coord >20.893485 52.184453 882</gx:coord>
<gx:coord >20.889954 52.184407 905</gx:coord>
<gx:coord >20.88603 52.184221 936</gx:coord>
<gx:coord >20.883283 52.184081 966</gx:coord>
<gx:coord >20.879669 52.183823 1004</gx:coord>
<gx:coord >20.876927 52.183569 1027</gx:coord>
<gx:coord >20.873795 52.183273 1065</gx:coord>
<gx:coord >20.870178 52.182778 1096</gx:coord>
<gx:coord >20.867615 52.182404 1111</gx:coord>
<gx:coord >20.863647 52.181808 1141</gx:coord>
<gx:coord >20.85907 52.180984 1180</gx:coord>
<gx:coord >20.853958 52.180069 1218</gx:coord>
<gx:coord >20.84877 52.179108 1241</gx:coord>
<gx:coord >20.843658 52.178192 1271</gx:coord>
<gx:coord >20.83926 52.177424 1294</gx:coord>
<gx:coord >20.83374 52.176407 1324</gx:coord>
<gx:coord >20.827484 52.175354 1355</gx:coord>
<gx:coord >20.823015 52.174584 1378</gx:coord>
<gx:coord >20.817032 52.173569 1408</gx:coord>
<gx:coord >20.81131 52.172562 1431</gx:coord>
<gx:coord >20.806301 52.171745 1454</gx:coord>
<gx:coord >20.803397 52.171279 1462</gx:coord>
<gx:coord >20.799026 52.170502 1477</gx:coord>
<gx:coord >20.79361 52.169632 1492</gx:coord>
<gx:coord >20.789108 52.1689 1515</gx:coord>
<gx:coord >20.783465 52.167927 1545</gx:coord>
<gx:coord >20.77703 52.166857 1576</gx:coord>
<gx:coord >20.771561 52.16597 1599</gx:coord>
<gx:coord >20.766373 52.1651 1629</gx:coord>
<gx:coord >20.76008 52.164017 1652</gx:coord>
<gx:coord >20.754929 52.163132 1675</gx:coord>
<gx:coord >20.748465 52.162015 1713</gx:coord>
<gx:coord >20.74295 52.161072 1743</gx:coord>
<gx:coord >20.737686 52.160156 1774</gx:coord>
<gx:coord >20.732535 52.159269 1797</gx:coord>
<gx:coord >20.728062 52.158477 1827</gx:coord>
<gx:coord >20.723746 52.157686 1858</gx:coord>
<gx:coord >20.718802 52.156755 1896</gx:coord>
<gx:coord >20.714172 52.155777 1934</gx:coord>
<gx:coord >20.709307 52.15466 1964</gx:coord>
<gx:coord >20.703964 52.15329 1987</gx:coord>
<gx:coord >20.699997 52.152191 2018</gx:coord>
<gx:coord >20.69526 52.15075 2056</gx:coord>
<gx:coord >20.691101 52.1494 2086</gx:coord>
<gx:coord >20.683175 52.146746 2147</gx:coord>
<gx:coord >20.675799 52.144232 2208</gx:coord>
<gx:coord >20.668869 52.141846 2277</gx:coord>
<gx:coord >20.661011 52.139099 2330</gx:coord>
<gx:coord >20.655003 52.137017 2391</gx:coord>
<gx:coord >20.648499 52.13475 2445</gx:coord>
<gx:coord >20.641479 52.13237 2521</gx:coord>
<gx:coord >20.634003 52.129807 2574</gx:coord>
<gx:coord >20.625811 52.127008 2627</gx:coord>
<gx:coord >20.617447 52.12413 2704</gx:coord>
<gx:coord >20.608826 52.121201 2757</gx:coord>
<gx:coord >20.600891 52.118546 2826</gx:coord>
<gx:coord >20.592804 52.115799 2886</gx:coord>
<gx:coord >20.584769 52.113089 2940</gx:coord>
<gx:coord >20.576451 52.110296 3008</gx:coord>
<gx:coord >20.56778 52.10733 3077</gx:coord>
<gx:coord >20.559464 52.104538 3123</gx:coord>
<gx:coord >20.557382 52.103825 3138</gx:coord>
<gx:coord >20.552909 52.102335 3161</gx:coord>
<gx:coord >20.53486 52.096283 3214</gx:coord>
<gx:coord >20.518188 52.090622 3260</gx:coord>
<gx:coord >20.502529 52.085344 3321</gx:coord>
<gx:coord >20.489426 52.080872 3367</gx:coord>
<gx:coord >20.484467 52.079178 3397</gx:coord>
<gx:coord >20.479126 52.077347 3420</gx:coord>
<gx:coord >20.470581 52.074463 3481</gx:coord>
<gx:coord >20.463181 52.071945 3542</gx:coord>
<gx:coord >20.460892 52.071167 3565</gx:coord>
<gx:coord >20.454407 52.068924 3618</gx:coord>
<gx:coord >20.445243 52.065792 3709</gx:coord>
<gx:coord >20.441437 52.064484 3748</gx:coord>
<gx:coord >20.432687 52.061556 3808</gx:coord>
<gx:coord >20.413666 52.055054 3930</gx:coord>
<gx:coord >20.394135 52.048416 4060</gx:coord>
<gx:coord >20.374381 52.041631 4182</gx:coord>
<gx:coord >20.354156 52.034729 4311</gx:coord>
<gx:coord >20.332031 52.027176 4433</gx:coord>
<gx:coord >20.30862 52.019146 4563</gx:coord>
<gx:coord >20.287354 52.011838 4677</gx:coord>
<gx:coord >20.264518 52.004017 4814</gx:coord>
<gx:coord >20.241132 51.995963 4936</gx:coord>
<gx:coord >20.217276 51.987724 5066</gx:coord>
<gx:coord >20.19371 51.979568 5187</gx:coord>
<gx:coord >20.170746 51.971603 5316</gx:coord>
<gx:coord >20.147121 51.963423 5446</gx:coord>
<gx:coord >20.121536 51.954575 5568</gx:coord>
<gx:coord >20.096819 51.946013 5690</gx:coord>
<gx:coord >20.071394 51.937261 5812</gx:coord>
<gx:coord >20.043793 51.927704 5918</gx:coord>
<gx:coord >20.016541 51.918314 6048</gx:coord>
<gx:coord >19.989389 51.908864 6154</gx:coord>
<gx:coord >19.961014 51.899002 6269</gx:coord>
<gx:coord >19.932404 51.889079 6383</gx:coord>
<gx:coord >19.903663 51.879089 6497</gx:coord>
<gx:coord >19.87449 51.868881 6596</gx:coord>
<gx:coord >19.846649 51.859146 6718</gx:coord>
<gx:coord >19.817257 51.848877 6833</gx:coord>
<gx:coord >19.787565 51.838531 6939</gx:coord>
<gx:coord >19.755571 51.827316 7038</gx:coord>
<gx:coord >19.722686 51.815735 7137</gx:coord>
<gx:coord >19.690857 51.804587 7252</gx:coord>
<gx:coord >19.658698 51.793259 7358</gx:coord>
<gx:coord >19.624786 51.781311 7465</gx:coord>
<gx:coord >19.593671 51.770416 7572</gx:coord>
<gx:coord >19.563828 51.759944 7677</gx:coord>
<gx:coord >19.5449 51.753296 7746</gx:coord>
<gx:coord >19.5063 51.739609 7822</gx:coord>
<gx:coord >19.490934 51.734207 7883</gx:coord>
<gx:coord >19.461909 51.723953 8013</gx:coord>
<gx:coord >19.452333 51.720566 8058</gx:coord>
<gx:coord >19.447098 51.718698 8066</gx:coord>
<gx:coord >19.410986 51.705872 8165</gx:coord>
<gx:coord >19.374167 51.69278 8257</gx:coord>
<gx:coord >19.337719 51.679779 8348</gx:coord>
<gx:coord >19.304352 51.667863 8455</gx:coord>
<gx:coord >19.274902 51.657342 8531</gx:coord>
<gx:coord >19.227262 51.64032 8599</gx:coord>
<gx:coord >19.213333 51.635323 8630</gx:coord>
<gx:coord >19.176784 51.622192 8720</gx:coord>
<gx:coord >19.136922 51.607819 8804</gx:coord>
<gx:coord >19.091949 51.591611 8880</gx:coord>
<gx:coord >19.047089 51.575457 8957</gx:coord>
<gx:coord >19.013519 51.563353 9025</gx:coord>
<gx:coord >18.979476 51.551147 9132</gx:coord>
<gx:coord >18.965965 51.546295 9170</gx:coord>
<gx:coord >18.923876 51.531281 9254</gx:coord>
<gx:coord >18.881836 51.516103 9337</gx:coord>
<gx:coord >18.833466 51.498506 9420</gx:coord>
<gx:coord >18.786101 51.481293 9489</gx:coord>
<gx:coord >18.763164 51.47287 9535</gx:coord>
<gx:coord >18.747427 51.467148 9580</gx:coord>
<gx:coord >18.711424 51.45401 9626</gx:coord>
<gx:coord >18.699112 51.449487 9672</gx:coord>
<gx:coord >18.677352 51.441513 9733</gx:coord>
<gx:coord >18.666229 51.43743 9763</gx:coord>
<gx:coord >18.618546 51.419973 9839</gx:coord>
<gx:coord >18.565445 51.400514 9915</gx:coord>
<gx:coord >18.550935 51.395187 9938</gx:coord>
<gx:coord >18.525848 51.385989 10014</gx:coord>
<gx:coord >18.503494 51.377796 10090</gx:coord>
<gx:coord >18.46283 51.362853 10174</gx:coord>
<gx:coord >18.421251 51.347534 10265</gx:coord>
<gx:coord >18.391724 51.336644 10325</gx:coord>
<gx:coord >18.355103 51.323097 10424</gx:coord>
<gx:coord >18.333584 51.315125 10478</gx:coord>
<gx:coord >18.324432 51.311692 10493</gx:coord>
<gx:coord >18.269196 51.291209 10554</gx:coord>
<gx:coord >18.256976 51.286652 10584</gx:coord>
<gx:coord >18.23968 51.280243 10630</gx:coord>
<gx:coord >18.22179 51.273651 10714</gx:coord>
<gx:coord >18.191986 51.262486 10836</gx:coord>
<gx:coord >18.173676 51.255643 10904</gx:coord>
<gx:coord >18.157877 51.24971 10935</gx:coord>
<gx:coord >18.110071 51.231812 11018</gx:coord>
<gx:coord >18.062134 51.213839 11094</gx:coord>
<gx:coord >18.04451 51.207229 11117</gx:coord>
<gx:coord >17.988925 51.186493 11124</gx:coord>
<gx:coord >17.933731 51.165797 11124</gx:coord>
<gx:coord >17.88002 51.145454 11124</gx:coord>
<gx:coord >17.825317 51.124741 11124</gx:coord>
<gx:coord >17.770844 51.104116 11124</gx:coord>
<gx:coord >17.715083 51.082993 11124</gx:coord>
<gx:coord >17.659302 51.0618 11123</gx:coord>
<gx:coord >17.603809 51.040695 11123</gx:coord>
<gx:coord >17.547989 51.019344 11116</gx:coord>
<gx:coord >17.493872 50.998535 11116</gx:coord>
<gx:coord >17.438569 50.977295 11108</gx:coord>
<gx:coord >17.383804 50.956359 11116</gx:coord>
<gx:coord >17.329254 50.93541 11108</gx:coord>
<gx:coord >17.274628 50.914322 11115</gx:coord>
<gx:coord >17.220179 50.89325 11122</gx:coord>
<gx:coord >17.165298 50.87196 11130</gx:coord>
<gx:coord >17.110214 50.850639 11130</gx:coord>
<gx:coord >17.054938 50.829208 11138</gx:coord>
<gx:coord >17.000198 50.807857 11138</gx:coord>
<gx:coord >16.945648 50.786443 11129</gx:coord>
<gx:coord >16.89096 50.765121 11129</gx:coord>
<gx:coord >16.836929 50.744081 11129</gx:coord>
<gx:coord >16.783769 50.723099 11121</gx:coord>
<gx:coord >16.730194 50.701997 11121</gx:coord>
<gx:coord >16.67643 50.68071 11121</gx:coord>
<gx:coord >16.623326 50.659744 11113</gx:coord>
<gx:coord >16.570057 50.638641 11113</gx:coord>
<gx:coord >16.51646 50.617365 11113</gx:coord>
<gx:coord >16.462938 50.596091 11113</gx:coord>
<gx:coord >16.410033 50.575012 11113</gx:coord>
<gx:coord >16.35633 50.553497 11113</gx:coord>
<gx:coord >16.302523 50.531942 11113</gx:coord>
<gx:coord >16.249373 50.510575 11113</gx:coord>
<gx:coord >16.196377 50.489227 11113</gx:coord>
<gx:coord >16.143253 50.467804 11112</gx:coord>
<gx:coord >16.08955 50.446152 11119</gx:coord>
<gx:coord >16.035413 50.424316 11119</gx:coord>
<gx:coord >15.98199 50.402667 11127</gx:coord>
<gx:coord >15.927935 50.380737 11127</gx:coord>
<gx:coord >15.874131 50.358768 11127</gx:coord>
<gx:coord >15.82118 50.337112 11127</gx:coord>
<gx:coord >15.767766 50.315323 11119</gx:coord>
<gx:coord >15.713629 50.293121 11127</gx:coord>
<gx:coord >15.659854 50.271011 11127</gx:coord>
<gx:coord >15.606079 50.248947 11127</gx:coord>
<gx:coord >15.552521 50.226929 11127</gx:coord>
<gx:coord >15.499757 50.205139 11127</gx:coord>
<gx:coord >15.446416 50.182983 11127</gx:coord>
<gx:coord >15.392207 50.160507 11127</gx:coord>
<gx:coord >15.338143 50.138123 11127</gx:coord>
<gx:coord >15.284295 50.115692 11119</gx:coord>
<gx:coord >15.230614 50.093187 11119</gx:coord>
<gx:coord >15.177251 50.070786 11119</gx:coord>
<gx:coord >15.124199 50.048538 11118</gx:coord>
<gx:coord >15.071508 50.026474 11111</gx:coord>
<gx:coord >15.018311 50.004133 11111</gx:coord>
<gx:coord >14.965403 49.98175 11111</gx:coord>
<gx:coord >14.911917 49.959137 11111</gx:coord>
<gx:coord >14.85886 49.936818 11111</gx:coord>
<gx:coord >14.80574 49.914322 11118</gx:coord>
<gx:coord >14.752181 49.891708 11126</gx:coord>
<gx:coord >14.698594 49.868945 11126</gx:coord>
<gx:coord >14.64485 49.845948 11126</gx:coord>
<gx:coord >14.592229 49.823318 11118</gx:coord>
<gx:coord >14.538549 49.800374 11117</gx:coord>
<gx:coord >14.486124 49.777771 11133</gx:coord>
<gx:coord >14.43365 49.755157 11133</gx:coord>
<gx:coord >14.37999 49.732082 11133</gx:coord>
<gx:coord >14.326967 49.709381 11117</gx:coord>
<gx:coord >14.273913 49.686507 11125</gx:coord>
<gx:coord >14.220985 49.66337 11117</gx:coord>
<gx:coord >14.168652 49.64042 11117</gx:coord>
<gx:coord >14.115873 49.617423 11117</gx:coord>
<gx:coord >14.062572 49.594254 11110</gx:coord>
<gx:coord >14.010243 49.571503 11117</gx:coord>
<gx:coord >13.95719 49.54834 11117</gx:coord>
<gx:coord >13.904534 49.525296 11116</gx:coord>
<gx:coord >13.851236 49.501974 11124</gx:coord>
<gx:coord >13.797863 49.478465 11124</gx:coord>
<gx:coord >13.744416 49.454816 11132</gx:coord>
<gx:coord >13.691205 49.431381 11139</gx:coord>
<gx:coord >13.637977 49.407898 11139</gx:coord>
<gx:coord >13.584667 49.384336 11147</gx:coord>
<gx:coord >13.532551 49.361023 11147</gx:coord>
<gx:coord >13.48008 49.337551 11132</gx:coord>
<gx:coord >13.428462 49.314331 11132</gx:coord>
<gx:coord >13.377517 49.291278 11132</gx:coord>
<gx:coord >13.354304 49.280045 11132</gx:coord>
<gx:coord >13.331135 49.267914 11132</gx:coord>
<gx:coord >13.308563 49.2552 11132</gx:coord>
<gx:coord >13.284639 49.24063 11132</gx:coord>
<gx:coord >13.265005 49.227859 11132</gx:coord>
<gx:coord >13.244597 49.213676 11132</gx:coord>
<gx:coord >13.223347 49.197895 11132</gx:coord>
<gx:coord >13.202748 49.181508 11132</gx:coord>
<gx:coord >13.184368 49.165741 11132</gx:coord>
<gx:coord >13.16444 49.147385 11139</gx:coord>
<gx:coord >13.12824 49.113373 11139</gx:coord>
<gx:coord >13.091196 49.078995 11139</gx:coord>
<gx:coord >13.053709 49.044319 11132</gx:coord>
<gx:coord >13.016545 49.009689 11132</gx:coord>
<gx:coord >12.979768 48.975282 11132</gx:coord>
<gx:coord >12.942528 48.940292 11133</gx:coord>
<gx:coord >12.905611 48.905593 11133</gx:coord>
<gx:coord >12.868532 48.870632 11133</gx:coord>
<gx:coord >12.831679 48.835968 11140</gx:coord>
<gx:coord >12.794847 48.80127 11140</gx:coord>
<gx:coord >12.757801 48.766402 11140</gx:coord>
<gx:coord >12.720867 48.731441 11140</gx:coord>
<gx:coord >12.684138 48.696533 11148</gx:coord>
<gx:coord >12.655744 48.669154 11156</gx:coord>
<gx:coord >12.646038 48.658676 11149</gx:coord>
<gx:coord >12.638036 48.648997 11149</gx:coord>
<gx:coord >12.629488 48.636932 11149</gx:coord>
<gx:coord >12.623009 48.626175 11156</gx:coord>
<gx:coord >12.600332 48.586121 11149</gx:coord>
<gx:coord >12.576881 48.54657 11149</gx:coord>
<gx:coord >12.552747 48.506594 11156</gx:coord>
<gx:coord >12.528534 48.466605 11141</gx:coord>
<gx:coord >12.50461 48.426896 11141</gx:coord>
<gx:coord >12.481032 48.387177 11141</gx:coord>
<gx:coord >12.457629 48.347665 11149</gx:coord>
<gx:coord >12.434059 48.307617 11149</gx:coord>
<gx:coord >12.410575 48.267688 11141</gx:coord>
<gx:coord >12.387446 48.228072 11149</gx:coord>
<gx:coord >12.363845 48.188141 11141</gx:coord>
<gx:coord >12.340604 48.14898 11141</gx:coord>
<gx:coord >12.317223 48.109271 11149</gx:coord>
<gx:coord >12.29377 48.069305 11141</gx:coord>
<gx:coord >12.270836 48.029938 11141</gx:coord>
<gx:coord >12.24749 47.989792 11149</gx:coord>
<gx:coord >12.224403 47.950202 11149</gx:coord>
<gx:coord >12.201073 47.91037 11156</gx:coord>
<gx:coord >12.177795 47.87027 11164</gx:coord>
<gx:coord >12.154893 47.830562 11163</gx:coord>
<gx:coord >12.131794 47.79076 11163</gx:coord>
<gx:coord >12.108483 47.750911 11171</gx:coord>
<gx:coord >12.085524 47.711389 11163</gx:coord>
<gx:coord >12.062096 47.670868 11163</gx:coord>
<gx:coord >12.039185 47.630946 11163</gx:coord>
<gx:coord >12.015944 47.590632 11154</gx:coord>
<gx:coord >11.992744 47.55043 11154</gx:coord>
<gx:coord >11.969604 47.510056 11154</gx:coord>
<gx:coord >11.946787 47.470248 11170</gx:coord>
<gx:coord >11.924286 47.430405 11170</gx:coord>
<gx:coord >11.901222 47.389759 11176</gx:coord>
<gx:coord >11.887344 47.365402 11176</gx:coord>
<gx:coord >11.880657 47.353681 11153</gx:coord>
<gx:coord >11.873062 47.340317 11131</gx:coord>
<gx:coord >11.859467 47.316376 11031</gx:coord>
<gx:coord >11.850883 47.301361 10955</gx:coord>
<gx:coord >11.840858 47.283691 10841</gx:coord>
<gx:coord >11.833786 47.271286 10765</gx:coord>
<gx:coord >11.828156 47.26149 10681</gx:coord>
<gx:coord >11.82122 47.249359 10551</gx:coord>
<gx:coord >11.817909 47.243539 10506</gx:coord>
<gx:coord >11.816071 47.240295 10468</gx:coord>
<gx:coord >11.813805 47.236267 10437</gx:coord>
<gx:coord >11.809135 47.227982 10384</gx:coord>
<gx:coord >11.803299 47.21759 10338</gx:coord>
<gx:coord >11.796227 47.205048 10284</gx:coord>
<gx:coord >11.789105 47.192331 10253</gx:coord>
<gx:coord >11.781944 47.179642 10230</gx:coord>
<gx:coord >11.75854 47.138424 10223</gx:coord>
<gx:coord >11.735527 47.09761 10223</gx:coord>
<gx:coord >11.712524 47.056458 10223</gx:coord>
<gx:coord >11.691636 47.019622 10230</gx:coord>
<gx:coord >11.67984 47.000702 10230</gx:coord>
<gx:coord >11.656906 46.96701 10230</gx:coord>
<gx:coord >11.630155 46.927495 10230</gx:coord>
<gx:coord >11.603323 46.88746 10230</gx:coord>
<gx:coord >11.576642 46.847672 10237</gx:coord>
<gx:coord >11.549721 46.807437 10237</gx:coord>
<gx:coord >11.534372 46.785507 10237</gx:coord>
<gx:coord >11.520401 46.767169 10237</gx:coord>
<gx:coord >11.505834 46.749481 10237</gx:coord>
<gx:coord >11.489221 46.73085 10237</gx:coord>
<gx:coord >11.473612 46.714645 10237</gx:coord>
<gx:coord >11.45517 46.696829 10237</gx:coord>
<gx:coord >11.446816 46.689148 10229</gx:coord>
<gx:coord >11.438347 46.681606 10214</gx:coord>
<gx:coord >11.418022 46.664243 10168</gx:coord>
<gx:coord >11.398382 46.64859 10107</gx:coord>
<gx:coord >11.379021 46.634123 10054</gx:coord>
<gx:coord >11.357452 46.619019 10001</gx:coord>
<gx:coord >11.336243 46.605121 9955</gx:coord>
<gx:coord >11.304463 46.585281 9864</gx:coord>
<gx:coord >11.280075 46.569928 9787</gx:coord>
<gx:coord >11.266823 46.561828 9734</gx:coord>
<gx:coord >11.253365 46.554146 9666</gx:coord>
<gx:coord >11.239684 46.547195 9597</gx:coord>
<gx:coord >11.227272 46.541484 9551</gx:coord>
<gx:coord >11.196098 46.528031 9445</gx:coord>
<gx:coord >11.167534 46.515694 9338</gx:coord>
<gx:coord >11.156616 46.510899 9292</gx:coord>
<gx:coord >11.150024 46.508013 9269</gx:coord>
<gx:coord >11.129562 46.499029 9140</gx:coord>
<gx:coord >11.107446 46.489243 9025</gx:coord>
<gx:coord >11.08699 46.480222 8896</gx:coord>
<gx:coord >11.075023 46.47496 8835</gx:coord>
<gx:coord >11.049968 46.463837 8721</gx:coord>
<gx:coord >11.024643 46.452616 8606</gx:coord>
<gx:coord >10.999512 46.441443 8500</gx:coord>
<gx:coord >10.970987 46.428818 8393</gx:coord>
<gx:coord >10.943893 46.416771 8302</gx:coord>
<gx:coord >10.920008 46.406158 8187</gx:coord>
<gx:coord >10.895825 46.395401 8065</gx:coord>
<gx:coord >10.869667 46.383765 7974</gx:coord>
<gx:coord >10.845315 46.372833 7867</gx:coord>
<gx:coord >10.821131 46.36203 7745</gx:coord>
<gx:coord >10.796539 46.351039 7639</gx:coord>
<gx:coord >10.771425 46.339874 7524</gx:coord>
<gx:coord >10.748648 46.329712 7402</gx:coord>
<gx:coord >10.726227 46.319756 7288</gx:coord>
<gx:coord >10.701822 46.308792 7181</gx:coord>
<gx:coord >10.67775 46.297923 7067</gx:coord>
<gx:coord >10.65406 46.287216 6953</gx:coord>
<gx:coord >10.630783 46.276742 6838</gx:coord>
<gx:coord >10.607635 46.266266 6732</gx:coord>
<gx:coord >10.584572 46.25584 6610</gx:coord>
<gx:coord >10.563221 46.246078 6488</gx:coord>
<gx:coord >10.545982 46.238243 6397</gx:coord>
<gx:coord >10.534013 46.232849 6351</gx:coord>
<gx:coord >10.517418 46.225348 6305</gx:coord>
<gx:coord >10.483978 46.210265 6237</gx:coord>
<gx:coord >10.455482 46.19737 6145</gx:coord>
<gx:coord >10.426092 46.184097 6061</gx:coord>
<gx:coord >10.395126 46.17009 5977</gx:coord>
<gx:coord >10.380913 46.16362 5947</gx:coord>
<gx:coord >10.349054 46.14917 5939</gx:coord>
<gx:coord >10.310532 46.131638 5932</gx:coord>
<gx:coord >10.272887 46.114334 5932</gx:coord>
<gx:coord >10.235171 46.097076 5932</gx:coord>
<gx:coord >10.206634 46.084076 5924</gx:coord>
<gx:coord >10.19236 46.077545 5894</gx:coord>
<gx:coord >10.161215 46.063385 5818</gx:coord>
<gx:coord >10.130836 46.049474 5735</gx:coord>
<gx:coord >10.122253 46.045098 5712</gx:coord>
<gx:coord >10.11526 46.040909 5689</gx:coord>
<gx:coord >10.108383 46.036067 5658</gx:coord>
<gx:coord >10.102684 46.031458 5620</gx:coord>
<gx:coord >10.093414 46.022985 5575</gx:coord>
<gx:coord >10.073502 46.003992 5483</gx:coord>
<gx:coord >10.056108 45.987534 5384</gx:coord>
<gx:coord >10.039101 45.971778 5270</gx:coord>
<gx:coord >10.021523 45.955764 5178</gx:coord>
<gx:coord >10.007272 45.942673 5088</gx:coord>
<gx:coord >10.000841 45.935944 5050</gx:coord>
<gx:coord >9.996254 45.930346 5012</gx:coord>
<gx:coord >9.992333 45.924637 4981</gx:coord>
<gx:coord >9.98877 45.918289 4943</gx:coord>
<gx:coord >9.983894 45.908374 4882</gx:coord>
<gx:coord >9.975586 45.890396 4775</gx:coord>
<gx:coord >9.966866 45.871923 4669</gx:coord>
<gx:coord >9.956841 45.851394 4571</gx:coord>
<gx:coord >9.946981 45.831894 4479</gx:coord>
<gx:coord >9.937 45.812119 4380</gx:coord>
<gx:coord >9.929028 45.796463 4312</gx:coord>
<gx:coord >9.924942 45.788361 4243</gx:coord>
<gx:coord >9.917439 45.773438 4129</gx:coord>
<gx:coord >9.910973 45.76071 3993</gx:coord>
<gx:coord >9.904175 45.747208 3878</gx:coord>
<gx:coord >9.898544 45.735944 3772</gx:coord>
<gx:coord >9.895866 45.730637 3718</gx:coord>
<gx:coord >9.892586 45.724274 3642</gx:coord>
<gx:coord >9.889839 45.718872 3589</gx:coord>
<gx:coord >9.887025 45.713333 3513</gx:coord>
<gx:coord >9.884262 45.707966 3459</gx:coord>
<gx:coord >9.881653 45.703032 3406</gx:coord>
<gx:coord >9.880211 45.700239 3383</gx:coord>
<gx:coord >9.879523 45.698822 3360</gx:coord>
<gx:coord >9.878518 45.696899 3353</gx:coord>
<gx:coord >9.876022 45.692046 3322</gx:coord>
<gx:coord >9.869876 45.680099 3277</gx:coord>
<gx:coord >9.863981 45.668472 3224</gx:coord>
<gx:coord >9.858101 45.656806 3178</gx:coord>
<gx:coord >9.850382 45.641327 3140</gx:coord>
<gx:coord >9.844688 45.6297 3102</gx:coord>
<gx:coord >9.83953 45.619125 3073</gx:coord>
<gx:coord >9.83551 45.610998 3050</gx:coord>
<gx:coord >9.830352 45.60054 3019</gx:coord>
<gx:coord >9.826584 45.592796 3004</gx:coord>
<gx:coord >9.823318 45.586121 2989</gx:coord>
<gx:coord >9.821022 45.581577 2966</gx:coord>
<gx:coord >9.816559 45.572499 2920</gx:coord>
<gx:coord >9.812868 45.56456 2874</gx:coord>
<gx:coord >9.811394 45.559662 2836</gx:coord>
<gx:coord >9.810791 45.556183 2806</gx:coord>
<gx:coord >9.810722 45.552529 2775</gx:coord>
<gx:coord >9.81126 45.548813 2737</gx:coord>
<gx:coord >9.812295 45.545242 2707</gx:coord>
<gx:coord >9.813873 45.541775 2677</gx:coord>
<gx:coord >9.815748 45.538796 2647</gx:coord>
<gx:coord >9.818026 45.535956 2616</gx:coord>
<gx:coord >9.82132 45.532745 2594</gx:coord>
<gx:coord >9.824658 45.53009 2571</gx:coord>
<gx:coord >9.828409 45.52767 2540</gx:coord>
<gx:coord >9.832894 45.525375 2510</gx:coord>
<gx:coord >9.837276 45.52359 2487</gx:coord>
<gx:coord >9.841657 45.522171 2472</gx:coord>
<gx:coord >9.84643 45.521059 2449</gx:coord>
<gx:coord >9.85266 45.519942 2426</gx:coord>
<gx:coord >9.864986 45.51808 2357</gx:coord>
<gx:coord >9.875503 45.516404 2296</gx:coord>
<gx:coord >9.884413 45.514868 2243</gx:coord>
<gx:coord >9.888767 45.514123 2205</gx:coord>
<gx:coord >9.893322 45.513285 2174</gx:coord>
<gx:coord >9.897878 45.512447 2152</gx:coord>
<gx:coord >9.90183 45.511702 2113</gx:coord>
<gx:coord >9.906452 45.510771 2098</gx:coord>
<gx:coord >9.909603 45.510178 2075</gx:coord>
<gx:coord >9.918627 45.508621 2045</gx:coord>
<gx:coord >9.922682 45.508163 2030</gx:coord>
<gx:coord >9.92742 45.508025 2014</gx:coord>
<gx:coord >9.931641 45.508209 1999</gx:coord>
<gx:coord >9.934923 45.508583 1984</gx:coord>
<gx:coord >9.93901 45.509328 1969</gx:coord>
<gx:coord >9.942823 45.510361 1946</gx:coord>
<gx:coord >9.946224 45.511642 1946</gx:coord>
<gx:coord >9.949232 45.513016 1923</gx:coord>
<gx:coord >9.952109 45.514664 1915</gx:coord>
<gx:coord >9.954819 45.51659 1908</gx:coord>
<gx:coord >9.95703 45.518638 1885</gx:coord>
<gx:coord >9.95924 45.521106 1885</gx:coord>
<gx:coord >9.960807 45.523453 1861</gx:coord>
<gx:coord >9.961987 45.52604 1853</gx:coord>
<gx:coord >9.962724 45.528275 1846</gx:coord>
<gx:coord >9.963161 45.531006 1831</gx:coord>
<gx:coord >9.963292 45.53334 1823</gx:coord>
<gx:coord >9.962965 45.53746 1808</gx:coord>
<gx:coord >9.962255 45.543404 1792</gx:coord>
<gx:coord >9.961784 45.546849 1770</gx:coord>
<gx:coord >9.961451 45.550186 1739</gx:coord>
<gx:coord >9.961049 45.553619 1709</gx:coord>
<gx:coord >9.960714 45.557419 1678</gx:coord>
<gx:coord >9.960411 45.560722 1648</gx:coord>
<gx:coord >9.960111 45.564056 1625</gx:coord>
<gx:coord >9.95993 45.567053 1587</gx:coord>
<gx:coord >9.959642 45.570602 1564</gx:coord>
<gx:coord >9.959441 45.574448 1526</gx:coord>
<gx:coord >9.95924 45.577744 1495</gx:coord>
<gx:coord >9.959106 45.580536 1465</gx:coord>
<gx:coord >9.959038 45.583486 1434</gx:coord>
<gx:coord >9.958905 45.586258 1404</gx:coord>
<gx:coord >9.958838 45.589096 1373</gx:coord>
<gx:coord >9.958771 45.591476 1335</gx:coord>
<gx:coord >9.958638 45.594772 1312</gx:coord>
<gx:coord >9.958557 45.597172 1282</gx:coord>
<gx:coord >9.95842 45.599826 1243</gx:coord>
<gx:coord >9.958351 45.602386 1212</gx:coord>
<gx:coord >9.958236 45.604706 1189</gx:coord>
<gx:coord >9.957901 45.608093 1151</gx:coord>
<gx:coord >9.957231 45.610703 1128</gx:coord>
<gx:coord >9.956497 45.612395 1113</gx:coord>
<gx:coord >9.955467 45.614071 1106</gx:coord>
<gx:coord >9.95435 45.615463 1098</gx:coord>
<gx:coord >9.952809 45.616974 1090</gx:coord>
<gx:coord >9.95121 45.61826 1083</gx:coord>
<gx:coord >9.94915 45.61961 1075</gx:coord>
<gx:coord >9.946914 45.620773 1068</gx:coord>
<gx:coord >9.943364 45.622238 1060</gx:coord>
<gx:coord >9.940014 45.623337 1060</gx:coord>
<gx:coord >9.935526 45.624573 1052</gx:coord>
<gx:coord >9.931229 45.625569 1052</gx:coord>
<gx:coord >9.928139 45.626267 1052</gx:coord>
<gx:coord >9.923937 45.627136 1052</gx:coord>
<gx:coord >9.919248 45.628052 1052</gx:coord>
<gx:coord >9.907792 45.630341 1045</gx:coord>
<gx:coord >9.901154 45.631574 1022</gx:coord>
<gx:coord >9.894193 45.632904 984</gx:coord>
<gx:coord >9.887025 45.634277 961</gx:coord>
<gx:coord >9.87973 45.635624 923</gx:coord>
<gx:coord >9.873159 45.636841 892</gx:coord>
<gx:coord >9.865321 45.638351 862</gx:coord>
<gx:coord >9.858086 45.639679 831</gx:coord>
<gx:coord >9.85144 45.640931 801</gx:coord>
<gx:coord >9.844231 45.642281 763</gx:coord>
<gx:coord >9.837021 45.643631 732</gx:coord>
<gx:coord >9.82861 45.645172 717</gx:coord>
<gx:coord >9.823184 45.646179 694</gx:coord>
<gx:coord >9.817383 45.647262 664</gx:coord>
<gx:coord >9.811327 45.648422 626</gx:coord>
<gx:coord >9.805298 45.649543 595</gx:coord>
<gx:coord >9.798019 45.650893 572</gx:coord>
<gx:coord >9.790426 45.652267 534</gx:coord>
<gx:coord >9.783057 45.653687 511</gx:coord>
<gx:coord >9.776733 45.654897 481</gx:coord>
<gx:coord >9.76986 45.656158 458</gx:coord>
<gx:coord >9.763697 45.657257 420</gx:coord>
<gx:coord >9.756529 45.65863 389</gx:coord>
<gx:coord >9.75016 45.659831 359</gx:coord>
<gx:coord >9.741783 45.661414 328</gx:coord>
<gx:coord >9.734021 45.662842 298</gx:coord>
<gx:coord >9.727121 45.664078 267</gx:coord>
<gx:coord >9.72625 45.664261 267</gx:coord>
<gx:coord >9.72625 45.664261 267</gx:coord>
</gx:Track>
</Placemark>
</Folder>
</Folder>
</kml>
