<?xml version="1.0" encoding="UTF-8"?>
<kml xmlns="http://www.opengis.net/kml/2.2" xmlns:gx="http://www.google.com/kml/ext/2.2"><Folder ><Folder ><name >HA-LVP track</name>
<Placemark ><name >HA-LVP</name>
<Style ><LineStyle ><color >ff1c1ae3</color>
<width >4</width>
</LineStyle>
<IconStyle ><Icon ><href >http://maps.google.com/mapfiles/kml/shapes/airports.png</href>
</Icon>
</IconStyle>
</Style>
<gx:Track ><altitudeMode >absolute</altitudeMode>
<extrude >1</extrude>
<when >2025-08-05T19:07:42.450Z</when>
<when >2025-08-05T19:07:42.450Z</when>
<when >2025-08-05T19:07:45.790Z</when>
<when >2025-08-05T19:07:48.380Z</when>
<when >2025-08-05T19:07:49.770Z</when>
<when >2025-08-05T19:07:51.300Z</when>
<when >2025-08-05T19:07:55.270Z</when>
<when >2025-08-05T19:07:57.260Z</when>
<when >2025-08-05T19:07:59.120Z</when>
<when >2025-08-05T19:08:01.570Z</when>
<when >2025-08-05T19:08:03.290Z</when>
<when >2025-08-05T19:08:05.490Z</when>
<when >2025-08-05T19:08:07.010Z</when>
<when >2025-08-05T19:08:08.850Z</when>
<when >2025-08-05T19:08:12.160Z</when>
<when >2025-08-05T19:08:13.930Z</when>
<when >2025-08-05T19:08:15.130Z</when>
<when >2025-08-05T19:08:17.310Z</when>
<when >2025-08-05T19:08:19.490Z</when>
<when >2025-08-05T19:08:21.580Z</when>
<when >2025-08-05T19:08:24.070Z</when>
<when >2025-08-05T19:08:26.550Z</when>
<when >2025-08-05T19:08:28.200Z</when>
<when >2025-08-05T19:08:30.220Z</when>
<when >2025-08-05T19:08:32.080Z</when>
<when >2025-08-05T19:08:35.910Z</when>
<when >2025-08-05T19:08:37.010Z</when>
<when >2025-08-05T19:08:39.210Z</when>
<when >2025-08-05T19:08:41.880Z</when>
<when >2025-08-05T19:08:44.400Z</when>
<when >2025-08-05T19:08:46.260Z</when>
<when >2025-08-05T19:08:48.620Z</when>
<when >2025-08-05T19:08:51.620Z</when>
<when >2025-08-05T19:08:54.270Z</when>
<when >2025-08-05T19:08:57.630Z</when>
<when >2025-08-05T19:09:01.160Z</when>
<when >2025-08-05T19:09:04.640Z</when>
<when >2025-08-05T19:09:08.030Z</when>
<when >2025-08-05T19:09:11.690Z</when>
<when >2025-08-05T19:09:16.250Z</when>
<when >2025-08-05T19:09:19.260Z</when>
<when >2025-08-05T19:09:21.990Z</when>
<when >2025-08-05T19:09:25.740Z</when>
<when >2025-08-05T19:09:28.010Z</when>
<when >2025-08-05T19:09:30.880Z</when>
<when >2025-08-05T19:09:34.450Z</when>
<when >2025-08-05T19:09:37.120Z</when>
<when >2025-08-05T19:09:38.230Z</when>
<when >2025-08-05T19:09:41.780Z</when>
<when >2025-08-05T19:09:45.050Z</when>
<when >2025-08-05T19:09:46.660Z</when>
<when >2025-08-05T19:09:48.740Z</when>
<when >2025-08-05T19:09:49.900Z</when>
<when >2025-08-05T19:09:51.000Z</when>
<when >2025-08-05T19:09:53.020Z</when>
<when >2025-08-05T19:09:55.540Z</when>
<when >2025-08-05T19:09:56.870Z</when>
<when >2025-08-05T19:09:59.470Z</when>
<when >2025-08-05T19:10:00.910Z</when>
<when >2025-08-05T19:10:02.950Z</when>
<when >2025-08-05T19:10:04.890Z</when>
<when >2025-08-05T19:10:06.640Z</when>
<when >2025-08-05T19:10:07.950Z</when>
<when >2025-08-05T19:10:09.770Z</when>
<when >2025-08-05T19:10:12.590Z</when>
<when >2025-08-05T19:10:15.560Z</when>
<when >2025-08-05T19:10:17.670Z</when>
<when >2025-08-05T19:10:19.440Z</when>
<when >2025-08-05T19:10:21.160Z</when>
<when >2025-08-05T19:10:24.340Z</when>
<when >2025-08-05T19:10:26.390Z</when>
<when >2025-08-05T19:10:28.570Z</when>
<when >2025-08-05T19:10:31.500Z</when>
<when >2025-08-05T19:10:33.720Z</when>
<when >2025-08-05T19:10:36.040Z</when>
<when >2025-08-05T19:10:38.570Z</when>
<when >2025-08-05T19:10:44.330Z</when>
<when >2025-08-05T19:10:48.350Z</when>
<when >2025-08-05T19:10:52.640Z</when>
<when >2025-08-05T19:10:57.020Z</when>
<when >2025-08-05T19:11:00.620Z</when>
<when >2025-08-05T19:11:04.540Z</when>
<when >2025-08-05T19:11:07.460Z</when>
<when >2025-08-05T19:11:11.740Z</when>
<when >2025-08-05T19:11:15.130Z</when>
<when >2025-08-05T19:11:19.330Z</when>
<when >2025-08-05T19:11:23.590Z</when>
<when >2025-08-05T19:11:28.300Z</when>
<when >2025-08-05T19:11:33.570Z</when>
<when >2025-08-05T19:11:39.320Z</when>
<when >2025-08-05T19:11:44.140Z</when>
<when >2025-08-05T19:11:49.400Z</when>
<when >2025-08-05T19:11:54.570Z</when>
<when >2025-08-05T19:11:56.860Z</when>
<when >2025-08-05T19:12:03.050Z</when>
<when >2025-08-05T19:12:10.990Z</when>
<when >2025-08-05T19:12:19.320Z</when>
<when >2025-08-05T19:12:27.300Z</when>
<when >2025-08-05T19:12:29.970Z</when>
<when >2025-08-05T19:12:33.550Z</when>
<when >2025-08-05T19:12:38.670Z</when>
<when >2025-08-05T19:12:46.150Z</when>
<when >2025-08-05T19:12:49.910Z</when>
<when >2025-08-05T19:12:52.730Z</when>
<when >2025-08-05T19:12:57.540Z</when>
<when >2025-08-05T19:13:06.810Z</when>
<when >2025-08-05T19:13:17.760Z</when>
<when >2025-08-05T19:13:21.520Z</when>
<when >2025-08-05T19:13:25.700Z</when>
<when >2025-08-05T19:13:27.520Z</when>
<when >2025-08-05T19:13:28.710Z</when>
<when >2025-08-05T19:13:30.220Z</when>
<when >2025-08-05T19:13:32.910Z</when>
<when >2025-08-05T19:13:36.750Z</when>
<when >2025-08-05T19:13:41.940Z</when>
<when >2025-08-05T19:13:45.620Z</when>
<when >2025-08-05T19:13:48.730Z</when>
<when >2025-08-05T19:13:50.410Z</when>
<when >2025-08-05T19:13:55.200Z</when>
<when >2025-08-05T19:13:59.850Z</when>
<when >2025-08-05T19:14:11.520Z</when>
<when >2025-08-05T19:14:23.690Z</when>
<when >2025-08-05T19:14:32.000Z</when>
<when >2025-08-05T19:14:42.430Z</when>
<when >2025-08-05T19:14:52.480Z</when>
<when >2025-08-05T19:15:04.030Z</when>
<when >2025-08-05T19:15:15.570Z</when>
<when >2025-08-05T19:15:27.510Z</when>
<when >2025-08-05T19:15:39.920Z</when>
<when >2025-08-05T19:15:52.270Z</when>
<when >2025-08-05T19:16:04.840Z</when>
<when >2025-08-05T19:16:16.770Z</when>
<when >2025-08-05T19:16:28.180Z</when>
<when >2025-08-05T19:16:39.310Z</when>
<when >2025-08-05T19:16:51.210Z</when>
<when >2025-08-05T19:17:04.900Z</when>
<when >2025-08-05T19:17:17.510Z</when>
<when >2025-08-05T19:17:29.060Z</when>
<when >2025-08-05T19:17:41.420Z</when>
<when >2025-08-05T19:17:54.040Z</when>
<when >2025-08-05T19:18:06.100Z</when>
<when >2025-08-05T19:18:18.860Z</when>
<when >2025-08-05T19:18:31.450Z</when>
<when >2025-08-05T19:18:44.400Z</when>
<when >2025-08-05T19:18:58.250Z</when>
<when >2025-08-05T19:19:06.750Z</when>
<when >2025-08-05T19:19:23.710Z</when>
<when >2025-08-05T19:19:38.290Z</when>
<when >2025-08-05T19:19:52.890Z</when>
<when >2025-08-05T19:20:06.430Z</when>
<when >2025-08-05T19:20:19.620Z</when>
<when >2025-08-05T19:20:33.210Z</when>
<when >2025-08-05T19:20:49.650Z</when>
<when >2025-08-05T19:21:06.100Z</when>
<when >2025-08-05T19:21:21.030Z</when>
<when >2025-08-05T19:21:35.040Z</when>
<when >2025-08-05T19:21:49.820Z</when>
<when >2025-08-05T19:22:04.020Z</when>
<when >2025-08-05T19:22:18.980Z</when>
<when >2025-08-05T19:22:34.090Z</when>
<when >2025-08-05T19:22:48.370Z</when>
<when >2025-08-05T19:23:03.770Z</when>
<when >2025-08-05T19:23:18.200Z</when>
<when >2025-08-05T19:23:33.380Z</when>
<when >2025-08-05T19:23:51.250Z</when>
<when >2025-08-05T19:24:00.960Z</when>
<when >2025-08-05T19:24:06.340Z</when>
<when >2025-08-05T19:24:10.970Z</when>
<when >2025-08-05T19:24:15.500Z</when>
<when >2025-08-05T19:24:18.980Z</when>
<when >2025-08-05T19:24:22.920Z</when>
<when >2025-08-05T19:24:28.250Z</when>
<when >2025-08-05T19:24:43.220Z</when>
<when >2025-08-05T19:24:59.720Z</when>
<when >2025-08-05T19:25:13.690Z</when>
<when >2025-08-05T19:25:27.140Z</when>
<when >2025-08-05T19:25:40.530Z</when>
<when >2025-08-05T19:25:54.960Z</when>
<when >2025-08-05T19:26:09.480Z</when>
<when >2025-08-05T19:26:24.090Z</when>
<when >2025-08-05T19:26:39.510Z</when>
<when >2025-08-05T19:26:54.710Z</when>
<when >2025-08-05T19:27:10.210Z</when>
<when >2025-08-05T19:27:26.540Z</when>
<when >2025-08-05T19:27:44.120Z</when>
<when >2025-08-05T19:28:03.980Z</when>
<when >2025-08-05T19:28:23.770Z</when>
<when >2025-08-05T19:28:43.680Z</when>
<when >2025-08-05T19:29:03.320Z</when>
<when >2025-08-05T19:29:22.440Z</when>
<when >2025-08-05T19:29:42.020Z</when>
<when >2025-08-05T19:30:01.670Z</when>
<when >2025-08-05T19:30:21.240Z</when>
<when >2025-08-05T19:30:40.750Z</when>
<when >2025-08-05T19:31:00.360Z</when>
<when >2025-08-05T19:31:20.200Z</when>
<when >2025-08-05T19:31:40.060Z</when>
<when >2025-08-05T19:31:59.900Z</when>
<when >2025-08-05T19:32:19.520Z</when>
<when >2025-08-05T19:32:39.120Z</when>
<when >2025-08-05T19:32:58.970Z</when>
<when >2025-08-05T19:33:18.940Z</when>
<when >2025-08-05T19:33:38.670Z</when>
<when >2025-08-05T19:33:58.410Z</when>
<when >2025-08-05T19:34:17.960Z</when>
<when >2025-08-05T19:34:37.520Z</when>
<when >2025-08-05T19:34:57.050Z</when>
<when >2025-08-05T19:35:17.010Z</when>
<when >2025-08-05T19:35:36.830Z</when>
<when >2025-08-05T19:35:56.500Z</when>
<when >2025-08-05T19:36:16.310Z</when>
<when >2025-08-05T19:36:35.900Z</when>
<when >2025-08-05T19:36:55.730Z</when>
<when >2025-08-05T19:37:15.270Z</when>
<when >2025-08-05T19:37:34.760Z</when>
<when >2025-08-05T19:37:54.490Z</when>
<when >2025-08-05T19:38:13.870Z</when>
<when >2025-08-05T19:38:33.600Z</when>
<when >2025-08-05T19:38:53.600Z</when>
<when >2025-08-05T19:39:13.440Z</when>
<when >2025-08-05T19:39:33.400Z</when>
<when >2025-08-05T19:39:53.290Z</when>
<when >2025-08-05T19:40:13.260Z</when>
<when >2025-08-05T19:40:33.140Z</when>
<when >2025-08-05T19:40:53.090Z</when>
<when >2025-08-05T19:41:13.070Z</when>
<when >2025-08-05T19:41:32.930Z</when>
<when >2025-08-05T19:41:52.500Z</when>
<when >2025-08-05T19:42:11.970Z</when>
<when >2025-08-05T19:42:31.780Z</when>
<when >2025-08-05T19:42:51.260Z</when>
<when >2025-08-05T19:43:11.240Z</when>
<when >2025-08-05T19:43:31.230Z</when>
<when >2025-08-05T19:43:50.880Z</when>
<when >2025-08-05T19:44:10.390Z</when>
<when >2025-08-05T19:44:29.900Z</when>
<when >2025-08-05T19:44:49.360Z</when>
<when >2025-08-05T19:45:09.280Z</when>
<when >2025-08-05T19:45:28.880Z</when>
<when >2025-08-05T19:45:48.550Z</when>
<when >2025-08-05T19:46:08.290Z</when>
<when >2025-08-05T19:46:28.260Z</when>
<when >2025-08-05T19:46:47.990Z</when>
<when >2025-08-05T19:47:07.080Z</when>
<when >2025-08-05T19:47:26.960Z</when>
<when >2025-08-05T19:47:46.580Z</when>
<when >2025-08-05T19:48:06.090Z</when>
<when >2025-08-05T19:48:26.010Z</when>
<when >2025-08-05T19:48:45.970Z</when>
<when >2025-08-05T19:49:05.640Z</when>
<when >2025-08-05T19:49:25.450Z</when>
<when >2025-08-05T19:49:45.420Z</when>
<when >2025-08-05T19:50:04.890Z</when>
<when >2025-08-05T19:50:24.820Z</when>
<when >2025-08-05T19:50:38.990Z</when>
<when >2025-08-05T19:50:49.660Z</when>
<when >2025-08-05T19:51:06.180Z</when>
<when >2025-08-05T19:51:26.080Z</when>
<when >2025-08-05T19:51:45.840Z</when>
<when >2025-08-05T19:52:05.450Z</when>
<when >2025-08-05T19:52:25.380Z</when>
<when >2025-08-05T19:52:45.120Z</when>
<when >2025-08-05T19:53:05.020Z</when>
<when >2025-08-05T19:53:24.730Z</when>
<when >2025-08-05T19:53:44.580Z</when>
<when >2025-08-05T19:54:03.990Z</when>
<when >2025-08-05T19:54:23.800Z</when>
<when >2025-08-05T19:54:43.480Z</when>
<when >2025-08-05T19:55:03.060Z</when>
<when >2025-08-05T19:55:22.980Z</when>
<when >2025-08-05T19:55:42.950Z</when>
<when >2025-08-05T19:56:02.790Z</when>
<when >2025-08-05T19:56:22.490Z</when>
<when >2025-08-05T19:56:42.280Z</when>
<when >2025-08-05T19:57:02.100Z</when>
<when >2025-08-05T19:57:21.990Z</when>
<when >2025-08-05T19:57:37.460Z</when>
<when >2025-08-05T19:57:44.460Z</when>
<when >2025-08-05T19:57:48.990Z</when>
<when >2025-08-05T19:57:53.620Z</when>
<when >2025-08-05T19:57:59.240Z</when>
<when >2025-08-05T19:58:06.890Z</when>
<when >2025-08-05T19:58:26.400Z</when>
<when >2025-08-05T19:58:46.240Z</when>
<when >2025-08-05T19:59:06.080Z</when>
<when >2025-08-05T19:59:25.900Z</when>
<when >2025-08-05T19:59:45.590Z</when>
<when >2025-08-05T20:00:05.380Z</when>
<when >2025-08-05T20:00:25.280Z</when>
<when >2025-08-05T20:00:44.490Z</when>
<when >2025-08-05T20:01:04.170Z</when>
<when >2025-08-05T20:01:23.950Z</when>
<when >2025-08-05T20:01:43.830Z</when>
<when >2025-08-05T20:02:03.240Z</when>
<when >2025-08-05T20:02:22.900Z</when>
<when >2025-08-05T20:02:42.810Z</when>
<when >2025-08-05T20:03:02.510Z</when>
<when >2025-08-05T20:03:22.430Z</when>
<when >2025-08-05T20:03:42.240Z</when>
<when >2025-08-05T20:04:01.960Z</when>
<when >2025-08-05T20:04:21.950Z</when>
<when >2025-08-05T20:04:41.920Z</when>
<when >2025-08-05T20:05:01.910Z</when>
<when >2025-08-05T20:05:21.850Z</when>
<when >2025-08-05T20:05:41.810Z</when>
<when >2025-08-05T20:06:01.780Z</when>
<when >2025-08-05T20:06:21.480Z</when>
<when >2025-08-05T20:06:41.380Z</when>
<when >2025-08-05T20:07:01.140Z</when>
<when >2025-08-05T20:07:20.840Z</when>
<when >2025-08-05T20:07:40.630Z</when>
<when >2025-08-05T20:08:00.480Z</when>
<when >2025-08-05T20:08:20.360Z</when>
<when >2025-08-05T20:08:40.220Z</when>
<when >2025-08-05T20:09:00.010Z</when>
<when >2025-08-05T20:09:19.850Z</when>
<when >2025-08-05T20:09:39.650Z</when>
<when >2025-08-05T20:09:59.490Z</when>
<when >2025-08-05T20:10:19.200Z</when>
<when >2025-08-05T20:10:38.980Z</when>
<when >2025-08-05T20:10:58.840Z</when>
<when >2025-08-05T20:11:18.500Z</when>
<when >2025-08-05T20:11:38.260Z</when>
<when >2025-08-05T20:11:57.890Z</when>
<when >2025-08-05T20:12:09.760Z</when>
<when >2025-08-05T20:12:15.130Z</when>
<when >2025-08-05T20:12:21.400Z</when>
<when >2025-08-05T20:12:27.580Z</when>
<when >2025-08-05T20:12:34.260Z</when>
<when >2025-08-05T20:12:39.940Z</when>
<when >2025-08-05T20:12:48.470Z</when>
<when >2025-08-05T20:12:57.280Z</when>
<when >2025-08-05T20:13:07.370Z</when>
<when >2025-08-05T20:13:15.260Z</when>
<when >2025-08-05T20:13:17.860Z</when>
<when >2025-08-05T20:13:24.510Z</when>
<when >2025-08-05T20:13:31.050Z</when>
<when >2025-08-05T20:13:37.370Z</when>
<when >2025-08-05T20:13:44.020Z</when>
<when >2025-08-05T20:13:46.730Z</when>
<when >2025-08-05T20:13:49.830Z</when>
<when >2025-08-05T20:13:54.860Z</when>
<when >2025-08-05T20:14:05.600Z</when>
<when >2025-08-05T20:14:18.070Z</when>
<when >2025-08-05T20:14:29.110Z</when>
<when >2025-08-05T20:14:40.540Z</when>
<when >2025-08-05T20:14:53.180Z</when>
<when >2025-08-05T20:15:06.580Z</when>
<when >2025-08-05T20:15:10.560Z</when>
<when >2025-08-05T20:15:14.350Z</when>
<when >2025-08-05T20:15:16.470Z</when>
<when >2025-08-05T20:15:19.960Z</when>
<when >2025-08-05T20:15:28.180Z</when>
<when >2025-08-05T20:15:34.320Z</when>
<when >2025-08-05T20:15:39.840Z</when>
<when >2025-08-05T20:15:42.070Z</when>
<when >2025-08-05T20:15:51.380Z</when>
<when >2025-08-05T20:16:01.700Z</when>
<when >2025-08-05T20:16:12.700Z</when>
<when >2025-08-05T20:16:21.810Z</when>
<when >2025-08-05T20:16:23.410Z</when>
<when >2025-08-05T20:16:26.370Z</when>
<when >2025-08-05T20:16:32.440Z</when>
<when >2025-08-05T20:16:45.100Z</when>
<when >2025-08-05T20:16:50.930Z</when>
<when >2025-08-05T20:16:54.520Z</when>
<when >2025-08-05T20:16:55.500Z</when>
<when >2025-08-05T20:17:04.440Z</when>
<when >2025-08-05T20:17:06.460Z</when>
<when >2025-08-05T20:17:08.700Z</when>
<when >2025-08-05T20:17:14.150Z</when>
<when >2025-08-05T20:17:26.360Z</when>
<when >2025-08-05T20:17:37.460Z</when>
<when >2025-08-05T20:17:46.980Z</when>
<when >2025-08-05T20:17:58.540Z</when>
<when >2025-08-05T20:18:09.440Z</when>
<when >2025-08-05T20:18:20.370Z</when>
<when >2025-08-05T20:18:32.240Z</when>
<when >2025-08-05T20:18:44.190Z</when>
<when >2025-08-05T20:18:54.900Z</when>
<when >2025-08-05T20:19:05.760Z</when>
<when >2025-08-05T20:19:17.430Z</when>
<when >2025-08-05T20:19:28.300Z</when>
<when >2025-08-05T20:19:38.980Z</when>
<when >2025-08-05T20:19:46.350Z</when>
<when >2025-08-05T20:19:47.770Z</when>
<when >2025-08-05T20:20:01.060Z</when>
<when >2025-08-05T20:20:10.130Z</when>
<when >2025-08-05T20:20:20.750Z</when>
<when >2025-08-05T20:20:31.320Z</when>
<when >2025-08-05T20:20:43.090Z</when>
<when >2025-08-05T20:20:53.690Z</when>
<when >2025-08-05T20:21:04.850Z</when>
<when >2025-08-05T20:21:17.570Z</when>
<when >2025-08-05T20:21:29.950Z</when>
<when >2025-08-05T20:21:40.730Z</when>
<when >2025-08-05T20:21:52.180Z</when>
<when >2025-08-05T20:22:04.970Z</when>
<when >2025-08-05T20:22:18.620Z</when>
<when >2025-08-05T20:22:29.530Z</when>
<when >2025-08-05T20:22:41.020Z</when>
<when >2025-08-05T20:22:51.290Z</when>
<when >2025-08-05T20:22:58.650Z</when>
<when >2025-08-05T20:23:05.770Z</when>
<when >2025-08-05T20:23:11.900Z</when>
<when >2025-08-05T20:23:16.120Z</when>
<when >2025-08-05T20:23:21.120Z</when>
<when >2025-08-05T20:23:26.400Z</when>
<when >2025-08-05T20:23:30.380Z</when>
<when >2025-08-05T20:23:32.290Z</when>
<when >2025-08-05T20:23:36.420Z</when>
<when >2025-08-05T20:23:46.600Z</when>
<when >2025-08-05T20:23:56.770Z</when>
<when >2025-08-05T20:24:07.110Z</when>
<when >2025-08-05T20:24:17.230Z</when>
<when >2025-08-05T20:24:24.340Z</when>
<when >2025-08-05T20:24:31.950Z</when>
<when >2025-08-05T20:24:39.920Z</when>
<when >2025-08-05T20:24:47.280Z</when>
<when >2025-08-05T20:24:54.920Z</when>
<when >2025-08-05T20:25:02.470Z</when>
<when >2025-08-05T20:25:09.590Z</when>
<when >2025-08-05T20:25:16.950Z</when>
<when >2025-08-05T20:25:24.520Z</when>
<when >2025-08-05T20:25:32.620Z</when>
<when >2025-08-05T20:25:40.220Z</when>
<when >2025-08-05T20:25:47.590Z</when>
<when >2025-08-05T20:25:54.590Z</when>
<when >2025-08-05T20:26:01.920Z</when>
<when >2025-08-05T20:26:09.550Z</when>
<when >2025-08-05T20:26:17.510Z</when>
<when >2025-08-05T20:26:26.080Z</when>
<when >2025-08-05T20:26:31.550Z</when>
<when >2025-08-05T20:26:35.900Z</when>
<when >2025-08-05T20:26:40.930Z</when>
<when >2025-08-05T20:26:45.140Z</when>
<when >2025-08-05T20:26:48.630Z</when>
<when >2025-08-05T20:26:52.540Z</when>
<when >2025-08-05T20:26:56.110Z</when>
<when >2025-08-05T20:27:00.140Z</when>
<when >2025-08-05T20:27:03.860Z</when>
<when >2025-08-05T20:27:07.350Z</when>
<when >2025-08-05T20:27:12.020Z</when>
<when >2025-08-05T20:27:15.060Z</when>
<when >2025-08-05T20:27:19.680Z</when>
<when >2025-08-05T20:27:24.300Z</when>
<when >2025-08-05T20:27:29.450Z</when>
<when >2025-08-05T20:27:34.180Z</when>
<when >2025-08-05T20:27:39.070Z</when>
<when >2025-08-05T20:27:44.380Z</when>
<when >2025-08-05T20:27:48.440Z</when>
<when >2025-08-05T20:27:56.540Z</when>
<when >2025-08-05T20:28:02.760Z</when>
<when >2025-08-05T20:28:08.640Z</when>
<when >2025-08-05T20:28:16.400Z</when>
<when >2025-08-05T20:28:21.920Z</when>
<when >2025-08-05T20:28:30.400Z</when>
<when >2025-08-05T20:28:38.890Z</when>
<when >2025-08-05T20:28:45.590Z</when>
<when >2025-08-05T20:28:48.680Z</when>
<when >2025-08-05T20:28:55.230Z</when>
<when >2025-08-05T20:29:02.930Z</when>
<when >2025-08-05T20:29:09.850Z</when>
<when >2025-08-05T20:29:16.880Z</when>
<when >2025-08-05T20:29:24.340Z</when>
<when >2025-08-05T20:29:32.480Z</when>
<when >2025-08-05T20:29:38.870Z</when>
<when >2025-08-05T20:29:45.360Z</when>
<when >2025-08-05T20:29:48.420Z</when>
<when >2025-08-05T20:29:51.560Z</when>
<when >2025-08-05T20:29:52.970Z</when>
<when >2025-08-05T20:29:55.700Z</when>
<when >2025-08-05T20:29:56.640Z</when>
<when >2025-08-05T20:29:57.630Z</when>
<when >2025-08-05T20:30:00.440Z</when>
<when >2025-08-05T20:30:03.060Z</when>
<when >2025-08-05T20:30:05.900Z</when>
<when >2025-08-05T20:30:08.890Z</when>
<when >2025-08-05T20:30:11.320Z</when>
<when >2025-08-05T20:30:14.240Z</when>
<when >2025-08-05T20:30:17.500Z</when>
<when >2025-08-05T20:30:20.750Z</when>
<when >2025-08-05T20:30:23.030Z</when>
<when >2025-08-05T20:30:27.010Z</when>
<when >2025-08-05T20:30:31.710Z</when>
<when >2025-08-05T20:30:34.660Z</when>
<when >2025-08-05T20:30:38.610Z</when>
<when >2025-08-05T20:30:44.130Z</when>
<when >2025-08-05T20:30:50.810Z</when>
<when >2025-08-05T20:30:56.780Z</when>
<when >2025-08-05T20:31:03.670Z</when>
<when >2025-08-05T20:31:09.830Z</when>
<when >2025-08-05T20:31:23.050Z</when>
<when >2025-08-05T20:31:35.990Z</when>
<when >2025-08-05T20:31:44.470Z</when>
<when >2025-08-05T20:31:50.800Z</when>
<when >2025-08-05T20:31:57.070Z</when>
<when >2025-08-05T20:32:04.260Z</when>
<when >2025-08-05T20:32:12.500Z</when>
<when >2025-08-05T20:32:20.020Z</when>
<when >2025-08-05T20:32:28.060Z</when>
<when >2025-08-05T20:32:35.170Z</when>
<when >2025-08-05T20:32:40.910Z</when>
<when >2025-08-05T20:32:49.860Z</when>
<when >2025-08-05T20:32:55.410Z</when>
<when >2025-08-05T20:33:01.080Z</when>
<when >2025-08-05T20:33:09.660Z</when>
<when >2025-08-05T20:33:17.430Z</when>
<when >2025-08-05T20:33:26.160Z</when>
<when >2025-08-05T20:33:34.930Z</when>
<when >2025-08-05T20:33:44.130Z</when>
<when >2025-08-05T20:33:50.370Z</when>
<when >2025-08-05T20:33:59.030Z</when>
<when >2025-08-05T20:34:06.670Z</when>
<when >2025-08-05T20:34:15.380Z</when>
<when >2025-08-05T20:34:22.410Z</when>
<when >2025-08-05T20:34:31.020Z</when>
<when >2025-08-05T20:34:38.970Z</when>
<when >2025-08-05T20:34:47.560Z</when>
<when >2025-08-05T20:34:56.020Z</when>
<when >2025-08-05T20:35:04.280Z</when>
<when >2025-08-05T20:35:12.780Z</when>
<when >2025-08-05T20:35:19.720Z</when>
<when >2025-08-05T20:35:26.410Z</when>
<when >2025-08-05T20:35:29.280Z</when>
<when >2025-08-05T20:35:33.830Z</when>
<when >2025-08-05T20:35:35.910Z</when>
<when >2025-08-05T20:35:35.910Z</when>
<gx:coord >9.696305 45.669846 322</gx:coord>
<gx:coord >9.696305 45.669846 322</gx:coord>
<gx:coord >9.695091 45.670026 338</gx:coord>
<gx:coord >9.690276 45.670898 393</gx:coord>
<gx:coord >9.688019 45.67133 416</gx:coord>
<gx:coord >9.685654 45.671722 445</gx:coord>
<gx:coord >9.681032 45.672272 507</gx:coord>
<gx:coord >9.678888 45.672363 530</gx:coord>
<gx:coord >9.677101 45.672401 547</gx:coord>
<gx:coord >9.674869 45.672318 578</gx:coord>
<gx:coord >9.67202 45.672075 610</gx:coord>
<gx:coord >9.669844 45.671768 630</gx:coord>
<gx:coord >9.667763 45.67133 661</gx:coord>
<gx:coord >9.665356 45.670807 685</gx:coord>
<gx:coord >9.663145 45.67012 716</gx:coord>
<gx:coord >9.661002 45.669434 737</gx:coord>
<gx:coord >9.658992 45.668655 770</gx:coord>
<gx:coord >9.65712 45.667885 797</gx:coord>
<gx:coord >9.65504 45.666916 829</gx:coord>
<gx:coord >9.652725 45.665744 861</gx:coord>
<gx:coord >9.650322 45.664394 893</gx:coord>
<gx:coord >9.648537 45.663323 927</gx:coord>
<gx:coord >9.646957 45.662299 951</gx:coord>
<gx:coord >9.645241 45.661135 974</gx:coord>
<gx:coord >9.64373 45.660064 1008</gx:coord>
<gx:coord >9.641808 45.658714 1036</gx:coord>
<gx:coord >9.639679 45.657085 1069</gx:coord>
<gx:coord >9.638828 45.656387 1084</gx:coord>
<gx:coord >9.637086 45.655014 1116</gx:coord>
<gx:coord >9.634608 45.653 1156</gx:coord>
<gx:coord >9.633087 45.651778 1189</gx:coord>
<gx:coord >9.631096 45.650009 1224</gx:coord>
<gx:coord >9.629249 45.648468 1257</gx:coord>
<gx:coord >9.627239 45.646729 1282</gx:coord>
<gx:coord >9.624626 45.644577 1316</gx:coord>
<gx:coord >9.621679 45.642105 1340</gx:coord>
<gx:coord >9.618932 45.639862 1369</gx:coord>
<gx:coord >9.616333 45.637719 1403</gx:coord>
<gx:coord >9.613372 45.63533 1434</gx:coord>
<gx:coord >9.610703 45.633157 1466</gx:coord>
<gx:coord >9.606941 45.630066 1497</gx:coord>
<gx:coord >9.605003 45.628362 1515</gx:coord>
<gx:coord >9.602252 45.625351 1547</gx:coord>
<gx:coord >9.600644 45.623291 1561</gx:coord>
<gx:coord >9.599236 45.621007 1579</gx:coord>
<gx:coord >9.598137 45.618633 1596</gx:coord>
<gx:coord >9.596826 45.614548 1622</gx:coord>
<gx:coord >9.596695 45.613512 1630</gx:coord>
<gx:coord >9.59642 45.610533 1646</gx:coord>
<gx:coord >9.59697 45.60611 1670</gx:coord>
<gx:coord >9.597244 45.604853 1677</gx:coord>
<gx:coord >9.598098 45.602554 1693</gx:coord>
<gx:coord >9.598902 45.600906 1708</gx:coord>
<gx:coord >9.599572 45.599716 1723</gx:coord>
<gx:coord >9.601089 45.597591 1754</gx:coord>
<gx:coord >9.60319 45.595276 1783</gx:coord>
<gx:coord >9.60473 45.593811 1814</gx:coord>
<gx:coord >9.607075 45.591934 1845</gx:coord>
<gx:coord >9.608817 45.590698 1868</gx:coord>
<gx:coord >9.61132 45.589165 1897</gx:coord>
<gx:coord >9.614243 45.587631 1930</gx:coord>
<gx:coord >9.616588 45.586533 1954</gx:coord>
<gx:coord >9.617257 45.586258 1956</gx:coord>
<gx:coord >9.619286 45.585441 1972</gx:coord>
<gx:coord >9.624827 45.583649 1995</gx:coord>
<gx:coord >9.629785 45.58255 2021</gx:coord>
<gx:coord >9.633018 45.582043 2031</gx:coord>
<gx:coord >9.637619 45.581624 2047</gx:coord>
<gx:coord >9.639473 45.581531 2056</gx:coord>
<gx:coord >9.64613 45.581543 2077</gx:coord>
<gx:coord >9.649681 45.58168 2094</gx:coord>
<gx:coord >9.65403 45.58195 2124</gx:coord>
<gx:coord >9.65918 45.582322 2157</gx:coord>
<gx:coord >9.663413 45.582687 2190</gx:coord>
<gx:coord >9.667768 45.583099 2218</gx:coord>
<gx:coord >9.67239 45.583603 2251</gx:coord>
<gx:coord >9.681099 45.584518 2326</gx:coord>
<gx:coord >9.690209 45.585571 2387</gx:coord>
<gx:coord >9.698851 45.586578 2449</gx:coord>
<gx:coord >9.706421 45.587448 2511</gx:coord>
<gx:coord >9.713455 45.588272 2575</gx:coord>
<gx:coord >9.719551 45.588959 2628</gx:coord>
<gx:coord >9.726049 45.589691 2692</gx:coord>
<gx:coord >9.733083 45.590469 2759</gx:coord>
<gx:coord >9.74041 45.59126 2822</gx:coord>
<gx:coord >9.747345 45.591958 2880</gx:coord>
<gx:coord >9.755055 45.592758 2943</gx:coord>
<gx:coord >9.765305 45.593765 3010</gx:coord>
<gx:coord >9.77455 45.594635 3065</gx:coord>
<gx:coord >9.785042 45.595636 3127</gx:coord>
<gx:coord >9.794178 45.596466 3193</gx:coord>
<gx:coord >9.804749 45.597451 3256</gx:coord>
<gx:coord >9.815614 45.598389 3315</gx:coord>
<gx:coord >9.819969 45.598801 3324</gx:coord>
<gx:coord >9.832352 45.599826 3369</gx:coord>
<gx:coord >9.849377 45.601273 3408</gx:coord>
<gx:coord >9.867096 45.602805 3461</gx:coord>
<gx:coord >9.88488 45.604388 3504</gx:coord>
<gx:coord >9.890844 45.604889 3532</gx:coord>
<gx:coord >9.89875 45.605598 3573</gx:coord>
<gx:coord >9.910271 45.606583 3636</gx:coord>
<gx:coord >9.923468 45.607681 3700</gx:coord>
<gx:coord >9.935124 45.608688 3765</gx:coord>
<gx:coord >9.942078 45.609276 3803</gx:coord>
<gx:coord >9.953278 45.610199 3864</gx:coord>
<gx:coord >9.974514 45.611938 3978</gx:coord>
<gx:coord >9.999893 45.614117 4093</gx:coord>
<gx:coord >10.008947 45.615326 4131</gx:coord>
<gx:coord >10.018158 45.617143 4170</gx:coord>
<gx:coord >10.021729 45.618074 4186</gx:coord>
<gx:coord >10.025091 45.619034 4209</gx:coord>
<gx:coord >10.028173 45.620041 4232</gx:coord>
<gx:coord >10.03347 45.621984 4274</gx:coord>
<gx:coord >10.041169 45.625443 4346</gx:coord>
<gx:coord >10.050499 45.630271 4451</gx:coord>
<gx:coord >10.056644 45.633591 4517</gx:coord>
<gx:coord >10.062584 45.636788 4595</gx:coord>
<gx:coord >10.065399 45.638278 4618</gx:coord>
<gx:coord >10.074394 45.64298 4683</gx:coord>
<gx:coord >10.082636 45.647232 4732</gx:coord>
<gx:coord >10.103989 45.65783 4861</gx:coord>
<gx:coord >10.127117 45.668976 4976</gx:coord>
<gx:coord >10.143261 45.67662 5052</gx:coord>
<gx:coord >10.163452 45.686227 5181</gx:coord>
<gx:coord >10.183296 45.695677 5311</gx:coord>
<gx:coord >10.206165 45.706604 5432</gx:coord>
<gx:coord >10.229276 45.717682 5554</gx:coord>
<gx:coord >10.253059 45.729148 5676</gx:coord>
<gx:coord >10.276749 45.7406 5775</gx:coord>
<gx:coord >10.302223 45.752936 5897</gx:coord>
<gx:coord >10.327885 45.765427 6002</gx:coord>
<gx:coord >10.35314 45.777649 6117</gx:coord>
<gx:coord >10.377458 45.789413 6239</gx:coord>
<gx:coord >10.400345 45.800419 6360</gx:coord>
<gx:coord >10.425133 45.812337 6475</gx:coord>
<gx:coord >10.454295 45.826355 6581</gx:coord>
<gx:coord >10.482163 45.839722 6688</gx:coord>
<gx:coord >10.507351 45.851807 6801</gx:coord>
<gx:coord >10.534035 45.864661 6900</gx:coord>
<gx:coord >10.561569 45.877882 7007</gx:coord>
<gx:coord >10.587868 45.890172 7121</gx:coord>
<gx:coord >10.615674 45.902618 7236</gx:coord>
<gx:coord >10.645821 45.915822 7335</gx:coord>
<gx:coord >10.674728 45.928438 7449</gx:coord>
<gx:coord >10.706932 45.942497 7556</gx:coord>
<gx:coord >10.726676 45.951141 7601</gx:coord>
<gx:coord >10.766803 45.968903 7678</gx:coord>
<gx:coord >10.801168 45.984146 7769</gx:coord>
<gx:coord >10.835678 45.99943 7853</gx:coord>
<gx:coord >10.868158 46.013855 7952</gx:coord>
<gx:coord >10.899308 46.027679 8059</gx:coord>
<gx:coord >10.931932 46.042099 8165</gx:coord>
<gx:coord >10.972389 46.059994 8242</gx:coord>
<gx:coord >11.012387 46.077621 8325</gx:coord>
<gx:coord >11.049633 46.094009 8409</gx:coord>
<gx:coord >11.084724 46.109433 8508</gx:coord>
<gx:coord >11.121514 46.125549 8600</gx:coord>
<gx:coord >11.157509 46.141275 8699</gx:coord>
<gx:coord >11.194862 46.157614 8790</gx:coord>
<gx:coord >11.233052 46.174301 8874</gx:coord>
<gx:coord >11.269829 46.190369 8973</gx:coord>
<gx:coord >11.308228 46.207146 9065</gx:coord>
<gx:coord >11.345856 46.223532 9156</gx:coord>
<gx:coord >11.385453 46.240723 9240</gx:coord>
<gx:coord >11.432304 46.261054 9316</gx:coord>
<gx:coord >11.457779 46.272412 9362</gx:coord>
<gx:coord >11.470865 46.279175 9377</gx:coord>
<gx:coord >11.482361 46.285959 9400</gx:coord>
<gx:coord >11.4919 46.292542 9415</gx:coord>
<gx:coord >11.49884 46.29783 9438</gx:coord>
<gx:coord >11.506874 46.304766 9461</gx:coord>
<gx:coord >11.515938 46.313564 9484</gx:coord>
<gx:coord >11.540535 46.3396 9559</gx:coord>
<gx:coord >11.569016 46.368822 9650</gx:coord>
<gx:coord >11.593529 46.393169 9734</gx:coord>
<gx:coord >11.61763 46.416864 9841</gx:coord>
<gx:coord >11.641113 46.439954 9932</gx:coord>
<gx:coord >11.66661 46.465073 10031</gx:coord>
<gx:coord >11.691856 46.489904 10130</gx:coord>
<gx:coord >11.718155 46.515741 10214</gx:coord>
<gx:coord >11.745209 46.542276 10313</gx:coord>
<gx:coord >11.772186 46.568756 10397</gx:coord>
<gx:coord >11.799718 46.59581 10488</gx:coord>
<gx:coord >11.828725 46.624283 10565</gx:coord>
<gx:coord >11.859607 46.654541 10641</gx:coord>
<gx:coord >11.895378 46.689567 10709</gx:coord>
<gx:coord >11.931889 46.725311 10770</gx:coord>
<gx:coord >11.967819 46.760466 10824</gx:coord>
<gx:coord >12.004761 46.796497 10877</gx:coord>
<gx:coord >12.040672 46.831412 10900</gx:coord>
<gx:coord >12.077682 46.867257 10908</gx:coord>
<gx:coord >12.115244 46.903474 10900</gx:coord>
<gx:coord >12.152527 46.939362 10900</gx:coord>
<gx:coord >12.189674 46.975204 10908</gx:coord>
<gx:coord >12.226868 47.011057 10900</gx:coord>
<gx:coord >12.264475 47.047274 10901</gx:coord>
<gx:coord >12.302575 47.083864 10901</gx:coord>
<gx:coord >12.340805 47.120544 10901</gx:coord>
<gx:coord >12.378159 47.156479 10901</gx:coord>
<gx:coord >12.415993 47.192688 10901</gx:coord>
<gx:coord >12.454239 47.229218 10894</gx:coord>
<gx:coord >12.492966 47.266068 10894</gx:coord>
<gx:coord >12.531175 47.302287 10894</gx:coord>
<gx:coord >12.569768 47.338784 10894</gx:coord>
<gx:coord >12.607841 47.374695 10888</gx:coord>
<gx:coord >12.646362 47.411041 10888</gx:coord>
<gx:coord >12.685089 47.447021 10888</gx:coord>
<gx:coord >12.725052 47.483505 10888</gx:coord>
<gx:coord >12.764775 47.519733 10889</gx:coord>
<gx:coord >12.804354 47.555951 10889</gx:coord>
<gx:coord >12.844074 47.592401 10889</gx:coord>
<gx:coord >12.883512 47.628479 10881</gx:coord>
<gx:coord >12.923836 47.665237 10881</gx:coord>
<gx:coord >12.963233 47.700914 10881</gx:coord>
<gx:coord >13.003143 47.737152 10882</gx:coord>
<gx:coord >13.043025 47.773536 10882</gx:coord>
<gx:coord >13.081829 47.809009 10882</gx:coord>
<gx:coord >13.122276 47.845825 10874</gx:coord>
<gx:coord >13.16375 47.883179 10874</gx:coord>
<gx:coord >13.204193 47.919571 10874</gx:coord>
<gx:coord >13.245667 47.956833 10874</gx:coord>
<gx:coord >13.286453 47.993729 10867</gx:coord>
<gx:coord >13.327261 48.03069 10867</gx:coord>
<gx:coord >13.368178 48.067513 10867</gx:coord>
<gx:coord >13.4095 48.104324 10867</gx:coord>
<gx:coord >13.450928 48.141112 10859</gx:coord>
<gx:coord >13.492223 48.177749 10859</gx:coord>
<gx:coord >13.533638 48.214432 10859</gx:coord>
<gx:coord >13.574031 48.250259 10859</gx:coord>
<gx:coord >13.615747 48.28724 10859</gx:coord>
<gx:coord >13.656873 48.323597 10859</gx:coord>
<gx:coord >13.698402 48.360123 10852</gx:coord>
<gx:coord >13.741005 48.397708 10851</gx:coord>
<gx:coord >13.782493 48.434252 10851</gx:coord>
<gx:coord >13.82397 48.470444 10851</gx:coord>
<gx:coord >13.865873 48.507156 10843</gx:coord>
<gx:coord >13.907635 48.54364 10843</gx:coord>
<gx:coord >13.949818 48.580658 10843</gx:coord>
<gx:coord >13.991934 48.617569 10843</gx:coord>
<gx:coord >14.033555 48.653778 10843</gx:coord>
<gx:coord >14.075881 48.690399 10842</gx:coord>
<gx:coord >14.119051 48.727661 10842</gx:coord>
<gx:coord >14.161232 48.764074 10842</gx:coord>
<gx:coord >14.202928 48.799942 10842</gx:coord>
<gx:coord >14.245817 48.836792 10842</gx:coord>
<gx:coord >14.288153 48.873239 10842</gx:coord>
<gx:coord >14.330116 48.909256 10834</gx:coord>
<gx:coord >14.372936 48.946 10834</gx:coord>
<gx:coord >14.415823 48.982681 10835</gx:coord>
<gx:coord >14.45836 49.018982 10835</gx:coord>
<gx:coord >14.501742 49.055923 10828</gx:coord>
<gx:coord >14.544742 49.0925 10828</gx:coord>
<gx:coord >14.587603 49.128904 10828</gx:coord>
<gx:coord >14.631113 49.165787 10820</gx:coord>
<gx:coord >14.662382 49.191696 10820</gx:coord>
<gx:coord >14.687058 49.210836 10820</gx:coord>
<gx:coord >14.72645 49.239931 10820</gx:coord>
<gx:coord >14.774217 49.27478 10820</gx:coord>
<gx:coord >14.82119 49.309479 10820</gx:coord>
<gx:coord >14.867882 49.344543 10820</gx:coord>
<gx:coord >14.91488 49.3801 10820</gx:coord>
<gx:coord >14.961477 49.415314 10820</gx:coord>
<gx:coord >15.008512 49.450534 10820</gx:coord>
<gx:coord >15.055462 49.485764 10813</gx:coord>
<gx:coord >15.102638 49.521153 10813</gx:coord>
<gx:coord >15.148959 49.555695 10820</gx:coord>
<gx:coord >15.196319 49.590842 10813</gx:coord>
<gx:coord >15.242862 49.625477 10813</gx:coord>
<gx:coord >15.289999 49.660531 10814</gx:coord>
<gx:coord >15.338028 49.695957 10814</gx:coord>
<gx:coord >15.385759 49.731011 10814</gx:coord>
<gx:coord >15.433564 49.766297 10814</gx:coord>
<gx:coord >15.480924 49.801212 10814</gx:coord>
<gx:coord >15.527987 49.83594 10814</gx:coord>
<gx:coord >15.576238 49.871319 10806</gx:coord>
<gx:coord >15.624414 49.906513 10806</gx:coord>
<gx:coord >15.662198 49.933746 10807</gx:coord>
<gx:coord >15.680526 49.94545 10807</gx:coord>
<gx:coord >15.693376 49.952646 10799</gx:coord>
<gx:coord >15.706886 49.959489 10807</gx:coord>
<gx:coord >15.723821 49.966965 10799</gx:coord>
<gx:coord >15.747889 49.976532 10807</gx:coord>
<gx:coord >15.809846 50.000781 10807</gx:coord>
<gx:coord >15.871775 50.02597 10799</gx:coord>
<gx:coord >15.93411 50.051663 10807</gx:coord>
<gx:coord >15.996238 50.077148 10807</gx:coord>
<gx:coord >16.057458 50.101959 10807</gx:coord>
<gx:coord >16.119319 50.126938 10807</gx:coord>
<gx:coord >16.181849 50.15213 10807</gx:coord>
<gx:coord >16.241624 50.176163 10807</gx:coord>
<gx:coord >16.303785 50.201095 10799</gx:coord>
<gx:coord >16.36587 50.226013 10799</gx:coord>
<gx:coord >16.428718 50.251092 10799</gx:coord>
<gx:coord >16.489885 50.275486 10799</gx:coord>
<gx:coord >16.551482 50.300034 10799</gx:coord>
<gx:coord >16.614149 50.324831 10800</gx:coord>
<gx:coord >16.676451 50.349426 10800</gx:coord>
<gx:coord >16.73955 50.374374 10800</gx:coord>
<gx:coord >16.802104 50.399035 10800</gx:coord>
<gx:coord >16.865276 50.423894 10800</gx:coord>
<gx:coord >16.928197 50.448578 10800</gx:coord>
<gx:coord >16.991915 50.473519 10800</gx:coord>
<gx:coord >17.055407 50.498291 10801</gx:coord>
<gx:coord >17.119 50.523051 10801</gx:coord>
<gx:coord >17.181801 50.547444 10801</gx:coord>
<gx:coord >17.24616 50.572536 10801</gx:coord>
<gx:coord >17.309183 50.596976 10801</gx:coord>
<gx:coord >17.372637 50.621429 10802</gx:coord>
<gx:coord >17.435953 50.645737 10802</gx:coord>
<gx:coord >17.498994 50.669969 10795</gx:coord>
<gx:coord >17.562239 50.694214 10795</gx:coord>
<gx:coord >17.627029 50.718942 10795</gx:coord>
<gx:coord >17.691193 50.743382 10796</gx:coord>
<gx:coord >17.754898 50.76759 10796</gx:coord>
<gx:coord >17.818711 50.791763 10803</gx:coord>
<gx:coord >17.882614 50.815957 10803</gx:coord>
<gx:coord >17.946315 50.840012 10803</gx:coord>
<gx:coord >18.0106 50.864182 10796</gx:coord>
<gx:coord >18.074143 50.888031 10796</gx:coord>
<gx:coord >18.138428 50.912088 10796</gx:coord>
<gx:coord >18.202861 50.936142 10796</gx:coord>
<gx:coord >18.266907 50.95999 10797</gx:coord>
<gx:coord >18.331223 50.984057 10797</gx:coord>
<gx:coord >18.395048 51.007874 10804</gx:coord>
<gx:coord >18.433762 51.022184 10797</gx:coord>
<gx:coord >18.451004 51.028515 10781</gx:coord>
<gx:coord >18.471222 51.035963 10743</gx:coord>
<gx:coord >18.491475 51.04335 10699</gx:coord>
<gx:coord >18.512878 51.051186 10643</gx:coord>
<gx:coord >18.531189 51.057907 10569</gx:coord>
<gx:coord >18.558581 51.067978 10446</gx:coord>
<gx:coord >18.587457 51.078598 10317</gx:coord>
<gx:coord >18.619896 51.090546 10188</gx:coord>
<gx:coord >18.644022 51.099335 10076</gx:coord>
<gx:coord >18.653641 51.102812 10032</gx:coord>
<gx:coord >18.675613 51.110819 9899</gx:coord>
<gx:coord >18.696652 51.118378 9777</gx:coord>
<gx:coord >18.717288 51.125839 9668</gx:coord>
<gx:coord >18.738741 51.133575 9543</gx:coord>
<gx:coord >18.748689 51.137192 9492</gx:coord>
<gx:coord >18.75824 51.140706 9444</gx:coord>
<gx:coord >18.775264 51.146942 9381</gx:coord>
<gx:coord >18.810078 51.15976 9243</gx:coord>
<gx:coord >18.850479 51.174642 9106</gx:coord>
<gx:coord >18.886261 51.187817 8993</gx:coord>
<gx:coord >18.922614 51.201096 8871</gx:coord>
<gx:coord >18.962784 51.215748 8764</gx:coord>
<gx:coord >19.004364 51.230831 8664</gx:coord>
<gx:coord >19.016571 51.235207 8623</gx:coord>
<gx:coord >19.028244 51.239396 8587</gx:coord>
<gx:coord >19.034805 51.241771 8555</gx:coord>
<gx:coord >19.045616 51.245636 8512</gx:coord>
<gx:coord >19.070816 51.254666 8375</gx:coord>
<gx:coord >19.089966 51.261555 8275</gx:coord>
<gx:coord >19.106858 51.267609 8187</gx:coord>
<gx:coord >19.111633 51.26933 8172</gx:coord>
<gx:coord >19.142227 51.280269 8041</gx:coord>
<gx:coord >19.173741 51.291641 7912</gx:coord>
<gx:coord >19.206922 51.303543 7790</gx:coord>
<gx:coord >19.235056 51.313614 7677</gx:coord>
<gx:coord >19.239733 51.315308 7670</gx:coord>
<gx:coord >19.248863 51.318512 7649</gx:coord>
<gx:coord >19.266902 51.324966 7600</gx:coord>
<gx:coord >19.30481 51.33846 7499</gx:coord>
<gx:coord >19.321976 51.344604 7440</gx:coord>
<gx:coord >19.332733 51.348422 7402</gx:coord>
<gx:coord >19.335863 51.349548 7386</gx:coord>
<gx:coord >19.361801 51.358803 7256</gx:coord>
<gx:coord >19.368377 51.36113 7235</gx:coord>
<gx:coord >19.374084 51.363179 7218</gx:coord>
<gx:coord >19.39035 51.369003 7175</gx:coord>
<gx:coord >19.426193 51.381846 7074</gx:coord>
<gx:coord >19.457975 51.393265 6953</gx:coord>
<gx:coord >19.483956 51.402512 6846</gx:coord>
<gx:coord >19.518509 51.414712 6732</gx:coord>
<gx:coord >19.549132 51.425537 6617</gx:coord>
<gx:coord >19.580307 51.436545 6488</gx:coord>
<gx:coord >19.613953 51.448369 6366</gx:coord>
<gx:coord >19.646672 51.459869 6259</gx:coord>
<gx:coord >19.677108 51.470627 6137</gx:coord>
<gx:coord >19.706879 51.481049 6015</gx:coord>
<gx:coord >19.739532 51.492548 5901</gx:coord>
<gx:coord >19.768829 51.502836 5771</gx:coord>
<gx:coord >19.797586 51.512924 5658</gx:coord>
<gx:coord >19.817963 51.519967 5597</gx:coord>
<gx:coord >19.820709 51.520944 5590</gx:coord>
<gx:coord >19.856567 51.53342 5483</gx:coord>
<gx:coord >19.880726 51.541855 5399</gx:coord>
<gx:coord >19.908563 51.551651 5270</gx:coord>
<gx:coord >19.936066 51.561305 5148</gx:coord>
<gx:coord >19.965744 51.571686 5026</gx:coord>
<gx:coord >19.994449 51.58168 4904</gx:coord>
<gx:coord >20.02288 51.591614 4774</gx:coord>
<gx:coord >20.055542 51.603058 4668</gx:coord>
<gx:coord >20.087313 51.614136 4561</gx:coord>
<gx:coord >20.114482 51.623566 4439</gx:coord>
<gx:coord >20.143284 51.633636 4325</gx:coord>
<gx:coord >20.17461 51.644577 4218</gx:coord>
<gx:coord >20.208664 51.656179 4134</gx:coord>
<gx:coord >20.235554 51.665268 4012</gx:coord>
<gx:coord >20.263391 51.674789 3898</gx:coord>
<gx:coord >20.28774 51.683167 3814</gx:coord>
<gx:coord >20.305557 51.689277 3761</gx:coord>
<gx:coord >20.321664 51.694794 3701</gx:coord>
<gx:coord >20.336584 51.699921 3646</gx:coord>
<gx:coord >20.346985 51.703476 3573</gx:coord>
<gx:coord >20.358186 51.707336 3509</gx:coord>
<gx:coord >20.370954 51.711731 3442</gx:coord>
<gx:coord >20.380478 51.715021 3397</gx:coord>
<gx:coord >20.384983 51.716583 3380</gx:coord>
<gx:coord >20.394821 51.720002 3352</gx:coord>
<gx:coord >20.417942 51.727936 3312</gx:coord>
<gx:coord >20.441742 51.736016 3274</gx:coord>
<gx:coord >20.464401 51.743697 3228</gx:coord>
<gx:coord >20.486607 51.751236 3183</gx:coord>
<gx:coord >20.502014 51.756499 3167</gx:coord>
<gx:coord >20.518723 51.762178 3114</gx:coord>
<gx:coord >20.535278 51.767811 3061</gx:coord>
<gx:coord >20.5513 51.773211 3007</gx:coord>
<gx:coord >20.567149 51.77861 2939</gx:coord>
<gx:coord >20.58296 51.784012 2885</gx:coord>
<gx:coord >20.597916 51.789039 2817</gx:coord>
<gx:coord >20.613327 51.794253 2756</gx:coord>
<gx:coord >20.628761 51.799438 2688</gx:coord>
<gx:coord >20.646206 51.805389 2634</gx:coord>
<gx:coord >20.661621 51.810732 2581</gx:coord>
<gx:coord >20.676804 51.815899 2527</gx:coord>
<gx:coord >20.690994 51.820741 2459</gx:coord>
<gx:coord >20.705888 51.82576 2406</gx:coord>
<gx:coord >20.721283 51.830936 2352</gx:coord>
<gx:coord >20.737585 51.83638 2291</gx:coord>
<gx:coord >20.755157 51.842341 2245</gx:coord>
<gx:coord >20.765915 51.845972 2210</gx:coord>
<gx:coord >20.774033 51.848694 2183</gx:coord>
<gx:coord >20.784351 51.852173 2153</gx:coord>
<gx:coord >20.792313 51.854864 2122</gx:coord>
<gx:coord >20.799495 51.857254 2091</gx:coord>
<gx:coord >20.807363 51.859863 2057</gx:coord>
<gx:coord >20.814285 51.862219 2026</gx:coord>
<gx:coord >20.82222 51.864872 1995</gx:coord>
<gx:coord >20.829468 51.867246 1965</gx:coord>
<gx:coord >20.836165 51.869476 1937</gx:coord>
<gx:coord >20.844108 51.872131 1902</gx:coord>
<gx:coord >20.85116 51.874466 1871</gx:coord>
<gx:coord >20.860519 51.877581 1836</gx:coord>
<gx:coord >20.869675 51.880607 1804</gx:coord>
<gx:coord >20.879669 51.883959 1773</gx:coord>
<gx:coord >20.888901 51.887078 1742</gx:coord>
<gx:coord >20.897852 51.890076 1707</gx:coord>
<gx:coord >20.907057 51.893143 1683</gx:coord>
<gx:coord >20.915756 51.896072 1661</gx:coord>
<gx:coord >20.931152 51.90123 1628</gx:coord>
<gx:coord >20.942217 51.904954 1622</gx:coord>
<gx:coord >20.953064 51.908615 1606</gx:coord>
<gx:coord >20.967026 51.913284 1582</gx:coord>
<gx:coord >20.976868 51.91658 1562</gx:coord>
<gx:coord >20.991577 51.921526 1538</gx:coord>
<gx:coord >21.005936 51.926285 1515</gx:coord>
<gx:coord >21.016312 51.929718 1500</gx:coord>
<gx:coord >21.022025 51.931582 1492</gx:coord>
<gx:coord >21.032854 51.935166 1469</gx:coord>
<gx:coord >21.045096 51.939263 1439</gx:coord>
<gx:coord >21.05569 51.942801 1423</gx:coord>
<gx:coord >21.06652 51.946432 1401</gx:coord>
<gx:coord >21.077652 51.950134 1378</gx:coord>
<gx:coord >21.089554 51.954117 1354</gx:coord>
<gx:coord >21.098633 51.957092 1318</gx:coord>
<gx:coord >21.107247 51.960211 1287</gx:coord>
<gx:coord >21.110306 51.961578 1272</gx:coord>
<gx:coord >21.115173 51.964448 1250</gx:coord>
<gx:coord >21.116507 51.965518 1242</gx:coord>
<gx:coord >21.118698 51.967484 1234</gx:coord>
<gx:coord >21.119489 51.968404 1234</gx:coord>
<gx:coord >21.120117 51.969289 1234</gx:coord>
<gx:coord >21.121687 51.971663 1226</gx:coord>
<gx:coord >21.12255 51.973758 1226</gx:coord>
<gx:coord >21.123256 51.976365 1218</gx:coord>
<gx:coord >21.123492 51.978693 1203</gx:coord>
<gx:coord >21.123335 51.980694 1203</gx:coord>
<gx:coord >21.122864 51.983115 1187</gx:coord>
<gx:coord >21.121826 51.985611 1180</gx:coord>
<gx:coord >21.120353 51.988189 1172</gx:coord>
<gx:coord >21.119156 51.989731 1164</gx:coord>
<gx:coord >21.116714 51.992432 1157</gx:coord>
<gx:coord >21.113815 51.995499 1142</gx:coord>
<gx:coord >21.112061 51.997375 1127</gx:coord>
<gx:coord >21.109759 51.999874 1097</gx:coord>
<gx:coord >21.10662 52.003412 1071</gx:coord>
<gx:coord >21.102829 52.007767 1035</gx:coord>
<gx:coord >21.099472 52.011795 1004</gx:coord>
<gx:coord >21.096115 52.015915 974</gx:coord>
<gx:coord >21.092758 52.020126 951</gx:coord>
<gx:coord >21.085824 52.028643 928</gx:coord>
<gx:coord >21.078949 52.036926 921</gx:coord>
<gx:coord >21.074448 52.042374 889</gx:coord>
<gx:coord >21.070836 52.046612 853</gx:coord>
<gx:coord >21.067461 52.050569 822</gx:coord>
<gx:coord >21.063695 52.054945 798</gx:coord>
<gx:coord >21.059341 52.05986 760</gx:coord>
<gx:coord >21.05569 52.064162 730</gx:coord>
<gx:coord >21.051531 52.068911 699</gx:coord>
<gx:coord >21.048203 52.072769 676</gx:coord>
<gx:coord >21.045646 52.075754 647</gx:coord>
<gx:coord >21.041643 52.080456 623</gx:coord>
<gx:coord >21.0392 52.083252 608</gx:coord>
<gx:coord >21.036682 52.086044 578</gx:coord>
<gx:coord >21.033168 52.089906 562</gx:coord>
<gx:coord >21.029816 52.093826 532</gx:coord>
<gx:coord >21.026263 52.098052 501</gx:coord>
<gx:coord >21.022491 52.102295 486</gx:coord>
<gx:coord >21.018886 52.106385 462</gx:coord>
<gx:coord >21.01593 52.109894 426</gx:coord>
<gx:coord >21.012115 52.114288 410</gx:coord>
<gx:coord >21.008835 52.118134 379</gx:coord>
<gx:coord >21.005173 52.122345 349</gx:coord>
<gx:coord >21.001968 52.126053 319</gx:coord>
<gx:coord >20.998169 52.130406 296</gx:coord>
<gx:coord >20.994795 52.134317 265</gx:coord>
<gx:coord >20.990792 52.138879 235</gx:coord>
<gx:coord >20.98671 52.143448 204</gx:coord>
<gx:coord >20.982971 52.147659 174</gx:coord>
<gx:coord >20.978943 52.152239 151</gx:coord>
<gx:coord >20.975882 52.155777 120</gx:coord>
<gx:coord >20.972595 52.15947 110</gx:coord>
<gx:coord >20.971451 52.160797 115</gx:coord>
<gx:coord >20.970001 52.162445 106</gx:coord>
<gx:coord >20.969055 52.163551 106</gx:coord>
<gx:coord >20.969055 52.163551 106</gx:coord>
</gx:Track>
</Placemark>
<Placemark ><name >HA-LVP</name>
<Style ><LineStyle ><color >ff1c1ae3</color>
<width >4</width>
</LineStyle>
<IconStyle ><Icon ><href >http://maps.google.com/mapfiles/kml/shapes/airports.png</href>
</Icon>
</IconStyle>
</Style>
<gx:Track ><extrude >0</extrude>
<when >2025-08-05T20:35:36.890Z</when>
<when >2025-08-05T20:35:38.330Z</when>
<when >2025-08-05T20:35:39.490Z</when>
<when >2025-08-05T20:35:40.870Z</when>
<when >2025-08-05T20:35:43.510Z</when>
<when >2025-08-05T20:35:46.040Z</when>
<when >2025-08-05T20:35:47.980Z</when>
<when >2025-08-05T20:35:49.280Z</when>
<when >2025-08-05T20:35:51.140Z</when>
<when >2025-08-05T20:35:55.860Z</when>
<when >2025-08-05T20:35:57.340Z</when>
<when >2025-08-05T20:35:59.570Z</when>
<when >2025-08-05T20:36:02.900Z</when>
<when >2025-08-05T20:36:05.130Z</when>
<when >2025-08-05T20:36:07.510Z</when>
<when >2025-08-05T20:36:10.370Z</when>
<when >2025-08-05T20:36:15.570Z</when>
<when >2025-08-05T20:36:17.770Z</when>
<when >2025-08-05T20:36:20.160Z</when>
<when >2025-08-05T20:36:23.340Z</when>
<when >2025-08-05T20:36:27.510Z</when>
<when >2025-08-05T20:36:33.590Z</when>
<when >2025-08-05T20:36:38.400Z</when>
<when >2025-08-05T20:36:43.680Z</when>
<when >2025-08-05T20:36:46.050Z</when>
<when >2025-08-05T20:36:48.190Z</when>
<when >2025-08-05T20:36:49.270Z</when>
<when >2025-08-05T20:36:51.020Z</when>
<when >2025-08-05T20:36:53.080Z</when>
<when >2025-08-05T20:36:54.590Z</when>
<when >2025-08-05T20:37:00.040Z</when>
<when >2025-08-05T20:37:06.390Z</when>
<when >2025-08-05T20:37:15.170Z</when>
<when >2025-08-05T20:37:21.560Z</when>
<when >2025-08-05T20:37:24.810Z</when>
<when >2025-08-05T20:37:27.710Z</when>
<when >2025-08-05T20:37:28.990Z</when>
<when >2025-08-05T20:37:32.320Z</when>
<when >2025-08-05T20:37:34.080Z</when>
<when >2025-08-05T20:37:36.150Z</when>
<when >2025-08-05T20:37:37.310Z</when>
<when >2025-08-05T20:37:39.620Z</when>
<when >2025-08-05T20:37:43.550Z</when>
<when >2025-08-05T20:37:45.960Z</when>
<when >2025-08-05T20:37:52.670Z</when>
<when >2025-08-05T20:37:57.540Z</when>
<when >2025-08-05T20:38:03.740Z</when>
<when >2025-08-05T20:38:11.920Z</when>
<when >2025-08-05T20:38:14.540Z</when>
<when >2025-08-05T20:38:15.400Z</when>
<when >2025-08-05T20:38:16.030Z</when>
<when >2025-08-05T20:38:18.430Z</when>
<when >2025-08-05T20:38:19.520Z</when>
<when >2025-08-05T20:38:21.440Z</when>
<when >2025-08-05T20:38:24.110Z</when>
<when >2025-08-05T20:38:29.510Z</when>
<when >2025-08-05T20:38:33.000Z</when>
<when >2025-08-05T20:38:39.030Z</when>
<when >2025-08-05T20:38:56.830Z</when>
<when >2025-08-05T20:39:16.440Z</when>
<when >2025-08-05T20:39:16.440Z</when>
<gx:coord >20.968741 52.163912 0</gx:coord>
<gx:coord >20.96831 52.164424 0</gx:coord>
<gx:coord >20.967731 52.165089 0</gx:coord>
<gx:coord >20.967598 52.165226 0</gx:coord>
<gx:coord >20.966917 52.166007 0</gx:coord>
<gx:coord >20.966564 52.166403 0</gx:coord>
<gx:coord >20.965995 52.167043 0</gx:coord>
<gx:coord >20.965602 52.167497 0</gx:coord>
<gx:coord >20.965151 52.168032 0</gx:coord>
<gx:coord >20.964347 52.168952 0</gx:coord>
<gx:coord >20.964092 52.169242 0</gx:coord>
<gx:coord >20.963783 52.169598 0</gx:coord>
<gx:coord >20.963444 52.169964 0</gx:coord>
<gx:coord >20.963189 52.170255 0</gx:coord>
<gx:coord >20.96302 52.170502 0</gx:coord>
<gx:coord >20.962817 52.170849 0</gx:coord>
<gx:coord >20.96262 52.171326 0</gx:coord>
<gx:coord >20.962522 52.17164 0</gx:coord>
<gx:coord >20.962448 52.172012 0</gx:coord>
<gx:coord >20.962429 52.172344 0</gx:coord>
<gx:coord >20.962448 52.172665 0</gx:coord>
<gx:coord >20.962467 52.173054 0</gx:coord>
<gx:coord >20.962486 52.173454 0</gx:coord>
<gx:coord >20.962503 52.173607 0</gx:coord>
<gx:coord >20.96262 52.173793 0</gx:coord>
<gx:coord >20.962639 52.173809 0</gx:coord>
<gx:coord >20.962777 52.173909 0</gx:coord>
<gx:coord >20.962906 52.173969 0</gx:coord>
<gx:coord >20.963058 52.174026 0</gx:coord>
<gx:coord >20.963173 52.174061 0</gx:coord>
<gx:coord >20.963573 52.174198 0</gx:coord>
<gx:coord >20.964012 52.174335 0</gx:coord>
<gx:coord >20.964546 52.174519 0</gx:coord>
<gx:coord >20.965099 52.17469 0</gx:coord>
<gx:coord >20.965405 52.174805 0</gx:coord>
<gx:coord >20.965583 52.174899 0</gx:coord>
<gx:coord >20.965614 52.174931 0</gx:coord>
<gx:coord >20.965691 52.175056 0</gx:coord>
<gx:coord >20.9657 52.17512 0</gx:coord>
<gx:coord >20.965681 52.175213 0</gx:coord>
<gx:coord >20.965661 52.175259 0</gx:coord>
<gx:coord >20.965576 52.175388 0</gx:coord>
<gx:coord >20.9655 52.17548 0</gx:coord>
<gx:coord >20.965328 52.175663 0</gx:coord>
<gx:coord >20.965053 52.175993 0</gx:coord>
<gx:coord >20.96487 52.176189 0</gx:coord>
<gx:coord >20.964719 52.176377 0</gx:coord>
<gx:coord >20.964602 52.176516 0</gx:coord>
<gx:coord >20.964508 52.176544 0</gx:coord>
<gx:coord >20.96447 52.176544 0</gx:coord>
<gx:coord >20.964406 52.176551 0</gx:coord>
<gx:coord >20.964222 52.176498 0</gx:coord>
<gx:coord >20.96417 52.17647 0</gx:coord>
<gx:coord >20.964092 52.176435 0</gx:coord>
<gx:coord >20.963994 52.1764 0</gx:coord>
<gx:coord >20.963764 52.176338 0</gx:coord>
<gx:coord >20.963631 52.176281 0</gx:coord>
<gx:coord >20.963444 52.176225 0</gx:coord>
<gx:coord >20.963111 52.176109 0</gx:coord>
<gx:coord >20.963097 52.176109 0</gx:coord>
<gx:coord >20.963097 52.176109 0</gx:coord>
</gx:Track>
</Placemark>
</Folder>
</Folder>
</kml>
