<?xml version="1.0" encoding="UTF-8"?>
<kml xmlns="http://www.opengis.net/kml/2.2" xmlns:gx="http://www.google.com/kml/ext/2.2"><Folder ><Folder ><name >HA-LVP track</name>
<Placemark ><name >HA-LVP</name>
<Style ><LineStyle ><color >ff1c1ae3</color>
<width >4</width>
</LineStyle>
<IconStyle ><Icon ><href >http://maps.google.com/mapfiles/kml/shapes/airports.png</href>
</Icon>
</IconStyle>
</Style>
<gx:Track ><extrude >0</extrude>
<when >2025-08-05T16:09:06.900Z</when>
<when >2025-08-05T16:09:06.900Z</when>
<when >2025-08-05T16:10:26.170Z</when>
<when >2025-08-05T16:11:44.750Z</when>
<when >2025-08-05T16:13:03.980Z</when>
<when >2025-08-05T16:13:42.240Z</when>
<when >2025-08-05T16:13:58.070Z</when>
<when >2025-08-05T16:14:16.490Z</when>
<when >2025-08-05T16:14:24.000Z</when>
<when >2025-08-05T16:14:29.430Z</when>
<when >2025-08-05T16:14:32.840Z</when>
<when >2025-08-05T16:14:36.210Z</when>
<when >2025-08-05T16:14:39.960Z</when>
<when >2025-08-05T16:14:46.990Z</when>
<when >2025-08-05T16:14:48.080Z</when>
<when >2025-08-05T16:14:52.120Z</when>
<when >2025-08-05T16:14:55.370Z</when>
<when >2025-08-05T16:14:57.220Z</when>
<when >2025-08-05T16:15:06.510Z</when>
<when >2025-08-05T16:15:14.210Z</when>
<when >2025-08-05T16:15:18.770Z</when>
<when >2025-08-05T16:15:22.620Z</when>
<when >2025-08-05T16:15:28.260Z</when>
<when >2025-08-05T16:15:35.330Z</when>
<when >2025-08-05T16:15:39.240Z</when>
<when >2025-08-05T16:15:44.020Z</when>
<when >2025-08-05T16:15:50.090Z</when>
<when >2025-08-05T16:15:54.600Z</when>
<when >2025-08-05T16:16:00.940Z</when>
<when >2025-08-05T16:16:06.440Z</when>
<when >2025-08-05T16:16:19.000Z</when>
<when >2025-08-05T16:16:24.880Z</when>
<when >2025-08-05T16:16:31.880Z</when>
<when >2025-08-05T16:16:36.260Z</when>
<when >2025-08-05T16:16:38.880Z</when>
<when >2025-08-05T16:16:39.900Z</when>
<when >2025-08-05T16:16:45.130Z</when>
<when >2025-08-05T16:16:50.210Z</when>
<when >2025-08-05T16:16:52.830Z</when>
<when >2025-08-05T16:16:57.270Z</when>
<when >2025-08-05T16:17:04.400Z</when>
<when >2025-08-05T16:17:12.410Z</when>
<when >2025-08-05T16:17:16.670Z</when>
<when >2025-08-05T16:17:26.150Z</when>
<when >2025-08-05T16:17:30.810Z</when>
<when >2025-08-05T16:17:38.870Z</when>
<when >2025-08-05T16:17:45.130Z</when>
<when >2025-08-05T16:17:50.180Z</when>
<when >2025-08-05T16:17:55.070Z</when>
<when >2025-08-05T16:18:00.480Z</when>
<when >2025-08-05T16:18:04.290Z</when>
<when >2025-08-05T16:18:16.800Z</when>
<when >2025-08-05T16:18:23.930Z</when>
<when >2025-08-05T16:18:25.910Z</when>
<when >2025-08-05T16:18:29.240Z</when>
<when >2025-08-05T16:18:30.840Z</when>
<when >2025-08-05T16:18:32.630Z</when>
<when >2025-08-05T16:18:38.370Z</when>
<when >2025-08-05T16:18:44.850Z</when>
<when >2025-08-05T16:18:47.450Z</when>
<when >2025-08-05T16:18:49.980Z</when>
<when >2025-08-05T16:18:49.980Z</when>
<when >2025-08-05T16:18:52.520Z</when>
<when >2025-08-05T16:18:52.520Z</when>
<when >2025-08-05T16:18:54.690Z</when>
<when >2025-08-05T16:18:54.690Z</when>
<gx:coord >20.968227 52.170044 0</gx:coord>
<gx:coord >20.968227 52.170044 0</gx:coord>
<gx:coord >20.968227 52.170044 0</gx:coord>
<gx:coord >20.968231 52.170034 0</gx:coord>
<gx:coord >20.968231 52.170034 0</gx:coord>
<gx:coord >20.968231 52.170034 0</gx:coord>
<gx:coord >20.968231 52.170034 0</gx:coord>
<gx:coord >20.968231 52.170034 0</gx:coord>
<gx:coord >20.968113 52.170045 0</gx:coord>
<gx:coord >20.968037 52.170044 0</gx:coord>
<gx:coord >20.967957 52.170045 0</gx:coord>
<gx:coord >20.967917 52.170034 0</gx:coord>
<gx:coord >20.9678 52.169999 0</gx:coord>
<gx:coord >20.967655 52.169941 0</gx:coord>
<gx:coord >20.967564 52.169778 0</gx:coord>
<gx:coord >20.967682 52.169615 0</gx:coord>
<gx:coord >20.967751 52.169575 0</gx:coord>
<gx:coord >20.967846 52.169495 0</gx:coord>
<gx:coord >20.968074 52.169219 0</gx:coord>
<gx:coord >20.968447 52.168812 0</gx:coord>
<gx:coord >20.968545 52.168695 0</gx:coord>
<gx:coord >20.968819 52.168373 0</gx:coord>
<gx:coord >20.969016 52.16816 0</gx:coord>
<gx:coord >20.969429 52.167686 0</gx:coord>
<gx:coord >20.969658 52.167412 0</gx:coord>
<gx:coord >20.969982 52.167046 0</gx:coord>
<gx:coord >20.970291 52.166705 0</gx:coord>
<gx:coord >20.970459 52.166508 0</gx:coord>
<gx:coord >20.970688 52.166233 0</gx:coord>
<gx:coord >20.970939 52.165949 0</gx:coord>
<gx:coord >20.97147 52.16534 0</gx:coord>
<gx:coord >20.971699 52.165066 0</gx:coord>
<gx:coord >20.972042 52.164677 0</gx:coord>
<gx:coord >20.972312 52.164401 0</gx:coord>
<gx:coord >20.97239 52.164331 0</gx:coord>
<gx:coord >20.972614 52.164219 0</gx:coord>
<gx:coord >20.972672 52.164207 0</gx:coord>
<gx:coord >20.973116 52.164075 0</gx:coord>
<gx:coord >20.973854 52.163864 0</gx:coord>
<gx:coord >20.974097 52.163796 0</gx:coord>
<gx:coord >20.975018 52.163532 0</gx:coord>
<gx:coord >20.97559 52.163383 0</gx:coord>
<gx:coord >20.976157 52.163214 0</gx:coord>
<gx:coord >20.977306 52.162891 0</gx:coord>
<gx:coord >20.978099 52.162679 0</gx:coord>
<gx:coord >20.978737 52.162502 0</gx:coord>
<gx:coord >20.979708 52.162225 0</gx:coord>
<gx:coord >20.980493 52.162004 0</gx:coord>
<gx:coord >20.980885 52.161887 0</gx:coord>
<gx:coord >20.98175 52.161655 0</gx:coord>
<gx:coord >20.98216 52.16162 0</gx:coord>
<gx:coord >20.982704 52.161564 0</gx:coord>
<gx:coord >20.982513 52.161369 0</gx:coord>
<gx:coord >20.982304 52.161415 0</gx:coord>
<gx:coord >20.982219 52.161457 0</gx:coord>
<gx:coord >20.982121 52.161503 0</gx:coord>
<gx:coord >20.982023 52.161538 0</gx:coord>
<gx:coord >20.981731 52.161655 0</gx:coord>
<gx:coord >20.981522 52.161713 0</gx:coord>
<gx:coord >20.980873 52.161907 0</gx:coord>
<gx:coord >20.979824 52.162193 0</gx:coord>
<gx:coord >20.979649 52.162236 0</gx:coord>
<gx:coord >20.979214 52.162365 0</gx:coord>
<gx:coord >20.978315 52.162609 0</gx:coord>
<gx:coord >20.977879 52.162731 0</gx:coord>
<gx:coord >20.977879 52.162731 0</gx:coord>
</gx:Track>
</Placemark>
<Placemark ><name >HA-LVP</name>
<Style ><LineStyle ><color >ff1c1ae3</color>
<width >4</width>
</LineStyle>
<IconStyle ><Icon ><href >http://maps.google.com/mapfiles/kml/shapes/airports.png</href>
</Icon>
</IconStyle>
</Style>
<gx:Track ><altitudeMode >absolute</altitudeMode>
<extrude >1</extrude>
<when >2025-08-05T16:18:59.670Z</when>
<when >2025-08-05T16:19:01.200Z</when>
<when >2025-08-05T16:19:06.100Z</when>
<when >2025-08-05T16:19:07.710Z</when>
<when >2025-08-05T16:19:10.940Z</when>
<when >2025-08-05T16:19:13.120Z</when>
<when >2025-08-05T16:19:15.020Z</when>
<when >2025-08-05T16:19:17.750Z</when>
<when >2025-08-05T16:19:19.460Z</when>
<when >2025-08-05T16:19:21.680Z</when>
<when >2025-08-05T16:19:24.630Z</when>
<when >2025-08-05T16:19:26.580Z</when>
<when >2025-08-05T16:19:29.410Z</when>
<when >2025-08-05T16:19:31.470Z</when>
<when >2025-08-05T16:19:33.850Z</when>
<when >2025-08-05T16:19:36.140Z</when>
<when >2025-08-05T16:19:37.830Z</when>
<when >2025-08-05T16:19:39.880Z</when>
<when >2025-08-05T16:19:41.910Z</when>
<when >2025-08-05T16:19:43.940Z</when>
<when >2025-08-05T16:19:45.080Z</when>
<when >2025-08-05T16:19:47.850Z</when>
<when >2025-08-05T16:19:49.580Z</when>
<when >2025-08-05T16:19:52.250Z</when>
<when >2025-08-05T16:19:53.950Z</when>
<when >2025-08-05T16:19:56.150Z</when>
<when >2025-08-05T16:19:58.110Z</when>
<when >2025-08-05T16:20:00.430Z</when>
<when >2025-08-05T16:20:02.660Z</when>
<when >2025-08-05T16:20:04.760Z</when>
<when >2025-08-05T16:20:06.640Z</when>
<when >2025-08-05T16:20:09.250Z</when>
<when >2025-08-05T16:20:11.680Z</when>
<when >2025-08-05T16:20:14.300Z</when>
<when >2025-08-05T16:20:15.570Z</when>
<when >2025-08-05T16:20:18.050Z</when>
<when >2025-08-05T16:20:20.380Z</when>
<when >2025-08-05T16:20:21.840Z</when>
<when >2025-08-05T16:20:23.190Z</when>
<when >2025-08-05T16:20:25.270Z</when>
<when >2025-08-05T16:20:27.280Z</when>
<when >2025-08-05T16:20:30.430Z</when>
<when >2025-08-05T16:20:32.990Z</when>
<when >2025-08-05T16:20:35.750Z</when>
<when >2025-08-05T16:20:39.080Z</when>
<when >2025-08-05T16:20:42.150Z</when>
<when >2025-08-05T16:20:44.610Z</when>
<when >2025-08-05T16:20:46.940Z</when>
<when >2025-08-05T16:20:50.550Z</when>
<when >2025-08-05T16:20:52.510Z</when>
<when >2025-08-05T16:20:55.540Z</when>
<when >2025-08-05T16:20:58.960Z</when>
<when >2025-08-05T16:21:02.120Z</when>
<when >2025-08-05T16:21:03.610Z</when>
<when >2025-08-05T16:21:05.920Z</when>
<when >2025-08-05T16:21:08.420Z</when>
<when >2025-08-05T16:21:10.500Z</when>
<when >2025-08-05T16:21:13.810Z</when>
<when >2025-08-05T16:21:14.390Z</when>
<when >2025-08-05T16:21:17.240Z</when>
<when >2025-08-05T16:21:19.910Z</when>
<when >2025-08-05T16:21:22.050Z</when>
<when >2025-08-05T16:21:23.350Z</when>
<when >2025-08-05T16:21:25.120Z</when>
<when >2025-08-05T16:21:26.880Z</when>
<when >2025-08-05T16:21:29.900Z</when>
<when >2025-08-05T16:21:33.040Z</when>
<when >2025-08-05T16:21:35.760Z</when>
<when >2025-08-05T16:21:38.900Z</when>
<when >2025-08-05T16:21:40.900Z</when>
<when >2025-08-05T16:21:43.300Z</when>
<when >2025-08-05T16:21:45.840Z</when>
<when >2025-08-05T16:21:47.490Z</when>
<when >2025-08-05T16:21:49.270Z</when>
<when >2025-08-05T16:21:51.880Z</when>
<when >2025-08-05T16:21:53.760Z</when>
<when >2025-08-05T16:21:55.640Z</when>
<when >2025-08-05T16:21:58.220Z</when>
<when >2025-08-05T16:21:59.730Z</when>
<when >2025-08-05T16:22:01.920Z</when>
<when >2025-08-05T16:22:03.740Z</when>
<when >2025-08-05T16:22:06.910Z</when>
<when >2025-08-05T16:22:10.130Z</when>
<when >2025-08-05T16:22:12.590Z</when>
<when >2025-08-05T16:22:14.120Z</when>
<when >2025-08-05T16:22:16.780Z</when>
<when >2025-08-05T16:22:19.510Z</when>
<when >2025-08-05T16:22:22.720Z</when>
<when >2025-08-05T16:22:25.710Z</when>
<when >2025-08-05T16:22:29.020Z</when>
<when >2025-08-05T16:22:32.050Z</when>
<when >2025-08-05T16:22:35.210Z</when>
<when >2025-08-05T16:22:38.580Z</when>
<when >2025-08-05T16:22:42.120Z</when>
<when >2025-08-05T16:22:45.620Z</when>
<when >2025-08-05T16:22:49.010Z</when>
<when >2025-08-05T16:22:52.570Z</when>
<when >2025-08-05T16:22:56.650Z</when>
<when >2025-08-05T16:23:00.630Z</when>
<when >2025-08-05T16:23:05.120Z</when>
<when >2025-08-05T16:23:06.860Z</when>
<when >2025-08-05T16:23:08.040Z</when>
<when >2025-08-05T16:23:12.060Z</when>
<when >2025-08-05T16:23:19.140Z</when>
<when >2025-08-05T16:23:23.520Z</when>
<when >2025-08-05T16:23:26.930Z</when>
<when >2025-08-05T16:23:30.660Z</when>
<when >2025-08-05T16:23:33.930Z</when>
<when >2025-08-05T16:23:38.330Z</when>
<when >2025-08-05T16:23:43.430Z</when>
<when >2025-08-05T16:23:47.620Z</when>
<when >2025-08-05T16:23:52.200Z</when>
<when >2025-08-05T16:23:56.620Z</when>
<when >2025-08-05T16:24:05.430Z</when>
<when >2025-08-05T16:24:14.630Z</when>
<when >2025-08-05T16:24:20.610Z</when>
<when >2025-08-05T16:24:31.000Z</when>
<when >2025-08-05T16:24:32.500Z</when>
<when >2025-08-05T16:24:40.460Z</when>
<when >2025-08-05T16:24:47.680Z</when>
<when >2025-08-05T16:24:52.620Z</when>
<when >2025-08-05T16:24:56.350Z</when>
<when >2025-08-05T16:25:06.380Z</when>
<when >2025-08-05T16:25:15.890Z</when>
<when >2025-08-05T16:25:25.200Z</when>
<when >2025-08-05T16:25:35.820Z</when>
<when >2025-08-05T16:25:45.270Z</when>
<when >2025-08-05T16:25:54.000Z</when>
<when >2025-08-05T16:26:02.770Z</when>
<when >2025-08-05T16:26:11.040Z</when>
<when >2025-08-05T16:26:21.930Z</when>
<when >2025-08-05T16:26:32.550Z</when>
<when >2025-08-05T16:26:43.240Z</when>
<when >2025-08-05T16:26:54.790Z</when>
<when >2025-08-05T16:27:07.810Z</when>
<when >2025-08-05T16:27:18.460Z</when>
<when >2025-08-05T16:27:28.820Z</when>
<when >2025-08-05T16:27:38.930Z</when>
<when >2025-08-05T16:27:50.530Z</when>
<when >2025-08-05T16:28:03.010Z</when>
<when >2025-08-05T16:28:16.190Z</when>
<when >2025-08-05T16:28:29.030Z</when>
<when >2025-08-05T16:28:41.380Z</when>
<when >2025-08-05T16:28:54.370Z</when>
<when >2025-08-05T16:29:07.140Z</when>
<when >2025-08-05T16:29:19.840Z</when>
<when >2025-08-05T16:29:32.670Z</when>
<when >2025-08-05T16:29:45.300Z</when>
<when >2025-08-05T16:29:56.050Z</when>
<when >2025-08-05T16:30:03.710Z</when>
<when >2025-08-05T16:30:17.460Z</when>
<when >2025-08-05T16:30:31.500Z</when>
<when >2025-08-05T16:30:44.150Z</when>
<when >2025-08-05T16:30:56.800Z</when>
<when >2025-08-05T16:31:10.170Z</when>
<when >2025-08-05T16:31:23.690Z</when>
<when >2025-08-05T16:31:38.390Z</when>
<when >2025-08-05T16:31:51.980Z</when>
<when >2025-08-05T16:32:06.560Z</when>
<when >2025-08-05T16:32:21.900Z</when>
<when >2025-08-05T16:32:35.540Z</when>
<when >2025-08-05T16:32:49.760Z</when>
<when >2025-08-05T16:33:04.860Z</when>
<when >2025-08-05T16:33:18.310Z</when>
<when >2025-08-05T16:33:33.120Z</when>
<when >2025-08-05T16:33:48.810Z</when>
<when >2025-08-05T16:34:03.050Z</when>
<when >2025-08-05T16:34:18.260Z</when>
<when >2025-08-05T16:34:34.580Z</when>
<when >2025-08-05T16:34:50.780Z</when>
<when >2025-08-05T16:35:05.850Z</when>
<when >2025-08-05T16:35:19.480Z</when>
<when >2025-08-05T16:35:32.690Z</when>
<when >2025-08-05T16:35:46.100Z</when>
<when >2025-08-05T16:35:59.610Z</when>
<when >2025-08-05T16:36:13.030Z</when>
<when >2025-08-05T16:36:25.800Z</when>
<when >2025-08-05T16:36:38.840Z</when>
<when >2025-08-05T16:36:52.680Z</when>
<when >2025-08-05T16:37:05.540Z</when>
<when >2025-08-05T16:37:18.410Z</when>
<when >2025-08-05T16:37:31.800Z</when>
<when >2025-08-05T16:37:47.760Z</when>
<when >2025-08-05T16:38:03.890Z</when>
<when >2025-08-05T16:38:19.570Z</when>
<when >2025-08-05T16:38:36.220Z</when>
<when >2025-08-05T16:38:52.710Z</when>
<when >2025-08-05T16:39:09.000Z</when>
<when >2025-08-05T16:39:20.140Z</when>
<when >2025-08-05T16:39:26.320Z</when>
<when >2025-08-05T16:39:45.860Z</when>
<when >2025-08-05T16:40:05.790Z</when>
<when >2025-08-05T16:40:25.560Z</when>
<when >2025-08-05T16:40:45.000Z</when>
<when >2025-08-05T16:41:04.760Z</when>
<when >2025-08-05T16:41:24.090Z</when>
<when >2025-08-05T16:41:43.930Z</when>
<when >2025-08-05T16:42:03.790Z</when>
<when >2025-08-05T16:42:23.730Z</when>
<when >2025-08-05T16:42:43.340Z</when>
<when >2025-08-05T16:43:02.970Z</when>
<when >2025-08-05T16:43:22.790Z</when>
<when >2025-08-05T16:43:42.690Z</when>
<when >2025-08-05T16:44:02.690Z</when>
<when >2025-08-05T16:44:22.590Z</when>
<when >2025-08-05T16:44:42.360Z</when>
<when >2025-08-05T16:45:02.020Z</when>
<when >2025-08-05T16:45:21.950Z</when>
<when >2025-08-05T16:45:41.760Z</when>
<when >2025-08-05T16:46:01.740Z</when>
<when >2025-08-05T16:46:21.340Z</when>
<when >2025-08-05T16:46:40.800Z</when>
<when >2025-08-05T16:46:48.870Z</when>
<when >2025-08-05T16:46:57.000Z</when>
<when >2025-08-05T16:47:05.640Z</when>
<when >2025-08-05T16:47:14.820Z</when>
<when >2025-08-05T16:47:23.130Z</when>
<when >2025-08-05T16:47:32.040Z</when>
<when >2025-08-05T16:47:41.030Z</when>
<when >2025-08-05T16:47:50.220Z</when>
<when >2025-08-05T16:48:10.210Z</when>
<when >2025-08-05T16:48:29.810Z</when>
<when >2025-08-05T16:48:49.660Z</when>
<when >2025-08-05T16:49:09.550Z</when>
<when >2025-08-05T16:49:29.260Z</when>
<when >2025-08-05T16:49:48.970Z</when>
<when >2025-08-05T16:50:08.610Z</when>
<when >2025-08-05T16:50:28.090Z</when>
<when >2025-08-05T16:50:47.260Z</when>
<when >2025-08-05T16:51:06.940Z</when>
<when >2025-08-05T16:51:26.860Z</when>
<when >2025-08-05T16:51:46.610Z</when>
<when >2025-08-05T16:52:05.840Z</when>
<when >2025-08-05T16:52:25.790Z</when>
<when >2025-08-05T16:52:45.540Z</when>
<when >2025-08-05T16:53:05.180Z</when>
<when >2025-08-05T16:53:25.150Z</when>
<when >2025-08-05T16:53:45.140Z</when>
<when >2025-08-05T16:54:04.590Z</when>
<when >2025-08-05T16:54:24.440Z</when>
<when >2025-08-05T16:54:44.410Z</when>
<when >2025-08-05T16:55:03.870Z</when>
<when >2025-08-05T16:55:23.680Z</when>
<when >2025-08-05T16:55:43.240Z</when>
<when >2025-08-05T16:56:02.940Z</when>
<when >2025-08-05T16:56:22.920Z</when>
<when >2025-08-05T16:56:42.780Z</when>
<when >2025-08-05T16:57:02.320Z</when>
<when >2025-08-05T16:57:22.130Z</when>
<when >2025-08-05T16:57:41.830Z</when>
<when >2025-08-05T16:58:01.730Z</when>
<when >2025-08-05T16:58:21.530Z</when>
<when >2025-08-05T16:58:40.800Z</when>
<when >2025-08-05T16:59:00.150Z</when>
<when >2025-08-05T16:59:20.120Z</when>
<when >2025-08-05T16:59:40.090Z</when>
<when >2025-08-05T16:59:59.680Z</when>
<when >2025-08-05T17:00:07.270Z</when>
<when >2025-08-05T17:00:18.920Z</when>
<when >2025-08-05T17:00:34.500Z</when>
<when >2025-08-05T17:00:51.540Z</when>
<when >2025-08-05T17:01:08.320Z</when>
<when >2025-08-05T17:01:24.510Z</when>
<when >2025-08-05T17:01:40.530Z</when>
<when >2025-08-05T17:01:55.470Z</when>
<when >2025-08-05T17:02:05.670Z</when>
<when >2025-08-05T17:02:12.930Z</when>
<when >2025-08-05T17:02:32.390Z</when>
<when >2025-08-05T17:02:52.000Z</when>
<when >2025-08-05T17:03:11.690Z</when>
<when >2025-08-05T17:03:31.510Z</when>
<when >2025-08-05T17:03:51.160Z</when>
<when >2025-08-05T17:04:10.800Z</when>
<when >2025-08-05T17:04:30.350Z</when>
<when >2025-08-05T17:04:49.810Z</when>
<when >2025-08-05T17:05:09.520Z</when>
<when >2025-08-05T17:05:29.350Z</when>
<when >2025-08-05T17:05:49.250Z</when>
<when >2025-08-05T17:06:08.810Z</when>
<when >2025-08-05T17:06:28.350Z</when>
<when >2025-08-05T17:06:48.250Z</when>
<when >2025-08-05T17:07:08.010Z</when>
<when >2025-08-05T17:07:27.750Z</when>
<when >2025-08-05T17:07:47.050Z</when>
<when >2025-08-05T17:08:06.390Z</when>
<when >2025-08-05T17:08:25.880Z</when>
<when >2025-08-05T17:08:45.530Z</when>
<when >2025-08-05T17:09:05.510Z</when>
<when >2025-08-05T17:09:25.090Z</when>
<when >2025-08-05T17:09:44.770Z</when>
<when >2025-08-05T17:10:04.520Z</when>
<when >2025-08-05T17:10:24.320Z</when>
<when >2025-08-05T17:10:44.120Z</when>
<when >2025-08-05T17:11:03.730Z</when>
<when >2025-08-05T17:11:22.920Z</when>
<when >2025-08-05T17:11:42.750Z</when>
<when >2025-08-05T17:12:02.120Z</when>
<when >2025-08-05T17:12:21.520Z</when>
<when >2025-08-05T17:12:41.010Z</when>
<when >2025-08-05T17:13:00.800Z</when>
<when >2025-08-05T17:13:20.750Z</when>
<when >2025-08-05T17:13:40.610Z</when>
<when >2025-08-05T17:14:00.070Z</when>
<when >2025-08-05T17:14:20.040Z</when>
<when >2025-08-05T17:14:39.940Z</when>
<when >2025-08-05T17:14:59.870Z</when>
<when >2025-08-05T17:15:19.750Z</when>
<when >2025-08-05T17:15:39.450Z</when>
<when >2025-08-05T17:15:58.900Z</when>
<when >2025-08-05T17:16:18.610Z</when>
<when >2025-08-05T17:16:38.140Z</when>
<when >2025-08-05T17:16:58.010Z</when>
<when >2025-08-05T17:17:17.470Z</when>
<when >2025-08-05T17:17:37.030Z</when>
<when >2025-08-05T17:17:56.890Z</when>
<when >2025-08-05T17:18:16.410Z</when>
<when >2025-08-05T17:18:35.970Z</when>
<when >2025-08-05T17:18:55.680Z</when>
<when >2025-08-05T17:19:15.040Z</when>
<when >2025-08-05T17:19:34.970Z</when>
<when >2025-08-05T17:19:54.850Z</when>
<when >2025-08-05T17:20:14.490Z</when>
<when >2025-08-05T17:20:33.960Z</when>
<when >2025-08-05T17:20:53.770Z</when>
<when >2025-08-05T17:21:13.520Z</when>
<when >2025-08-05T17:21:33.440Z</when>
<when >2025-08-05T17:21:53.000Z</when>
<when >2025-08-05T17:22:12.580Z</when>
<when >2025-08-05T17:22:32.500Z</when>
<when >2025-08-05T17:22:52.220Z</when>
<when >2025-08-05T17:23:11.910Z</when>
<when >2025-08-05T17:23:31.430Z</when>
<when >2025-08-05T17:23:51.140Z</when>
<when >2025-08-05T17:24:10.940Z</when>
<when >2025-08-05T17:24:30.400Z</when>
<when >2025-08-05T17:24:50.290Z</when>
<when >2025-08-05T17:25:10.210Z</when>
<when >2025-08-05T17:25:29.780Z</when>
<when >2025-08-05T17:25:49.600Z</when>
<when >2025-08-05T17:26:09.590Z</when>
<when >2025-08-05T17:26:21.660Z</when>
<when >2025-08-05T17:26:30.590Z</when>
<when >2025-08-05T17:26:46.950Z</when>
<when >2025-08-05T17:27:03.010Z</when>
<when >2025-08-05T17:27:19.180Z</when>
<when >2025-08-05T17:27:25.260Z</when>
<when >2025-08-05T17:27:33.140Z</when>
<when >2025-08-05T17:27:52.690Z</when>
<when >2025-08-05T17:28:12.690Z</when>
<when >2025-08-05T17:28:32.430Z</when>
<when >2025-08-05T17:28:52.400Z</when>
<when >2025-08-05T17:29:12.140Z</when>
<when >2025-08-05T17:29:31.590Z</when>
<when >2025-08-05T17:29:51.230Z</when>
<when >2025-08-05T17:30:11.090Z</when>
<when >2025-08-05T17:30:30.870Z</when>
<when >2025-08-05T17:30:50.680Z</when>
<when >2025-08-05T17:30:56.260Z</when>
<when >2025-08-05T17:31:01.420Z</when>
<when >2025-08-05T17:31:06.890Z</when>
<when >2025-08-05T17:31:12.180Z</when>
<when >2025-08-05T17:31:21.260Z</when>
<when >2025-08-05T17:31:39.110Z</when>
<when >2025-08-05T17:31:58.570Z</when>
<when >2025-08-05T17:32:12.290Z</when>
<when >2025-08-05T17:32:19.720Z</when>
<when >2025-08-05T17:32:35.980Z</when>
<when >2025-08-05T17:32:52.170Z</when>
<when >2025-08-05T17:33:08.860Z</when>
<when >2025-08-05T17:33:24.630Z</when>
<when >2025-08-05T17:33:40.110Z</when>
<when >2025-08-05T17:33:51.960Z</when>
<when >2025-08-05T17:33:56.870Z</when>
<when >2025-08-05T17:34:04.480Z</when>
<when >2025-08-05T17:34:12.980Z</when>
<when >2025-08-05T17:34:20.900Z</when>
<when >2025-08-05T17:34:28.360Z</when>
<when >2025-08-05T17:34:35.540Z</when>
<when >2025-08-05T17:34:41.570Z</when>
<when >2025-08-05T17:34:46.700Z</when>
<when >2025-08-05T17:34:50.040Z</when>
<when >2025-08-05T17:34:51.290Z</when>
<when >2025-08-05T17:35:07.260Z</when>
<when >2025-08-05T17:35:22.060Z</when>
<when >2025-08-05T17:35:37.920Z</when>
<when >2025-08-05T17:35:53.940Z</when>
<when >2025-08-05T17:36:10.420Z</when>
<when >2025-08-05T17:36:26.220Z</when>
<when >2025-08-05T17:36:37.030Z</when>
<when >2025-08-05T17:36:44.420Z</when>
<when >2025-08-05T17:37:04.200Z</when>
<when >2025-08-05T17:37:19.680Z</when>
<when >2025-08-05T17:37:27.170Z</when>
<when >2025-08-05T17:37:30.600Z</when>
<when >2025-08-05T17:37:42.200Z</when>
<when >2025-08-05T17:37:52.920Z</when>
<when >2025-08-05T17:38:04.230Z</when>
<when >2025-08-05T17:38:15.830Z</when>
<when >2025-08-05T17:38:25.160Z</when>
<when >2025-08-05T17:38:35.840Z</when>
<when >2025-08-05T17:38:46.750Z</when>
<when >2025-08-05T17:38:58.270Z</when>
<when >2025-08-05T17:39:09.880Z</when>
<when >2025-08-05T17:39:22.340Z</when>
<when >2025-08-05T17:39:35.770Z</when>
<when >2025-08-05T17:39:50.590Z</when>
<when >2025-08-05T17:40:06.560Z</when>
<when >2025-08-05T17:40:22.580Z</when>
<when >2025-08-05T17:40:38.830Z</when>
<when >2025-08-05T17:40:55.020Z</when>
<when >2025-08-05T17:41:02.630Z</when>
<when >2025-08-05T17:41:12.950Z</when>
<when >2025-08-05T17:41:32.900Z</when>
<when >2025-08-05T17:41:52.850Z</when>
<when >2025-08-05T17:42:12.390Z</when>
<when >2025-08-05T17:42:31.970Z</when>
<when >2025-08-05T17:42:46.390Z</when>
<when >2025-08-05T17:42:53.710Z</when>
<when >2025-08-05T17:43:09.960Z</when>
<when >2025-08-05T17:43:25.660Z</when>
<when >2025-08-05T17:43:41.970Z</when>
<when >2025-08-05T17:43:58.200Z</when>
<when >2025-08-05T17:44:13.230Z</when>
<when >2025-08-05T17:44:28.010Z</when>
<when >2025-08-05T17:44:40.810Z</when>
<when >2025-08-05T17:45:00.290Z</when>
<when >2025-08-05T17:45:16.890Z</when>
<when >2025-08-05T17:45:32.500Z</when>
<when >2025-08-05T17:45:48.760Z</when>
<when >2025-08-05T17:46:04.330Z</when>
<when >2025-08-05T17:46:19.050Z</when>
<when >2025-08-05T17:46:35.230Z</when>
<when >2025-08-05T17:46:52.130Z</when>
<when >2025-08-05T17:47:08.540Z</when>
<when >2025-08-05T17:47:23.550Z</when>
<when >2025-08-05T17:47:38.650Z</when>
<when >2025-08-05T17:47:49.490Z</when>
<when >2025-08-05T17:47:56.700Z</when>
<when >2025-08-05T17:48:15.960Z</when>
<when >2025-08-05T17:48:35.410Z</when>
<when >2025-08-05T17:48:54.960Z</when>
<when >2025-08-05T17:49:12.970Z</when>
<when >2025-08-05T17:49:16.600Z</when>
<when >2025-08-05T17:49:19.430Z</when>
<when >2025-08-05T17:49:22.380Z</when>
<when >2025-08-05T17:49:25.460Z</when>
<when >2025-08-05T17:49:28.840Z</when>
<when >2025-08-05T17:49:34.570Z</when>
<when >2025-08-05T17:49:49.950Z</when>
<when >2025-08-05T17:49:55.840Z</when>
<when >2025-08-05T17:50:00.890Z</when>
<when >2025-08-05T17:50:17.020Z</when>
<when >2025-08-05T17:50:33.040Z</when>
<when >2025-08-05T17:50:46.910Z</when>
<when >2025-08-05T17:50:59.620Z</when>
<when >2025-08-05T17:51:09.540Z</when>
<when >2025-08-05T17:51:26.110Z</when>
<when >2025-08-05T17:51:43.110Z</when>
<when >2025-08-05T17:51:58.050Z</when>
<when >2025-08-05T17:52:14.440Z</when>
<when >2025-08-05T17:52:30.480Z</when>
<when >2025-08-05T17:52:37.040Z</when>
<when >2025-08-05T17:52:56.670Z</when>
<when >2025-08-05T17:53:06.530Z</when>
<when >2025-08-05T17:53:11.130Z</when>
<when >2025-08-05T17:53:23.970Z</when>
<when >2025-08-05T17:53:38.540Z</when>
<when >2025-08-05T17:53:47.110Z</when>
<when >2025-08-05T17:53:51.150Z</when>
<when >2025-08-05T17:53:56.540Z</when>
<when >2025-08-05T17:54:02.770Z</when>
<when >2025-08-05T17:54:08.170Z</when>
<when >2025-08-05T17:54:13.070Z</when>
<when >2025-08-05T17:54:18.440Z</when>
<when >2025-08-05T17:54:22.910Z</when>
<when >2025-08-05T17:54:31.160Z</when>
<when >2025-08-05T17:54:35.010Z</when>
<when >2025-08-05T17:54:37.920Z</when>
<when >2025-08-05T17:54:40.680Z</when>
<when >2025-08-05T17:54:44.950Z</when>
<when >2025-08-05T17:54:47.010Z</when>
<when >2025-08-05T17:54:48.740Z</when>
<when >2025-08-05T17:54:51.320Z</when>
<when >2025-08-05T17:54:54.600Z</when>
<when >2025-08-05T17:54:57.160Z</when>
<when >2025-08-05T17:55:00.150Z</when>
<when >2025-08-05T17:55:04.100Z</when>
<when >2025-08-05T17:55:07.620Z</when>
<when >2025-08-05T17:55:15.790Z</when>
<when >2025-08-05T17:55:19.960Z</when>
<when >2025-08-05T17:55:27.210Z</when>
<when >2025-08-05T17:55:31.940Z</when>
<when >2025-08-05T17:55:36.150Z</when>
<when >2025-08-05T17:55:44.040Z</when>
<when >2025-08-05T17:55:49.580Z</when>
<when >2025-08-05T17:55:57.000Z</when>
<when >2025-08-05T17:56:06.390Z</when>
<when >2025-08-05T17:56:16.170Z</when>
<when >2025-08-05T17:56:24.620Z</when>
<when >2025-08-05T17:56:33.210Z</when>
<when >2025-08-05T17:56:42.120Z</when>
<when >2025-08-05T17:56:45.820Z</when>
<when >2025-08-05T17:56:49.320Z</when>
<when >2025-08-05T17:56:54.190Z</when>
<when >2025-08-05T17:57:05.010Z</when>
<when >2025-08-05T17:57:14.020Z</when>
<when >2025-08-05T17:57:22.760Z</when>
<when >2025-08-05T17:57:31.450Z</when>
<when >2025-08-05T17:57:41.790Z</when>
<when >2025-08-05T17:57:49.030Z</when>
<when >2025-08-05T17:57:56.330Z</when>
<when >2025-08-05T17:58:04.360Z</when>
<when >2025-08-05T17:58:11.860Z</when>
<when >2025-08-05T17:58:16.510Z</when>
<when >2025-08-05T17:58:23.350Z</when>
<when >2025-08-05T17:58:29.770Z</when>
<when >2025-08-05T17:58:36.240Z</when>
<when >2025-08-05T17:58:42.830Z</when>
<when >2025-08-05T17:58:48.840Z</when>
<when >2025-08-05T17:58:54.200Z</when>
<when >2025-08-05T17:58:59.100Z</when>
<when >2025-08-05T17:59:03.830Z</when>
<when >2025-08-05T17:59:09.540Z</when>
<when >2025-08-05T17:59:13.280Z</when>
<when >2025-08-05T17:59:15.500Z</when>
<when >2025-08-05T17:59:18.740Z</when>
<when >2025-08-05T17:59:31.440Z</when>
<when >2025-08-05T17:59:40.700Z</when>
<when >2025-08-05T17:59:45.350Z</when>
<when >2025-08-05T17:59:49.390Z</when>
<when >2025-08-05T17:59:51.740Z</when>
<when >2025-08-05T17:59:53.360Z</when>
<when >2025-08-05T17:59:56.030Z</when>
<when >2025-08-05T17:59:58.370Z</when>
<when >2025-08-05T18:00:00.350Z</when>
<when >2025-08-05T18:00:03.250Z</when>
<when >2025-08-05T18:00:06.490Z</when>
<when >2025-08-05T18:00:08.700Z</when>
<when >2025-08-05T18:00:11.990Z</when>
<when >2025-08-05T18:00:14.290Z</when>
<when >2025-08-05T18:00:17.430Z</when>
<when >2025-08-05T18:00:36.830Z</when>
<when >2025-08-05T18:00:52.840Z</when>
<when >2025-08-05T18:00:56.420Z</when>
<when >2025-08-05T18:00:59.600Z</when>
<when >2025-08-05T18:01:03.090Z</when>
<when >2025-08-05T18:01:07.400Z</when>
<when >2025-08-05T18:01:14.570Z</when>
<when >2025-08-05T18:01:17.530Z</when>
<when >2025-08-05T18:01:19.850Z</when>
<when >2025-08-05T18:01:23.360Z</when>
<when >2025-08-05T18:01:25.320Z</when>
<when >2025-08-05T18:01:27.240Z</when>
<when >2025-08-05T18:01:29.840Z</when>
<when >2025-08-05T18:01:32.620Z</when>
<when >2025-08-05T18:01:35.810Z</when>
<when >2025-08-05T18:01:38.010Z</when>
<when >2025-08-05T18:01:41.130Z</when>
<when >2025-08-05T18:01:43.960Z</when>
<when >2025-08-05T18:01:46.890Z</when>
<when >2025-08-05T18:01:48.860Z</when>
<when >2025-08-05T18:01:50.440Z</when>
<when >2025-08-05T18:01:53.010Z</when>
<when >2025-08-05T18:01:54.770Z</when>
<when >2025-08-05T18:01:57.870Z</when>
<when >2025-08-05T18:02:00.900Z</when>
<when >2025-08-05T18:02:06.800Z</when>
<when >2025-08-05T18:02:26.230Z</when>
<when >2025-08-05T18:02:39.540Z</when>
<when >2025-08-05T18:02:58.960Z</when>
<when >2025-08-05T18:03:18.490Z</when>
<when >2025-08-05T18:03:37.980Z</when>
<when >2025-08-05T18:03:57.530Z</when>
<when >2025-08-05T18:04:16.580Z</when>
<when >2025-08-05T18:04:30.160Z</when>
<when >2025-08-05T18:04:35.390Z</when>
<when >2025-08-05T18:04:40.390Z</when>
<when >2025-08-05T18:04:45.060Z</when>
<when >2025-08-05T18:04:49.820Z</when>
<when >2025-08-05T18:04:54.250Z</when>
<when >2025-08-05T18:04:59.620Z</when>
<when >2025-08-05T18:05:04.860Z</when>
<when >2025-08-05T18:05:13.570Z</when>
<when >2025-08-05T18:05:16.430Z</when>
<when >2025-08-05T18:05:22.270Z</when>
<when >2025-08-05T18:05:27.970Z</when>
<when >2025-08-05T18:05:33.950Z</when>
<when >2025-08-05T18:05:40.890Z</when>
<when >2025-08-05T18:05:44.610Z</when>
<when >2025-08-05T18:05:51.480Z</when>
<when >2025-08-05T18:05:57.320Z</when>
<when >2025-08-05T18:06:04.100Z</when>
<when >2025-08-05T18:06:06.760Z</when>
<when >2025-08-05T18:06:14.440Z</when>
<when >2025-08-05T18:06:17.190Z</when>
<when >2025-08-05T18:06:19.230Z</when>
<when >2025-08-05T18:06:21.050Z</when>
<when >2025-08-05T18:06:22.590Z</when>
<when >2025-08-05T18:06:24.110Z</when>
<when >2025-08-05T18:06:26.720Z</when>
<when >2025-08-05T18:06:29.190Z</when>
<when >2025-08-05T18:06:31.400Z</when>
<when >2025-08-05T18:06:33.920Z</when>
<when >2025-08-05T18:06:38.250Z</when>
<when >2025-08-05T18:06:41.980Z</when>
<when >2025-08-05T18:06:45.800Z</when>
<when >2025-08-05T18:06:51.170Z</when>
<when >2025-08-05T18:06:55.000Z</when>
<when >2025-08-05T18:07:02.700Z</when>
<when >2025-08-05T18:07:07.640Z</when>
<when >2025-08-05T18:07:15.650Z</when>
<when >2025-08-05T18:07:20.750Z</when>
<when >2025-08-05T18:07:26.700Z</when>
<when >2025-08-05T18:07:30.400Z</when>
<when >2025-08-05T18:07:34.970Z</when>
<when >2025-08-05T18:07:40.860Z</when>
<when >2025-08-05T18:07:46.250Z</when>
<when >2025-08-05T18:07:49.120Z</when>
<when >2025-08-05T18:07:54.000Z</when>
<when >2025-08-05T18:08:01.450Z</when>
<when >2025-08-05T18:08:05.910Z</when>
<when >2025-08-05T18:08:12.990Z</when>
<when >2025-08-05T18:08:15.930Z</when>
<when >2025-08-05T18:08:18.670Z</when>
<when >2025-08-05T18:08:25.980Z</when>
<when >2025-08-05T18:08:34.070Z</when>
<when >2025-08-05T18:08:42.410Z</when>
<when >2025-08-05T18:08:50.680Z</when>
<when >2025-08-05T18:08:58.280Z</when>
<when >2025-08-05T18:09:07.420Z</when>
<when >2025-08-05T18:09:16.060Z</when>
<when >2025-08-05T18:09:24.390Z</when>
<when >2025-08-05T18:09:31.740Z</when>
<when >2025-08-05T18:09:40.120Z</when>
<when >2025-08-05T18:09:48.370Z</when>
<when >2025-08-05T18:09:55.660Z</when>
<when >2025-08-05T18:09:58.890Z</when>
<when >2025-08-05T18:10:10.310Z</when>
<when >2025-08-05T18:10:10.310Z</when>
<gx:coord >20.974313 52.163738 105</gx:coord>
<gx:coord >20.972824 52.164139 105</gx:coord>
<gx:coord >20.969448 52.165088 105</gx:coord>
<gx:coord >20.96756 52.165649 112</gx:coord>
<gx:coord >20.963954 52.166624 101</gx:coord>
<gx:coord >20.962372 52.167068 108</gx:coord>
<gx:coord >20.959952 52.167741 121</gx:coord>
<gx:coord >20.956879 52.168579 155</gx:coord>
<gx:coord >20.9552 52.169037 170</gx:coord>
<gx:coord >20.952301 52.169861 202</gx:coord>
<gx:coord >20.948887 52.17086 232</gx:coord>
<gx:coord >20.946769 52.171465 264</gx:coord>
<gx:coord >20.94368 52.172379 294</gx:coord>
<gx:coord >20.941391 52.173065 328</gx:coord>
<gx:coord >20.939102 52.173706 360</gx:coord>
<gx:coord >20.936356 52.17453 391</gx:coord>
<gx:coord >20.934841 52.174957 413</gx:coord>
<gx:coord >20.932173 52.175702 445</gx:coord>
<gx:coord >20.930099 52.176315 475</gx:coord>
<gx:coord >20.92804 52.17691 500</gx:coord>
<gx:coord >20.926208 52.177414 529</gx:coord>
<gx:coord >20.923538 52.178192 563</gx:coord>
<gx:coord >20.921343 52.178821 597</gx:coord>
<gx:coord >20.918597 52.179612 629</gx:coord>
<gx:coord >20.916443 52.180161 661</gx:coord>
<gx:coord >20.914307 52.180801 694</gx:coord>
<gx:coord >20.911636 52.181534 724</gx:coord>
<gx:coord >20.909195 52.18222 756</gx:coord>
<gx:coord >20.906825 52.182778 789</gx:coord>
<gx:coord >20.904312 52.183319 820</gx:coord>
<gx:coord >20.901947 52.18364 853</gx:coord>
<gx:coord >20.899057 52.183895 882</gx:coord>
<gx:coord >20.896072 52.18396 912</gx:coord>
<gx:coord >20.893799 52.183848 945</gx:coord>
<gx:coord >20.891445 52.183615 976</gx:coord>
<gx:coord >20.88862 52.183243 1010</gx:coord>
<gx:coord >20.886154 52.182907 1040</gx:coord>
<gx:coord >20.884225 52.182591 1064</gx:coord>
<gx:coord >20.882577 52.182359 1090</gx:coord>
<gx:coord >20.88028 52.181992 1122</gx:coord>
<gx:coord >20.877947 52.181614 1153</gx:coord>
<gx:coord >20.874337 52.181009 1177</gx:coord>
<gx:coord >20.871277 52.180496 1208</gx:coord>
<gx:coord >20.868059 52.179984 1230</gx:coord>
<gx:coord >20.863743 52.179286 1264</gx:coord>
<gx:coord >20.860447 52.178727 1281</gx:coord>
<gx:coord >20.856681 52.178169 1306</gx:coord>
<gx:coord >20.853385 52.177657 1330</gx:coord>
<gx:coord >20.848694 52.17691 1362</gx:coord>
<gx:coord >20.845851 52.176446 1378</gx:coord>
<gx:coord >20.841599 52.175812 1401</gx:coord>
<gx:coord >20.836563 52.175079 1435</gx:coord>
<gx:coord >20.832118 52.174398 1456</gx:coord>
<gx:coord >20.829773 52.174072 1471</gx:coord>
<gx:coord >20.826187 52.173523 1488</gx:coord>
<gx:coord >20.82222 52.172974 1510</gx:coord>
<gx:coord >20.81917 52.172536 1527</gx:coord>
<gx:coord >20.814148 52.171791 1555</gx:coord>
<gx:coord >20.813285 52.171698 1563</gx:coord>
<gx:coord >20.808576 52.171 1588</gx:coord>
<gx:coord >20.803868 52.170348 1617</gx:coord>
<gx:coord >20.800258 52.169836 1640</gx:coord>
<gx:coord >20.797904 52.16951 1655</gx:coord>
<gx:coord >20.795236 52.169091 1663</gx:coord>
<gx:coord >20.791931 52.168625 1688</gx:coord>
<gx:coord >20.786682 52.167881 1719</gx:coord>
<gx:coord >20.780945 52.167068 1751</gx:coord>
<gx:coord >20.776215 52.166382 1782</gx:coord>
<gx:coord >20.770438 52.165553 1815</gx:coord>
<gx:coord >20.766525 52.165009 1844</gx:coord>
<gx:coord >20.762826 52.164483 1875</gx:coord>
<gx:coord >20.758039 52.163784 1906</gx:coord>
<gx:coord >20.754471 52.163269 1937</gx:coord>
<gx:coord >20.751134 52.16276 1968</gx:coord>
<gx:coord >20.746613 52.162033 2002</gx:coord>
<gx:coord >20.742874 52.161346 2031</gx:coord>
<gx:coord >20.739049 52.160526 2063</gx:coord>
<gx:coord >20.734711 52.159378 2094</gx:coord>
<gx:coord >20.731735 52.158463 2116</gx:coord>
<gx:coord >20.728455 52.157318 2149</gx:coord>
<gx:coord >20.725002 52.155963 2181</gx:coord>
<gx:coord >20.720293 52.153636 2228</gx:coord>
<gx:coord >20.715561 52.150864 2273</gx:coord>
<gx:coord >20.712289 52.148469 2313</gx:coord>
<gx:coord >20.710449 52.146881 2345</gx:coord>
<gx:coord >20.707703 52.144272 2383</gx:coord>
<gx:coord >20.705148 52.141253 2431</gx:coord>
<gx:coord >20.702744 52.137497 2482</gx:coord>
<gx:coord >20.700989 52.133926 2533</gx:coord>
<gx:coord >20.699419 52.13008 2601</gx:coord>
<gx:coord >20.698013 52.126144 2662</gx:coord>
<gx:coord >20.696673 52.122399 2729</gx:coord>
<gx:coord >20.695103 52.118116 2790</gx:coord>
<gx:coord >20.693534 52.11416 2861</gx:coord>
<gx:coord >20.691681 52.109711 2916</gx:coord>
<gx:coord >20.689926 52.105682 2979</gx:coord>
<gx:coord >20.687884 52.101218 3040</gx:coord>
<gx:coord >20.685577 52.096252 3103</gx:coord>
<gx:coord >20.683332 52.091442 3168</gx:coord>
<gx:coord >20.680771 52.086227 3233</gx:coord>
<gx:coord >20.679644 52.083854 3258</gx:coord>
<gx:coord >20.678938 52.082411 3267</gx:coord>
<gx:coord >20.676422 52.077393 3297</gx:coord>
<gx:coord >20.67211 52.068725 3352</gx:coord>
<gx:coord >20.668658 52.062906 3376</gx:coord>
<gx:coord >20.665588 52.058716 3395</gx:coord>
<gx:coord >20.661469 52.054276 3418</gx:coord>
<gx:coord >20.656887 52.050243 3449</gx:coord>
<gx:coord >20.651001 52.045542 3495</gx:coord>
<gx:coord >20.643616 52.040039 3549</gx:coord>
<gx:coord >20.637268 52.035393 3624</gx:coord>
<gx:coord >20.630493 52.030334 3678</gx:coord>
<gx:coord >20.624084 52.025478 3746</gx:coord>
<gx:coord >20.611038 52.015457 3862</gx:coord>
<gx:coord >20.59761 52.004929 4000</gx:coord>
<gx:coord >20.589007 51.998058 4074</gx:coord>
<gx:coord >20.573547 51.985675 4197</gx:coord>
<gx:coord >20.571136 51.98378 4220</gx:coord>
<gx:coord >20.56005 51.974875 4342</gx:coord>
<gx:coord >20.549622 51.966568 4467</gx:coord>
<gx:coord >20.541763 51.960342 4561</gx:coord>
<gx:coord >20.536037 51.955742 4612</gx:coord>
<gx:coord >20.521317 51.943954 4737</gx:coord>
<gx:coord >20.507278 51.932877 4874</gx:coord>
<gx:coord >20.49324 51.921799 4996</gx:coord>
<gx:coord >20.47699 51.909027 5118</gx:coord>
<gx:coord >20.462875 51.897903 5240</gx:coord>
<gx:coord >20.448971 51.886917 5362</gx:coord>
<gx:coord >20.435758 51.87648 5484</gx:coord>
<gx:coord >20.423213 51.866592 5591</gx:coord>
<gx:coord >20.406808 51.853546 5720</gx:coord>
<gx:coord >20.389808 51.839951 5842</gx:coord>
<gx:coord >20.373535 51.826932 5964</gx:coord>
<gx:coord >20.35553 51.812594 6093</gx:coord>
<gx:coord >20.335388 51.796534 6208</gx:coord>
<gx:coord >20.317878 51.782501 6314</gx:coord>
<gx:coord >20.301472 51.769409 6444</gx:coord>
<gx:coord >20.285034 51.756406 6558</gx:coord>
<gx:coord >20.266658 51.741714 6680</gx:coord>
<gx:coord >20.246467 51.72551 6786</gx:coord>
<gx:coord >20.224865 51.708298 6893</gx:coord>
<gx:coord >20.203709 51.691269 6999</gx:coord>
<gx:coord >20.183444 51.675018 7114</gx:coord>
<gx:coord >20.161896 51.657668 7220</gx:coord>
<gx:coord >20.139944 51.639999 7327</gx:coord>
<gx:coord >20.119085 51.623245 7434</gx:coord>
<gx:coord >20.096893 51.60539 7540</gx:coord>
<gx:coord >20.075362 51.588043 7647</gx:coord>
<gx:coord >20.057297 51.573502 7769</gx:coord>
<gx:coord >20.04425 51.562981 7830</gx:coord>
<gx:coord >20.020801 51.544052 7937</gx:coord>
<gx:coord >19.997025 51.524808 8028</gx:coord>
<gx:coord >19.974976 51.506932 8134</gx:coord>
<gx:coord >19.953308 51.489382 8240</gx:coord>
<gx:coord >19.930313 51.470673 8347</gx:coord>
<gx:coord >19.906484 51.451263 8438</gx:coord>
<gx:coord >19.881023 51.430435 8530</gx:coord>
<gx:coord >19.85733 51.411035 8621</gx:coord>
<gx:coord >19.831085 51.389667 8728</gx:coord>
<gx:coord >19.804382 51.367974 8819</gx:coord>
<gx:coord >19.779282 51.347491 8911</gx:coord>
<gx:coord >19.753863 51.326706 9018</gx:coord>
<gx:coord >19.726868 51.304523 9109</gx:coord>
<gx:coord >19.702606 51.284599 9199</gx:coord>
<gx:coord >19.6754 51.262207 9291</gx:coord>
<gx:coord >19.647266 51.239044 9382</gx:coord>
<gx:coord >19.62059 51.217191 9481</gx:coord>
<gx:coord >19.592557 51.194092 9565</gx:coord>
<gx:coord >19.563013 51.169601 9641</gx:coord>
<gx:coord >19.533543 51.145248 9725</gx:coord>
<gx:coord >19.5047 51.12134 9816</gx:coord>
<gx:coord >19.478389 51.099518 9915</gx:coord>
<gx:coord >19.453669 51.078964 10014</gx:coord>
<gx:coord >19.428727 51.058273 10113</gx:coord>
<gx:coord >19.403934 51.037766 10212</gx:coord>
<gx:coord >19.378586 51.016691 10311</gx:coord>
<gx:coord >19.354553 50.996627 10418</gx:coord>
<gx:coord >19.330667 50.976608 10523</gx:coord>
<gx:coord >19.305131 50.955231 10615</gx:coord>
<gx:coord >19.281158 50.935224 10729</gx:coord>
<gx:coord >19.257355 50.9153 10828</gx:coord>
<gx:coord >19.2332 50.895035 10927</gx:coord>
<gx:coord >19.203805 50.870361 11019</gx:coord>
<gx:coord >19.174706 50.845871 11095</gx:coord>
<gx:coord >19.145829 50.821564 11185</gx:coord>
<gx:coord >19.115601 50.796079 11269</gx:coord>
<gx:coord >19.085617 50.770895 11345</gx:coord>
<gx:coord >19.056454 50.746353 11429</gx:coord>
<gx:coord >19.036115 50.729141 11482</gx:coord>
<gx:coord >19.025351 50.719986 11490</gx:coord>
<gx:coord >18.990165 50.689865 11497</gx:coord>
<gx:coord >18.954756 50.659635 11497</gx:coord>
<gx:coord >18.919571 50.629702 11497</gx:coord>
<gx:coord >18.884459 50.599955 11504</gx:coord>
<gx:coord >18.848902 50.569789 11504</gx:coord>
<gx:coord >18.814015 50.540039 11504</gx:coord>
<gx:coord >18.778604 50.50969 11503</gx:coord>
<gx:coord >18.742824 50.478873 11503</gx:coord>
<gx:coord >18.70697 50.448074 11511</gx:coord>
<gx:coord >18.672204 50.418137 11511</gx:coord>
<gx:coord >18.636571 50.387329 11511</gx:coord>
<gx:coord >18.601082 50.356842 11511</gx:coord>
<gx:coord >18.565484 50.326135 11511</gx:coord>
<gx:coord >18.529482 50.295177 11511</gx:coord>
<gx:coord >18.49437 50.264779 11511</gx:coord>
<gx:coord >18.459127 50.234024 11510</gx:coord>
<gx:coord >18.424443 50.203656 11510</gx:coord>
<gx:coord >18.389183 50.172745 11510</gx:coord>
<gx:coord >18.354468 50.142334 11510</gx:coord>
<gx:coord >18.318763 50.111206 11510</gx:coord>
<gx:coord >18.283922 50.080758 11502</gx:coord>
<gx:coord >18.249664 50.050781 11502</gx:coord>
<gx:coord >18.234486 50.038422 11502</gx:coord>
<gx:coord >18.219091 50.026794 11502</gx:coord>
<gx:coord >18.202177 50.014893 11502</gx:coord>
<gx:coord >18.182879 50.002258 11502</gx:coord>
<gx:coord >18.164854 49.991238 11501</gx:coord>
<gx:coord >18.145109 49.979926 11501</gx:coord>
<gx:coord >18.124623 49.969025 11501</gx:coord>
<gx:coord >18.103517 49.958588 11509</gx:coord>
<gx:coord >18.056247 49.935883 11509</gx:coord>
<gx:coord >18.010006 49.913216 11509</gx:coord>
<gx:coord >17.963225 49.890335 11524</gx:coord>
<gx:coord >17.916677 49.867584 11517</gx:coord>
<gx:coord >17.870347 49.844925 11517</gx:coord>
<gx:coord >17.825028 49.822586 11524</gx:coord>
<gx:coord >17.778997 49.799862 11517</gx:coord>
<gx:coord >17.733492 49.77761 11517</gx:coord>
<gx:coord >17.689 49.755753 11516</gx:coord>
<gx:coord >17.643375 49.733385 11508</gx:coord>
<gx:coord >17.596917 49.710617 11516</gx:coord>
<gx:coord >17.551599 49.688278 11516</gx:coord>
<gx:coord >17.50664 49.665931 11516</gx:coord>
<gx:coord >17.462026 49.643772 11508</gx:coord>
<gx:coord >17.414666 49.62017 11516</gx:coord>
<gx:coord >17.36983 49.597778 11516</gx:coord>
<gx:coord >17.323509 49.574595 11516</gx:coord>
<gx:coord >17.277857 49.551738 11516</gx:coord>
<gx:coord >17.232489 49.529068 11516</gx:coord>
<gx:coord >17.187071 49.50635 11516</gx:coord>
<gx:coord >17.141418 49.483446 11516</gx:coord>
<gx:coord >17.096657 49.460868 11516</gx:coord>
<gx:coord >17.051301 49.437964 11516</gx:coord>
<gx:coord >17.006273 49.415222 11508</gx:coord>
<gx:coord >16.961271 49.392471 11523</gx:coord>
<gx:coord >16.915354 49.369171 11523</gx:coord>
<gx:coord >16.87023 49.346303 11516</gx:coord>
<gx:coord >16.824928 49.323303 11531</gx:coord>
<gx:coord >16.779592 49.300216 11531</gx:coord>
<gx:coord >16.734713 49.277206 11531</gx:coord>
<gx:coord >16.688937 49.25386 11522</gx:coord>
<gx:coord >16.643709 49.230714 11522</gx:coord>
<gx:coord >16.599908 49.208136 11522</gx:coord>
<gx:coord >16.556044 49.185562 11530</gx:coord>
<gx:coord >16.510831 49.162445 11530</gx:coord>
<gx:coord >16.465542 49.139239 11522</gx:coord>
<gx:coord >16.42111 49.116394 11522</gx:coord>
<gx:coord >16.403744 49.107444 11499</gx:coord>
<gx:coord >16.377796 49.093943 11446</gx:coord>
<gx:coord >16.343079 49.07579 11355</gx:coord>
<gx:coord >16.304838 49.055923 11278</gx:coord>
<gx:coord >16.26716 49.036377 11201</gx:coord>
<gx:coord >16.230328 49.017197 11110</gx:coord>
<gx:coord >16.194763 48.998795 11026</gx:coord>
<gx:coord >16.160527 48.981054 10942</gx:coord>
<gx:coord >16.13793 48.969177 10904</gx:coord>
<gx:coord >16.121732 48.960663 10896</gx:coord>
<gx:coord >16.077552 48.937481 10889</gx:coord>
<gx:coord >16.033679 48.914578 10889</gx:coord>
<gx:coord >15.989589 48.891534 10889</gx:coord>
<gx:coord >15.94581 48.868561 10889</gx:coord>
<gx:coord >15.901987 48.845401 10889</gx:coord>
<gx:coord >15.857753 48.821985 10889</gx:coord>
<gx:coord >15.814024 48.798849 10889</gx:coord>
<gx:coord >15.770874 48.776047 10889</gx:coord>
<gx:coord >15.726506 48.752609 10889</gx:coord>
<gx:coord >15.682209 48.729034 10889</gx:coord>
<gx:coord >15.638616 48.705872 10889</gx:coord>
<gx:coord >15.594442 48.682282 10896</gx:coord>
<gx:coord >15.550514 48.658813 10889</gx:coord>
<gx:coord >15.506263 48.635171 10888</gx:coord>
<gx:coord >15.46206 48.611526 10895</gx:coord>
<gx:coord >15.418466 48.588135 10895</gx:coord>
<gx:coord >15.375944 48.565343 10888</gx:coord>
<gx:coord >15.332548 48.542038 10895</gx:coord>
<gx:coord >15.289729 48.519012 10895</gx:coord>
<gx:coord >15.248301 48.496678 10888</gx:coord>
<gx:coord >15.203054 48.472285 10888</gx:coord>
<gx:coord >15.159795 48.448883 10888</gx:coord>
<gx:coord >15.116826 48.425546 10880</gx:coord>
<gx:coord >15.074182 48.402363 10880</gx:coord>
<gx:coord >15.030742 48.378715 10880</gx:coord>
<gx:coord >14.987535 48.355179 10881</gx:coord>
<gx:coord >14.943936 48.331371 10889</gx:coord>
<gx:coord >14.901942 48.308421 10896</gx:coord>
<gx:coord >14.858375 48.2845 10896</gx:coord>
<gx:coord >14.815768 48.261108 10904</gx:coord>
<gx:coord >14.773214 48.237755 10904</gx:coord>
<gx:coord >14.730714 48.214385 10904</gx:coord>
<gx:coord >14.68689 48.190292 10904</gx:coord>
<gx:coord >14.643185 48.16625 10904</gx:coord>
<gx:coord >14.600006 48.142365 10904</gx:coord>
<gx:coord >14.557228 48.118698 10904</gx:coord>
<gx:coord >14.514038 48.094757 10896</gx:coord>
<gx:coord >14.470848 48.07077 10896</gx:coord>
<gx:coord >14.427373 48.046518 10896</gx:coord>
<gx:coord >14.384906 48.022823 10897</gx:coord>
<gx:coord >14.343201 47.999588 10897</gx:coord>
<gx:coord >14.299974 47.975386 10897</gx:coord>
<gx:coord >14.257576 47.95166 10896</gx:coord>
<gx:coord >14.215279 47.927856 10904</gx:coord>
<gx:coord >14.172775 47.903961 10904</gx:coord>
<gx:coord >14.131024 47.880559 10889</gx:coord>
<gx:coord >14.08905 47.856957 10889</gx:coord>
<gx:coord >14.046089 47.832733 10904</gx:coord>
<gx:coord >14.00447 47.809241 10904</gx:coord>
<gx:coord >13.96225 47.785309 10904</gx:coord>
<gx:coord >13.920296 47.761505 10904</gx:coord>
<gx:coord >13.878754 47.73793 10896</gx:coord>
<gx:coord >13.836013 47.713623 10896</gx:coord>
<gx:coord >13.793617 47.689416 10896</gx:coord>
<gx:coord >13.752911 47.666233 10896</gx:coord>
<gx:coord >13.711075 47.642349 10895</gx:coord>
<gx:coord >13.668503 47.617905 10895</gx:coord>
<gx:coord >13.626639 47.593844 10903</gx:coord>
<gx:coord >13.584243 47.569497 10911</gx:coord>
<gx:coord >13.542551 47.545569 10918</gx:coord>
<gx:coord >13.500824 47.521591 10911</gx:coord>
<gx:coord >13.4579 47.496829 10918</gx:coord>
<gx:coord >13.416023 47.472656 10918</gx:coord>
<gx:coord >13.374069 47.448441 10918</gx:coord>
<gx:coord >13.332253 47.424179 10918</gx:coord>
<gx:coord >13.29071 47.400047 10911</gx:coord>
<gx:coord >13.248737 47.375561 10911</gx:coord>
<gx:coord >13.207283 47.351395 10911</gx:coord>
<gx:coord >13.165604 47.327087 10911</gx:coord>
<gx:coord >13.1231 47.302322 10910</gx:coord>
<gx:coord >13.081125 47.277894 10910</gx:coord>
<gx:coord >13.039433 47.253547 10910</gx:coord>
<gx:coord >12.997319 47.228781 10910</gx:coord>
<gx:coord >12.971695 47.213699 10910</gx:coord>
<gx:coord >12.952675 47.20253 10871</gx:coord>
<gx:coord >12.918936 47.182648 10788</gx:coord>
<gx:coord >12.884834 47.162521 10711</gx:coord>
<gx:coord >12.850905 47.142474 10634</gx:coord>
<gx:coord >12.838074 47.134872 10606</gx:coord>
<gx:coord >12.822031 47.125436 10605</gx:coord>
<gx:coord >12.78055 47.100949 10596</gx:coord>
<gx:coord >12.739704 47.076835 10596</gx:coord>
<gx:coord >12.697586 47.051834 10596</gx:coord>
<gx:coord >12.656109 47.027117 10604</gx:coord>
<gx:coord >12.614983 47.002579 10604</gx:coord>
<gx:coord >12.573921 46.978134 10604</gx:coord>
<gx:coord >12.533272 46.953827 10604</gx:coord>
<gx:coord >12.492279 46.929337 10603</gx:coord>
<gx:coord >12.45082 46.904592 10595</gx:coord>
<gx:coord >12.409691 46.880105 10595</gx:coord>
<gx:coord >12.397719 46.873728 10595</gx:coord>
<gx:coord >12.38631 46.868421 10595</gx:coord>
<gx:coord >12.373486 46.863281 10595</gx:coord>
<gx:coord >12.360992 46.858971 10595</gx:coord>
<gx:coord >12.338814 46.851708 10595</gx:coord>
<gx:coord >12.295644 46.837234 10595</gx:coord>
<gx:coord >12.248952 46.820984 10595</gx:coord>
<gx:coord >12.216529 46.809586 10580</gx:coord>
<gx:coord >12.199905 46.803713 10557</gx:coord>
<gx:coord >12.159737 46.789421 10466</gx:coord>
<gx:coord >12.121422 46.775782 10389</gx:coord>
<gx:coord >12.082214 46.761978 10306</gx:coord>
<gx:coord >12.0439 46.748502 10222</gx:coord>
<gx:coord >12.007645 46.735747 10130</gx:coord>
<gx:coord >11.979836 46.725924 10062</gx:coord>
<gx:coord >11.968781 46.722014 10024</gx:coord>
<gx:coord >11.951134 46.715729 9932</gx:coord>
<gx:coord >11.932251 46.709026 9810</gx:coord>
<gx:coord >11.912888 46.702136 9696</gx:coord>
<gx:coord >11.896477 46.696317 9574</gx:coord>
<gx:coord >11.878632 46.690018 9438</gx:coord>
<gx:coord >11.865784 46.685424 9368</gx:coord>
<gx:coord >11.852394 46.680675 9305</gx:coord>
<gx:coord >11.845596 46.678255 9279</gx:coord>
<gx:coord >11.842056 46.676971 9271</gx:coord>
<gx:coord >11.805011 46.663788 9178</gx:coord>
<gx:coord >11.769037 46.650879 9094</gx:coord>
<gx:coord >11.732506 46.637754 9003</gx:coord>
<gx:coord >11.694466 46.624021 8919</gx:coord>
<gx:coord >11.65636 46.610367 8843</gx:coord>
<gx:coord >11.619759 46.597347 8751</gx:coord>
<gx:coord >11.594765 46.588502 8705</gx:coord>
<gx:coord >11.578423 46.58273 8690</gx:coord>
<gx:coord >11.531868 46.56611 8667</gx:coord>
<gx:coord >11.498085 46.553867 8606</gx:coord>
<gx:coord >11.480919 46.547676 8561</gx:coord>
<gx:coord >11.473709 46.545069 8530</gx:coord>
<gx:coord >11.449697 46.536392 8416</gx:coord>
<gx:coord >11.425369 46.527612 8286</gx:coord>
<gx:coord >11.401799 46.519135 8157</gx:coord>
<gx:coord >11.379021 46.510946 8035</gx:coord>
<gx:coord >11.356705 46.502846 7898</gx:coord>
<gx:coord >11.33501 46.49501 7783</gx:coord>
<gx:coord >11.310492 46.48613 7661</gx:coord>
<gx:coord >11.286442 46.477341 7540</gx:coord>
<gx:coord >11.262259 46.468506 7433</gx:coord>
<gx:coord >11.237138 46.459305 7311</gx:coord>
<gx:coord >11.209351 46.449171 7212</gx:coord>
<gx:coord >11.179929 46.438568 7120</gx:coord>
<gx:coord >11.147104 46.426483 7037</gx:coord>
<gx:coord >11.114882 46.414536 6945</gx:coord>
<gx:coord >11.082994 46.402863 6869</gx:coord>
<gx:coord >11.050571 46.391098 6785</gx:coord>
<gx:coord >11.035767 46.385742 6762</gx:coord>
<gx:coord >11.015717 46.378412 6739</gx:coord>
<gx:coord >10.976615 46.36409 6739</gx:coord>
<gx:coord >10.937426 46.349716 6739</gx:coord>
<gx:coord >10.900246 46.336029 6739</gx:coord>
<gx:coord >10.863469 46.322479 6747</gx:coord>
<gx:coord >10.834236 46.311702 6724</gx:coord>
<gx:coord >10.82026 46.306549 6694</gx:coord>
<gx:coord >10.789646 46.295197 6610</gx:coord>
<gx:coord >10.760305 46.284348 6526</gx:coord>
<gx:coord >10.730427 46.273361 6442</gx:coord>
<gx:coord >10.700081 46.262146 6366</gx:coord>
<gx:coord >10.671913 46.25165 6275</gx:coord>
<gx:coord >10.64431 46.241222 6183</gx:coord>
<gx:coord >10.620964 46.232377 6122</gx:coord>
<gx:coord >10.584709 46.218877 6076</gx:coord>
<gx:coord >10.555115 46.207947 5985</gx:coord>
<gx:coord >10.525505 46.196915 5909</gx:coord>
<gx:coord >10.495995 46.185825 5825</gx:coord>
<gx:coord >10.467023 46.174988 5741</gx:coord>
<gx:coord >10.439959 46.164917 5642</gx:coord>
<gx:coord >10.410551 46.153931 5558</gx:coord>
<gx:coord >10.380338 46.142578 5475</gx:coord>
<gx:coord >10.351399 46.131638 5391</gx:coord>
<gx:coord >10.324335 46.121429 5307</gx:coord>
<gx:coord >10.297142 46.111155 5215</gx:coord>
<gx:coord >10.277847 46.103893 5154</gx:coord>
<gx:coord >10.264664 46.099005 5147</gx:coord>
<gx:coord >10.23075 46.086273 5139</gx:coord>
<gx:coord >10.196116 46.073135 5139</gx:coord>
<gx:coord >10.161118 46.059855 5140</gx:coord>
<gx:coord >10.128725 46.047501 5140</gx:coord>
<gx:coord >10.122629 46.0448 5140</gx:coord>
<gx:coord >10.118271 46.042584 5140</gx:coord>
<gx:coord >10.113116 46.03949 5140</gx:coord>
<gx:coord >10.109001 46.036579 5140</gx:coord>
<gx:coord >10.104195 46.032668 5133</gx:coord>
<gx:coord >10.097507 46.026535 5140</gx:coord>
<gx:coord >10.078549 46.00827 5141</gx:coord>
<gx:coord >10.070644 46.000763 5130</gx:coord>
<gx:coord >10.06428 45.994858 5103</gx:coord>
<gx:coord >10.044183 45.976456 5018</gx:coord>
<gx:coord >10.023953 45.958282 4927</gx:coord>
<gx:coord >10.0062 45.942215 4829</gx:coord>
<gx:coord >9.990349 45.927879 4722</gx:coord>
<gx:coord >9.978065 45.916626 4638</gx:coord>
<gx:coord >9.956978 45.897341 4554</gx:coord>
<gx:coord >9.935861 45.877808 4463</gx:coord>
<gx:coord >9.917238 45.860779 4380</gx:coord>
<gx:coord >9.89761 45.842972 4304</gx:coord>
<gx:coord >9.877379 45.824753 4213</gx:coord>
<gx:coord >9.86867 45.816833 4197</gx:coord>
<gx:coord >9.843956 45.794181 4174</gx:coord>
<gx:coord >9.831802 45.782916 4137</gx:coord>
<gx:coord >9.826721 45.778214 4115</gx:coord>
<gx:coord >9.810389 45.763092 4008</gx:coord>
<gx:coord >9.793508 45.747482 3924</gx:coord>
<gx:coord >9.783531 45.738365 3863</gx:coord>
<gx:coord >9.778033 45.733337 3825</gx:coord>
<gx:coord >9.771446 45.727286 3763</gx:coord>
<gx:coord >9.764635 45.721024 3696</gx:coord>
<gx:coord >9.757936 45.71489 3634</gx:coord>
<gx:coord >9.752711 45.710129 3605</gx:coord>
<gx:coord >9.744736 45.702846 3523</gx:coord>
<gx:coord >9.739715 45.698181 3486</gx:coord>
<gx:coord >9.729492 45.688275 3437</gx:coord>
<gx:coord >9.725982 45.684174 3414</gx:coord>
<gx:coord >9.72357 45.68074 3399</gx:coord>
<gx:coord >9.721695 45.677353 3376</gx:coord>
<gx:coord >9.720085 45.673657 3360</gx:coord>
<gx:coord >9.71868 45.668655 3336</gx:coord>
<gx:coord >9.718345 45.665909 3327</gx:coord>
<gx:coord >9.718231 45.662392 3313</gx:coord>
<gx:coord >9.718712 45.658109 3302</gx:coord>
<gx:coord >9.719551 45.654373 3287</gx:coord>
<gx:coord >9.721046 45.650335 3273</gx:coord>
<gx:coord >9.723436 45.645676 3261</gx:coord>
<gx:coord >9.726451 45.640961 3242</gx:coord>
<gx:coord >9.7332 45.631202 3208</gx:coord>
<gx:coord >9.736359 45.62664 3181</gx:coord>
<gx:coord >9.742193 45.617935 3126</gx:coord>
<gx:coord >9.74604 45.612115 3095</gx:coord>
<gx:coord >9.748924 45.6076 3073</gx:coord>
<gx:coord >9.754989 45.597977 3050</gx:coord>
<gx:coord >9.759075 45.591339 3027</gx:coord>
<gx:coord >9.764099 45.582974 3004</gx:coord>
<gx:coord >9.770262 45.572662 2974</gx:coord>
<gx:coord >9.776827 45.561676 2943</gx:coord>
<gx:coord >9.782433 45.552342 2890</gx:coord>
<gx:coord >9.788148 45.542799 2837</gx:coord>
<gx:coord >9.793592 45.533478 2777</gx:coord>
<gx:coord >9.795785 45.52874 2756</gx:coord>
<gx:coord >9.797125 45.52483 2738</gx:coord>
<gx:coord >9.798532 45.519663 2710</gx:coord>
<gx:coord >9.801178 45.507065 2662</gx:coord>
<gx:coord >9.803154 45.497271 2609</gx:coord>
<gx:coord >9.805298 45.486832 2563</gx:coord>
<gx:coord >9.807375 45.476974 2517</gx:coord>
<gx:coord >9.809679 45.466553 2479</gx:coord>
<gx:coord >9.811729 45.457376 2420</gx:coord>
<gx:coord >9.813471 45.449183 2373</gx:coord>
<gx:coord >9.815499 45.440323 2320</gx:coord>
<gx:coord >9.817155 45.432936 2282</gx:coord>
<gx:coord >9.818562 45.427117 2251</gx:coord>
<gx:coord >9.820371 45.419203 2214</gx:coord>
<gx:coord >9.822045 45.41208 2184</gx:coord>
<gx:coord >9.823653 45.405237 2158</gx:coord>
<gx:coord >9.825328 45.397929 2116</gx:coord>
<gx:coord >9.826682 45.391708 2090</gx:coord>
<gx:coord >9.82794 45.385778 2055</gx:coord>
<gx:coord >9.829079 45.380425 2028</gx:coord>
<gx:coord >9.830213 45.375183 1993</gx:coord>
<gx:coord >9.831521 45.369049 1961</gx:coord>
<gx:coord >9.832175 45.365936 1947</gx:coord>
<gx:coord >9.832563 45.364085 1943</gx:coord>
<gx:coord >9.833635 45.359151 1935</gx:coord>
<gx:coord >9.836582 45.34579 1917</gx:coord>
<gx:coord >9.838927 45.335781 1917</gx:coord>
<gx:coord >9.840869 45.330567 1917</gx:coord>
<gx:coord >9.842246 45.327988 1917</gx:coord>
<gx:coord >9.844554 45.324748 1910</gx:coord>
<gx:coord >9.846366 45.322769 1910</gx:coord>
<gx:coord >9.848975 45.320419 1910</gx:coord>
<gx:coord >9.851253 45.318743 1910</gx:coord>
<gx:coord >9.853821 45.317139 1910</gx:coord>
<gx:coord >9.857684 45.315159 1910</gx:coord>
<gx:coord >9.861864 45.313522 1917</gx:coord>
<gx:coord >9.864785 45.312598 1917</gx:coord>
<gx:coord >9.86934 45.311528 1917</gx:coord>
<gx:coord >9.872197 45.310959 1917</gx:coord>
<gx:coord >9.878017 45.309998 1917</gx:coord>
<gx:coord >9.909199 45.305243 1917</gx:coord>
<gx:coord >9.933733 45.301025 1917</gx:coord>
<gx:coord >9.939423 45.30043 1917</gx:coord>
<gx:coord >9.944654 45.300156 1917</gx:coord>
<gx:coord >9.950278 45.300247 1910</gx:coord>
<gx:coord >9.957733 45.300568 1917</gx:coord>
<gx:coord >9.966073 45.30124 1917</gx:coord>
<gx:coord >9.972772 45.302171 1917</gx:coord>
<gx:coord >9.977194 45.303148 1917</gx:coord>
<gx:coord >9.981995 45.304596 1910</gx:coord>
<gx:coord >9.985068 45.305786 1910</gx:coord>
<gx:coord >9.987711 45.307012 1910</gx:coord>
<gx:coord >9.990726 45.308595 1917</gx:coord>
<gx:coord >9.99374 45.310643 1917</gx:coord>
<gx:coord >9.996381 45.312744 1917</gx:coord>
<gx:coord >9.999063 45.315445 1917</gx:coord>
<gx:coord >10.00131 45.318231 1917</gx:coord>
<gx:coord >10.003186 45.32149 1917</gx:coord>
<gx:coord >10.00449 45.324783 1917</gx:coord>
<gx:coord >10.005079 45.326797 1917</gx:coord>
<gx:coord >10.005406 45.32872 1917</gx:coord>
<gx:coord >10.005537 45.330505 1917</gx:coord>
<gx:coord >10.005537 45.333389 1917</gx:coord>
<gx:coord >10.005061 45.336619 1917</gx:coord>
<gx:coord >10.004325 45.339552 1917</gx:coord>
<gx:coord >10.002315 45.346209 1917</gx:coord>
<gx:coord >9.99642 45.365482 1916</gx:coord>
<gx:coord >9.992534 45.380611 1916</gx:coord>
<gx:coord >9.987711 45.401094 1916</gx:coord>
<gx:coord >9.982955 45.421717 1916</gx:coord>
<gx:coord >9.977998 45.442246 1915</gx:coord>
<gx:coord >9.972905 45.462845 1915</gx:coord>
<gx:coord >9.967815 45.483166 1915</gx:coord>
<gx:coord >9.964207 45.497498 1916</gx:coord>
<gx:coord >9.963292 45.503082 1916</gx:coord>
<gx:coord >9.962858 45.508211 1913</gx:coord>
<gx:coord >9.962638 45.513382 1894</gx:coord>
<gx:coord >9.962456 45.518126 1879</gx:coord>
<gx:coord >9.962255 45.523433 1851</gx:coord>
<gx:coord >9.962054 45.528647 1817</gx:coord>
<gx:coord >9.961853 45.534792 1791</gx:coord>
<gx:coord >9.961652 45.541356 1757</gx:coord>
<gx:coord >9.961451 45.547073 1729</gx:coord>
<gx:coord >9.961166 45.553506 1700</gx:coord>
<gx:coord >9.960915 45.559387 1669</gx:coord>
<gx:coord >9.960617 45.565656 1633</gx:coord>
<gx:coord >9.960274 45.572453 1600</gx:coord>
<gx:coord >9.960178 45.574631 1589</gx:coord>
<gx:coord >9.959724 45.583579 1555</gx:coord>
<gx:coord >9.959441 45.5896 1519</gx:coord>
<gx:coord >9.959106 45.594864 1488</gx:coord>
<gx:coord >9.958905 45.59848 1473</gx:coord>
<gx:coord >9.958571 45.604248 1444</gx:coord>
<gx:coord >9.958145 45.607786 1425</gx:coord>
<gx:coord >9.957365 45.610336 1394</gx:coord>
<gx:coord >9.956829 45.611572 1388</gx:coord>
<gx:coord >9.956429 45.612302 1382</gx:coord>
<gx:coord >9.954819 45.614456 1365</gx:coord>
<gx:coord >9.953407 45.615933 1334</gx:coord>
<gx:coord >9.951604 45.617386 1307</gx:coord>
<gx:coord >9.949013 45.619052 1276</gx:coord>
<gx:coord >9.946646 45.620316 1262</gx:coord>
<gx:coord >9.942158 45.622238 1230</gx:coord>
<gx:coord >9.937752 45.623707 1205</gx:coord>
<gx:coord >9.932578 45.625122 1162</gx:coord>
<gx:coord >9.926628 45.6265 1131</gx:coord>
<gx:coord >9.921257 45.62764 1099</gx:coord>
<gx:coord >9.912895 45.629293 1069</gx:coord>
<gx:coord >9.906097 45.630597 1043</gx:coord>
<gx:coord >9.898414 45.63208 999</gx:coord>
<gx:coord >9.890167 45.633623 967</gx:coord>
<gx:coord >9.884125 45.634786 939</gx:coord>
<gx:coord >9.880211 45.635531 923</gx:coord>
<gx:coord >9.874786 45.636555 899</gx:coord>
<gx:coord >9.867933 45.637802 863</gx:coord>
<gx:coord >9.863525 45.63865 848</gx:coord>
<gx:coord >9.859131 45.639488 828</gx:coord>
<gx:coord >9.854468 45.640366 809</gx:coord>
<gx:coord >9.846966 45.641739 778</gx:coord>
<gx:coord >9.842276 45.642609 763</gx:coord>
<gx:coord >9.837587 45.643478 740</gx:coord>
<gx:coord >9.834686 45.644004 725</gx:coord>
<gx:coord >9.831089 45.644669 709</gx:coord>
<gx:coord >9.824181 45.646005 679</gx:coord>
<gx:coord >9.816696 45.647402 648</gx:coord>
<gx:coord >9.810724 45.648514 626</gx:coord>
<gx:coord >9.803087 45.649933 587</gx:coord>
<gx:coord >9.795584 45.651306 557</gx:coord>
<gx:coord >9.788617 45.652634 519</gx:coord>
<gx:coord >9.78078 45.654099 488</gx:coord>
<gx:coord >9.772614 45.655642 458</gx:coord>
<gx:coord >9.766159 45.656852 435</gx:coord>
<gx:coord >9.758941 45.658173 405</gx:coord>
<gx:coord >9.751808 45.659552 366</gx:coord>
<gx:coord >9.745216 45.660762 336</gx:coord>
<gx:coord >9.742394 45.661285 328</gx:coord>
<gx:coord >9.733337 45.66295 290</gx:coord>
<gx:coord >9.733337 45.66295 290</gx:coord>
</gx:Track>
</Placemark>
</Folder>
</Folder>
</kml>
