<?xml version="1.0" encoding="UTF-8"?>
<kml xmlns="http://www.opengis.net/kml/2.2" xmlns:gx="http://www.google.com/kml/ext/2.2"><Folder ><Folder ><name >HA-LZK track</name>
<Placemark ><name >HA-LZK</name>
<Style ><LineStyle ><color >ff1c1ae3</color>
<width >4</width>
</LineStyle>
<IconStyle ><Icon ><href >http://maps.google.com/mapfiles/kml/shapes/airports.png</href>
</Icon>
</IconStyle>
</Style>
<gx:Track ><extrude >0</extrude>
<when >2025-08-17T16:41:48.500Z</when>
<when >2025-08-17T16:41:48.500Z</when>
<when >2025-08-17T16:43:32.180Z</when>
<when >2025-08-17T16:43:58.270Z</when>
<when >2025-08-17T16:44:07.070Z</when>
<when >2025-08-17T16:44:29.050Z</when>
<when >2025-08-17T16:44:43.640Z</when>
<when >2025-08-17T16:45:02.640Z</when>
<when >2025-08-17T16:45:08.200Z</when>
<when >2025-08-17T16:47:47.350Z</when>
<when >2025-08-17T16:47:52.070Z</when>
<when >2025-08-17T16:47:57.330Z</when>
<when >2025-08-17T16:48:02.430Z</when>
<when >2025-08-17T16:48:05.010Z</when>
<when >2025-08-17T16:48:11.500Z</when>
<when >2025-08-17T16:48:17.590Z</when>
<when >2025-08-17T16:48:22.730Z</when>
<when >2025-08-17T16:48:25.190Z</when>
<when >2025-08-17T16:48:28.440Z</when>
<when >2025-08-17T16:48:31.000Z</when>
<when >2025-08-17T16:48:36.380Z</when>
<when >2025-08-17T16:48:48.790Z</when>
<when >2025-08-17T16:49:27.680Z</when>
<when >2025-08-17T16:49:40.400Z</when>
<when >2025-08-17T16:49:46.510Z</when>
<when >2025-08-17T16:49:49.070Z</when>
<when >2025-08-17T16:49:50.120Z</when>
<when >2025-08-17T16:49:58.060Z</when>
<when >2025-08-17T16:50:01.920Z</when>
<when >2025-08-17T16:50:04.680Z</when>
<when >2025-08-17T16:50:09.500Z</when>
<when >2025-08-17T16:50:20.100Z</when>
<when >2025-08-17T16:50:26.130Z</when>
<when >2025-08-17T16:50:33.340Z</when>
<when >2025-08-17T16:52:27.200Z</when>
<when >2025-08-17T16:52:35.950Z</when>
<when >2025-08-17T16:53:00.140Z</when>
<when >2025-08-17T16:53:04.470Z</when>
<when >2025-08-17T16:53:13.610Z</when>
<when >2025-08-17T16:53:29.380Z</when>
<when >2025-08-17T16:53:34.270Z</when>
<when >2025-08-17T16:53:52.610Z</when>
<when >2025-08-17T16:53:55.720Z</when>
<when >2025-08-17T16:54:02.300Z</when>
<when >2025-08-17T16:54:11.390Z</when>
<when >2025-08-17T16:54:14.100Z</when>
<when >2025-08-17T16:54:15.390Z</when>
<when >2025-08-17T16:54:18.140Z</when>
<when >2025-08-17T16:54:39.570Z</when>
<when >2025-08-17T16:54:45.050Z</when>
<when >2025-08-17T16:54:51.880Z</when>
<when >2025-08-17T16:54:56.070Z</when>
<when >2025-08-17T16:55:01.090Z</when>
<when >2025-08-17T16:55:14.330Z</when>
<when >2025-08-17T16:55:18.100Z</when>
<when >2025-08-17T16:55:42.410Z</when>
<when >2025-08-17T16:55:53.370Z</when>
<when >2025-08-17T16:56:27.850Z</when>
<when >2025-08-17T16:56:53.050Z</when>
<when >2025-08-17T16:56:55.780Z</when>
<when >2025-08-17T16:57:01.670Z</when>
<when >2025-08-17T16:57:10.820Z</when>
<when >2025-08-17T16:57:12.300Z</when>
<when >2025-08-17T16:57:28.400Z</when>
<when >2025-08-17T16:59:07.160Z</when>
<when >2025-08-17T16:59:10.540Z</when>
<when >2025-08-17T16:59:16.640Z</when>
<when >2025-08-17T16:59:28.990Z</when>
<when >2025-08-17T16:59:33.810Z</when>
<when >2025-08-17T16:59:36.490Z</when>
<when >2025-08-17T17:00:32.160Z</when>
<when >2025-08-17T17:00:32.160Z</when>
<gx:coord >-4.49557 36.678822 0</gx:coord>
<gx:coord >-4.49557 36.678822 0</gx:coord>
<gx:coord >-4.495568 36.678806 0</gx:coord>
<gx:coord >-4.495556 36.678811 0</gx:coord>
<gx:coord >-4.495556 36.678811 0</gx:coord>
<gx:coord >-4.495556 36.678811 0</gx:coord>
<gx:coord >-4.49557 36.678799 0</gx:coord>
<gx:coord >-4.49557 36.678811 0</gx:coord>
<gx:coord >-4.49557 36.678811 0</gx:coord>
<gx:coord >-4.49579 36.678985 0</gx:coord>
<gx:coord >-4.495811 36.679001 0</gx:coord>
<gx:coord >-4.495869 36.679047 0</gx:coord>
<gx:coord >-4.495912 36.67907 0</gx:coord>
<gx:coord >-4.495936 36.679078 0</gx:coord>
<gx:coord >-4.495997 36.679127 0</gx:coord>
<gx:coord >-4.496055 36.679161 0</gx:coord>
<gx:coord >-4.496096 36.679206 0</gx:coord>
<gx:coord >-4.49614 36.67923 0</gx:coord>
<gx:coord >-4.496169 36.679265 0</gx:coord>
<gx:coord >-4.496213 36.6793 0</gx:coord>
<gx:coord >-4.496255 36.679344 0</gx:coord>
<gx:coord >-4.49633 36.679486 0</gx:coord>
<gx:coord >-4.496055 36.679871 0</gx:coord>
<gx:coord >-4.49595 36.679986 0</gx:coord>
<gx:coord >-4.495892 36.680044 0</gx:coord>
<gx:coord >-4.495863 36.680068 0</gx:coord>
<gx:coord >-4.495863 36.680079 0</gx:coord>
<gx:coord >-4.495769 36.680122 0</gx:coord>
<gx:coord >-4.495702 36.680126 0</gx:coord>
<gx:coord >-4.495668 36.680122 0</gx:coord>
<gx:coord >-4.495611 36.680111 0</gx:coord>
<gx:coord >-4.495483 36.680056 0</gx:coord>
<gx:coord >-4.49541 36.680033 0</gx:coord>
<gx:coord >-4.495351 36.679998 0</gx:coord>
<gx:coord >-4.495322 36.679975 0</gx:coord>
<gx:coord >-4.495424 36.680068 0</gx:coord>
<gx:coord >-4.496169 36.680157 0</gx:coord>
<gx:coord >-4.496198 36.680122 0</gx:coord>
<gx:coord >-4.496608 36.67973 0</gx:coord>
<gx:coord >-4.497142 36.679253 0</gx:coord>
<gx:coord >-4.497338 36.679067 0</gx:coord>
<gx:coord >-4.498039 36.67844 0</gx:coord>
<gx:coord >-4.498434 36.678078 0</gx:coord>
<gx:coord >-4.498644 36.677662 0</gx:coord>
<gx:coord >-4.498887 36.677261 0</gx:coord>
<gx:coord >-4.499087 36.677181 0</gx:coord>
<gx:coord >-4.499116 36.677181 0</gx:coord>
<gx:coord >-4.499223 36.677193 0</gx:coord>
<gx:coord >-4.500392 36.677961 0</gx:coord>
<gx:coord >-4.500611 36.678112 0</gx:coord>
<gx:coord >-4.50102 36.678415 0</gx:coord>
<gx:coord >-4.501327 36.678625 0</gx:coord>
<gx:coord >-4.501648 36.678864 0</gx:coord>
<gx:coord >-4.502578 36.679527 0</gx:coord>
<gx:coord >-4.502907 36.679756 0</gx:coord>
<gx:coord >-4.504994 36.681243 0</gx:coord>
<gx:coord >-4.506125 36.682056 0</gx:coord>
<gx:coord >-4.509259 36.684292 0</gx:coord>
<gx:coord >-4.510121 36.684956 0</gx:coord>
<gx:coord >-4.510151 36.685002 0</gx:coord>
<gx:coord >-4.510238 36.685165 0</gx:coord>
<gx:coord >-4.510417 36.685501 0</gx:coord>
<gx:coord >-4.510489 36.685558 0</gx:coord>
<gx:coord >-4.511144 36.685852 0</gx:coord>
<gx:coord >-4.511977 36.685223 0</gx:coord>
<gx:coord >-4.512076 36.685112 0</gx:coord>
<gx:coord >-4.512119 36.684872 0</gx:coord>
<gx:coord >-4.512152 36.684467 0</gx:coord>
<gx:coord >-4.512162 36.684322 0</gx:coord>
<gx:coord >-4.512119 36.684185 0</gx:coord>
<gx:coord >-4.512119 36.684185 0</gx:coord>
<gx:coord >-4.512119 36.684185 0</gx:coord>
</gx:Track>
</Placemark>
<Placemark ><name >HA-LZK</name>
<Style ><LineStyle ><color >ff1c1ae3</color>
<width >4</width>
</LineStyle>
<IconStyle ><Icon ><href >http://maps.google.com/mapfiles/kml/shapes/airports.png</href>
</Icon>
</IconStyle>
</Style>
<gx:Track ><altitudeMode >absolute</altitudeMode>
<extrude >1</extrude>
<when >2025-08-17T17:01:05.340Z</when>
<when >2025-08-17T17:01:10.570Z</when>
<when >2025-08-17T17:01:14.190Z</when>
<when >2025-08-17T17:01:16.460Z</when>
<when >2025-08-17T17:01:18.840Z</when>
<when >2025-08-17T17:01:21.020Z</when>
<when >2025-08-17T17:01:22.780Z</when>
<when >2025-08-17T17:01:24.650Z</when>
<when >2025-08-17T17:01:26.260Z</when>
<when >2025-08-17T17:01:27.570Z</when>
<when >2025-08-17T17:01:29.890Z</when>
<when >2025-08-17T17:01:31.190Z</when>
<when >2025-08-17T17:01:33.710Z</when>
<when >2025-08-17T17:01:37.030Z</when>
<when >2025-08-17T17:01:38.850Z</when>
<when >2025-08-17T17:01:41.330Z</when>
<when >2025-08-17T17:01:41.330Z</when>
<when >2025-08-17T17:01:43.610Z</when>
<when >2025-08-17T17:01:47.710Z</when>
<when >2025-08-17T17:01:51.900Z</when>
<when >2025-08-17T17:01:56.900Z</when>
<when >2025-08-17T17:02:02.430Z</when>
<when >2025-08-17T17:02:07.160Z</when>
<when >2025-08-17T17:02:13.730Z</when>
<when >2025-08-17T17:02:17.890Z</when>
<when >2025-08-17T17:02:21.420Z</when>
<when >2025-08-17T17:02:27.720Z</when>
<when >2025-08-17T17:02:30.790Z</when>
<when >2025-08-17T17:02:35.130Z</when>
<when >2025-08-17T17:02:40.960Z</when>
<when >2025-08-17T17:02:45.060Z</when>
<when >2025-08-17T17:02:47.860Z</when>
<when >2025-08-17T17:02:51.710Z</when>
<when >2025-08-17T17:02:53.990Z</when>
<when >2025-08-17T17:02:56.660Z</when>
<when >2025-08-17T17:03:01.880Z</when>
<when >2025-08-17T17:03:05.130Z</when>
<when >2025-08-17T17:03:07.170Z</when>
<when >2025-08-17T17:03:09.880Z</when>
<when >2025-08-17T17:03:12.140Z</when>
<when >2025-08-17T17:03:15.310Z</when>
<when >2025-08-17T17:03:19.810Z</when>
<when >2025-08-17T17:03:23.950Z</when>
<when >2025-08-17T17:03:26.400Z</when>
<when >2025-08-17T17:03:30.150Z</when>
<when >2025-08-17T17:03:32.690Z</when>
<when >2025-08-17T17:03:35.770Z</when>
<when >2025-08-17T17:03:38.020Z</when>
<when >2025-08-17T17:03:41.120Z</when>
<when >2025-08-17T17:03:44.350Z</when>
<when >2025-08-17T17:03:46.480Z</when>
<when >2025-08-17T17:03:49.470Z</when>
<when >2025-08-17T17:03:52.070Z</when>
<when >2025-08-17T17:03:54.810Z</when>
<when >2025-08-17T17:03:57.420Z</when>
<when >2025-08-17T17:04:00.060Z</when>
<when >2025-08-17T17:04:01.850Z</when>
<when >2025-08-17T17:04:03.730Z</when>
<when >2025-08-17T17:04:06.100Z</when>
<when >2025-08-17T17:04:08.760Z</when>
<when >2025-08-17T17:04:11.460Z</when>
<when >2025-08-17T17:04:14.230Z</when>
<when >2025-08-17T17:04:17.270Z</when>
<when >2025-08-17T17:04:19.620Z</when>
<when >2025-08-17T17:04:22.150Z</when>
<when >2025-08-17T17:04:24.550Z</when>
<when >2025-08-17T17:04:26.570Z</when>
<when >2025-08-17T17:04:28.140Z</when>
<when >2025-08-17T17:04:30.120Z</when>
<when >2025-08-17T17:04:32.970Z</when>
<when >2025-08-17T17:04:35.180Z</when>
<when >2025-08-17T17:04:38.420Z</when>
<when >2025-08-17T17:04:40.180Z</when>
<when >2025-08-17T17:04:42.740Z</when>
<when >2025-08-17T17:04:45.750Z</when>
<when >2025-08-17T17:04:47.940Z</when>
<when >2025-08-17T17:04:50.270Z</when>
<when >2025-08-17T17:04:52.460Z</when>
<when >2025-08-17T17:04:54.570Z</when>
<when >2025-08-17T17:04:57.820Z</when>
<when >2025-08-17T17:04:59.830Z</when>
<when >2025-08-17T17:05:05.820Z</when>
<when >2025-08-17T17:05:11.390Z</when>
<when >2025-08-17T17:05:17.450Z</when>
<when >2025-08-17T17:05:22.630Z</when>
<when >2025-08-17T17:05:27.640Z</when>
<when >2025-08-17T17:05:32.870Z</when>
<when >2025-08-17T17:05:37.940Z</when>
<when >2025-08-17T17:05:42.870Z</when>
<when >2025-08-17T17:05:48.500Z</when>
<when >2025-08-17T17:05:53.250Z</when>
<when >2025-08-17T17:05:58.980Z</when>
<when >2025-08-17T17:06:04.390Z</when>
<when >2025-08-17T17:06:10.600Z</when>
<when >2025-08-17T17:06:15.960Z</when>
<when >2025-08-17T17:06:21.540Z</when>
<when >2025-08-17T17:06:27.170Z</when>
<when >2025-08-17T17:06:33.220Z</when>
<when >2025-08-17T17:06:39.320Z</when>
<when >2025-08-17T17:06:44.970Z</when>
<when >2025-08-17T17:06:50.540Z</when>
<when >2025-08-17T17:06:57.470Z</when>
<when >2025-08-17T17:07:02.240Z</when>
<when >2025-08-17T17:07:06.650Z</when>
<when >2025-08-17T17:07:11.850Z</when>
<when >2025-08-17T17:07:16.660Z</when>
<when >2025-08-17T17:07:26.800Z</when>
<when >2025-08-17T17:07:37.840Z</when>
<when >2025-08-17T17:07:48.660Z</when>
<when >2025-08-17T17:08:00.270Z</when>
<when >2025-08-17T17:08:11.460Z</when>
<when >2025-08-17T17:08:23.680Z</when>
<when >2025-08-17T17:08:35.700Z</when>
<when >2025-08-17T17:08:47.350Z</when>
<when >2025-08-17T17:08:59.860Z</when>
<when >2025-08-17T17:09:12.730Z</when>
<when >2025-08-17T17:09:24.660Z</when>
<when >2025-08-17T17:09:36.190Z</when>
<when >2025-08-17T17:09:47.930Z</when>
<when >2025-08-17T17:09:58.080Z</when>
<when >2025-08-17T17:10:05.780Z</when>
<when >2025-08-17T17:10:18.940Z</when>
<when >2025-08-17T17:10:31.480Z</when>
<when >2025-08-17T17:10:38.100Z</when>
<when >2025-08-17T17:10:47.870Z</when>
<when >2025-08-17T17:10:58.810Z</when>
<when >2025-08-17T17:11:09.750Z</when>
<when >2025-08-17T17:11:14.950Z</when>
<when >2025-08-17T17:11:25.530Z</when>
<when >2025-08-17T17:11:38.760Z</when>
<when >2025-08-17T17:11:54.300Z</when>
<when >2025-08-17T17:11:56.030Z</when>
<when >2025-08-17T17:12:02.200Z</when>
<when >2025-08-17T17:12:05.330Z</when>
<when >2025-08-17T17:12:14.980Z</when>
<when >2025-08-17T17:12:17.820Z</when>
<when >2025-08-17T17:12:20.220Z</when>
<when >2025-08-17T17:12:32.880Z</when>
<when >2025-08-17T17:12:37.850Z</when>
<when >2025-08-17T17:12:42.060Z</when>
<when >2025-08-17T17:12:45.640Z</when>
<when >2025-08-17T17:12:47.970Z</when>
<when >2025-08-17T17:12:51.960Z</when>
<when >2025-08-17T17:12:54.860Z</when>
<when >2025-08-17T17:12:57.420Z</when>
<when >2025-08-17T17:13:00.150Z</when>
<when >2025-08-17T17:13:04.340Z</when>
<when >2025-08-17T17:13:08.240Z</when>
<when >2025-08-17T17:13:12.580Z</when>
<when >2025-08-17T17:13:22.490Z</when>
<when >2025-08-17T17:13:28.620Z</when>
<when >2025-08-17T17:13:40.410Z</when>
<when >2025-08-17T17:13:44.060Z</when>
<when >2025-08-17T17:13:46.870Z</when>
<when >2025-08-17T17:13:54.610Z</when>
<when >2025-08-17T17:14:14.210Z</when>
<when >2025-08-17T17:14:20.210Z</when>
<when >2025-08-17T17:14:26.060Z</when>
<when >2025-08-17T17:14:39.490Z</when>
<when >2025-08-17T17:14:54.080Z</when>
<when >2025-08-17T17:15:08.870Z</when>
<when >2025-08-17T17:15:17.470Z</when>
<when >2025-08-17T17:15:34.850Z</when>
<when >2025-08-17T17:15:51.830Z</when>
<when >2025-08-17T17:16:06.630Z</when>
<when >2025-08-17T17:16:26.310Z</when>
<when >2025-08-17T17:16:45.340Z</when>
<when >2025-08-17T17:17:05.310Z</when>
<when >2025-08-17T17:17:25.120Z</when>
<when >2025-08-17T17:17:44.630Z</when>
<when >2025-08-17T17:18:00.750Z</when>
<when >2025-08-17T17:18:16.350Z</when>
<when >2025-08-17T17:18:32.520Z</when>
<when >2025-08-17T17:18:49.530Z</when>
<when >2025-08-17T17:19:06.110Z</when>
<when >2025-08-17T17:19:21.180Z</when>
<when >2025-08-17T17:19:24.650Z</when>
<when >2025-08-17T17:19:26.740Z</when>
<when >2025-08-17T17:19:39.270Z</when>
<when >2025-08-17T17:19:51.840Z</when>
<when >2025-08-17T17:20:04.370Z</when>
<when >2025-08-17T17:20:11.270Z</when>
<when >2025-08-17T17:20:12.650Z</when>
<when >2025-08-17T17:20:16.570Z</when>
<when >2025-08-17T17:20:23.420Z</when>
<when >2025-08-17T17:20:31.900Z</when>
<when >2025-08-17T17:20:39.400Z</when>
<when >2025-08-17T17:20:53.110Z</when>
<when >2025-08-17T17:21:00.760Z</when>
<when >2025-08-17T17:21:02.570Z</when>
<when >2025-08-17T17:21:22.080Z</when>
<when >2025-08-17T17:21:31.650Z</when>
<when >2025-08-17T17:21:46.250Z</when>
<when >2025-08-17T17:22:01.430Z</when>
<when >2025-08-17T17:22:13.940Z</when>
<when >2025-08-17T17:22:27.400Z</when>
<when >2025-08-17T17:22:41.690Z</when>
<when >2025-08-17T17:22:54.910Z</when>
<when >2025-08-17T17:23:10.600Z</when>
<when >2025-08-17T17:23:28.290Z</when>
<when >2025-08-17T17:23:48.190Z</when>
<when >2025-08-17T17:24:07.520Z</when>
<when >2025-08-17T17:24:27.310Z</when>
<when >2025-08-17T17:24:46.510Z</when>
<when >2025-08-17T17:25:05.760Z</when>
<when >2025-08-17T17:25:24.840Z</when>
<when >2025-08-17T17:25:44.510Z</when>
<when >2025-08-17T17:26:04.050Z</when>
<when >2025-08-17T17:26:23.880Z</when>
<when >2025-08-17T17:26:43.730Z</when>
<when >2025-08-17T17:27:03.630Z</when>
<when >2025-08-17T17:27:22.540Z</when>
<when >2025-08-17T17:27:42.450Z</when>
<when >2025-08-17T17:28:02.280Z</when>
<when >2025-08-17T17:28:21.290Z</when>
<when >2025-08-17T17:28:40.830Z</when>
<when >2025-08-17T17:29:00.760Z</when>
<when >2025-08-17T17:29:20.600Z</when>
<when >2025-08-17T17:29:40.220Z</when>
<when >2025-08-17T17:30:00.210Z</when>
<when >2025-08-17T17:30:19.730Z</when>
<when >2025-08-17T17:30:39.520Z</when>
<when >2025-08-17T17:30:59.270Z</when>
<when >2025-08-17T17:31:19.200Z</when>
<when >2025-08-17T17:31:39.010Z</when>
<when >2025-08-17T17:31:58.730Z</when>
<when >2025-08-17T17:32:18.520Z</when>
<when >2025-08-17T17:32:37.970Z</when>
<when >2025-08-17T17:32:57.160Z</when>
<when >2025-08-17T17:33:16.830Z</when>
<when >2025-08-17T17:33:36.780Z</when>
<when >2025-08-17T17:33:55.910Z</when>
<when >2025-08-17T17:34:15.830Z</when>
<when >2025-08-17T17:34:35.760Z</when>
<when >2025-08-17T17:34:55.310Z</when>
<when >2025-08-17T17:35:15.000Z</when>
<when >2025-08-17T17:35:25.940Z</when>
<when >2025-08-17T17:35:33.880Z</when>
<when >2025-08-17T17:35:42.840Z</when>
<when >2025-08-17T17:35:51.480Z</when>
<when >2025-08-17T17:36:00.510Z</when>
<when >2025-08-17T17:36:10.630Z</when>
<when >2025-08-17T17:36:20.950Z</when>
<when >2025-08-17T17:36:40.270Z</when>
<when >2025-08-17T17:37:00.110Z</when>
<when >2025-08-17T17:37:20.100Z</when>
<when >2025-08-17T17:37:39.930Z</when>
<when >2025-08-17T17:37:59.320Z</when>
<when >2025-08-17T17:38:19.220Z</when>
<when >2025-08-17T17:38:38.830Z</when>
<when >2025-08-17T17:38:58.320Z</when>
<when >2025-08-17T17:39:18.320Z</when>
<when >2025-08-17T17:39:37.960Z</when>
<when >2025-08-17T17:39:57.680Z</when>
<when >2025-08-17T17:40:17.240Z</when>
<when >2025-08-17T17:40:36.980Z</when>
<when >2025-08-17T17:40:56.580Z</when>
<when >2025-08-17T17:41:16.500Z</when>
<when >2025-08-17T17:41:36.450Z</when>
<when >2025-08-17T17:41:56.200Z</when>
<when >2025-08-17T17:42:15.370Z</when>
<when >2025-08-17T17:42:35.130Z</when>
<when >2025-08-17T17:42:54.970Z</when>
<when >2025-08-17T17:43:14.950Z</when>
<when >2025-08-17T17:43:34.480Z</when>
<when >2025-08-17T17:43:54.040Z</when>
<when >2025-08-17T17:44:13.790Z</when>
<when >2025-08-17T17:44:33.700Z</when>
<when >2025-08-17T17:44:53.330Z</when>
<when >2025-08-17T17:45:13.000Z</when>
<when >2025-08-17T17:45:32.880Z</when>
<when >2025-08-17T17:45:52.340Z</when>
<when >2025-08-17T17:46:11.200Z</when>
<when >2025-08-17T17:46:31.030Z</when>
<when >2025-08-17T17:46:50.690Z</when>
<when >2025-08-17T17:47:10.680Z</when>
<when >2025-08-17T17:47:30.190Z</when>
<when >2025-08-17T17:47:49.530Z</when>
<when >2025-08-17T17:48:09.310Z</when>
<when >2025-08-17T17:48:28.400Z</when>
<when >2025-08-17T17:48:47.620Z</when>
<when >2025-08-17T17:48:56.460Z</when>
<when >2025-08-17T17:49:05.260Z</when>
<when >2025-08-17T17:49:21.750Z</when>
<when >2025-08-17T17:49:41.740Z</when>
<when >2025-08-17T17:50:01.150Z</when>
<when >2025-08-17T17:50:19.970Z</when>
<when >2025-08-17T17:50:39.880Z</when>
<when >2025-08-17T17:50:59.110Z</when>
<when >2025-08-17T17:51:18.910Z</when>
<when >2025-08-17T17:51:38.160Z</when>
<when >2025-08-17T17:51:57.530Z</when>
<when >2025-08-17T17:52:16.900Z</when>
<when >2025-08-17T17:52:35.860Z</when>
<when >2025-08-17T17:52:55.660Z</when>
<when >2025-08-17T17:53:13.830Z</when>
<when >2025-08-17T17:53:32.520Z</when>
<when >2025-08-17T17:53:51.910Z</when>
<when >2025-08-17T17:54:11.500Z</when>
<when >2025-08-17T17:54:30.680Z</when>
<when >2025-08-17T17:54:48.740Z</when>
<when >2025-08-17T17:55:08.120Z</when>
<when >2025-08-17T17:55:26.980Z</when>
<when >2025-08-17T17:55:45.400Z</when>
<when >2025-08-17T17:56:05.030Z</when>
<when >2025-08-17T17:56:24.140Z</when>
<when >2025-08-17T17:56:43.520Z</when>
<when >2025-08-17T17:57:03.170Z</when>
<when >2025-08-17T17:57:22.880Z</when>
<when >2025-08-17T17:57:42.660Z</when>
<when >2025-08-17T17:58:02.130Z</when>
<when >2025-08-17T17:58:21.840Z</when>
<when >2025-08-17T17:58:41.590Z</when>
<when >2025-08-17T17:59:01.390Z</when>
<when >2025-08-17T17:59:21.080Z</when>
<when >2025-08-17T17:59:40.630Z</when>
<when >2025-08-17T17:59:59.970Z</when>
<when >2025-08-17T18:00:19.600Z</when>
<when >2025-08-17T18:00:39.420Z</when>
<when >2025-08-17T18:00:59.320Z</when>
<when >2025-08-17T18:01:19.290Z</when>
<when >2025-08-17T18:01:38.830Z</when>
<when >2025-08-17T18:01:57.630Z</when>
<when >2025-08-17T18:02:17.530Z</when>
<when >2025-08-17T18:02:37.160Z</when>
<when >2025-08-17T18:02:56.210Z</when>
<when >2025-08-17T18:03:15.900Z</when>
<when >2025-08-17T18:03:35.820Z</when>
<when >2025-08-17T18:03:54.710Z</when>
<when >2025-08-17T18:04:13.840Z</when>
<when >2025-08-17T18:04:32.940Z</when>
<when >2025-08-17T18:04:51.770Z</when>
<when >2025-08-17T18:05:11.510Z</when>
<when >2025-08-17T18:05:30.840Z</when>
<when >2025-08-17T18:05:50.660Z</when>
<when >2025-08-17T18:06:09.940Z</when>
<when >2025-08-17T18:06:29.740Z</when>
<when >2025-08-17T18:06:49.110Z</when>
<when >2025-08-17T18:07:08.030Z</when>
<when >2025-08-17T18:07:27.570Z</when>
<when >2025-08-17T18:07:47.550Z</when>
<when >2025-08-17T18:08:06.540Z</when>
<when >2025-08-17T18:08:26.490Z</when>
<when >2025-08-17T18:08:33.670Z</when>
<when >2025-08-17T18:08:37.610Z</when>
<when >2025-08-17T18:08:42.890Z</when>
<when >2025-08-17T18:08:48.120Z</when>
<when >2025-08-17T18:08:53.810Z</when>
<when >2025-08-17T18:09:13.290Z</when>
<when >2025-08-17T18:09:33.250Z</when>
<when >2025-08-17T18:09:52.780Z</when>
<when >2025-08-17T18:10:12.470Z</when>
<when >2025-08-17T18:10:31.630Z</when>
<when >2025-08-17T18:10:50.710Z</when>
<when >2025-08-17T18:11:09.590Z</when>
<when >2025-08-17T18:11:28.540Z</when>
<when >2025-08-17T18:11:46.790Z</when>
<when >2025-08-17T18:12:06.070Z</when>
<when >2025-08-17T18:12:25.680Z</when>
<when >2025-08-17T18:12:44.530Z</when>
<when >2025-08-17T18:13:04.090Z</when>
<when >2025-08-17T18:13:22.900Z</when>
<when >2025-08-17T18:13:42.270Z</when>
<when >2025-08-17T18:14:01.650Z</when>
<when >2025-08-17T18:14:21.510Z</when>
<when >2025-08-17T18:14:41.390Z</when>
<when >2025-08-17T18:15:01.080Z</when>
<when >2025-08-17T18:15:20.400Z</when>
<when >2025-08-17T18:15:40.370Z</when>
<when >2025-08-17T18:15:59.600Z</when>
<when >2025-08-17T18:16:18.100Z</when>
<when >2025-08-17T18:16:37.720Z</when>
<when >2025-08-17T18:16:56.020Z</when>
<when >2025-08-17T18:17:15.910Z</when>
<when >2025-08-17T18:17:35.650Z</when>
<when >2025-08-17T18:17:54.390Z</when>
<when >2025-08-17T18:18:13.880Z</when>
<when >2025-08-17T18:18:33.250Z</when>
<when >2025-08-17T18:18:53.140Z</when>
<when >2025-08-17T18:19:12.090Z</when>
<when >2025-08-17T18:19:31.730Z</when>
<when >2025-08-17T18:19:51.130Z</when>
<when >2025-08-17T18:20:10.850Z</when>
<when >2025-08-17T18:20:29.690Z</when>
<when >2025-08-17T18:20:49.620Z</when>
<when >2025-08-17T18:21:08.130Z</when>
<when >2025-08-17T18:21:26.770Z</when>
<when >2025-08-17T18:21:46.600Z</when>
<when >2025-08-17T18:22:06.510Z</when>
<when >2025-08-17T18:22:25.550Z</when>
<when >2025-08-17T18:22:44.790Z</when>
<when >2025-08-17T18:23:04.230Z</when>
<when >2025-08-17T18:23:23.250Z</when>
<when >2025-08-17T18:23:43.180Z</when>
<when >2025-08-17T18:24:02.890Z</when>
<when >2025-08-17T18:24:22.850Z</when>
<when >2025-08-17T18:24:42.100Z</when>
<when >2025-08-17T18:25:01.330Z</when>
<when >2025-08-17T18:25:21.040Z</when>
<when >2025-08-17T18:25:40.900Z</when>
<when >2025-08-17T18:26:00.650Z</when>
<when >2025-08-17T18:26:19.590Z</when>
<when >2025-08-17T18:26:39.540Z</when>
<when >2025-08-17T18:26:59.150Z</when>
<when >2025-08-17T18:27:18.940Z</when>
<when >2025-08-17T18:27:38.850Z</when>
<when >2025-08-17T18:27:58.670Z</when>
<when >2025-08-17T18:28:18.200Z</when>
<when >2025-08-17T18:28:38.070Z</when>
<when >2025-08-17T18:28:55.060Z</when>
<when >2025-08-17T18:29:01.940Z</when>
<when >2025-08-17T18:29:06.040Z</when>
<when >2025-08-17T18:29:09.820Z</when>
<when >2025-08-17T18:29:14.740Z</when>
<when >2025-08-17T18:29:22.370Z</when>
<when >2025-08-17T18:29:41.390Z</when>
<when >2025-08-17T18:30:00.620Z</when>
<when >2025-08-17T18:30:19.550Z</when>
<when >2025-08-17T18:30:39.340Z</when>
<when >2025-08-17T18:30:58.510Z</when>
<when >2025-08-17T18:31:17.380Z</when>
<when >2025-08-17T18:31:37.090Z</when>
<when >2025-08-17T18:31:56.920Z</when>
<when >2025-08-17T18:32:16.300Z</when>
<when >2025-08-17T18:32:36.080Z</when>
<when >2025-08-17T18:32:55.320Z</when>
<when >2025-08-17T18:33:15.090Z</when>
<when >2025-08-17T18:33:34.970Z</when>
<when >2025-08-17T18:33:54.720Z</when>
<when >2025-08-17T18:34:14.680Z</when>
<when >2025-08-17T18:34:34.640Z</when>
<when >2025-08-17T18:34:54.210Z</when>
<when >2025-08-17T18:35:13.440Z</when>
<when >2025-08-17T18:35:33.340Z</when>
<when >2025-08-17T18:35:53.060Z</when>
<when >2025-08-17T18:36:12.680Z</when>
<when >2025-08-17T18:36:32.540Z</when>
<when >2025-08-17T18:36:52.440Z</when>
<when >2025-08-17T18:37:11.850Z</when>
<when >2025-08-17T18:37:31.750Z</when>
<when >2025-08-17T18:37:49.380Z</when>
<when >2025-08-17T18:38:08.380Z</when>
<when >2025-08-17T18:38:28.280Z</when>
<when >2025-08-17T18:38:48.180Z</when>
<when >2025-08-17T18:39:07.960Z</when>
<when >2025-08-17T18:39:27.140Z</when>
<when >2025-08-17T18:39:46.710Z</when>
<when >2025-08-17T18:40:06.580Z</when>
<when >2025-08-17T18:40:26.430Z</when>
<when >2025-08-17T18:40:46.090Z</when>
<when >2025-08-17T18:41:05.060Z</when>
<when >2025-08-17T18:41:24.360Z</when>
<when >2025-08-17T18:41:43.940Z</when>
<when >2025-08-17T18:42:03.370Z</when>
<when >2025-08-17T18:42:22.190Z</when>
<when >2025-08-17T18:42:42.050Z</when>
<when >2025-08-17T18:43:01.600Z</when>
<when >2025-08-17T18:43:21.320Z</when>
<when >2025-08-17T18:43:40.960Z</when>
<when >2025-08-17T18:44:00.400Z</when>
<when >2025-08-17T18:44:20.090Z</when>
<when >2025-08-17T18:44:39.700Z</when>
<when >2025-08-17T18:44:58.890Z</when>
<when >2025-08-17T18:45:18.660Z</when>
<when >2025-08-17T18:45:38.380Z</when>
<when >2025-08-17T18:45:58.240Z</when>
<when >2025-08-17T18:46:18.060Z</when>
<when >2025-08-17T18:46:37.520Z</when>
<when >2025-08-17T18:46:57.390Z</when>
<when >2025-08-17T18:47:17.100Z</when>
<when >2025-08-17T18:47:36.490Z</when>
<when >2025-08-17T18:47:55.930Z</when>
<when >2025-08-17T18:48:15.300Z</when>
<when >2025-08-17T18:48:35.210Z</when>
<when >2025-08-17T18:48:55.170Z</when>
<when >2025-08-17T18:49:14.940Z</when>
<when >2025-08-17T18:49:34.800Z</when>
<when >2025-08-17T18:49:54.570Z</when>
<when >2025-08-17T18:50:14.460Z</when>
<when >2025-08-17T18:50:33.950Z</when>
<when >2025-08-17T18:50:53.880Z</when>
<when >2025-08-17T18:51:13.130Z</when>
<when >2025-08-17T18:51:32.940Z</when>
<when >2025-08-17T18:51:52.860Z</when>
<when >2025-08-17T18:52:12.780Z</when>
<when >2025-08-17T18:52:32.180Z</when>
<when >2025-08-17T18:52:52.140Z</when>
<when >2025-08-17T18:53:11.840Z</when>
<when >2025-08-17T18:53:31.620Z</when>
<when >2025-08-17T18:53:51.460Z</when>
<when >2025-08-17T18:54:11.270Z</when>
<when >2025-08-17T18:54:31.070Z</when>
<when >2025-08-17T18:54:50.690Z</when>
<when >2025-08-17T18:55:10.580Z</when>
<when >2025-08-17T18:55:29.960Z</when>
<when >2025-08-17T18:55:49.520Z</when>
<when >2025-08-17T18:56:09.350Z</when>
<when >2025-08-17T18:56:28.820Z</when>
<when >2025-08-17T18:56:48.470Z</when>
<when >2025-08-17T18:57:08.250Z</when>
<when >2025-08-17T18:57:27.360Z</when>
<when >2025-08-17T18:57:47.090Z</when>
<when >2025-08-17T18:58:06.770Z</when>
<when >2025-08-17T18:58:26.690Z</when>
<when >2025-08-17T18:58:46.460Z</when>
<when >2025-08-17T18:59:06.020Z</when>
<when >2025-08-17T18:59:25.230Z</when>
<when >2025-08-17T18:59:44.610Z</when>
<when >2025-08-17T19:00:04.380Z</when>
<when >2025-08-17T19:00:11.820Z</when>
<when >2025-08-17T19:00:17.300Z</when>
<when >2025-08-17T19:00:22.490Z</when>
<when >2025-08-17T19:00:27.710Z</when>
<when >2025-08-17T19:00:32.700Z</when>
<when >2025-08-17T19:00:38.170Z</when>
<when >2025-08-17T19:00:43.200Z</when>
<when >2025-08-17T19:00:48.850Z</when>
<when >2025-08-17T19:00:54.120Z</when>
<when >2025-08-17T19:00:58.820Z</when>
<when >2025-08-17T19:01:03.960Z</when>
<when >2025-08-17T19:01:09.480Z</when>
<when >2025-08-17T19:01:15.320Z</when>
<when >2025-08-17T19:01:19.980Z</when>
<when >2025-08-17T19:01:24.970Z</when>
<when >2025-08-17T19:01:30.850Z</when>
<when >2025-08-17T19:01:37.290Z</when>
<when >2025-08-17T19:01:56.910Z</when>
<when >2025-08-17T19:02:16.640Z</when>
<when >2025-08-17T19:02:36.310Z</when>
<when >2025-08-17T19:02:55.410Z</when>
<when >2025-08-17T19:03:15.050Z</when>
<when >2025-08-17T19:03:34.920Z</when>
<when >2025-08-17T19:03:54.920Z</when>
<when >2025-08-17T19:04:14.720Z</when>
<when >2025-08-17T19:04:34.510Z</when>
<when >2025-08-17T19:04:54.160Z</when>
<when >2025-08-17T19:05:13.810Z</when>
<when >2025-08-17T19:05:28.170Z</when>
<when >2025-08-17T19:05:37.350Z</when>
<when >2025-08-17T19:05:47.600Z</when>
<when >2025-08-17T19:06:03.300Z</when>
<when >2025-08-17T19:06:16.180Z</when>
<when >2025-08-17T19:06:35.610Z</when>
<when >2025-08-17T19:06:55.330Z</when>
<when >2025-08-17T19:07:14.530Z</when>
<when >2025-08-17T19:07:34.380Z</when>
<when >2025-08-17T19:07:54.300Z</when>
<when >2025-08-17T19:08:14.020Z</when>
<when >2025-08-17T19:08:33.810Z</when>
<when >2025-08-17T19:08:53.380Z</when>
<when >2025-08-17T19:09:13.040Z</when>
<when >2025-08-17T19:09:32.760Z</when>
<when >2025-08-17T19:09:39.410Z</when>
<when >2025-08-17T19:09:45.100Z</when>
<when >2025-08-17T19:09:50.010Z</when>
<when >2025-08-17T19:09:55.510Z</when>
<when >2025-08-17T19:09:59.930Z</when>
<when >2025-08-17T19:10:04.480Z</when>
<when >2025-08-17T19:10:08.730Z</when>
<when >2025-08-17T19:10:14.450Z</when>
<when >2025-08-17T19:10:20.410Z</when>
<when >2025-08-17T19:10:26.010Z</when>
<when >2025-08-17T19:10:35.780Z</when>
<when >2025-08-17T19:10:55.370Z</when>
<when >2025-08-17T19:11:14.710Z</when>
<when >2025-08-17T19:11:30.570Z</when>
<when >2025-08-17T19:11:35.650Z</when>
<when >2025-08-17T19:11:40.320Z</when>
<when >2025-08-17T19:11:44.490Z</when>
<when >2025-08-17T19:11:49.470Z</when>
<when >2025-08-17T19:11:53.680Z</when>
<when >2025-08-17T19:11:58.530Z</when>
<when >2025-08-17T19:12:03.710Z</when>
<when >2025-08-17T19:12:08.160Z</when>
<when >2025-08-17T19:12:12.580Z</when>
<when >2025-08-17T19:12:16.360Z</when>
<when >2025-08-17T19:12:21.710Z</when>
<when >2025-08-17T19:12:26.450Z</when>
<when >2025-08-17T19:12:33.230Z</when>
<when >2025-08-17T19:12:49.030Z</when>
<when >2025-08-17T19:13:07.570Z</when>
<when >2025-08-17T19:13:27.510Z</when>
<when >2025-08-17T19:13:47.240Z</when>
<when >2025-08-17T19:14:06.900Z</when>
<when >2025-08-17T19:14:26.890Z</when>
<when >2025-08-17T19:14:46.820Z</when>
<when >2025-08-17T19:15:06.390Z</when>
<when >2025-08-17T19:15:26.130Z</when>
<when >2025-08-17T19:15:46.050Z</when>
<when >2025-08-17T19:16:05.640Z</when>
<when >2025-08-17T19:16:25.210Z</when>
<when >2025-08-17T19:16:44.810Z</when>
<when >2025-08-17T19:17:04.480Z</when>
<when >2025-08-17T19:17:24.460Z</when>
<when >2025-08-17T19:17:44.320Z</when>
<when >2025-08-17T19:18:03.850Z</when>
<when >2025-08-17T19:18:23.850Z</when>
<when >2025-08-17T19:18:43.710Z</when>
<when >2025-08-17T19:19:03.520Z</when>
<when >2025-08-17T19:19:22.960Z</when>
<when >2025-08-17T19:19:42.120Z</when>
<when >2025-08-17T19:20:02.000Z</when>
<when >2025-08-17T19:20:21.800Z</when>
<when >2025-08-17T19:20:41.590Z</when>
<when >2025-08-17T19:21:01.000Z</when>
<when >2025-08-17T19:21:20.760Z</when>
<when >2025-08-17T19:21:39.990Z</when>
<when >2025-08-17T19:21:59.990Z</when>
<when >2025-08-17T19:22:19.100Z</when>
<when >2025-08-17T19:22:38.170Z</when>
<when >2025-08-17T19:22:57.400Z</when>
<when >2025-08-17T19:23:17.040Z</when>
<when >2025-08-17T19:23:36.370Z</when>
<when >2025-08-17T19:23:56.090Z</when>
<when >2025-08-17T19:24:16.080Z</when>
<when >2025-08-17T19:24:35.620Z</when>
<when >2025-08-17T19:24:55.050Z</when>
<when >2025-08-17T19:25:14.780Z</when>
<when >2025-08-17T19:25:26.770Z</when>
<when >2025-08-17T19:25:46.700Z</when>
<when >2025-08-17T19:26:06.450Z</when>
<when >2025-08-17T19:26:26.180Z</when>
<when >2025-08-17T19:26:45.630Z</when>
<when >2025-08-17T19:27:05.460Z</when>
<when >2025-08-17T19:27:25.240Z</when>
<when >2025-08-17T19:27:44.820Z</when>
<when >2025-08-17T19:28:03.940Z</when>
<when >2025-08-17T19:28:23.340Z</when>
<when >2025-08-17T19:28:43.130Z</when>
<when >2025-08-17T19:29:03.080Z</when>
<when >2025-08-17T19:29:22.710Z</when>
<when >2025-08-17T19:29:42.450Z</when>
<when >2025-08-17T19:30:01.570Z</when>
<when >2025-08-17T19:30:21.010Z</when>
<when >2025-08-17T19:30:40.940Z</when>
<when >2025-08-17T19:31:00.580Z</when>
<when >2025-08-17T19:31:20.340Z</when>
<when >2025-08-17T19:31:40.100Z</when>
<when >2025-08-17T19:31:59.940Z</when>
<when >2025-08-17T19:32:19.620Z</when>
<when >2025-08-17T19:32:39.530Z</when>
<when >2025-08-17T19:32:59.160Z</when>
<when >2025-08-17T19:33:18.980Z</when>
<when >2025-08-17T19:33:38.630Z</when>
<when >2025-08-17T19:33:58.330Z</when>
<when >2025-08-17T19:34:18.170Z</when>
<when >2025-08-17T19:34:38.010Z</when>
<when >2025-08-17T19:34:57.940Z</when>
<when >2025-08-17T19:35:17.040Z</when>
<when >2025-08-17T19:35:36.840Z</when>
<when >2025-08-17T19:35:56.710Z</when>
<when >2025-08-17T19:36:16.590Z</when>
<when >2025-08-17T19:36:31.410Z</when>
<when >2025-08-17T19:36:51.270Z</when>
<when >2025-08-17T19:37:11.220Z</when>
<when >2025-08-17T19:37:30.950Z</when>
<when >2025-08-17T19:37:50.750Z</when>
<when >2025-08-17T19:38:10.350Z</when>
<when >2025-08-17T19:38:29.890Z</when>
<when >2025-08-17T19:38:49.000Z</when>
<when >2025-08-17T19:39:08.360Z</when>
<when >2025-08-17T19:39:27.920Z</when>
<when >2025-08-17T19:39:47.640Z</when>
<when >2025-08-17T19:40:07.530Z</when>
<when >2025-08-17T19:40:27.460Z</when>
<when >2025-08-17T19:40:47.190Z</when>
<when >2025-08-17T19:41:07.010Z</when>
<when >2025-08-17T19:41:26.650Z</when>
<when >2025-08-17T19:41:46.400Z</when>
<when >2025-08-17T19:42:06.110Z</when>
<when >2025-08-17T19:42:26.100Z</when>
<when >2025-08-17T19:42:45.900Z</when>
<when >2025-08-17T19:43:05.760Z</when>
<when >2025-08-17T19:43:25.420Z</when>
<when >2025-08-17T19:43:45.020Z</when>
<when >2025-08-17T19:44:04.620Z</when>
<when >2025-08-17T19:44:24.570Z</when>
<when >2025-08-17T19:44:44.370Z</when>
<when >2025-08-17T19:45:04.170Z</when>
<when >2025-08-17T19:45:23.770Z</when>
<when >2025-08-17T19:45:43.400Z</when>
<when >2025-08-17T19:46:02.810Z</when>
<when >2025-08-17T19:46:22.360Z</when>
<when >2025-08-17T19:46:42.150Z</when>
<when >2025-08-17T19:47:01.650Z</when>
<when >2025-08-17T19:47:20.950Z</when>
<when >2025-08-17T19:47:40.850Z</when>
<when >2025-08-17T19:48:00.710Z</when>
<when >2025-08-17T19:48:20.430Z</when>
<when >2025-08-17T19:48:40.100Z</when>
<when >2025-08-17T19:48:59.950Z</when>
<when >2025-08-17T19:49:19.810Z</when>
<when >2025-08-17T19:49:39.610Z</when>
<when >2025-08-17T19:49:59.430Z</when>
<when >2025-08-17T19:50:19.090Z</when>
<when >2025-08-17T19:50:39.080Z</when>
<when >2025-08-17T19:50:58.730Z</when>
<when >2025-08-17T19:51:18.260Z</when>
<when >2025-08-17T19:51:38.150Z</when>
<when >2025-08-17T19:51:58.120Z</when>
<when >2025-08-17T19:52:17.590Z</when>
<when >2025-08-17T19:52:37.420Z</when>
<when >2025-08-17T19:52:57.350Z</when>
<when >2025-08-17T19:53:17.340Z</when>
<when >2025-08-17T19:53:37.290Z</when>
<when >2025-08-17T19:53:56.980Z</when>
<when >2025-08-17T19:54:16.720Z</when>
<when >2025-08-17T19:54:36.250Z</when>
<when >2025-08-17T19:54:56.130Z</when>
<when >2025-08-17T19:55:15.770Z</when>
<when >2025-08-17T19:55:35.660Z</when>
<when >2025-08-17T19:55:55.230Z</when>
<when >2025-08-17T19:56:02.250Z</when>
<when >2025-08-17T19:56:07.780Z</when>
<when >2025-08-17T19:56:13.590Z</when>
<when >2025-08-17T19:56:19.380Z</when>
<when >2025-08-17T19:56:27.080Z</when>
<when >2025-08-17T19:56:46.600Z</when>
<when >2025-08-17T19:57:06.260Z</when>
<when >2025-08-17T19:57:26.200Z</when>
<when >2025-08-17T19:57:45.610Z</when>
<when >2025-08-17T19:58:05.340Z</when>
<when >2025-08-17T19:58:25.120Z</when>
<when >2025-08-17T19:58:44.670Z</when>
<when >2025-08-17T19:59:04.190Z</when>
<when >2025-08-17T19:59:24.130Z</when>
<when >2025-08-17T19:59:43.810Z</when>
<when >2025-08-17T20:00:03.450Z</when>
<when >2025-08-17T20:00:23.180Z</when>
<when >2025-08-17T20:00:42.610Z</when>
<when >2025-08-17T20:01:02.540Z</when>
<when >2025-08-17T20:01:22.010Z</when>
<when >2025-08-17T20:01:41.980Z</when>
<when >2025-08-17T20:02:01.890Z</when>
<when >2025-08-17T20:02:21.580Z</when>
<when >2025-08-17T20:02:41.510Z</when>
<when >2025-08-17T20:03:01.440Z</when>
<when >2025-08-17T20:03:20.990Z</when>
<when >2025-08-17T20:03:40.940Z</when>
<when >2025-08-17T20:04:00.360Z</when>
<when >2025-08-17T20:04:20.020Z</when>
<when >2025-08-17T20:04:40.000Z</when>
<when >2025-08-17T20:04:59.950Z</when>
<when >2025-08-17T20:05:19.450Z</when>
<when >2025-08-17T20:05:39.340Z</when>
<when >2025-08-17T20:05:59.320Z</when>
<when >2025-08-17T20:06:18.940Z</when>
<when >2025-08-17T20:06:38.830Z</when>
<when >2025-08-17T20:06:58.420Z</when>
<when >2025-08-17T20:07:18.290Z</when>
<when >2025-08-17T20:07:37.780Z</when>
<when >2025-08-17T20:07:57.440Z</when>
<when >2025-08-17T20:08:17.120Z</when>
<when >2025-08-17T20:08:36.770Z</when>
<when >2025-08-17T20:08:56.520Z</when>
<when >2025-08-17T20:09:16.310Z</when>
<when >2025-08-17T20:09:35.870Z</when>
<when >2025-08-17T20:09:55.820Z</when>
<when >2025-08-17T20:10:15.270Z</when>
<when >2025-08-17T20:10:35.200Z</when>
<when >2025-08-17T20:10:54.880Z</when>
<when >2025-08-17T20:11:14.720Z</when>
<when >2025-08-17T20:11:34.510Z</when>
<when >2025-08-17T20:11:54.180Z</when>
<when >2025-08-17T20:12:13.940Z</when>
<when >2025-08-17T20:12:33.630Z</when>
<when >2025-08-17T20:12:52.970Z</when>
<when >2025-08-17T20:13:12.740Z</when>
<when >2025-08-17T20:13:32.600Z</when>
<when >2025-08-17T20:13:52.500Z</when>
<when >2025-08-17T20:14:04.620Z</when>
<when >2025-08-17T20:14:20.710Z</when>
<when >2025-08-17T20:14:25.120Z</when>
<when >2025-08-17T20:14:29.070Z</when>
<when >2025-08-17T20:14:31.860Z</when>
<when >2025-08-17T20:14:32.850Z</when>
<when >2025-08-17T20:14:35.770Z</when>
<when >2025-08-17T20:14:43.650Z</when>
<when >2025-08-17T20:14:53.760Z</when>
<when >2025-08-17T20:15:02.190Z</when>
<when >2025-08-17T20:15:06.350Z</when>
<when >2025-08-17T20:15:13.990Z</when>
<when >2025-08-17T20:15:17.560Z</when>
<when >2025-08-17T20:15:19.250Z</when>
<when >2025-08-17T20:15:30.130Z</when>
<when >2025-08-17T20:15:41.270Z</when>
<when >2025-08-17T20:15:44.780Z</when>
<when >2025-08-17T20:15:47.650Z</when>
<when >2025-08-17T20:15:51.200Z</when>
<when >2025-08-17T20:15:57.370Z</when>
<when >2025-08-17T20:16:04.360Z</when>
<when >2025-08-17T20:16:10.800Z</when>
<when >2025-08-17T20:16:16.530Z</when>
<when >2025-08-17T20:16:26.780Z</when>
<when >2025-08-17T20:16:37.160Z</when>
<when >2025-08-17T20:16:45.670Z</when>
<when >2025-08-17T20:16:54.430Z</when>
<when >2025-08-17T20:16:59.080Z</when>
<when >2025-08-17T20:17:09.130Z</when>
<when >2025-08-17T20:17:10.710Z</when>
<when >2025-08-17T20:17:11.810Z</when>
<when >2025-08-17T20:17:12.870Z</when>
<when >2025-08-17T20:17:15.390Z</when>
<when >2025-08-17T20:17:20.780Z</when>
<when >2025-08-17T20:17:23.090Z</when>
<when >2025-08-17T20:17:25.470Z</when>
<when >2025-08-17T20:17:32.200Z</when>
<when >2025-08-17T20:17:39.310Z</when>
<when >2025-08-17T20:17:48.230Z</when>
<when >2025-08-17T20:17:56.650Z</when>
<when >2025-08-17T20:18:04.080Z</when>
<when >2025-08-17T20:18:05.260Z</when>
<when >2025-08-17T20:18:07.320Z</when>
<when >2025-08-17T20:18:08.380Z</when>
<when >2025-08-17T20:18:13.830Z</when>
<when >2025-08-17T20:18:18.060Z</when>
<when >2025-08-17T20:18:24.260Z</when>
<when >2025-08-17T20:18:31.020Z</when>
<when >2025-08-17T20:18:37.670Z</when>
<when >2025-08-17T20:18:44.690Z</when>
<when >2025-08-17T20:18:51.820Z</when>
<when >2025-08-17T20:19:00.100Z</when>
<when >2025-08-17T20:19:05.580Z</when>
<when >2025-08-17T20:19:06.880Z</when>
<when >2025-08-17T20:19:11.880Z</when>
<when >2025-08-17T20:19:22.550Z</when>
<when >2025-08-17T20:19:32.520Z</when>
<when >2025-08-17T20:19:44.240Z</when>
<when >2025-08-17T20:19:54.600Z</when>
<when >2025-08-17T20:20:06.150Z</when>
<when >2025-08-17T20:20:18.910Z</when>
<when >2025-08-17T20:20:24.880Z</when>
<when >2025-08-17T20:20:32.440Z</when>
<when >2025-08-17T20:20:43.210Z</when>
<when >2025-08-17T20:20:54.280Z</when>
<when >2025-08-17T20:21:05.500Z</when>
<when >2025-08-17T20:21:16.510Z</when>
<when >2025-08-17T20:21:25.950Z</when>
<when >2025-08-17T20:21:34.300Z</when>
<when >2025-08-17T20:21:45.770Z</when>
<when >2025-08-17T20:21:57.470Z</when>
<when >2025-08-17T20:22:03.510Z</when>
<when >2025-08-17T20:22:08.160Z</when>
<when >2025-08-17T20:22:11.820Z</when>
<when >2025-08-17T20:22:13.700Z</when>
<when >2025-08-17T20:22:16.660Z</when>
<when >2025-08-17T20:22:19.880Z</when>
<when >2025-08-17T20:22:24.080Z</when>
<when >2025-08-17T20:22:33.530Z</when>
<when >2025-08-17T20:22:46.950Z</when>
<when >2025-08-17T20:23:02.540Z</when>
<when >2025-08-17T20:23:13.380Z</when>
<when >2025-08-17T20:23:18.470Z</when>
<when >2025-08-17T20:23:30.590Z</when>
<when >2025-08-17T20:23:43.250Z</when>
<when >2025-08-17T20:23:55.890Z</when>
<when >2025-08-17T20:24:01.800Z</when>
<when >2025-08-17T20:24:06.700Z</when>
<when >2025-08-17T20:24:12.520Z</when>
<when >2025-08-17T20:24:24.120Z</when>
<when >2025-08-17T20:24:37.920Z</when>
<when >2025-08-17T20:24:48.180Z</when>
<when >2025-08-17T20:24:54.810Z</when>
<when >2025-08-17T20:25:01.990Z</when>
<when >2025-08-17T20:25:10.760Z</when>
<when >2025-08-17T20:25:18.330Z</when>
<when >2025-08-17T20:25:25.280Z</when>
<when >2025-08-17T20:25:32.340Z</when>
<when >2025-08-17T20:25:39.570Z</when>
<when >2025-08-17T20:25:47.030Z</when>
<when >2025-08-17T20:25:49.800Z</when>
<when >2025-08-17T20:25:59.720Z</when>
<when >2025-08-17T20:26:09.980Z</when>
<when >2025-08-17T20:26:20.200Z</when>
<when >2025-08-17T20:26:28.730Z</when>
<when >2025-08-17T20:26:37.360Z</when>
<when >2025-08-17T20:26:45.020Z</when>
<when >2025-08-17T20:26:53.730Z</when>
<when >2025-08-17T20:27:02.140Z</when>
<when >2025-08-17T20:27:10.150Z</when>
<when >2025-08-17T20:27:16.430Z</when>
<when >2025-08-17T20:27:22.630Z</when>
<when >2025-08-17T20:27:29.620Z</when>
<when >2025-08-17T20:27:37.720Z</when>
<when >2025-08-17T20:27:46.310Z</when>
<when >2025-08-17T20:27:54.100Z</when>
<when >2025-08-17T20:28:02.920Z</when>
<when >2025-08-17T20:28:10.380Z</when>
<when >2025-08-17T20:28:18.620Z</when>
<when >2025-08-17T20:28:26.130Z</when>
<when >2025-08-17T20:28:33.660Z</when>
<when >2025-08-17T20:28:40.580Z</when>
<when >2025-08-17T20:28:44.110Z</when>
<when >2025-08-17T20:28:56.950Z</when>
<when >2025-08-17T20:29:16.780Z</when>
<when >2025-08-17T20:29:25.790Z</when>
<when >2025-08-17T20:29:31.790Z</when>
<when >2025-08-17T20:29:37.740Z</when>
<when >2025-08-17T20:29:42.210Z</when>
<when >2025-08-17T20:29:46.140Z</when>
<when >2025-08-17T20:29:49.920Z</when>
<when >2025-08-17T20:29:53.900Z</when>
<when >2025-08-17T20:29:57.320Z</when>
<when >2025-08-17T20:30:01.690Z</when>
<when >2025-08-17T20:30:05.470Z</when>
<when >2025-08-17T20:30:10.190Z</when>
<when >2025-08-17T20:30:15.290Z</when>
<when >2025-08-17T20:30:20.480Z</when>
<when >2025-08-17T20:30:25.550Z</when>
<when >2025-08-17T20:30:30.720Z</when>
<when >2025-08-17T20:30:34.500Z</when>
<when >2025-08-17T20:30:39.740Z</when>
<when >2025-08-17T20:30:43.710Z</when>
<when >2025-08-17T20:30:48.530Z</when>
<when >2025-08-17T20:30:54.200Z</when>
<when >2025-08-17T20:30:58.240Z</when>
<when >2025-08-17T20:31:03.470Z</when>
<when >2025-08-17T20:31:08.150Z</when>
<when >2025-08-17T20:31:12.940Z</when>
<when >2025-08-17T20:31:17.650Z</when>
<when >2025-08-17T20:31:22.170Z</when>
<when >2025-08-17T20:31:25.760Z</when>
<when >2025-08-17T20:31:27.840Z</when>
<when >2025-08-17T20:31:29.820Z</when>
<when >2025-08-17T20:31:32.160Z</when>
<when >2025-08-17T20:31:34.620Z</when>
<when >2025-08-17T20:31:37.340Z</when>
<when >2025-08-17T20:31:39.900Z</when>
<when >2025-08-17T20:31:43.690Z</when>
<when >2025-08-17T20:31:48.270Z</when>
<when >2025-08-17T20:31:54.450Z</when>
<when >2025-08-17T20:32:01.530Z</when>
<when >2025-08-17T20:32:09.120Z</when>
<when >2025-08-17T20:32:15.950Z</when>
<when >2025-08-17T20:32:20.860Z</when>
<when >2025-08-17T20:32:27.640Z</when>
<when >2025-08-17T20:32:33.780Z</when>
<when >2025-08-17T20:32:39.590Z</when>
<when >2025-08-17T20:32:46.350Z</when>
<when >2025-08-17T20:32:48.510Z</when>
<when >2025-08-17T20:32:51.520Z</when>
<when >2025-08-17T20:32:53.710Z</when>
<when >2025-08-17T20:32:56.540Z</when>
<when >2025-08-17T20:32:59.510Z</when>
<when >2025-08-17T20:33:03.680Z</when>
<when >2025-08-17T20:33:10.410Z</when>
<when >2025-08-17T20:33:19.210Z</when>
<when >2025-08-17T20:33:24.620Z</when>
<when >2025-08-17T20:33:29.910Z</when>
<when >2025-08-17T20:33:49.790Z</when>
<when >2025-08-17T20:33:59.010Z</when>
<when >2025-08-17T20:34:01.120Z</when>
<when >2025-08-17T20:34:04.630Z</when>
<when >2025-08-17T20:34:07.900Z</when>
<when >2025-08-17T20:34:11.840Z</when>
<when >2025-08-17T20:34:17.160Z</when>
<when >2025-08-17T20:34:23.700Z</when>
<when >2025-08-17T20:34:31.900Z</when>
<when >2025-08-17T20:34:38.440Z</when>
<when >2025-08-17T20:34:45.700Z</when>
<when >2025-08-17T20:34:54.380Z</when>
<when >2025-08-17T20:35:01.940Z</when>
<when >2025-08-17T20:35:08.590Z</when>
<when >2025-08-17T20:35:15.350Z</when>
<when >2025-08-17T20:35:22.110Z</when>
<when >2025-08-17T20:35:30.720Z</when>
<when >2025-08-17T20:35:38.300Z</when>
<when >2025-08-17T20:35:46.740Z</when>
<when >2025-08-17T20:35:52.510Z</when>
<when >2025-08-17T20:35:59.030Z</when>
<when >2025-08-17T20:36:07.490Z</when>
<when >2025-08-17T20:36:15.980Z</when>
<when >2025-08-17T20:36:24.330Z</when>
<when >2025-08-17T20:36:31.250Z</when>
<when >2025-08-17T20:36:38.950Z</when>
<when >2025-08-17T20:36:47.230Z</when>
<when >2025-08-17T20:36:55.410Z</when>
<when >2025-08-17T20:37:03.800Z</when>
<when >2025-08-17T20:37:10.270Z</when>
<when >2025-08-17T20:37:18.790Z</when>
<when >2025-08-17T20:37:25.170Z</when>
<when >2025-08-17T20:37:32.860Z</when>
<when >2025-08-17T20:37:40.260Z</when>
<when >2025-08-17T20:37:43.210Z</when>
<when >2025-08-17T20:37:44.920Z</when>
<when >2025-08-17T20:37:48.140Z</when>
<when >2025-08-17T20:37:49.570Z</when>
<when >2025-08-17T20:37:51.320Z</when>
<when >2025-08-17T20:37:51.590Z</when>
<when >2025-08-17T20:37:55.060Z</when>
<when >2025-08-17T20:37:55.060Z</when>
<gx:coord >-4.499989 36.675568 26</gx:coord>
<gx:coord >-4.495687 36.672596 66</gx:coord>
<gx:coord >-4.494226 36.671572 87</gx:coord>
<gx:coord >-4.491692 36.669846 130</gx:coord>
<gx:coord >-4.489785 36.668546 156</gx:coord>
<gx:coord >-4.488316 36.667465 190</gx:coord>
<gx:coord >-4.486863 36.666451 215</gx:coord>
<gx:coord >-4.485052 36.665148 256</gx:coord>
<gx:coord >-4.484711 36.664902 276</gx:coord>
<gx:coord >-4.483452 36.663986 304</gx:coord>
<gx:coord >-4.481312 36.662448 344</gx:coord>
<gx:coord >-4.480026 36.661563 377</gx:coord>
<gx:coord >-4.478448 36.660399 419</gx:coord>
<gx:coord >-4.476344 36.658863 468</gx:coord>
<gx:coord >-4.475 36.657932 490</gx:coord>
<gx:coord >-4.473422 36.656815 515</gx:coord>
<gx:coord >-4.47258 36.656204 522</gx:coord>
<gx:coord >-4.470091 36.654441 555</gx:coord>
<gx:coord >-4.466858 36.65213 587</gx:coord>
<gx:coord >-4.463768 36.649887 623</gx:coord>
<gx:coord >-4.45982 36.647049 659</gx:coord>
<gx:coord >-4.455414 36.643799 687</gx:coord>
<gx:coord >-4.451008 36.64064 722</gx:coord>
<gx:coord >-4.446144 36.63707 755</gx:coord>
<gx:coord >-4.441866 36.634004 789</gx:coord>
<gx:coord >-4.438648 36.631668 805</gx:coord>
<gx:coord >-4.433041 36.627594 834</gx:coord>
<gx:coord >-4.430408 36.625717 847</gx:coord>
<gx:coord >-4.426117 36.622604 876</gx:coord>
<gx:coord >-4.420338 36.618484 914</gx:coord>
<gx:coord >-4.416504 36.615784 934</gx:coord>
<gx:coord >-4.413407 36.613568 950</gx:coord>
<gx:coord >-4.40958 36.610886 966</gx:coord>
<gx:coord >-4.407154 36.609192 974</gx:coord>
<gx:coord >-4.404524 36.60733 982</gx:coord>
<gx:coord >-4.398563 36.603513 999</gx:coord>
<gx:coord >-4.394648 36.601418 1015</gx:coord>
<gx:coord >-4.392135 36.6003 1025</gx:coord>
<gx:coord >-4.388008 36.598846 1041</gx:coord>
<gx:coord >-4.38448 36.597926 1049</gx:coord>
<gx:coord >-4.380283 36.597107 1065</gx:coord>
<gx:coord >-4.372909 36.596064 1097</gx:coord>
<gx:coord >-4.367065 36.595319 1121</gx:coord>
<gx:coord >-4.363325 36.594854 1153</gx:coord>
<gx:coord >-4.357796 36.594086 1180</gx:coord>
<gx:coord >-4.353161 36.593445 1214</gx:coord>
<gx:coord >-4.348183 36.592758 1256</gx:coord>
<gx:coord >-4.344041 36.592247 1285</gx:coord>
<gx:coord >-4.339199 36.591614 1318</gx:coord>
<gx:coord >-4.334457 36.590943 1352</gx:coord>
<gx:coord >-4.330673 36.590378 1382</gx:coord>
<gx:coord >-4.325809 36.589691 1414</gx:coord>
<gx:coord >-4.32201 36.589128 1448</gx:coord>
<gx:coord >-4.317744 36.58843 1478</gx:coord>
<gx:coord >-4.314179 36.587871 1505</gx:coord>
<gx:coord >-4.31076 36.587311 1530</gx:coord>
<gx:coord >-4.306698 36.586624 1562</gx:coord>
<gx:coord >-4.302901 36.586009 1587</gx:coord>
<gx:coord >-4.299161 36.585311 1620</gx:coord>
<gx:coord >-4.295025 36.584656 1655</gx:coord>
<gx:coord >-4.290336 36.584007 1686</gx:coord>
<gx:coord >-4.28587 36.583511 1726</gx:coord>
<gx:coord >-4.281746 36.583262 1745</gx:coord>
<gx:coord >-4.278298 36.583169 1778</gx:coord>
<gx:coord >-4.273682 36.583145 1806</gx:coord>
<gx:coord >-4.27042 36.583237 1831</gx:coord>
<gx:coord >-4.267101 36.583282 1857</gx:coord>
<gx:coord >-4.262867 36.583374 1889</gx:coord>
<gx:coord >-4.259423 36.583449 1923</gx:coord>
<gx:coord >-4.254865 36.583495 1954</gx:coord>
<gx:coord >-4.251194 36.583511 1988</gx:coord>
<gx:coord >-4.247092 36.583542 2017</gx:coord>
<gx:coord >-4.243352 36.583588 2056</gx:coord>
<gx:coord >-4.239145 36.583588 2086</gx:coord>
<gx:coord >-4.235113 36.583588 2119</gx:coord>
<gx:coord >-4.230905 36.583542 2151</gx:coord>
<gx:coord >-4.227107 36.583542 2183</gx:coord>
<gx:coord >-4.223213 36.583557 2211</gx:coord>
<gx:coord >-4.219159 36.583542 2243</gx:coord>
<gx:coord >-4.214573 36.583511 2272</gx:coord>
<gx:coord >-4.210277 36.583495 2302</gx:coord>
<gx:coord >-4.200751 36.583449 2365</gx:coord>
<gx:coord >-4.191227 36.583328 2445</gx:coord>
<gx:coord >-4.181499 36.583237 2507</gx:coord>
<gx:coord >-4.172173 36.583099 2574</gx:coord>
<gx:coord >-4.163643 36.58303 2639</gx:coord>
<gx:coord >-4.154819 36.58289 2694</gx:coord>
<gx:coord >-4.14711 36.582733 2756</gx:coord>
<gx:coord >-4.137897 36.582596 2818</gx:coord>
<gx:coord >-4.129106 36.582424 2887</gx:coord>
<gx:coord >-4.120331 36.58223 2954</gx:coord>
<gx:coord >-4.110757 36.582005 3029</gx:coord>
<gx:coord >-4.101219 36.581818 3081</gx:coord>
<gx:coord >-4.091706 36.581586 3160</gx:coord>
<gx:coord >-4.082394 36.581406 3221</gx:coord>
<gx:coord >-4.072323 36.581223 3283</gx:coord>
<gx:coord >-4.062604 36.581028 3350</gx:coord>
<gx:coord >-4.052144 36.580795 3412</gx:coord>
<gx:coord >-4.041683 36.580609 3479</gx:coord>
<gx:coord >-4.032099 36.580423 3542</gx:coord>
<gx:coord >-4.02174 36.580215 3609</gx:coord>
<gx:coord >-4.01112 36.580004 3678</gx:coord>
<gx:coord >-4.002238 36.579817 3731</gx:coord>
<gx:coord >-3.993822 36.579631 3785</gx:coord>
<gx:coord >-3.984718 36.579437 3847</gx:coord>
<gx:coord >-3.976593 36.579254 3905</gx:coord>
<gx:coord >-3.958234 36.578793 4036</gx:coord>
<gx:coord >-3.938427 36.578339 4166</gx:coord>
<gx:coord >-3.919606 36.577862 4295</gx:coord>
<gx:coord >-3.899632 36.577423 4410</gx:coord>
<gx:coord >-3.878002 36.576965 4532</gx:coord>
<gx:coord >-3.856773 36.576553 4654</gx:coord>
<gx:coord >-3.834112 36.576186 4783</gx:coord>
<gx:coord >-3.812256 36.575729 4913</gx:coord>
<gx:coord >-3.789114 36.575255 5027</gx:coord>
<gx:coord >-3.76498 36.57465 5134</gx:coord>
<gx:coord >-3.742676 36.574265 5233</gx:coord>
<gx:coord >-3.720742 36.574138 5362</gx:coord>
<gx:coord >-3.697929 36.574173 5477</gx:coord>
<gx:coord >-3.677966 36.574138 5614</gx:coord>
<gx:coord >-3.662395 36.574081 5682</gx:coord>
<gx:coord >-3.637059 36.574045 5781</gx:coord>
<gx:coord >-3.613415 36.574036 5889</gx:coord>
<gx:coord >-3.600941 36.574036 5970</gx:coord>
<gx:coord >-3.579965 36.574045 6086</gx:coord>
<gx:coord >-3.558998 36.574081 6208</gx:coord>
<gx:coord >-3.537831 36.574138 6330</gx:coord>
<gx:coord >-3.527641 36.574173 6383</gx:coord>
<gx:coord >-3.505955 36.57431 6475</gx:coord>
<gx:coord >-3.479393 36.574464 6574</gx:coord>
<gx:coord >-3.449532 36.574464 6652</gx:coord>
<gx:coord >-3.444614 36.574402 6680</gx:coord>
<gx:coord >-3.432585 36.574185 6740</gx:coord>
<gx:coord >-3.426098 36.573998 6786</gx:coord>
<gx:coord >-3.407307 36.573441 6925</gx:coord>
<gx:coord >-3.401012 36.573212 6956</gx:coord>
<gx:coord >-3.396529 36.573067 6974</gx:coord>
<gx:coord >-3.371108 36.572229 7045</gx:coord>
<gx:coord >-3.361645 36.572296 7068</gx:coord>
<gx:coord >-3.352776 36.572937 7083</gx:coord>
<gx:coord >-3.345394 36.574081 7104</gx:coord>
<gx:coord >-3.341246 36.574976 7113</gx:coord>
<gx:coord >-3.333942 36.577071 7137</gx:coord>
<gx:coord >-3.329325 36.5787 7153</gx:coord>
<gx:coord >-3.323949 36.581028 7169</gx:coord>
<gx:coord >-3.319016 36.583557 7187</gx:coord>
<gx:coord >-3.312035 36.587814 7203</gx:coord>
<gx:coord >-3.306484 36.591797 7218</gx:coord>
<gx:coord >-3.300164 36.596902 7237</gx:coord>
<gx:coord >-3.287191 36.607609 7289</gx:coord>
<gx:coord >-3.276848 36.615942 7350</gx:coord>
<gx:coord >-3.26031 36.628883 7466</gx:coord>
<gx:coord >-3.255927 36.632282 7500</gx:coord>
<gx:coord >-3.250667 36.636378 7524</gx:coord>
<gx:coord >-3.239389 36.64513 7563</gx:coord>
<gx:coord >-3.209644 36.667987 7624</gx:coord>
<gx:coord >-3.200469 36.67497 7640</gx:coord>
<gx:coord >-3.192054 36.681441 7670</gx:coord>
<gx:coord >-3.171835 36.696803 7769</gx:coord>
<gx:coord >-3.149471 36.713974 7861</gx:coord>
<gx:coord >-3.126354 36.731781 7959</gx:coord>
<gx:coord >-3.112965 36.742172 8020</gx:coord>
<gx:coord >-3.086643 36.762497 8088</gx:coord>
<gx:coord >-3.060452 36.782599 8180</gx:coord>
<gx:coord >-3.036259 36.801173 8233</gx:coord>
<gx:coord >-3.004131 36.825623 8271</gx:coord>
<gx:coord >-2.972678 36.849588 8317</gx:coord>
<gx:coord >-2.939369 36.874924 8378</gx:coord>
<gx:coord >-2.905416 36.900925 8422</gx:coord>
<gx:coord >-2.871639 36.926788 8476</gx:coord>
<gx:coord >-2.84313 36.948465 8567</gx:coord>
<gx:coord >-2.815597 36.969406 8651</gx:coord>
<gx:coord >-2.787124 36.991013 8735</gx:coord>
<gx:coord >-2.757101 37.013809 8819</gx:coord>
<gx:coord >-2.726713 37.036926 8910</gx:coord>
<gx:coord >-2.699715 37.057388 8994</gx:coord>
<gx:coord >-2.69352 37.062103 9017</gx:coord>
<gx:coord >-2.688787 37.065674 9040</gx:coord>
<gx:coord >-2.667409 37.081883 9162</gx:coord>
<gx:coord >-2.64466 37.099061 9276</gx:coord>
<gx:coord >-2.623225 37.115261 9375</gx:coord>
<gx:coord >-2.608835 37.126061 9435</gx:coord>
<gx:coord >-2.606148 37.12797 9445</gx:coord>
<gx:coord >-2.599222 37.132765 9463</gx:coord>
<gx:coord >-2.585936 37.141205 9481</gx:coord>
<gx:coord >-2.568697 37.151138 9504</gx:coord>
<gx:coord >-2.553963 37.159439 9535</gx:coord>
<gx:coord >-2.527557 37.174301 9634</gx:coord>
<gx:coord >-2.510902 37.183777 9684</gx:coord>
<gx:coord >-2.506435 37.186347 9698</gx:coord>
<gx:coord >-2.467073 37.208954 9756</gx:coord>
<gx:coord >-2.447614 37.220215 9802</gx:coord>
<gx:coord >-2.417709 37.237461 9885</gx:coord>
<gx:coord >-2.387423 37.254868 9977</gx:coord>
<gx:coord >-2.361067 37.269928 10084</gx:coord>
<gx:coord >-2.333221 37.285875 10183</gx:coord>
<gx:coord >-2.306293 37.301284 10274</gx:coord>
<gx:coord >-2.278051 37.317484 10388</gx:coord>
<gx:coord >-2.247898 37.334755 10472</gx:coord>
<gx:coord >-2.2117 37.355392 10548</gx:coord>
<gx:coord >-2.171085 37.37851 10602</gx:coord>
<gx:coord >-2.13093 37.401325 10640</gx:coord>
<gx:coord >-2.090207 37.424561 10686</gx:coord>
<gx:coord >-2.052573 37.445984 10739</gx:coord>
<gx:coord >-2.010849 37.469604 10785</gx:coord>
<gx:coord >-1.969419 37.492986 10838</gx:coord>
<gx:coord >-1.927633 37.516571 10891</gx:coord>
<gx:coord >-1.884915 37.540695 10945</gx:coord>
<gx:coord >-1.84208 37.564911 10983</gx:coord>
<gx:coord >-1.798836 37.58931 10990</gx:coord>
<gx:coord >-1.756678 37.613091 10990</gx:coord>
<gx:coord >-1.714106 37.636879 10990</gx:coord>
<gx:coord >-1.669385 37.662017 10990</gx:coord>
<gx:coord >-1.624364 37.687156 10990</gx:coord>
<gx:coord >-1.58209 37.710846 10990</gx:coord>
<gx:coord >-1.538922 37.735104 10990</gx:coord>
<gx:coord >-1.493089 37.760788 10998</gx:coord>
<gx:coord >-1.448165 37.785846 10998</gx:coord>
<gx:coord >-1.403802 37.810565 10990</gx:coord>
<gx:coord >-1.358798 37.835541 10990</gx:coord>
<gx:coord >-1.314152 37.86026 10983</gx:coord>
<gx:coord >-1.269155 37.885162 10984</gx:coord>
<gx:coord >-1.224099 37.910019 10984</gx:coord>
<gx:coord >-1.179657 37.934534 10984</gx:coord>
<gx:coord >-1.13392 37.959765 10984</gx:coord>
<gx:coord >-1.087939 37.985184 10991</gx:coord>
<gx:coord >-1.04376 38.009537 10991</gx:coord>
<gx:coord >-0.999577 38.033783 10999</gx:coord>
<gx:coord >-0.95378 38.058922 10999</gx:coord>
<gx:coord >-0.908651 38.083603 10991</gx:coord>
<gx:coord >-0.863561 38.108314 10984</gx:coord>
<gx:coord >-0.819496 38.132381 10984</gx:coord>
<gx:coord >-0.77382 38.157287 10984</gx:coord>
<gx:coord >-0.72868 38.181913 10984</gx:coord>
<gx:coord >-0.684366 38.206146 10984</gx:coord>
<gx:coord >-0.638521 38.231072 10976</gx:coord>
<gx:coord >-0.613598 38.244095 10976</gx:coord>
<gx:coord >-0.59362 38.253743 10976</gx:coord>
<gx:coord >-0.572341 38.263275 10984</gx:coord>
<gx:coord >-0.550427 38.272339 10984</gx:coord>
<gx:coord >-0.527881 38.280929 10984</gx:coord>
<gx:coord >-0.502157 38.289963 10976</gx:coord>
<gx:coord >-0.474681 38.298759 10976</gx:coord>
<gx:coord >-0.424526 38.314587 10984</gx:coord>
<gx:coord >-0.373535 38.330887 10976</gx:coord>
<gx:coord >-0.321175 38.347687 10969</gx:coord>
<gx:coord >-0.269457 38.364075 10969</gx:coord>
<gx:coord >-0.219376 38.380463 10969</gx:coord>
<gx:coord >-0.169178 38.397446 10976</gx:coord>
<gx:coord >-0.117028 38.415115 10969</gx:coord>
<gx:coord >-0.066217 38.432144 10969</gx:coord>
<gx:coord >-0.013912 38.449539 10969</gx:coord>
<gx:coord >0.036316 38.466021 10976</gx:coord>
<gx:coord >0.089478 38.483013 10976</gx:coord>
<gx:coord >0.140503 38.499259 10984</gx:coord>
<gx:coord >0.192871 38.516018 10984</gx:coord>
<gx:coord >0.242981 38.532032 10984</gx:coord>
<gx:coord >0.296265 38.548977 10985</gx:coord>
<gx:coord >0.347107 38.565038 10970</gx:coord>
<gx:coord >0.396362 38.580726 10970</gx:coord>
<gx:coord >0.446472 38.596693 10970</gx:coord>
<gx:coord >0.497498 38.61294 10970</gx:coord>
<gx:coord >0.547943 38.628891 10970</gx:coord>
<gx:coord >0.597262 38.644547 10970</gx:coord>
<gx:coord >0.649208 38.660934 10970</gx:coord>
<gx:coord >0.699483 38.676773 10970</gx:coord>
<gx:coord >0.749996 38.692612 10970</gx:coord>
<gx:coord >0.801453 38.708744 10970</gx:coord>
<gx:coord >0.850769 38.7242 10977</gx:coord>
<gx:coord >0.902372 38.740265 10977</gx:coord>
<gx:coord >0.953601 38.756241 10977</gx:coord>
<gx:coord >1.003418 38.77173 10977</gx:coord>
<gx:coord >1.053223 38.787138 10970</gx:coord>
<gx:coord >1.104126 38.80292 10962</gx:coord>
<gx:coord >1.154818 38.818588 10962</gx:coord>
<gx:coord >1.206482 38.834529 10962</gx:coord>
<gx:coord >1.257385 38.850124 10962</gx:coord>
<gx:coord >1.307617 38.865625 10962</gx:coord>
<gx:coord >1.358304 38.88121 10962</gx:coord>
<gx:coord >1.408758 38.896683 10962</gx:coord>
<gx:coord >1.459152 38.912201 10962</gx:coord>
<gx:coord >1.48114 38.919626 10962</gx:coord>
<gx:coord >1.504578 38.928331 10962</gx:coord>
<gx:coord >1.543997 38.943924 10962</gx:coord>
<gx:coord >1.593376 38.963608 10970</gx:coord>
<gx:coord >1.643555 38.98317 10962</gx:coord>
<gx:coord >1.690552 39.001046 10970</gx:coord>
<gx:coord >1.739929 39.019574 10962</gx:coord>
<gx:coord >1.789673 39.038241 10954</gx:coord>
<gx:coord >1.84027 39.057175 10954</gx:coord>
<gx:coord >1.888611 39.075297 10954</gx:coord>
<gx:coord >1.935922 39.093063 10947</gx:coord>
<gx:coord >1.986145 39.111794 10954</gx:coord>
<gx:coord >2.032959 39.129204 10954</gx:coord>
<gx:coord >2.08382 39.148087 10947</gx:coord>
<gx:coord >2.13092 39.165561 10947</gx:coord>
<gx:coord >2.178345 39.183065 10954</gx:coord>
<gx:coord >2.227836 39.201324 10954</gx:coord>
<gx:coord >2.277036 39.219452 10947</gx:coord>
<gx:coord >2.321339 39.235748 10939</gx:coord>
<gx:coord >2.370539 39.253876 10947</gx:coord>
<gx:coord >2.421829 39.272736 10954</gx:coord>
<gx:coord >2.469177 39.290089 10954</gx:coord>
<gx:coord >2.515869 39.307114 10954</gx:coord>
<gx:coord >2.566621 39.325607 10947</gx:coord>
<gx:coord >2.614985 39.343277 10947</gx:coord>
<gx:coord >2.662692 39.360626 10947</gx:coord>
<gx:coord >2.713563 39.379028 10939</gx:coord>
<gx:coord >2.764674 39.397659 10947</gx:coord>
<gx:coord >2.814514 39.415733 10947</gx:coord>
<gx:coord >2.863133 39.433365 10947</gx:coord>
<gx:coord >2.91484 39.452042 10947</gx:coord>
<gx:coord >2.964966 39.470106 10947</gx:coord>
<gx:coord >3.01416 39.48775 10939</gx:coord>
<gx:coord >3.063416 39.505439 10939</gx:coord>
<gx:coord >3.114206 39.52359 10939</gx:coord>
<gx:coord >3.163635 39.541285 10931</gx:coord>
<gx:coord >3.212036 39.558555 10931</gx:coord>
<gx:coord >3.262462 39.576508 10931</gx:coord>
<gx:coord >3.312744 39.594401 10924</gx:coord>
<gx:coord >3.362366 39.612137 10931</gx:coord>
<gx:coord >3.41333 39.630292 10939</gx:coord>
<gx:coord >3.460156 39.646866 10931</gx:coord>
<gx:coord >3.510968 39.66481 10931</gx:coord>
<gx:coord >3.559204 39.681872 10924</gx:coord>
<gx:coord >3.609068 39.699417 10924</gx:coord>
<gx:coord >3.658985 39.716949 10931</gx:coord>
<gx:coord >3.7099 39.734849 10931</gx:coord>
<gx:coord >3.757921 39.751648 10931</gx:coord>
<gx:coord >3.806225 39.768539 10939</gx:coord>
<gx:coord >3.854947 39.785568 10931</gx:coord>
<gx:coord >3.903442 39.802489 10932</gx:coord>
<gx:coord >3.952033 39.819443 10932</gx:coord>
<gx:coord >4.002808 39.837078 10932</gx:coord>
<gx:coord >4.052795 39.854441 10932</gx:coord>
<gx:coord >4.101685 39.87134 10925</gx:coord>
<gx:coord >4.149292 39.887819 10925</gx:coord>
<gx:coord >4.200928 39.905602 10925</gx:coord>
<gx:coord >4.249679 39.922394 10917</gx:coord>
<gx:coord >4.298401 39.939148 10917</gx:coord>
<gx:coord >4.349976 39.956909 10918</gx:coord>
<gx:coord >4.398214 39.973522 10911</gx:coord>
<gx:coord >4.447902 39.990514 10910</gx:coord>
<gx:coord >4.466317 39.997497 10909</gx:coord>
<gx:coord >4.47583 40.001678 10905</gx:coord>
<gx:coord >4.487122 40.007355 10905</gx:coord>
<gx:coord >4.498596 40.014038 10908</gx:coord>
<gx:coord >4.509583 40.021179 10904</gx:coord>
<gx:coord >4.550232 40.04837 10912</gx:coord>
<gx:coord >4.59259 40.075562 10912</gx:coord>
<gx:coord >4.632672 40.100889 10912</gx:coord>
<gx:coord >4.672729 40.126144 10912</gx:coord>
<gx:coord >4.713257 40.151688 10919</gx:coord>
<gx:coord >4.754958 40.17798 10904</gx:coord>
<gx:coord >4.794067 40.202682 10904</gx:coord>
<gx:coord >4.829712 40.22525 10904</gx:coord>
<gx:coord >4.871001 40.251299 10905</gx:coord>
<gx:coord >4.911388 40.27667 10905</gx:coord>
<gx:coord >4.95371 40.303159 10897</gx:coord>
<gx:coord >4.992371 40.327423 10905</gx:coord>
<gx:coord >5.032987 40.352876 10897</gx:coord>
<gx:coord >5.072693 40.377731 10897</gx:coord>
<gx:coord >5.112793 40.402771 10897</gx:coord>
<gx:coord >5.153503 40.428223 10897</gx:coord>
<gx:coord >5.194473 40.453895 10897</gx:coord>
<gx:coord >5.23761 40.480865 10897</gx:coord>
<gx:coord >5.279867 40.507057 10897</gx:coord>
<gx:coord >5.319153 40.531448 10897</gx:coord>
<gx:coord >5.362514 40.558358 10897</gx:coord>
<gx:coord >5.403151 40.583403 10897</gx:coord>
<gx:coord >5.441354 40.607052 10890</gx:coord>
<gx:coord >5.483052 40.632888 10890</gx:coord>
<gx:coord >5.521851 40.656921 10890</gx:coord>
<gx:coord >5.562744 40.682236 10890</gx:coord>
<gx:coord >5.605899 40.708815 10890</gx:coord>
<gx:coord >5.645849 40.733348 10890</gx:coord>
<gx:coord >5.683594 40.756531 10897</gx:coord>
<gx:coord >5.724813 40.781762 10897</gx:coord>
<gx:coord >5.771118 40.809906 10890</gx:coord>
<gx:coord >5.809645 40.833389 10890</gx:coord>
<gx:coord >5.849658 40.857875 10890</gx:coord>
<gx:coord >5.894103 40.885015 10890</gx:coord>
<gx:coord >5.935738 40.910479 10890</gx:coord>
<gx:coord >5.97467 40.934143 10890</gx:coord>
<gx:coord >6.016388 40.959452 10882</gx:coord>
<gx:coord >6.055725 40.983353 10867</gx:coord>
<gx:coord >6.094853 41.007075 10859</gx:coord>
<gx:coord >6.134241 41.030956 10867</gx:coord>
<gx:coord >6.175815 41.056001 10867</gx:coord>
<gx:coord >6.21814 41.081406 10867</gx:coord>
<gx:coord >6.254904 41.103624 10867</gx:coord>
<gx:coord >6.299255 41.130386 10859</gx:coord>
<gx:coord >6.339661 41.154694 10859</gx:coord>
<gx:coord >6.381653 41.179871 10859</gx:coord>
<gx:coord >6.422791 41.204453 10867</gx:coord>
<gx:coord >6.465271 41.229813 10867</gx:coord>
<gx:coord >6.506714 41.254669 10867</gx:coord>
<gx:coord >6.546291 41.278335 10867</gx:coord>
<gx:coord >6.58905 41.303845 10867</gx:coord>
<gx:coord >6.631185 41.328891 10859</gx:coord>
<gx:coord >6.674631 41.354727 10859</gx:coord>
<gx:coord >6.714519 41.378469 10859</gx:coord>
<gx:coord >6.758152 41.404358 10859</gx:coord>
<gx:coord >6.8001 41.429169 10859</gx:coord>
<gx:coord >6.843421 41.45462 10859</gx:coord>
<gx:coord >6.885873 41.47958 10859</gx:coord>
<gx:coord >6.929564 41.505341 10852</gx:coord>
<gx:coord >6.972011 41.530334 10852</gx:coord>
<gx:coord >7.014708 41.55542 10867</gx:coord>
<gx:coord >7.051179 41.576921 10852</gx:coord>
<gx:coord >7.065395 41.586273 10852</gx:coord>
<gx:coord >7.074634 41.593231 10852</gx:coord>
<gx:coord >7.082124 41.599594 10852</gx:coord>
<gx:coord >7.089115 41.60614 10852</gx:coord>
<gx:coord >7.102474 41.62001 10859</gx:coord>
<gx:coord >7.132374 41.650909 10859</gx:coord>
<gx:coord >7.164896 41.68309 10859</gx:coord>
<gx:coord >7.197067 41.714436 10859</gx:coord>
<gx:coord >7.23009 41.74665 10859</gx:coord>
<gx:coord >7.262218 41.77798 10851</gx:coord>
<gx:coord >7.293964 41.809077 10858</gx:coord>
<gx:coord >7.326412 41.840779 10858</gx:coord>
<gx:coord >7.359591 41.873108 10858</gx:coord>
<gx:coord >7.392613 41.905334 10851</gx:coord>
<gx:coord >7.425322 41.937286 10851</gx:coord>
<gx:coord >7.457282 41.968597 10851</gx:coord>
<gx:coord >7.490241 42.000732 10843</gx:coord>
<gx:coord >7.522451 42.032089 10843</gx:coord>
<gx:coord >7.556034 42.064728 10835</gx:coord>
<gx:coord >7.589306 42.097 10820</gx:coord>
<gx:coord >7.622851 42.129636 10828</gx:coord>
<gx:coord >7.655107 42.160872 10835</gx:coord>
<gx:coord >7.68787 42.192581 10835</gx:coord>
<gx:coord >7.721089 42.225161 10828</gx:coord>
<gx:coord >7.753793 42.257235 10828</gx:coord>
<gx:coord >7.786049 42.289217 10835</gx:coord>
<gx:coord >7.8192 42.322315 10835</gx:coord>
<gx:coord >7.85123 42.354309 10835</gx:coord>
<gx:coord >7.884032 42.387116 10835</gx:coord>
<gx:coord >7.91616 42.41919 10835</gx:coord>
<gx:coord >7.94736 42.448883 10843</gx:coord>
<gx:coord >7.97907 42.478455 10835</gx:coord>
<gx:coord >8.013057 42.5102 10835</gx:coord>
<gx:coord >8.04838 42.543392 10835</gx:coord>
<gx:coord >8.081693 42.574768 10835</gx:coord>
<gx:coord >8.115192 42.606377 10828</gx:coord>
<gx:coord >8.147611 42.636887 10828</gx:coord>
<gx:coord >8.181881 42.669113 10820</gx:coord>
<gx:coord >8.215985 42.701157 10828</gx:coord>
<gx:coord >8.249966 42.733139 10820</gx:coord>
<gx:coord >8.28152 42.762793 10828</gx:coord>
<gx:coord >8.315652 42.794769 10828</gx:coord>
<gx:coord >8.348825 42.825824 10835</gx:coord>
<gx:coord >8.382568 42.857387 10828</gx:coord>
<gx:coord >8.412972 42.88591 10828</gx:coord>
<gx:coord >8.448359 42.918823 10820</gx:coord>
<gx:coord >8.482787 42.950729 10820</gx:coord>
<gx:coord >8.515908 42.981402 10820</gx:coord>
<gx:coord >8.549783 43.012964 10828</gx:coord>
<gx:coord >8.583963 43.044754 10828</gx:coord>
<gx:coord >8.617625 43.075836 10828</gx:coord>
<gx:coord >8.651733 43.107279 10820</gx:coord>
<gx:coord >8.685267 43.138138 10820</gx:coord>
<gx:coord >8.719352 43.169613 10813</gx:coord>
<gx:coord >8.751984 43.199825 10805</gx:coord>
<gx:coord >8.787428 43.232784 10813</gx:coord>
<gx:coord >8.821447 43.26416 10813</gx:coord>
<gx:coord >8.854853 43.294876 10805</gx:coord>
<gx:coord >8.889771 43.326866 10805</gx:coord>
<gx:coord >8.923709 43.358002 10813</gx:coord>
<gx:coord >8.957716 43.389246 10813</gx:coord>
<gx:coord >8.991032 43.419937 10805</gx:coord>
<gx:coord >9.025138 43.451207 10813</gx:coord>
<gx:coord >9.059274 43.482304 10813</gx:coord>
<gx:coord >9.094522 43.514378 10805</gx:coord>
<gx:coord >9.129 43.545914 10813</gx:coord>
<gx:coord >9.164386 43.578415 10805</gx:coord>
<gx:coord >9.19863 43.609717 10813</gx:coord>
<gx:coord >9.233093 43.641001 10805</gx:coord>
<gx:coord >9.268733 43.673261 10820</gx:coord>
<gx:coord >9.304374 43.705429 10813</gx:coord>
<gx:coord >9.337398 43.735315 10813</gx:coord>
<gx:coord >9.373757 43.768135 10813</gx:coord>
<gx:coord >9.408613 43.799604 10813</gx:coord>
<gx:coord >9.443707 43.831238 10805</gx:coord>
<gx:coord >9.479239 43.863101 10805</gx:coord>
<gx:coord >9.514991 43.895096 10805</gx:coord>
<gx:coord >9.549735 43.926273 10813</gx:coord>
<gx:coord >9.585827 43.958542 10813</gx:coord>
<gx:coord >9.622043 43.990814 10813</gx:coord>
<gx:coord >9.657813 44.022675 10813</gx:coord>
<gx:coord >9.693646 44.054718 10813</gx:coord>
<gx:coord >9.728067 44.085435 10813</gx:coord>
<gx:coord >9.76508 44.118347 10797</gx:coord>
<gx:coord >9.799741 44.149246 10797</gx:coord>
<gx:coord >9.835063 44.180695 10797</gx:coord>
<gx:coord >9.87135 44.212802 10798</gx:coord>
<gx:coord >9.906921 44.244186 10798</gx:coord>
<gx:coord >9.942962 44.27588 10798</gx:coord>
<gx:coord >9.978986 44.307587 10798</gx:coord>
<gx:coord >10.013973 44.338348 10799</gx:coord>
<gx:coord >10.04994 44.370026 10799</gx:coord>
<gx:coord >10.085188 44.400833 10793</gx:coord>
<gx:coord >10.121825 44.43304 10793</gx:coord>
<gx:coord >10.157932 44.464789 10786</gx:coord>
<gx:coord >10.193939 44.496414 10786</gx:coord>
<gx:coord >10.228598 44.526718 10786</gx:coord>
<gx:coord >10.264982 44.558405 10772</gx:coord>
<gx:coord >10.30129 44.589875 10772</gx:coord>
<gx:coord >10.314621 44.602118 10779</gx:coord>
<gx:coord >10.323397 44.611428 10779</gx:coord>
<gx:coord >10.331072 44.620651 10780</gx:coord>
<gx:coord >10.338135 44.630447 10780</gx:coord>
<gx:coord >10.343762 44.639546 10780</gx:coord>
<gx:coord >10.349383 44.650131 10788</gx:coord>
<gx:coord >10.353743 44.660215 10788</gx:coord>
<gx:coord >10.357495 44.671248 10788</gx:coord>
<gx:coord >10.360238 44.682358 10787</gx:coord>
<gx:coord >10.361808 44.691925 10791</gx:coord>
<gx:coord >10.362723 44.701996 10795</gx:coord>
<gx:coord >10.362854 44.713669 10795</gx:coord>
<gx:coord >10.361782 44.725761 10797</gx:coord>
<gx:coord >10.360241 44.735257 10797</gx:coord>
<gx:coord >10.357629 44.745685 10797</gx:coord>
<gx:coord >10.353699 44.757568 10804</gx:coord>
<gx:coord >10.348271 44.770523 10804</gx:coord>
<gx:coord >10.331034 44.808577 10797</gx:coord>
<gx:coord >10.313481 44.847427 10804</gx:coord>
<gx:coord >10.295998 44.885854 10797</gx:coord>
<gx:coord >10.278822 44.92337 10797</gx:coord>
<gx:coord >10.261034 44.961731 10789</gx:coord>
<gx:coord >10.243312 44.999908 10789</gx:coord>
<gx:coord >10.225394 45.038864 10789</gx:coord>
<gx:coord >10.207572 45.077463 10789</gx:coord>
<gx:coord >10.190154 45.11517 10788</gx:coord>
<gx:coord >10.172882 45.153397 10788</gx:coord>
<gx:coord >10.155356 45.191391 10788</gx:coord>
<gx:coord >10.142016 45.219131 10788</gx:coord>
<gx:coord >10.132533 45.236618 10796</gx:coord>
<gx:coord >10.120954 45.255944 10795</gx:coord>
<gx:coord >10.103237 45.285736 10802</gx:coord>
<gx:coord >10.089871 45.31041 10802</gx:coord>
<gx:coord >10.06982 45.347855 10801</gx:coord>
<gx:coord >10.04894 45.386477 10801</gx:coord>
<gx:coord >10.028883 45.423706 10809</gx:coord>
<gx:coord >10.008076 45.462496 10808</gx:coord>
<gx:coord >9.987041 45.501461 10808</gx:coord>
<gx:coord >9.966274 45.540006 10807</gx:coord>
<gx:coord >9.945511 45.577993 10815</gx:coord>
<gx:coord >9.92454 45.615967 10798</gx:coord>
<gx:coord >9.903438 45.65419 10806</gx:coord>
<gx:coord >9.882202 45.693302 10797</gx:coord>
<gx:coord >9.876572 45.70522 10797</gx:coord>
<gx:coord >9.871819 45.717911 10798</gx:coord>
<gx:coord >9.869087 45.727751 10791</gx:coord>
<gx:coord >9.866928 45.738922 10796</gx:coord>
<gx:coord >9.86586 45.748001 10796</gx:coord>
<gx:coord >9.865455 45.757462 10793</gx:coord>
<gx:coord >9.865654 45.76625 10796</gx:coord>
<gx:coord >9.86689 45.778121 10797</gx:coord>
<gx:coord >9.869407 45.790375 10796</gx:coord>
<gx:coord >9.872556 45.801407 10796</gx:coord>
<gx:coord >9.879181 45.82188 10796</gx:coord>
<gx:coord >9.892227 45.861868 10789</gx:coord>
<gx:coord >9.904793 45.900786 10788</gx:coord>
<gx:coord >9.915504 45.93286 10795</gx:coord>
<gx:coord >9.919899 45.943102 10795</gx:coord>
<gx:coord >9.924607 45.95192 10795</gx:coord>
<gx:coord >9.929512 45.959628 10795</gx:coord>
<gx:coord >9.936378 45.968706 10795</gx:coord>
<gx:coord >9.943297 45.976593 10794</gx:coord>
<gx:coord >9.951141 45.98444 10794</gx:coord>
<gx:coord >9.960714 45.992752 10794</gx:coord>
<gx:coord >9.970093 45.999893 10794</gx:coord>
<gx:coord >9.979739 46.006439 10794</gx:coord>
<gx:coord >9.988247 46.011658 10794</gx:coord>
<gx:coord >10.000374 46.01833 10794</gx:coord>
<gx:coord >10.012095 46.024017 10794</gx:coord>
<gx:coord >10.029556 46.031691 10794</gx:coord>
<gx:coord >10.069774 46.049515 10794</gx:coord>
<gx:coord >10.115112 46.070608 10794</gx:coord>
<gx:coord >10.164345 46.093791 10793</gx:coord>
<gx:coord >10.213234 46.116555 10793</gx:coord>
<gx:coord >10.262369 46.139099 10793</gx:coord>
<gx:coord >10.311942 46.161621 10786</gx:coord>
<gx:coord >10.360588 46.183684 10786</gx:coord>
<gx:coord >10.409546 46.205843 10786</gx:coord>
<gx:coord >10.45885 46.228226 10778</gx:coord>
<gx:coord >10.50705 46.250021 10778</gx:coord>
<gx:coord >10.557325 46.27272 10786</gx:coord>
<gx:coord >10.605692 46.294556 10786</gx:coord>
<gx:coord >10.655867 46.317078 10786</gx:coord>
<gx:coord >10.704837 46.339142 10793</gx:coord>
<gx:coord >10.754476 46.361481 10793</gx:coord>
<gx:coord >10.804652 46.383957 10793</gx:coord>
<gx:coord >10.852951 46.405655 10793</gx:coord>
<gx:coord >10.904205 46.428595 10793</gx:coord>
<gx:coord >10.954536 46.450987 10786</gx:coord>
<gx:coord >11.004884 46.473312 10786</gx:coord>
<gx:coord >11.053619 46.494979 10793</gx:coord>
<gx:coord >11.102153 46.516525 10793</gx:coord>
<gx:coord >11.152932 46.539047 10793</gx:coord>
<gx:coord >11.203377 46.561362 10793</gx:coord>
<gx:coord >11.254622 46.583908 10793</gx:coord>
<gx:coord >11.304794 46.605959 10793</gx:coord>
<gx:coord >11.356361 46.628677 10793</gx:coord>
<gx:coord >11.40622 46.650467 10793</gx:coord>
<gx:coord >11.458191 46.673181 10786</gx:coord>
<gx:coord >11.508041 46.694967 10786</gx:coord>
<gx:coord >11.557282 46.716476 10786</gx:coord>
<gx:coord >11.6094 46.739182 10786</gx:coord>
<gx:coord >11.661163 46.761583 10801</gx:coord>
<gx:coord >11.712936 46.783975 10793</gx:coord>
<gx:coord >11.764435 46.806227 10786</gx:coord>
<gx:coord >11.817136 46.828949 10786</gx:coord>
<gx:coord >11.86853 46.85115 10786</gx:coord>
<gx:coord >11.919342 46.873123 10786</gx:coord>
<gx:coord >11.971154 46.895561 10786</gx:coord>
<gx:coord >12.002563 46.909973 10786</gx:coord>
<gx:coord >12.053032 46.934052 10778</gx:coord>
<gx:coord >12.103131 46.95808 10778</gx:coord>
<gx:coord >12.153763 46.981934 10778</gx:coord>
<gx:coord >12.205318 47.005982 10786</gx:coord>
<gx:coord >12.256446 47.029817 10779</gx:coord>
<gx:coord >12.308702 47.054024 10779</gx:coord>
<gx:coord >12.359962 47.077744 10779</gx:coord>
<gx:coord >12.410818 47.101182 10787</gx:coord>
<gx:coord >12.462229 47.124923 10794</gx:coord>
<gx:coord >12.51384 47.148743 10794</gx:coord>
<gx:coord >12.566528 47.172965 10795</gx:coord>
<gx:coord >12.618896 47.196854 10788</gx:coord>
<gx:coord >12.670601 47.220474 10772</gx:coord>
<gx:coord >12.721619 47.243774 10765</gx:coord>
<gx:coord >12.773156 47.267234 10765</gx:coord>
<gx:coord >12.825341 47.291022 10765</gx:coord>
<gx:coord >12.877487 47.314774 10765</gx:coord>
<gx:coord >12.930415 47.338691 10766</gx:coord>
<gx:coord >12.98172 47.361832 10766</gx:coord>
<gx:coord >13.035771 47.386314 10773</gx:coord>
<gx:coord >13.088097 47.410056 10773</gx:coord>
<gx:coord >13.141479 47.434077 10758</gx:coord>
<gx:coord >13.193619 47.457413 10766</gx:coord>
<gx:coord >13.246202 47.481002 10773</gx:coord>
<gx:coord >13.299088 47.504608 10781</gx:coord>
<gx:coord >13.351616 47.528137 10773</gx:coord>
<gx:coord >13.404447 47.551761 10773</gx:coord>
<gx:coord >13.457291 47.575333 10766</gx:coord>
<gx:coord >13.510085 47.598732 10758</gx:coord>
<gx:coord >13.56118 47.621246 10767</gx:coord>
<gx:coord >13.613821 47.644446 10774</gx:coord>
<gx:coord >13.667198 47.667984 10759</gx:coord>
<gx:coord >13.719811 47.691138 10759</gx:coord>
<gx:coord >13.759601 47.708642 10767</gx:coord>
<gx:coord >13.812913 47.732104 10820</gx:coord>
<gx:coord >13.867012 47.75592 10866</gx:coord>
<gx:coord >13.9201 47.779075 10912</gx:coord>
<gx:coord >13.972893 47.802063 10965</gx:coord>
<gx:coord >14.025808 47.825023 11011</gx:coord>
<gx:coord >14.077923 47.847693 11049</gx:coord>
<gx:coord >14.128911 47.869806 11056</gx:coord>
<gx:coord >14.179828 47.891825 11056</gx:coord>
<gx:coord >14.231552 47.914215 11056</gx:coord>
<gx:coord >14.283072 47.936469 11056</gx:coord>
<gx:coord >14.335579 47.959167 11056</gx:coord>
<gx:coord >14.388725 47.982101 11056</gx:coord>
<gx:coord >14.440613 48.004481 11056</gx:coord>
<gx:coord >14.493643 48.027152 11056</gx:coord>
<gx:coord >14.546379 48.049622 11064</gx:coord>
<gx:coord >14.599182 48.072144 11056</gx:coord>
<gx:coord >14.652029 48.094653 11056</gx:coord>
<gx:coord >14.705406 48.117325 11056</gx:coord>
<gx:coord >14.758512 48.139855 11049</gx:coord>
<gx:coord >14.811233 48.162154 11049</gx:coord>
<gx:coord >14.864141 48.184545 11033</gx:coord>
<gx:coord >14.916617 48.206635 11033</gx:coord>
<gx:coord >14.969858 48.228928 11033</gx:coord>
<gx:coord >15.022888 48.251266 11041</gx:coord>
<gx:coord >15.07613 48.273697 11033</gx:coord>
<gx:coord >15.127885 48.295386 11032</gx:coord>
<gx:coord >15.18226 48.318054 11032</gx:coord>
<gx:coord >15.235291 48.340077 11032</gx:coord>
<gx:coord >15.288126 48.362096 11032</gx:coord>
<gx:coord >15.34154 48.384115 11032</gx:coord>
<gx:coord >15.395749 48.406693 11025</gx:coord>
<gx:coord >15.449242 48.428787 11025</gx:coord>
<gx:coord >15.502977 48.450943 11032</gx:coord>
<gx:coord >15.557627 48.473557 11026</gx:coord>
<gx:coord >15.613051 48.496262 11026</gx:coord>
<gx:coord >15.668239 48.518744 11018</gx:coord>
<gx:coord >15.722953 48.541089 11018</gx:coord>
<gx:coord >15.77841 48.563828 11011</gx:coord>
<gx:coord >15.834335 48.586664 11011</gx:coord>
<gx:coord >15.890315 48.609467 11003</gx:coord>
<gx:coord >15.946366 48.632145 11003</gx:coord>
<gx:coord >16.002432 48.654831 11003</gx:coord>
<gx:coord >16.059124 48.677765 10996</gx:coord>
<gx:coord >16.115817 48.700745 11004</gx:coord>
<gx:coord >16.17202 48.723434 11004</gx:coord>
<gx:coord >16.229201 48.746384 10996</gx:coord>
<gx:coord >16.28702 48.769547 11004</gx:coord>
<gx:coord >16.343175 48.792052 11012</gx:coord>
<gx:coord >16.400564 48.81477 11012</gx:coord>
<gx:coord >16.457736 48.837394 11012</gx:coord>
<gx:coord >16.516065 48.860484 11013</gx:coord>
<gx:coord >16.573299 48.883209 11005</gx:coord>
<gx:coord >16.629831 48.905547 10990</gx:coord>
<gx:coord >16.687076 48.928078 10990</gx:coord>
<gx:coord >16.742875 48.949957 10990</gx:coord>
<gx:coord >16.800279 48.972519 10990</gx:coord>
<gx:coord >16.856619 48.994675 10975</gx:coord>
<gx:coord >16.913452 49.016946 10967</gx:coord>
<gx:coord >16.970144 49.039078 10967</gx:coord>
<gx:coord >16.990004 49.047318 10967</gx:coord>
<gx:coord >17.00474 49.054281 10967</gx:coord>
<gx:coord >17.019485 49.062195 10967</gx:coord>
<gx:coord >17.033738 49.070892 10967</gx:coord>
<gx:coord >17.05107 49.082538 10976</gx:coord>
<gx:coord >17.096698 49.113098 10983</gx:coord>
<gx:coord >17.142358 49.142684 10983</gx:coord>
<gx:coord >17.189484 49.172849 10983</gx:coord>
<gx:coord >17.235236 49.202131 10968</gx:coord>
<gx:coord >17.281639 49.231878 10968</gx:coord>
<gx:coord >17.328045 49.26178 10968</gx:coord>
<gx:coord >17.373938 49.291325 10976</gx:coord>
<gx:coord >17.419527 49.320511 10983</gx:coord>
<gx:coord >17.466455 49.350586 10983</gx:coord>
<gx:coord >17.512559 49.380066 10976</gx:coord>
<gx:coord >17.558406 49.409317 10976</gx:coord>
<gx:coord >17.60494 49.438934 10960</gx:coord>
<gx:coord >17.650353 49.467758 10959</gx:coord>
<gx:coord >17.697861 49.497877 10960</gx:coord>
<gx:coord >17.743959 49.526972 10960</gx:coord>
<gx:coord >17.791468 49.556952 10960</gx:coord>
<gx:coord >17.838828 49.586792 10960</gx:coord>
<gx:coord >17.885092 49.615952 10960</gx:coord>
<gx:coord >17.932723 49.645889 10968</gx:coord>
<gx:coord >17.980427 49.67569 10960</gx:coord>
<gx:coord >18.027336 49.705032 10960</gx:coord>
<gx:coord >18.075479 49.735061 10960</gx:coord>
<gx:coord >18.122691 49.764296 10960</gx:coord>
<gx:coord >18.169828 49.79353 10960</gx:coord>
<gx:coord >18.218946 49.823959 10968</gx:coord>
<gx:coord >18.267011 49.853668 10960</gx:coord>
<gx:coord >18.314787 49.88324 10960</gx:coord>
<gx:coord >18.362905 49.912984 10961</gx:coord>
<gx:coord >18.412121 49.943242 10961</gx:coord>
<gx:coord >18.460001 49.972617 10961</gx:coord>
<gx:coord >18.508566 50.00235 10961</gx:coord>
<gx:coord >18.555537 50.030993 10961</gx:coord>
<gx:coord >18.604679 50.06102 10961</gx:coord>
<gx:coord >18.652113 50.089929 10961</gx:coord>
<gx:coord >18.700104 50.119171 10954</gx:coord>
<gx:coord >18.748466 50.148584 10946</gx:coord>
<gx:coord >18.796271 50.177586 10954</gx:coord>
<gx:coord >18.844155 50.206604 10946</gx:coord>
<gx:coord >18.892253 50.235777 10947</gx:coord>
<gx:coord >18.939996 50.264511 10947</gx:coord>
<gx:coord >18.988309 50.293502 10947</gx:coord>
<gx:coord >19.035966 50.322131 10947</gx:coord>
<gx:coord >19.084737 50.351506 10947</gx:coord>
<gx:coord >19.133196 50.380463 10947</gx:coord>
<gx:coord >19.18198 50.40951 10948</gx:coord>
<gx:coord >19.230339 50.43837 10948</gx:coord>
<gx:coord >19.279343 50.467575 10948</gx:coord>
<gx:coord >19.328663 50.496749 10948</gx:coord>
<gx:coord >19.377433 50.525658 10948</gx:coord>
<gx:coord >19.426069 50.554413 10949</gx:coord>
<gx:coord >19.475568 50.583569 10957</gx:coord>
<gx:coord >19.524801 50.612595 10949</gx:coord>
<gx:coord >19.575039 50.641992 10949</gx:coord>
<gx:coord >19.604731 50.659495 10934</gx:coord>
<gx:coord >19.644668 50.68309 10874</gx:coord>
<gx:coord >19.655283 50.689316 10843</gx:coord>
<gx:coord >19.665222 50.695201 10805</gx:coord>
<gx:coord >19.671783 50.699065 10774</gx:coord>
<gx:coord >19.674287 50.700531 10759</gx:coord>
<gx:coord >19.680786 50.704325 10717</gx:coord>
<gx:coord >19.700317 50.715777 10592</gx:coord>
<gx:coord >19.72469 50.729965 10478</gx:coord>
<gx:coord >19.74556 50.742032 10363</gx:coord>
<gx:coord >19.756012 50.748084 10295</gx:coord>
<gx:coord >19.773712 50.758372 10175</gx:coord>
<gx:coord >19.782517 50.763474 10117</gx:coord>
<gx:coord >19.786911 50.7661 10095</gx:coord>
<gx:coord >19.813026 50.781281 9982</gx:coord>
<gx:coord >19.839601 50.796753 9852</gx:coord>
<gx:coord >19.847618 50.801422 9804</gx:coord>
<gx:coord >19.854736 50.80553 9761</gx:coord>
<gx:coord >19.863133 50.81044 9693</gx:coord>
<gx:coord >19.877701 50.818937 9577</gx:coord>
<gx:coord >19.893875 50.828387 9443</gx:coord>
<gx:coord >19.90886 50.837082 9343</gx:coord>
<gx:coord >19.922867 50.845239 9259</gx:coord>
<gx:coord >19.947386 50.859421 9130</gx:coord>
<gx:coord >19.971619 50.87331 9016</gx:coord>
<gx:coord >19.991925 50.88501 8878</gx:coord>
<gx:coord >20.012339 50.896683 8758</gx:coord>
<gx:coord >20.02288 50.902771 8694</gx:coord>
<gx:coord >20.046082 50.916138 8568</gx:coord>
<gx:coord >20.049826 50.918289 8540</gx:coord>
<gx:coord >20.052276 50.919708 8516</gx:coord>
<gx:coord >20.054651 50.921082 8500</gx:coord>
<gx:coord >20.060441 50.924423 8443</gx:coord>
<gx:coord >20.07309 50.931686 8328</gx:coord>
<gx:coord >20.077972 50.934526 8283</gx:coord>
<gx:coord >20.083771 50.937831 8227</gx:coord>
<gx:coord >20.098495 50.94635 8095</gx:coord>
<gx:coord >20.116041 50.956467 7972</gx:coord>
<gx:coord >20.136185 50.96809 7842</gx:coord>
<gx:coord >20.156201 50.97963 7720</gx:coord>
<gx:coord >20.173051 50.989288 7608</gx:coord>
<gx:coord >20.176163 50.991087 7578</gx:coord>
<gx:coord >20.18092 50.99382 7532</gx:coord>
<gx:coord >20.183221 50.995102 7511</gx:coord>
<gx:coord >20.195007 51.001933 7405</gx:coord>
<gx:coord >20.205917 51.008171 7294</gx:coord>
<gx:coord >20.22049 51.016504 7164</gx:coord>
<gx:coord >20.236074 51.025497 7029</gx:coord>
<gx:coord >20.251663 51.034378 6921</gx:coord>
<gx:coord >20.268097 51.043737 6784</gx:coord>
<gx:coord >20.284729 51.053234 6655</gx:coord>
<gx:coord >20.304071 51.064316 6548</gx:coord>
<gx:coord >20.316913 51.07164 6467</gx:coord>
<gx:coord >20.32003 51.073425 6452</gx:coord>
<gx:coord >20.331726 51.080095 6412</gx:coord>
<gx:coord >20.355911 51.093828 6342</gx:coord>
<gx:coord >20.378189 51.106443 6273</gx:coord>
<gx:coord >20.40369 51.120895 6212</gx:coord>
<gx:coord >20.425568 51.133304 6151</gx:coord>
<gx:coord >20.4496 51.146944 6090</gx:coord>
<gx:coord >20.475769 51.161701 6014</gx:coord>
<gx:coord >20.487442 51.168311 5976</gx:coord>
<gx:coord >20.502167 51.176644 5893</gx:coord>
<gx:coord >20.523453 51.188654 5778</gx:coord>
<gx:coord >20.544211 51.200455 5664</gx:coord>
<gx:coord >20.566864 51.213281 5542</gx:coord>
<gx:coord >20.588082 51.225311 5428</gx:coord>
<gx:coord >20.606863 51.235886 5298</gx:coord>
<gx:coord >20.622177 51.244471 5207</gx:coord>
<gx:coord >20.645315 51.257446 5101</gx:coord>
<gx:coord >20.667343 51.269842 4993</gx:coord>
<gx:coord >20.678635 51.276545 4919</gx:coord>
<gx:coord >20.686264 51.281899 4876</gx:coord>
<gx:coord >20.691833 51.28674 4827</gx:coord>
<gx:coord >20.694531 51.289444 4811</gx:coord>
<gx:coord >20.697937 51.293537 4787</gx:coord>
<gx:coord >20.701065 51.298145 4768</gx:coord>
<gx:coord >20.704329 51.304184 4752</gx:coord>
<gx:coord >20.710936 51.317963 4712</gx:coord>
<gx:coord >20.720438 51.337097 4651</gx:coord>
<gx:coord >20.731647 51.358017 4590</gx:coord>
<gx:coord >20.739746 51.372582 4536</gx:coord>
<gx:coord >20.743375 51.379074 4493</gx:coord>
<gx:coord >20.752106 51.394927 4392</gx:coord>
<gx:coord >20.761191 51.411392 4293</gx:coord>
<gx:coord >20.770264 51.427793 4179</gx:coord>
<gx:coord >20.774924 51.435471 4126</gx:coord>
<gx:coord >20.779343 51.441619 4087</gx:coord>
<gx:coord >20.785242 51.4487 4042</gx:coord>
<gx:coord >20.797501 51.462568 3958</gx:coord>
<gx:coord >20.811539 51.478582 3860</gx:coord>
<gx:coord >20.822067 51.490732 3768</gx:coord>
<gx:coord >20.828857 51.498599 3707</gx:coord>
<gx:coord >20.836165 51.507065 3654</gx:coord>
<gx:coord >20.84465 51.517034 3601</gx:coord>
<gx:coord >20.852199 51.525787 3547</gx:coord>
<gx:coord >20.859146 51.533886 3486</gx:coord>
<gx:coord >20.866089 51.541986 3418</gx:coord>
<gx:coord >20.873133 51.55014 3357</gx:coord>
<gx:coord >20.88063 51.558838 3296</gx:coord>
<gx:coord >20.883302 51.561951 3281</gx:coord>
<gx:coord >20.893021 51.573176 3227</gx:coord>
<gx:coord >20.902786 51.584442 3189</gx:coord>
<gx:coord >20.912552 51.595754 3151</gx:coord>
<gx:coord >20.920493 51.604889 3105</gx:coord>
<gx:coord >20.928213 51.613861 3052</gx:coord>
<gx:coord >20.935413 51.622238 3006</gx:coord>
<gx:coord >20.943133 51.631256 2938</gx:coord>
<gx:coord >20.950241 51.639513 2892</gx:coord>
<gx:coord >20.957565 51.648032 2839</gx:coord>
<gx:coord >20.963324 51.654694 2778</gx:coord>
<gx:coord >20.969009 51.661299 2716</gx:coord>
<gx:coord >20.97535 51.668564 2664</gx:coord>
<gx:coord >20.982666 51.676941 2611</gx:coord>
<gx:coord >20.990219 51.685413 2565</gx:coord>
<gx:coord >20.997543 51.693746 2512</gx:coord>
<gx:coord >21.00534 51.70253 2459</gx:coord>
<gx:coord >21.012021 51.710083 2413</gx:coord>
<gx:coord >21.019221 51.718277 2352</gx:coord>
<gx:coord >21.025976 51.726151 2299</gx:coord>
<gx:coord >21.032257 51.733409 2245</gx:coord>
<gx:coord >21.038521 51.74057 2207</gx:coord>
<gx:coord >21.041713 51.744186 2200</gx:coord>
<gx:coord >21.053009 51.757104 2177</gx:coord>
<gx:coord >21.070099 51.776842 2169</gx:coord>
<gx:coord >21.078458 51.786438 2162</gx:coord>
<gx:coord >21.083755 51.792437 2131</gx:coord>
<gx:coord >21.088943 51.798349 2100</gx:coord>
<gx:coord >21.092834 51.802772 2069</gx:coord>
<gx:coord >21.096422 51.806946 2036</gx:coord>
<gx:coord >21.099985 51.810928 2008</gx:coord>
<gx:coord >21.103177 51.81459 1978</gx:coord>
<gx:coord >21.106369 51.818207 1947</gx:coord>
<gx:coord >21.109933 51.822327 1916</gx:coord>
<gx:coord >21.11357 51.826492 1883</gx:coord>
<gx:coord >21.117356 51.830887 1856</gx:coord>
<gx:coord >21.121902 51.83615 1825</gx:coord>
<gx:coord >21.126412 51.841324 1790</gx:coord>
<gx:coord >21.131089 51.84668 1763</gx:coord>
<gx:coord >21.135543 51.851807 1728</gx:coord>
<gx:coord >21.138883 51.855652 1697</gx:coord>
<gx:coord >21.143112 51.860496 1667</gx:coord>
<gx:coord >21.146851 51.864779 1637</gx:coord>
<gx:coord >21.150894 51.869388 1606</gx:coord>
<gx:coord >21.155808 51.874969 1576</gx:coord>
<gx:coord >21.159371 51.879089 1545</gx:coord>
<gx:coord >21.16394 51.884238 1513</gx:coord>
<gx:coord >21.167833 51.888702 1479</gx:coord>
<gx:coord >21.171768 51.893143 1447</gx:coord>
<gx:coord >21.175912 51.897878 1417</gx:coord>
<gx:coord >21.179365 51.90244 1391</gx:coord>
<gx:coord >21.181259 51.906143 1360</gx:coord>
<gx:coord >21.182022 51.908432 1345</gx:coord>
<gx:coord >21.182251 51.91008 1336</gx:coord>
<gx:coord >21.182251 51.913147 1314</gx:coord>
<gx:coord >21.18187 51.915482 1297</gx:coord>
<gx:coord >21.180777 51.9185 1267</gx:coord>
<gx:coord >21.179504 51.920975 1250</gx:coord>
<gx:coord >21.176758 51.924866 1234</gx:coord>
<gx:coord >21.173322 51.929068 1210</gx:coord>
<gx:coord >21.168365 51.934753 1180</gx:coord>
<gx:coord >21.16265 51.941218 1149</gx:coord>
<gx:coord >21.156769 51.947891 1126</gx:coord>
<gx:coord >21.151581 51.953888 1111</gx:coord>
<gx:coord >21.147818 51.958116 1096</gx:coord>
<gx:coord >21.142875 51.963889 1073</gx:coord>
<gx:coord >21.138611 51.968857 1057</gx:coord>
<gx:coord >21.134556 51.973432 1036</gx:coord>
<gx:coord >21.130083 51.978599 1020</gx:coord>
<gx:coord >21.128514 51.980462 1020</gx:coord>
<gx:coord >21.126556 51.982681 1028</gx:coord>
<gx:coord >21.12514 51.984279 1028</gx:coord>
<gx:coord >21.123352 51.986298 1029</gx:coord>
<gx:coord >21.121608 51.988329 1022</gx:coord>
<gx:coord >21.11908 51.991196 1018</gx:coord>
<gx:coord >21.115112 51.995728 996</gx:coord>
<gx:coord >21.110153 52.00145 951</gx:coord>
<gx:coord >21.106934 52.005227 943</gx:coord>
<gx:coord >21.103897 52.008728 936</gx:coord>
<gx:coord >21.091843 52.022736 936</gx:coord>
<gx:coord >21.086295 52.029015 936</gx:coord>
<gx:coord >21.085118 52.030412 936</gx:coord>
<gx:coord >21.083156 52.032693 928</gx:coord>
<gx:coord >21.081314 52.034821 928</gx:coord>
<gx:coord >21.079154 52.037255 921</gx:coord>
<gx:coord >21.076355 52.040497 905</gx:coord>
<gx:coord >21.072998 52.044342 875</gx:coord>
<gx:coord >21.068878 52.049149 844</gx:coord>
<gx:coord >21.065499 52.05299 814</gx:coord>
<gx:coord >21.062125 52.0569 791</gx:coord>
<gx:coord >21.057434 52.062378 760</gx:coord>
<gx:coord >21.053179 52.067188 723</gx:coord>
<gx:coord >21.049648 52.071331 692</gx:coord>
<gx:coord >21.045881 52.075661 661</gx:coord>
<gx:coord >21.042175 52.079819 631</gx:coord>
<gx:coord >21.037369 52.085358 593</gx:coord>
<gx:coord >21.033249 52.090073 562</gx:coord>
<gx:coord >21.028671 52.095291 532</gx:coord>
<gx:coord >21.025696 52.098724 501</gx:coord>
<gx:coord >21.022182 52.102708 471</gx:coord>
<gx:coord >21.018023 52.107503 433</gx:coord>
<gx:coord >21.013707 52.112391 410</gx:coord>
<gx:coord >21.009705 52.117046 387</gx:coord>
<gx:coord >21.006409 52.120817 356</gx:coord>
<gx:coord >21.002563 52.125239 319</gx:coord>
<gx:coord >20.998561 52.129801 288</gx:coord>
<gx:coord >20.994559 52.134317 265</gx:coord>
<gx:coord >20.990322 52.139251 235</gx:coord>
<gx:coord >20.987261 52.142696 204</gx:coord>
<gx:coord >20.983276 52.147339 181</gx:coord>
<gx:coord >20.980072 52.150909 151</gx:coord>
<gx:coord >20.976118 52.155498 120</gx:coord>
<gx:coord >20.97243 52.159688 114</gx:coord>
<gx:coord >20.970993 52.161346 107</gx:coord>
<gx:coord >20.970535 52.161896 108</gx:coord>
<gx:coord >20.969526 52.163039 108</gx:coord>
<gx:coord >20.968584 52.164157 107</gx:coord>
<gx:coord >20.967941 52.164825 106</gx:coord>
<gx:coord >20.967712 52.1651 106</gx:coord>
<gx:coord >20.966949 52.166016 113</gx:coord>
<gx:coord >20.966949 52.166016 113</gx:coord>
</gx:Track>
</Placemark>
<Placemark ><name >HA-LZK</name>
<Style ><LineStyle ><color >ff1c1ae3</color>
<width >4</width>
</LineStyle>
<IconStyle ><Icon ><href >http://maps.google.com/mapfiles/kml/shapes/airports.png</href>
</Icon>
</IconStyle>
</Style>
<gx:Track ><extrude >0</extrude>
<when >2025-08-17T20:37:56.540Z</when>
<when >2025-08-17T20:37:58.260Z</when>
<when >2025-08-17T20:38:01.680Z</when>
<when >2025-08-17T20:38:03.320Z</when>
<when >2025-08-17T20:38:04.020Z</when>
<when >2025-08-17T20:38:05.740Z</when>
<when >2025-08-17T20:38:10.510Z</when>
<when >2025-08-17T20:38:14.290Z</when>
<when >2025-08-17T20:38:16.200Z</when>
<when >2025-08-17T20:38:18.040Z</when>
<when >2025-08-17T20:38:19.420Z</when>
<when >2025-08-17T20:38:21.520Z</when>
<when >2025-08-17T20:38:23.280Z</when>
<when >2025-08-17T20:38:28.810Z</when>
<when >2025-08-17T20:38:37.600Z</when>
<when >2025-08-17T20:38:45.280Z</when>
<when >2025-08-17T20:38:46.380Z</when>
<when >2025-08-17T20:38:53.140Z</when>
<when >2025-08-17T20:38:58.650Z</when>
<when >2025-08-17T20:39:02.310Z</when>
<when >2025-08-17T20:39:06.050Z</when>
<when >2025-08-17T20:39:07.740Z</when>
<when >2025-08-17T20:39:16.320Z</when>
<when >2025-08-17T20:39:20.980Z</when>
<when >2025-08-17T20:39:24.270Z</when>
<when >2025-08-17T20:39:26.050Z</when>
<when >2025-08-17T20:39:29.290Z</when>
<when >2025-08-17T20:39:30.890Z</when>
<when >2025-08-17T20:39:34.410Z</when>
<when >2025-08-17T20:39:38.160Z</when>
<when >2025-08-17T20:39:44.230Z</when>
<when >2025-08-17T20:39:51.390Z</when>
<when >2025-08-17T20:39:59.030Z</when>
<when >2025-08-17T20:40:06.920Z</when>
<when >2025-08-17T20:40:14.700Z</when>
<when >2025-08-17T20:40:21.070Z</when>
<when >2025-08-17T20:40:24.280Z</when>
<when >2025-08-17T20:40:25.620Z</when>
<when >2025-08-17T20:40:33.760Z</when>
<when >2025-08-17T20:40:43.550Z</when>
<when >2025-08-17T20:40:55.520Z</when>
<when >2025-08-17T20:41:15.650Z</when>
<when >2025-08-17T20:41:15.650Z</when>
<gx:coord >20.966053 52.167034 0</gx:coord>
<gx:coord >20.965748 52.167355 0</gx:coord>
<gx:coord >20.96489 52.168339 0</gx:coord>
<gx:coord >20.964523 52.168754 0</gx:coord>
<gx:coord >20.963954 52.169417 0</gx:coord>
<gx:coord >20.963669 52.169735 0</gx:coord>
<gx:coord >20.962906 52.170662 0</gx:coord>
<gx:coord >20.962581 52.171419 0</gx:coord>
<gx:coord >20.962561 52.171512 0</gx:coord>
<gx:coord >20.962505 52.171841 0</gx:coord>
<gx:coord >20.962463 52.172175 0</gx:coord>
<gx:coord >20.962463 52.172175 0</gx:coord>
<gx:coord >20.962463 52.172664 0</gx:coord>
<gx:coord >20.962483 52.173071 0</gx:coord>
<gx:coord >20.962503 52.173467 0</gx:coord>
<gx:coord >20.962639 52.173786 0</gx:coord>
<gx:coord >20.962772 52.173889 0</gx:coord>
<gx:coord >20.963211 52.174129 0</gx:coord>
<gx:coord >20.96365 52.174381 0</gx:coord>
<gx:coord >20.963955 52.17453 0</gx:coord>
<gx:coord >20.964111 52.174584 0</gx:coord>
<gx:coord >20.964394 52.174679 0</gx:coord>
<gx:coord >20.964994 52.174875 0</gx:coord>
<gx:coord >20.96529 52.174976 0</gx:coord>
<gx:coord >20.965424 52.175068 0</gx:coord>
<gx:coord >20.9655 52.175148 0</gx:coord>
<gx:coord >20.965538 52.175285 0</gx:coord>
<gx:coord >20.965519 52.1754 0</gx:coord>
<gx:coord >20.965445 52.175539 0</gx:coord>
<gx:coord >20.965347 52.175663 0</gx:coord>
<gx:coord >20.965131 52.175911 0</gx:coord>
<gx:coord >20.964798 52.176283 0</gx:coord>
<gx:coord >20.964508 52.176624 0</gx:coord>
<gx:coord >20.964268 52.176912 0</gx:coord>
<gx:coord >20.963994 52.177215 0</gx:coord>
<gx:coord >20.96368 52.177273 0</gx:coord>
<gx:coord >20.963554 52.177219 0</gx:coord>
<gx:coord >20.963478 52.177185 0</gx:coord>
<gx:coord >20.963154 52.177059 0</gx:coord>
<gx:coord >20.962791 52.176933 0</gx:coord>
<gx:coord >20.962483 52.17683 0</gx:coord>
<gx:coord >20.962463 52.17683 0</gx:coord>
<gx:coord >20.962463 52.17683 0</gx:coord>
</gx:Track>
</Placemark>
</Folder>
</Folder>
</kml>
