<?xml version="1.0" encoding="UTF-8"?>
<kml xmlns="http://www.opengis.net/kml/2.2" xmlns:gx="http://www.google.com/kml/ext/2.2"><Folder ><Folder ><name >9H-WAF track</name>
<Placemark ><name >9H-WAF</name>
<Style ><LineStyle ><color >ff1c1ae3</color>
<width >4</width>
</LineStyle>
<IconStyle ><Icon ><href >http://maps.google.com/mapfiles/kml/shapes/airports.png</href>
</Icon>
</IconStyle>
</Style>
<gx:Track ><extrude >0</extrude>
<when >2025-07-06T04:12:30.850Z</when>
<when >2025-07-06T04:12:30.850Z</when>
<when >2025-07-06T04:12:46.870Z</when>
<when >2025-07-06T04:14:06.160Z</when>
<when >2025-07-06T04:14:51.340Z</when>
<when >2025-07-06T04:15:07.250Z</when>
<when >2025-07-06T04:15:25.810Z</when>
<when >2025-07-06T04:15:41.160Z</when>
<when >2025-07-06T04:16:35.390Z</when>
<when >2025-07-06T04:16:54.940Z</when>
<when >2025-07-06T04:17:00.580Z</when>
<when >2025-07-06T04:17:04.810Z</when>
<when >2025-07-06T04:17:07.150Z</when>
<when >2025-07-06T04:17:10.470Z</when>
<when >2025-07-06T04:17:14.020Z</when>
<when >2025-07-06T04:17:17.730Z</when>
<when >2025-07-06T04:17:23.260Z</when>
<when >2025-07-06T04:17:26.680Z</when>
<when >2025-07-06T04:17:32.340Z</when>
<when >2025-07-06T04:17:39.370Z</when>
<when >2025-07-06T04:17:58.750Z</when>
<when >2025-07-06T04:18:06.510Z</when>
<when >2025-07-06T04:18:12.740Z</when>
<when >2025-07-06T04:19:17.400Z</when>
<when >2025-07-06T04:19:32.120Z</when>
<when >2025-07-06T04:19:41.890Z</when>
<when >2025-07-06T04:19:51.020Z</when>
<when >2025-07-06T04:19:55.980Z</when>
<when >2025-07-06T04:19:59.040Z</when>
<when >2025-07-06T04:20:00.840Z</when>
<when >2025-07-06T04:20:13.360Z</when>
<when >2025-07-06T04:20:15.990Z</when>
<when >2025-07-06T04:20:16.770Z</when>
<when >2025-07-06T04:20:22.940Z</when>
<when >2025-07-06T04:21:02.160Z</when>
<when >2025-07-06T04:21:06.610Z</when>
<when >2025-07-06T04:21:08.100Z</when>
<when >2025-07-06T04:21:09.330Z</when>
<when >2025-07-06T04:21:11.160Z</when>
<when >2025-07-06T04:21:11.960Z</when>
<when >2025-07-06T04:21:12.730Z</when>
<when >2025-07-06T04:21:14.120Z</when>
<when >2025-07-06T04:21:14.480Z</when>
<when >2025-07-06T04:21:16.810Z</when>
<when >2025-07-06T04:21:17.950Z</when>
<when >2025-07-06T04:21:19.970Z</when>
<when >2025-07-06T04:21:22.200Z</when>
<when >2025-07-06T04:21:23.010Z</when>
<when >2025-07-06T04:21:23.010Z</when>
<gx:coord >20.962486 52.176819 0</gx:coord>
<gx:coord >20.962486 52.176819 0</gx:coord>
<gx:coord >20.962486 52.176819 0</gx:coord>
<gx:coord >20.962483 52.176819 0</gx:coord>
<gx:coord >20.962486 52.176819 0</gx:coord>
<gx:coord >20.962482 52.176819 0</gx:coord>
<gx:coord >20.962486 52.176819 0</gx:coord>
<gx:coord >20.962486 52.176819 0</gx:coord>
<gx:coord >20.962353 52.176785 0</gx:coord>
<gx:coord >20.962048 52.176682 0</gx:coord>
<gx:coord >20.961836 52.176609 0</gx:coord>
<gx:coord >20.961723 52.176556 0</gx:coord>
<gx:coord >20.9616 52.176493 0</gx:coord>
<gx:coord >20.961514 52.17643 0</gx:coord>
<gx:coord >20.961443 52.176377 0</gx:coord>
<gx:coord >20.961399 52.176315 0</gx:coord>
<gx:coord >20.961323 52.176235 0</gx:coord>
<gx:coord >20.961285 52.176189 0</gx:coord>
<gx:coord >20.961227 52.176121 0</gx:coord>
<gx:coord >20.961169 52.176051 0</gx:coord>
<gx:coord >20.960972 52.175806 0</gx:coord>
<gx:coord >20.960922 52.175755 0</gx:coord>
<gx:coord >20.960894 52.175713 0</gx:coord>
<gx:coord >20.960894 52.175713 0</gx:coord>
<gx:coord >20.960827 52.175617 0</gx:coord>
<gx:coord >20.960579 52.175308 0</gx:coord>
<gx:coord >20.960286 52.174945 0</gx:coord>
<gx:coord >20.960045 52.174713 0</gx:coord>
<gx:coord >20.959874 52.174619 0</gx:coord>
<gx:coord >20.959756 52.174596 0</gx:coord>
<gx:coord >20.959492 52.174358 0</gx:coord>
<gx:coord >20.959549 52.174324 0</gx:coord>
<gx:coord >20.959579 52.174293 0</gx:coord>
<gx:coord >20.959717 52.174247 0</gx:coord>
<gx:coord >20.959721 52.174244 0</gx:coord>
<gx:coord >20.959797 52.174152 0</gx:coord>
<gx:coord >20.959873 52.174061 0</gx:coord>
<gx:coord >20.960011 52.173909 0</gx:coord>
<gx:coord >20.960207 52.1737 0</gx:coord>
<gx:coord >20.960274 52.173615 0</gx:coord>
<gx:coord >20.960445 52.17342 0</gx:coord>
<gx:coord >20.960617 52.173203 0</gx:coord>
<gx:coord >20.960732 52.173088 0</gx:coord>
<gx:coord >20.961012 52.172746 0</gx:coord>
<gx:coord >20.961482 52.172222 0</gx:coord>
<gx:coord >20.961993 52.171628 0</gx:coord>
<gx:coord >20.962385 52.171163 0</gx:coord>
<gx:coord >20.962561 52.170965 0</gx:coord>
<gx:coord >20.962561 52.170965 0</gx:coord>
</gx:Track>
</Placemark>
<Placemark ><name >9H-WAF</name>
<Style ><LineStyle ><color >ff1c1ae3</color>
<width >4</width>
</LineStyle>
<IconStyle ><Icon ><href >http://maps.google.com/mapfiles/kml/shapes/airports.png</href>
</Icon>
</IconStyle>
</Style>
<gx:Track ><altitudeMode >absolute</altitudeMode>
<extrude >1</extrude>
<when >2025-07-06T04:21:25.560Z</when>
<when >2025-07-06T04:21:26.160Z</when>
<when >2025-07-06T04:21:27.470Z</when>
<when >2025-07-06T04:21:28.770Z</when>
<when >2025-07-06T04:21:29.930Z</when>
<when >2025-07-06T04:21:32.700Z</when>
<when >2025-07-06T04:21:34.730Z</when>
<when >2025-07-06T04:21:36.570Z</when>
<when >2025-07-06T04:21:41.910Z</when>
<when >2025-07-06T04:21:42.410Z</when>
<when >2025-07-06T04:21:46.150Z</when>
<when >2025-07-06T04:21:47.370Z</when>
<when >2025-07-06T04:21:49.570Z</when>
<when >2025-07-06T04:21:52.030Z</when>
<when >2025-07-06T04:21:54.520Z</when>
<when >2025-07-06T04:21:56.950Z</when>
<when >2025-07-06T04:21:59.580Z</when>
<when >2025-07-06T04:22:02.070Z</when>
<when >2025-07-06T04:22:04.280Z</when>
<when >2025-07-06T04:22:07.270Z</when>
<when >2025-07-06T04:22:10.070Z</when>
<when >2025-07-06T04:22:13.300Z</when>
<when >2025-07-06T04:22:16.290Z</when>
<when >2025-07-06T04:22:19.350Z</when>
<when >2025-07-06T04:22:22.520Z</when>
<when >2025-07-06T04:22:24.670Z</when>
<when >2025-07-06T04:22:27.510Z</when>
<when >2025-07-06T04:22:29.990Z</when>
<when >2025-07-06T04:22:32.330Z</when>
<when >2025-07-06T04:22:34.760Z</when>
<when >2025-07-06T04:22:37.570Z</when>
<when >2025-07-06T04:22:40.300Z</when>
<when >2025-07-06T04:22:43.150Z</when>
<when >2025-07-06T04:22:45.550Z</when>
<when >2025-07-06T04:22:47.920Z</when>
<when >2025-07-06T04:22:50.030Z</when>
<when >2025-07-06T04:22:52.540Z</when>
<when >2025-07-06T04:22:54.640Z</when>
<when >2025-07-06T04:22:57.140Z</when>
<when >2025-07-06T04:22:59.250Z</when>
<when >2025-07-06T04:23:01.500Z</when>
<when >2025-07-06T04:23:03.690Z</when>
<when >2025-07-06T04:23:06.160Z</when>
<when >2025-07-06T04:23:08.820Z</when>
<when >2025-07-06T04:23:10.440Z</when>
<when >2025-07-06T04:23:13.770Z</when>
<when >2025-07-06T04:23:16.800Z</when>
<when >2025-07-06T04:23:19.730Z</when>
<when >2025-07-06T04:23:23.650Z</when>
<when >2025-07-06T04:23:25.860Z</when>
<when >2025-07-06T04:23:29.650Z</when>
<when >2025-07-06T04:23:33.130Z</when>
<when >2025-07-06T04:23:36.940Z</when>
<when >2025-07-06T04:23:40.150Z</when>
<when >2025-07-06T04:23:43.790Z</when>
<when >2025-07-06T04:23:46.290Z</when>
<when >2025-07-06T04:23:49.490Z</when>
<when >2025-07-06T04:23:52.120Z</when>
<when >2025-07-06T04:23:55.030Z</when>
<when >2025-07-06T04:23:58.510Z</when>
<when >2025-07-06T04:24:01.090Z</when>
<when >2025-07-06T04:24:04.300Z</when>
<when >2025-07-06T04:24:07.250Z</when>
<when >2025-07-06T04:24:09.880Z</when>
<when >2025-07-06T04:24:12.890Z</when>
<when >2025-07-06T04:24:16.530Z</when>
<when >2025-07-06T04:24:20.020Z</when>
<when >2025-07-06T04:24:23.150Z</when>
<when >2025-07-06T04:24:26.030Z</when>
<when >2025-07-06T04:24:28.800Z</when>
<when >2025-07-06T04:24:31.290Z</when>
<when >2025-07-06T04:24:33.170Z</when>
<when >2025-07-06T04:24:35.500Z</when>
<when >2025-07-06T04:24:37.610Z</when>
<when >2025-07-06T04:24:39.590Z</when>
<when >2025-07-06T04:24:41.110Z</when>
<when >2025-07-06T04:24:43.310Z</when>
<when >2025-07-06T04:24:44.560Z</when>
<when >2025-07-06T04:24:46.060Z</when>
<when >2025-07-06T04:24:47.450Z</when>
<when >2025-07-06T04:24:49.000Z</when>
<when >2025-07-06T04:24:51.940Z</when>
<when >2025-07-06T04:24:55.350Z</when>
<when >2025-07-06T04:24:58.960Z</when>
<when >2025-07-06T04:25:02.750Z</when>
<when >2025-07-06T04:25:06.720Z</when>
<when >2025-07-06T04:25:10.990Z</when>
<when >2025-07-06T04:25:14.760Z</when>
<when >2025-07-06T04:25:18.920Z</when>
<when >2025-07-06T04:25:22.620Z</when>
<when >2025-07-06T04:25:25.860Z</when>
<when >2025-07-06T04:25:29.390Z</when>
<when >2025-07-06T04:25:32.740Z</when>
<when >2025-07-06T04:25:36.330Z</when>
<when >2025-07-06T04:25:40.230Z</when>
<when >2025-07-06T04:25:44.090Z</when>
<when >2025-07-06T04:25:47.230Z</when>
<when >2025-07-06T04:25:50.150Z</when>
<when >2025-07-06T04:25:52.220Z</when>
<when >2025-07-06T04:25:54.310Z</when>
<when >2025-07-06T04:25:57.280Z</when>
<when >2025-07-06T04:26:01.230Z</when>
<when >2025-07-06T04:26:07.730Z</when>
<when >2025-07-06T04:26:15.270Z</when>
<when >2025-07-06T04:26:21.720Z</when>
<when >2025-07-06T04:26:27.720Z</when>
<when >2025-07-06T04:26:32.970Z</when>
<when >2025-07-06T04:26:35.860Z</when>
<when >2025-07-06T04:26:37.440Z</when>
<when >2025-07-06T04:26:40.950Z</when>
<when >2025-07-06T04:26:47.740Z</when>
<when >2025-07-06T04:26:55.000Z</when>
<when >2025-07-06T04:27:02.390Z</when>
<when >2025-07-06T04:27:11.840Z</when>
<when >2025-07-06T04:27:21.250Z</when>
<when >2025-07-06T04:27:30.970Z</when>
<when >2025-07-06T04:27:37.350Z</when>
<when >2025-07-06T04:27:44.680Z</when>
<when >2025-07-06T04:27:51.930Z</when>
<when >2025-07-06T04:27:59.620Z</when>
<when >2025-07-06T04:28:08.840Z</when>
<when >2025-07-06T04:28:17.970Z</when>
<when >2025-07-06T04:28:22.950Z</when>
<when >2025-07-06T04:28:34.610Z</when>
<when >2025-07-06T04:28:45.920Z</when>
<when >2025-07-06T04:28:56.920Z</when>
<when >2025-07-06T04:29:06.200Z</when>
<when >2025-07-06T04:29:15.690Z</when>
<when >2025-07-06T04:29:26.570Z</when>
<when >2025-07-06T04:29:37.550Z</when>
<when >2025-07-06T04:29:48.470Z</when>
<when >2025-07-06T04:29:58.890Z</when>
<when >2025-07-06T04:30:09.770Z</when>
<when >2025-07-06T04:30:20.380Z</when>
<when >2025-07-06T04:30:31.290Z</when>
<when >2025-07-06T04:30:42.260Z</when>
<when >2025-07-06T04:30:53.150Z</when>
<when >2025-07-06T04:31:04.270Z</when>
<when >2025-07-06T04:31:16.200Z</when>
<when >2025-07-06T04:31:29.080Z</when>
<when >2025-07-06T04:31:41.530Z</when>
<when >2025-07-06T04:31:53.170Z</when>
<when >2025-07-06T04:32:04.640Z</when>
<when >2025-07-06T04:32:17.290Z</when>
<when >2025-07-06T04:32:30.180Z</when>
<when >2025-07-06T04:32:42.930Z</when>
<when >2025-07-06T04:32:56.610Z</when>
<when >2025-07-06T04:33:09.920Z</when>
<when >2025-07-06T04:33:15.880Z</when>
<when >2025-07-06T04:33:30.830Z</when>
<when >2025-07-06T04:33:39.630Z</when>
<when >2025-07-06T04:33:51.190Z</when>
<when >2025-07-06T04:34:03.780Z</when>
<when >2025-07-06T04:34:17.430Z</when>
<when >2025-07-06T04:34:29.840Z</when>
<when >2025-07-06T04:34:41.770Z</when>
<when >2025-07-06T04:34:54.220Z</when>
<when >2025-07-06T04:35:07.920Z</when>
<when >2025-07-06T04:35:21.540Z</when>
<when >2025-07-06T04:35:33.880Z</when>
<when >2025-07-06T04:35:46.220Z</when>
<when >2025-07-06T04:36:00.910Z</when>
<when >2025-07-06T04:36:16.850Z</when>
<when >2025-07-06T04:36:30.600Z</when>
<when >2025-07-06T04:36:43.560Z</when>
<when >2025-07-06T04:36:56.540Z</when>
<when >2025-07-06T04:37:11.530Z</when>
<when >2025-07-06T04:37:27.120Z</when>
<when >2025-07-06T04:37:40.680Z</when>
<when >2025-07-06T04:37:53.660Z</when>
<when >2025-07-06T04:38:07.020Z</when>
<when >2025-07-06T04:38:20.340Z</when>
<when >2025-07-06T04:38:33.820Z</when>
<when >2025-07-06T04:38:38.360Z</when>
<when >2025-07-06T04:38:56.350Z</when>
<when >2025-07-06T04:39:11.220Z</when>
<when >2025-07-06T04:39:26.020Z</when>
<when >2025-07-06T04:39:40.930Z</when>
<when >2025-07-06T04:39:56.370Z</when>
<when >2025-07-06T04:40:11.180Z</when>
<when >2025-07-06T04:40:25.980Z</when>
<when >2025-07-06T04:40:42.250Z</when>
<when >2025-07-06T04:40:59.420Z</when>
<when >2025-07-06T04:41:07.040Z</when>
<when >2025-07-06T04:41:26.770Z</when>
<when >2025-07-06T04:41:46.570Z</when>
<when >2025-07-06T04:42:06.130Z</when>
<when >2025-07-06T04:42:25.640Z</when>
<when >2025-07-06T04:42:45.360Z</when>
<when >2025-07-06T04:43:05.350Z</when>
<when >2025-07-06T04:43:25.010Z</when>
<when >2025-07-06T04:43:44.950Z</when>
<when >2025-07-06T04:44:04.700Z</when>
<when >2025-07-06T04:44:24.650Z</when>
<when >2025-07-06T04:44:44.090Z</when>
<when >2025-07-06T04:45:03.680Z</when>
<when >2025-07-06T04:45:23.240Z</when>
<when >2025-07-06T04:45:43.150Z</when>
<when >2025-07-06T04:46:03.040Z</when>
<when >2025-07-06T04:46:23.000Z</when>
<when >2025-07-06T04:46:42.590Z</when>
<when >2025-07-06T04:47:02.430Z</when>
<when >2025-07-06T04:47:22.360Z</when>
<when >2025-07-06T04:47:41.950Z</when>
<when >2025-07-06T04:48:01.410Z</when>
<when >2025-07-06T04:48:21.060Z</when>
<when >2025-07-06T04:48:40.520Z</when>
<when >2025-07-06T04:49:00.270Z</when>
<when >2025-07-06T04:49:20.100Z</when>
<when >2025-07-06T04:49:39.580Z</when>
<when >2025-07-06T04:49:59.420Z</when>
<when >2025-07-06T04:50:19.190Z</when>
<when >2025-07-06T04:50:39.130Z</when>
<when >2025-07-06T04:50:58.790Z</when>
<when >2025-07-06T04:51:18.620Z</when>
<when >2025-07-06T04:51:38.460Z</when>
<when >2025-07-06T04:51:58.430Z</when>
<when >2025-07-06T04:52:18.430Z</when>
<when >2025-07-06T04:52:38.360Z</when>
<when >2025-07-06T04:52:57.960Z</when>
<when >2025-07-06T04:53:17.530Z</when>
<when >2025-07-06T04:53:37.480Z</when>
<when >2025-07-06T04:53:57.430Z</when>
<when >2025-07-06T04:54:17.330Z</when>
<when >2025-07-06T04:54:37.110Z</when>
<when >2025-07-06T04:54:56.800Z</when>
<when >2025-07-06T04:55:16.700Z</when>
<when >2025-07-06T04:55:36.310Z</when>
<when >2025-07-06T04:55:55.790Z</when>
<when >2025-07-06T04:56:15.650Z</when>
<when >2025-07-06T04:56:35.250Z</when>
<when >2025-07-06T04:56:55.240Z</when>
<when >2025-07-06T04:57:15.070Z</when>
<when >2025-07-06T04:57:34.800Z</when>
<when >2025-07-06T04:57:54.770Z</when>
<when >2025-07-06T04:58:14.650Z</when>
<when >2025-07-06T04:58:34.530Z</when>
<when >2025-07-06T04:58:54.460Z</when>
<when >2025-07-06T04:59:14.010Z</when>
<when >2025-07-06T04:59:33.760Z</when>
<when >2025-07-06T04:59:53.190Z</when>
<when >2025-07-06T05:00:13.180Z</when>
<when >2025-07-06T05:00:32.910Z</when>
<when >2025-07-06T05:00:52.850Z</when>
<when >2025-07-06T05:01:12.520Z</when>
<when >2025-07-06T05:01:32.250Z</when>
<when >2025-07-06T05:01:51.890Z</when>
<when >2025-07-06T05:02:11.790Z</when>
<when >2025-07-06T05:02:31.360Z</when>
<when >2025-07-06T05:02:51.010Z</when>
<when >2025-07-06T05:03:10.580Z</when>
<when >2025-07-06T05:03:30.110Z</when>
<when >2025-07-06T05:03:49.760Z</when>
<when >2025-07-06T05:04:09.380Z</when>
<when >2025-07-06T05:04:29.280Z</when>
<when >2025-07-06T05:04:48.760Z</when>
<when >2025-07-06T05:05:08.530Z</when>
<when >2025-07-06T05:05:28.450Z</when>
<when >2025-07-06T05:05:48.380Z</when>
<when >2025-07-06T05:06:08.020Z</when>
<when >2025-07-06T05:06:27.580Z</when>
<when >2025-07-06T05:06:47.180Z</when>
<when >2025-07-06T05:07:06.970Z</when>
<when >2025-07-06T05:07:26.840Z</when>
<when >2025-07-06T05:07:46.820Z</when>
<when >2025-07-06T05:08:06.570Z</when>
<when >2025-07-06T05:08:26.260Z</when>
<when >2025-07-06T05:08:45.940Z</when>
<when >2025-07-06T05:09:05.910Z</when>
<when >2025-07-06T05:09:25.760Z</when>
<when >2025-07-06T05:09:45.260Z</when>
<when >2025-07-06T05:10:05.220Z</when>
<when >2025-07-06T05:10:24.960Z</when>
<when >2025-07-06T05:10:44.740Z</when>
<when >2025-07-06T05:11:04.580Z</when>
<when >2025-07-06T05:11:24.390Z</when>
<when >2025-07-06T05:11:44.020Z</when>
<when >2025-07-06T05:12:03.420Z</when>
<when >2025-07-06T05:12:23.010Z</when>
<when >2025-07-06T05:12:42.740Z</when>
<when >2025-07-06T05:13:01.090Z</when>
<when >2025-07-06T05:13:09.650Z</when>
<when >2025-07-06T05:13:18.010Z</when>
<when >2025-07-06T05:13:25.840Z</when>
<when >2025-07-06T05:13:34.650Z</when>
<when >2025-07-06T05:13:43.520Z</when>
<when >2025-07-06T05:13:52.200Z</when>
<when >2025-07-06T05:14:01.130Z</when>
<when >2025-07-06T05:14:11.400Z</when>
<when >2025-07-06T05:14:31.250Z</when>
<when >2025-07-06T05:14:51.020Z</when>
<when >2025-07-06T05:15:10.940Z</when>
<when >2025-07-06T05:15:30.650Z</when>
<when >2025-07-06T05:15:50.260Z</when>
<when >2025-07-06T05:16:09.920Z</when>
<when >2025-07-06T05:16:29.880Z</when>
<when >2025-07-06T05:16:49.600Z</when>
<when >2025-07-06T05:17:09.080Z</when>
<when >2025-07-06T05:17:28.950Z</when>
<when >2025-07-06T05:17:48.930Z</when>
<when >2025-07-06T05:18:08.600Z</when>
<when >2025-07-06T05:18:28.090Z</when>
<when >2025-07-06T05:18:47.760Z</when>
<when >2025-07-06T05:19:07.730Z</when>
<when >2025-07-06T05:19:27.430Z</when>
<when >2025-07-06T05:19:47.380Z</when>
<when >2025-07-06T05:20:07.260Z</when>
<when >2025-07-06T05:20:27.240Z</when>
<when >2025-07-06T05:20:46.940Z</when>
<when >2025-07-06T05:21:06.800Z</when>
<when >2025-07-06T05:21:26.480Z</when>
<when >2025-07-06T05:21:46.260Z</when>
<when >2025-07-06T05:22:06.240Z</when>
<when >2025-07-06T05:22:25.860Z</when>
<when >2025-07-06T05:22:45.460Z</when>
<when >2025-07-06T05:23:05.230Z</when>
<when >2025-07-06T05:23:24.840Z</when>
<when >2025-07-06T05:23:44.630Z</when>
<when >2025-07-06T05:24:04.110Z</when>
<when >2025-07-06T05:24:23.910Z</when>
<when >2025-07-06T05:24:31.430Z</when>
<when >2025-07-06T05:24:37.370Z</when>
<when >2025-07-06T05:24:42.870Z</when>
<when >2025-07-06T05:24:55.260Z</when>
<when >2025-07-06T05:25:07.670Z</when>
<when >2025-07-06T05:25:21.290Z</when>
<when >2025-07-06T05:25:34.940Z</when>
<when >2025-07-06T05:25:47.490Z</when>
<when >2025-07-06T05:25:52.790Z</when>
<when >2025-07-06T05:25:58.290Z</when>
<when >2025-07-06T05:26:08.470Z</when>
<when >2025-07-06T05:26:28.270Z</when>
<when >2025-07-06T05:26:48.010Z</when>
<when >2025-07-06T05:27:07.820Z</when>
<when >2025-07-06T05:27:27.740Z</when>
<when >2025-07-06T05:27:47.650Z</when>
<when >2025-07-06T05:28:07.200Z</when>
<when >2025-07-06T05:28:26.890Z</when>
<when >2025-07-06T05:28:46.880Z</when>
<when >2025-07-06T05:29:06.760Z</when>
<when >2025-07-06T05:29:26.700Z</when>
<when >2025-07-06T05:29:46.350Z</when>
<when >2025-07-06T05:30:05.970Z</when>
<when >2025-07-06T05:30:25.300Z</when>
<when >2025-07-06T05:30:45.170Z</when>
<when >2025-07-06T05:31:05.060Z</when>
<when >2025-07-06T05:31:25.030Z</when>
<when >2025-07-06T05:31:44.760Z</when>
<when >2025-07-06T05:32:04.320Z</when>
<when >2025-07-06T05:32:24.260Z</when>
<when >2025-07-06T05:32:43.920Z</when>
<when >2025-07-06T05:32:50.680Z</when>
<when >2025-07-06T05:33:05.270Z</when>
<when >2025-07-06T05:33:21.720Z</when>
<when >2025-07-06T05:33:38.150Z</when>
<when >2025-07-06T05:33:45.020Z</when>
<when >2025-07-06T05:33:52.980Z</when>
<when >2025-07-06T05:34:03.380Z</when>
<when >2025-07-06T05:34:23.140Z</when>
<when >2025-07-06T05:34:42.880Z</when>
<when >2025-07-06T05:35:02.740Z</when>
<when >2025-07-06T05:35:22.400Z</when>
<when >2025-07-06T05:35:42.220Z</when>
<when >2025-07-06T05:36:02.160Z</when>
<when >2025-07-06T05:36:21.970Z</when>
<when >2025-07-06T05:36:41.390Z</when>
<when >2025-07-06T05:37:01.120Z</when>
<when >2025-07-06T05:37:15.930Z</when>
<when >2025-07-06T05:37:21.010Z</when>
<when >2025-07-06T05:37:25.940Z</when>
<when >2025-07-06T05:37:30.600Z</when>
<when >2025-07-06T05:37:35.540Z</when>
<when >2025-07-06T05:37:43.200Z</when>
<when >2025-07-06T05:37:58.760Z</when>
<when >2025-07-06T05:38:15.440Z</when>
<when >2025-07-06T05:38:35.260Z</when>
<when >2025-07-06T05:38:55.160Z</when>
<when >2025-07-06T05:39:14.950Z</when>
<when >2025-07-06T05:39:34.700Z</when>
<when >2025-07-06T05:39:54.450Z</when>
<when >2025-07-06T05:40:14.010Z</when>
<when >2025-07-06T05:40:33.630Z</when>
<when >2025-07-06T05:40:53.530Z</when>
<when >2025-07-06T05:41:13.010Z</when>
<when >2025-07-06T05:41:32.690Z</when>
<when >2025-07-06T05:41:52.210Z</when>
<when >2025-07-06T05:42:12.030Z</when>
<when >2025-07-06T05:42:31.580Z</when>
<when >2025-07-06T05:42:44.040Z</when>
<when >2025-07-06T05:42:50.340Z</when>
<when >2025-07-06T05:43:05.110Z</when>
<when >2025-07-06T05:43:19.780Z</when>
<when >2025-07-06T05:43:35.130Z</when>
<when >2025-07-06T05:43:51.260Z</when>
<when >2025-07-06T05:43:52.730Z</when>
<when >2025-07-06T05:43:54.490Z</when>
<when >2025-07-06T05:43:55.520Z</when>
<when >2025-07-06T05:43:56.540Z</when>
<when >2025-07-06T05:43:58.420Z</when>
<when >2025-07-06T05:44:00.500Z</when>
<when >2025-07-06T05:44:02.590Z</when>
<when >2025-07-06T05:44:05.350Z</when>
<when >2025-07-06T05:44:08.150Z</when>
<when >2025-07-06T05:44:13.240Z</when>
<when >2025-07-06T05:44:16.130Z</when>
<when >2025-07-06T05:44:18.290Z</when>
<when >2025-07-06T05:44:20.080Z</when>
<when >2025-07-06T05:44:22.200Z</when>
<when >2025-07-06T05:44:23.870Z</when>
<when >2025-07-06T05:44:32.650Z</when>
<when >2025-07-06T05:44:40.540Z</when>
<when >2025-07-06T05:44:46.570Z</when>
<when >2025-07-06T05:44:55.790Z</when>
<when >2025-07-06T05:45:01.120Z</when>
<when >2025-07-06T05:45:03.070Z</when>
<when >2025-07-06T05:45:04.380Z</when>
<when >2025-07-06T05:45:07.430Z</when>
<when >2025-07-06T05:45:12.410Z</when>
<when >2025-07-06T05:45:17.300Z</when>
<when >2025-07-06T05:45:22.050Z</when>
<when >2025-07-06T05:45:27.150Z</when>
<when >2025-07-06T05:45:32.350Z</when>
<when >2025-07-06T05:45:37.370Z</when>
<when >2025-07-06T05:45:43.220Z</when>
<when >2025-07-06T05:45:51.770Z</when>
<when >2025-07-06T05:45:55.940Z</when>
<when >2025-07-06T05:46:05.300Z</when>
<when >2025-07-06T05:46:13.900Z</when>
<when >2025-07-06T05:46:22.270Z</when>
<when >2025-07-06T05:46:31.190Z</when>
<when >2025-07-06T05:46:40.940Z</when>
<when >2025-07-06T05:46:50.940Z</when>
<when >2025-07-06T05:47:02.060Z</when>
<when >2025-07-06T05:47:07.030Z</when>
<when >2025-07-06T05:47:11.080Z</when>
<when >2025-07-06T05:47:15.340Z</when>
<when >2025-07-06T05:47:19.390Z</when>
<when >2025-07-06T05:47:23.120Z</when>
<when >2025-07-06T05:47:27.380Z</when>
<when >2025-07-06T05:47:31.210Z</when>
<when >2025-07-06T05:47:35.820Z</when>
<when >2025-07-06T05:47:39.750Z</when>
<when >2025-07-06T05:47:43.960Z</when>
<when >2025-07-06T05:47:48.450Z</when>
<when >2025-07-06T05:47:56.210Z</when>
<when >2025-07-06T05:47:57.780Z</when>
<when >2025-07-06T05:47:59.270Z</when>
<when >2025-07-06T05:48:01.300Z</when>
<when >2025-07-06T05:48:08.540Z</when>
<when >2025-07-06T05:48:20.380Z</when>
<when >2025-07-06T05:48:33.670Z</when>
<when >2025-07-06T05:48:43.240Z</when>
<when >2025-07-06T05:48:45.390Z</when>
<when >2025-07-06T05:48:47.200Z</when>
<when >2025-07-06T05:48:49.170Z</when>
<when >2025-07-06T05:48:51.850Z</when>
<when >2025-07-06T05:48:57.410Z</when>
<when >2025-07-06T05:49:03.970Z</when>
<when >2025-07-06T05:49:10.550Z</when>
<when >2025-07-06T05:49:15.270Z</when>
<when >2025-07-06T05:49:19.430Z</when>
<when >2025-07-06T05:49:23.310Z</when>
<when >2025-07-06T05:49:32.960Z</when>
<when >2025-07-06T05:49:44.570Z</when>
<when >2025-07-06T05:49:55.400Z</when>
<when >2025-07-06T05:50:06.350Z</when>
<when >2025-07-06T05:50:16.570Z</when>
<when >2025-07-06T05:50:23.540Z</when>
<when >2025-07-06T05:50:34.300Z</when>
<when >2025-07-06T05:50:45.600Z</when>
<when >2025-07-06T05:50:57.190Z</when>
<when >2025-07-06T05:51:08.080Z</when>
<when >2025-07-06T05:51:19.130Z</when>
<when >2025-07-06T05:51:29.800Z</when>
<when >2025-07-06T05:51:40.340Z</when>
<when >2025-07-06T05:51:51.510Z</when>
<when >2025-07-06T05:52:03.000Z</when>
<when >2025-07-06T05:52:13.840Z</when>
<when >2025-07-06T05:52:25.270Z</when>
<when >2025-07-06T05:52:36.580Z</when>
<when >2025-07-06T05:52:49.200Z</when>
<when >2025-07-06T05:52:56.420Z</when>
<when >2025-07-06T05:53:03.190Z</when>
<when >2025-07-06T05:53:09.190Z</when>
<when >2025-07-06T05:53:14.650Z</when>
<when >2025-07-06T05:53:19.620Z</when>
<when >2025-07-06T05:53:25.570Z</when>
<when >2025-07-06T05:53:32.670Z</when>
<when >2025-07-06T05:53:40.400Z</when>
<when >2025-07-06T05:53:48.800Z</when>
<when >2025-07-06T05:53:57.420Z</when>
<when >2025-07-06T05:54:06.250Z</when>
<when >2025-07-06T05:54:14.750Z</when>
<when >2025-07-06T05:54:23.060Z</when>
<when >2025-07-06T05:54:30.150Z</when>
<when >2025-07-06T05:54:38.970Z</when>
<when >2025-07-06T05:54:47.710Z</when>
<when >2025-07-06T05:54:56.500Z</when>
<when >2025-07-06T05:55:03.770Z</when>
<when >2025-07-06T05:55:12.090Z</when>
<when >2025-07-06T05:55:32.070Z</when>
<when >2025-07-06T05:55:35.600Z</when>
<when >2025-07-06T05:55:39.320Z</when>
<when >2025-07-06T05:55:42.280Z</when>
<when >2025-07-06T05:55:45.220Z</when>
<when >2025-07-06T05:55:47.670Z</when>
<when >2025-07-06T05:55:50.940Z</when>
<when >2025-07-06T05:55:54.170Z</when>
<when >2025-07-06T05:55:59.300Z</when>
<when >2025-07-06T05:56:07.760Z</when>
<when >2025-07-06T05:56:15.100Z</when>
<when >2025-07-06T05:56:22.720Z</when>
<when >2025-07-06T05:56:29.010Z</when>
<when >2025-07-06T05:56:32.890Z</when>
<when >2025-07-06T05:56:36.740Z</when>
<when >2025-07-06T05:56:39.120Z</when>
<when >2025-07-06T05:56:42.520Z</when>
<when >2025-07-06T05:56:45.020Z</when>
<when >2025-07-06T05:56:47.740Z</when>
<when >2025-07-06T05:56:50.800Z</when>
<when >2025-07-06T05:56:53.710Z</when>
<when >2025-07-06T05:56:56.970Z</when>
<when >2025-07-06T05:57:00.190Z</when>
<when >2025-07-06T05:57:03.170Z</when>
<when >2025-07-06T05:57:06.360Z</when>
<when >2025-07-06T05:57:09.450Z</when>
<when >2025-07-06T05:57:14.630Z</when>
<when >2025-07-06T05:57:20.620Z</when>
<when >2025-07-06T05:57:26.560Z</when>
<when >2025-07-06T05:57:32.660Z</when>
<when >2025-07-06T05:57:38.750Z</when>
<when >2025-07-06T05:57:44.380Z</when>
<when >2025-07-06T05:57:50.280Z</when>
<when >2025-07-06T05:57:56.440Z</when>
<when >2025-07-06T05:58:02.920Z</when>
<when >2025-07-06T05:58:08.860Z</when>
<when >2025-07-06T05:58:14.190Z</when>
<when >2025-07-06T05:58:19.830Z</when>
<when >2025-07-06T05:58:25.790Z</when>
<when >2025-07-06T05:58:31.230Z</when>
<when >2025-07-06T05:58:37.260Z</when>
<when >2025-07-06T05:58:43.560Z</when>
<when >2025-07-06T05:58:49.190Z</when>
<when >2025-07-06T05:58:55.040Z</when>
<when >2025-07-06T05:59:00.330Z</when>
<when >2025-07-06T05:59:03.340Z</when>
<when >2025-07-06T05:59:06.220Z</when>
<when >2025-07-06T05:59:08.970Z</when>
<when >2025-07-06T05:59:11.620Z</when>
<when >2025-07-06T05:59:14.700Z</when>
<when >2025-07-06T05:59:18.250Z</when>
<when >2025-07-06T05:59:23.280Z</when>
<when >2025-07-06T05:59:28.880Z</when>
<when >2025-07-06T05:59:33.750Z</when>
<when >2025-07-06T05:59:37.920Z</when>
<when >2025-07-06T05:59:42.850Z</when>
<when >2025-07-06T05:59:46.810Z</when>
<when >2025-07-06T05:59:51.260Z</when>
<when >2025-07-06T05:59:57.320Z</when>
<when >2025-07-06T06:00:05.230Z</when>
<when >2025-07-06T06:00:13.760Z</when>
<when >2025-07-06T06:00:16.530Z</when>
<when >2025-07-06T06:00:18.670Z</when>
<when >2025-07-06T06:00:21.760Z</when>
<when >2025-07-06T06:00:23.890Z</when>
<when >2025-07-06T06:00:26.200Z</when>
<when >2025-07-06T06:00:28.300Z</when>
<when >2025-07-06T06:00:30.660Z</when>
<when >2025-07-06T06:00:33.750Z</when>
<when >2025-07-06T06:00:37.290Z</when>
<when >2025-07-06T06:00:40.670Z</when>
<when >2025-07-06T06:00:43.880Z</when>
<when >2025-07-06T06:00:47.230Z</when>
<when >2025-07-06T06:00:50.710Z</when>
<when >2025-07-06T06:00:54.550Z</when>
<when >2025-07-06T06:00:59.500Z</when>
<when >2025-07-06T06:01:06.230Z</when>
<when >2025-07-06T06:01:26.090Z</when>
<when >2025-07-06T06:01:28.400Z</when>
<when >2025-07-06T06:01:30.000Z</when>
<when >2025-07-06T06:01:32.630Z</when>
<when >2025-07-06T06:01:35.100Z</when>
<when >2025-07-06T06:01:39.200Z</when>
<when >2025-07-06T06:01:46.730Z</when>
<when >2025-07-06T06:01:54.310Z</when>
<when >2025-07-06T06:02:00.830Z</when>
<when >2025-07-06T06:02:07.320Z</when>
<when >2025-07-06T06:02:13.300Z</when>
<when >2025-07-06T06:02:19.220Z</when>
<when >2025-07-06T06:02:25.540Z</when>
<when >2025-07-06T06:02:31.960Z</when>
<when >2025-07-06T06:02:38.180Z</when>
<when >2025-07-06T06:02:45.200Z</when>
<when >2025-07-06T06:02:52.670Z</when>
<when >2025-07-06T06:03:00.330Z</when>
<when >2025-07-06T06:03:07.430Z</when>
<when >2025-07-06T06:03:14.540Z</when>
<when >2025-07-06T06:03:22.100Z</when>
<when >2025-07-06T06:03:27.970Z</when>
<when >2025-07-06T06:03:34.400Z</when>
<when >2025-07-06T06:03:40.900Z</when>
<when >2025-07-06T06:03:47.100Z</when>
<when >2025-07-06T06:03:51.220Z</when>
<when >2025-07-06T06:03:57.050Z</when>
<when >2025-07-06T06:04:04.060Z</when>
<when >2025-07-06T06:04:11.930Z</when>
<when >2025-07-06T06:04:19.130Z</when>
<when >2025-07-06T06:04:27.010Z</when>
<when >2025-07-06T06:04:35.240Z</when>
<when >2025-07-06T06:04:43.650Z</when>
<when >2025-07-06T06:04:49.760Z</when>
<when >2025-07-06T06:04:57.440Z</when>
<when >2025-07-06T06:05:05.510Z</when>
<when >2025-07-06T06:05:13.190Z</when>
<when >2025-07-06T06:05:20.830Z</when>
<when >2025-07-06T06:05:28.830Z</when>
<when >2025-07-06T06:05:37.450Z</when>
<when >2025-07-06T06:05:42.560Z</when>
<when >2025-07-06T06:05:42.560Z</when>
<gx:coord >20.963248 52.170115 113</gx:coord>
<gx:coord >20.963484 52.169929 113</gx:coord>
<gx:coord >20.964584 52.168625 113</gx:coord>
<gx:coord >20.965053 52.168114 113</gx:coord>
<gx:coord >20.9655 52.167572 113</gx:coord>
<gx:coord >20.966568 52.166382 113</gx:coord>
<gx:coord >20.967721 52.165041 113</gx:coord>
<gx:coord >20.968584 52.164064 113</gx:coord>
<gx:coord >20.971566 52.160712 98</gx:coord>
<gx:coord >20.97188 52.160339 105</gx:coord>
<gx:coord >20.973969 52.157867 128</gx:coord>
<gx:coord >20.974548 52.157267 128</gx:coord>
<gx:coord >20.976039 52.155451 159</gx:coord>
<gx:coord >20.97753 52.153822 197</gx:coord>
<gx:coord >20.978864 52.152286 235</gx:coord>
<gx:coord >20.980377 52.150635 265</gx:coord>
<gx:coord >20.981925 52.149027 288</gx:coord>
<gx:coord >20.983429 52.147385 326</gx:coord>
<gx:coord >20.98465 52.145966 357</gx:coord>
<gx:coord >20.986404 52.143997 387</gx:coord>
<gx:coord >20.987967 52.142137 418</gx:coord>
<gx:coord >20.989772 52.139996 456</gx:coord>
<gx:coord >20.99142 52.137948 486</gx:coord>
<gx:coord >20.993147 52.135853 517</gx:coord>
<gx:coord >20.994873 52.133665 547</gx:coord>
<gx:coord >20.99605 52.132222 585</gx:coord>
<gx:coord >20.997698 52.13022 616</gx:coord>
<gx:coord >20.999032 52.128498 639</gx:coord>
<gx:coord >21.000366 52.126923 669</gx:coord>
<gx:coord >21.001779 52.125239 715</gx:coord>
<gx:coord >21.003427 52.123284 745</gx:coord>
<gx:coord >21.004839 52.121375 768</gx:coord>
<gx:coord >21.006173 52.119373 806</gx:coord>
<gx:coord >21.007004 52.117493 829</gx:coord>
<gx:coord >21.007538 52.115707 852</gx:coord>
<gx:coord >21.00769 52.114059 875</gx:coord>
<gx:coord >21.007507 52.112158 898</gx:coord>
<gx:coord >21.007115 52.110668 936</gx:coord>
<gx:coord >21.006173 52.108806 959</gx:coord>
<gx:coord >21.005232 52.107409 981</gx:coord>
<gx:coord >21.003876 52.105957 1020</gx:coord>
<gx:coord >21.002426 52.10463 1050</gx:coord>
<gx:coord >21.000748 52.103119 1073</gx:coord>
<gx:coord >20.99884 52.101562 1119</gx:coord>
<gx:coord >20.997698 52.100613 1126</gx:coord>
<gx:coord >20.995178 52.098633 1164</gx:coord>
<gx:coord >20.992889 52.096756 1187</gx:coord>
<gx:coord >20.990635 52.094933 1218</gx:coord>
<gx:coord >20.987497 52.092373 1248</gx:coord>
<gx:coord >20.98577 52.090977 1263</gx:coord>
<gx:coord >20.98271 52.08837 1302</gx:coord>
<gx:coord >20.979843 52.085907 1324</gx:coord>
<gx:coord >20.976639 52.08316 1362</gx:coord>
<gx:coord >20.973969 52.080826 1385</gx:coord>
<gx:coord >20.97086 52.078035 1416</gx:coord>
<gx:coord >20.968704 52.076065 1431</gx:coord>
<gx:coord >20.965881 52.073502 1454</gx:coord>
<gx:coord >20.963516 52.071396 1477</gx:coord>
<gx:coord >20.960815 52.068911 1500</gx:coord>
<gx:coord >20.957565 52.065948 1538</gx:coord>
<gx:coord >20.955165 52.063697 1561</gx:coord>
<gx:coord >20.952072 52.060913 1591</gx:coord>
<gx:coord >20.949201 52.058297 1629</gx:coord>
<gx:coord >20.946579 52.055878 1652</gx:coord>
<gx:coord >20.94363 52.053176 1683</gx:coord>
<gx:coord >20.939713 52.049789 1705</gx:coord>
<gx:coord >20.935745 52.046677 1743</gx:coord>
<gx:coord >20.931625 52.043976 1774</gx:coord>
<gx:coord >20.927505 52.041733 1804</gx:coord>
<gx:coord >20.92307 52.039816 1843</gx:coord>
<gx:coord >20.918989 52.038326 1865</gx:coord>
<gx:coord >20.915693 52.037348 1896</gx:coord>
<gx:coord >20.911455 52.036324 1934</gx:coord>
<gx:coord >20.907453 52.035579 1964</gx:coord>
<gx:coord >20.903608 52.035067 1995</gx:coord>
<gx:coord >20.900783 52.034788 2018</gx:coord>
<gx:coord >20.896606 52.034546 2064</gx:coord>
<gx:coord >20.893956 52.034462 2094</gx:coord>
<gx:coord >20.891037 52.034409 2109</gx:coord>
<gx:coord >20.888227 52.034416 2147</gx:coord>
<gx:coord >20.885239 52.034409 2178</gx:coord>
<gx:coord >20.879593 52.034409 2231</gx:coord>
<gx:coord >20.872925 52.034416 2292</gx:coord>
<gx:coord >20.865862 52.034416 2368</gx:coord>
<gx:coord >20.858407 52.034369 2414</gx:coord>
<gx:coord >20.850449 52.034317 2483</gx:coord>
<gx:coord >20.842006 52.034229 2544</gx:coord>
<gx:coord >20.834503 52.034088 2605</gx:coord>
<gx:coord >20.826111 52.033951 2665</gx:coord>
<gx:coord >20.818778 52.033764 2734</gx:coord>
<gx:coord >20.812265 52.033624 2795</gx:coord>
<gx:coord >20.80513 52.033447 2848</gx:coord>
<gx:coord >20.798532 52.033252 2909</gx:coord>
<gx:coord >20.791321 52.033081 2963</gx:coord>
<gx:coord >20.783543 52.032833 3024</gx:coord>
<gx:coord >20.775696 52.032367 3092</gx:coord>
<gx:coord >20.769577 52.031662 3146</gx:coord>
<gx:coord >20.763768 52.030691 3176</gx:coord>
<gx:coord >20.759844 52.029807 3207</gx:coord>
<gx:coord >20.75592 52.028778 3222</gx:coord>
<gx:coord >20.750427 52.027039 3252</gx:coord>
<gx:coord >20.743179 52.024292 3267</gx:coord>
<gx:coord >20.731583 52.019302 3328</gx:coord>
<gx:coord >20.718079 52.01326 3382</gx:coord>
<gx:coord >20.706253 52.007996 3450</gx:coord>
<gx:coord >20.694946 52.002946 3511</gx:coord>
<gx:coord >20.684823 51.998524 3572</gx:coord>
<gx:coord >20.679474 51.99614 3618</gx:coord>
<gx:coord >20.676348 51.9948 3648</gx:coord>
<gx:coord >20.669785 51.991928 3709</gx:coord>
<gx:coord >20.656808 51.986327 3831</gx:coord>
<gx:coord >20.642997 51.980368 3953</gx:coord>
<gx:coord >20.628815 51.974304 4060</gx:coord>
<gx:coord >20.61058 51.966522 4189</gx:coord>
<gx:coord >20.592146 51.958675 4311</gx:coord>
<gx:coord >20.573044 51.950546 4440</gx:coord>
<gx:coord >20.560364 51.945128 4547</gx:coord>
<gx:coord >20.545959 51.939011 4669</gx:coord>
<gx:coord >20.531721 51.932932 4790</gx:coord>
<gx:coord >20.516811 51.926554 4912</gx:coord>
<gx:coord >20.49881 51.918869 5042</gx:coord>
<gx:coord >20.48087 51.911192 5164</gx:coord>
<gx:coord >20.470982 51.907002 5225</gx:coord>
<gx:coord >20.447769 51.897125 5347</gx:coord>
<gx:coord >20.424805 51.887357 5453</gx:coord>
<gx:coord >20.402069 51.877674 5575</gx:coord>
<gx:coord >20.383148 51.869574 5697</gx:coord>
<gx:coord >20.36377 51.861241 5834</gx:coord>
<gx:coord >20.34089 51.85144 5941</gx:coord>
<gx:coord >20.318146 51.841643 6071</gx:coord>
<gx:coord >20.295029 51.831727 6177</gx:coord>
<gx:coord >20.273116 51.822327 6314</gx:coord>
<gx:coord >20.250168 51.812408 6429</gx:coord>
<gx:coord >20.227814 51.802725 6551</gx:coord>
<gx:coord >20.204674 51.792755 6673</gx:coord>
<gx:coord >20.181439 51.78273 6810</gx:coord>
<gx:coord >20.158234 51.772652 6924</gx:coord>
<gx:coord >20.134747 51.762497 7061</gx:coord>
<gx:coord >20.109406 51.751471 7176</gx:coord>
<gx:coord >20.081746 51.739517 7275</gx:coord>
<gx:coord >20.055161 51.727962 7388</gx:coord>
<gx:coord >20.029678 51.716883 7502</gx:coord>
<gx:coord >20.004807 51.706083 7616</gx:coord>
<gx:coord >19.977227 51.694061 7716</gx:coord>
<gx:coord >19.948871 51.681702 7815</gx:coord>
<gx:coord >19.920885 51.669434 7921</gx:coord>
<gx:coord >19.890518 51.656132 8020</gx:coord>
<gx:coord >19.860609 51.643021 8127</gx:coord>
<gx:coord >19.847247 51.637207 8158</gx:coord>
<gx:coord >19.813249 51.622375 8249</gx:coord>
<gx:coord >19.793206 51.613586 8310</gx:coord>
<gx:coord >19.766705 51.601959 8417</gx:coord>
<gx:coord >19.737903 51.589279 8531</gx:coord>
<gx:coord >19.70665 51.575504 8638</gx:coord>
<gx:coord >19.678073 51.562912 8737</gx:coord>
<gx:coord >19.650829 51.550873 8851</gx:coord>
<gx:coord >19.621964 51.538076 8965</gx:coord>
<gx:coord >19.59053 51.524156 9056</gx:coord>
<gx:coord >19.559153 51.510315 9155</gx:coord>
<gx:coord >19.530487 51.497575 9261</gx:coord>
<gx:coord >19.502029 51.484959 9360</gx:coord>
<gx:coord >19.467773 51.469737 9460</gx:coord>
<gx:coord >19.430361 51.45314 9543</gx:coord>
<gx:coord >19.397995 51.438766 9642</gx:coord>
<gx:coord >19.367752 51.425233 9741</gx:coord>
<gx:coord >19.337234 51.411593 9848</gx:coord>
<gx:coord >19.301939 51.395782 9932</gx:coord>
<gx:coord >19.264755 51.379053 10015</gx:coord>
<gx:coord >19.232635 51.364669 10106</gx:coord>
<gx:coord >19.201813 51.350889 10213</gx:coord>
<gx:coord >19.170303 51.336737 10304</gx:coord>
<gx:coord >19.138794 51.322539 10411</gx:coord>
<gx:coord >19.106979 51.308201 10510</gx:coord>
<gx:coord >19.096375 51.303452 10533</gx:coord>
<gx:coord >19.053802 51.28418 10609</gx:coord>
<gx:coord >19.018478 51.268212 10692</gx:coord>
<gx:coord >18.983187 51.252274 10783</gx:coord>
<gx:coord >18.94783 51.236231 10867</gx:coord>
<gx:coord >18.91096 51.219589 10951</gx:coord>
<gx:coord >18.875885 51.203598 11035</gx:coord>
<gx:coord >18.84079 51.187584 11126</gx:coord>
<gx:coord >18.802358 51.170013 11202</gx:coord>
<gx:coord >18.761531 51.151428 11278</gx:coord>
<gx:coord >18.743492 51.143188 11285</gx:coord>
<gx:coord >18.696899 51.121945 11293</gx:coord>
<gx:coord >18.650513 51.100717 11301</gx:coord>
<gx:coord >18.604431 51.079536 11301</gx:coord>
<gx:coord >18.558655 51.058401 11300</gx:coord>
<gx:coord >18.512334 51.036987 11300</gx:coord>
<gx:coord >18.465494 51.015381 11300</gx:coord>
<gx:coord >18.419113 50.993787 11300</gx:coord>
<gx:coord >18.372184 50.971939 11300</gx:coord>
<gx:coord >18.325424 50.950167 11307</gx:coord>
<gx:coord >18.278198 50.928288 11307</gx:coord>
<gx:coord >18.232117 50.90692 11306</gx:coord>
<gx:coord >18.185639 50.88533 11314</gx:coord>
<gx:coord >18.139393 50.863815 11321</gx:coord>
<gx:coord >18.092346 50.841794 11306</gx:coord>
<gx:coord >18.045341 50.819733 11314</gx:coord>
<gx:coord >17.998352 50.797569 11314</gx:coord>
<gx:coord >17.952499 50.775969 11306</gx:coord>
<gx:coord >17.905502 50.753903 11306</gx:coord>
<gx:coord >17.858887 50.731884 11306</gx:coord>
<gx:coord >17.812921 50.710098 11306</gx:coord>
<gx:coord >17.767342 50.688446 11305</gx:coord>
<gx:coord >17.721453 50.666656 11298</gx:coord>
<gx:coord >17.67626 50.645111 11298</gx:coord>
<gx:coord >17.630236 50.623184 11305</gx:coord>
<gx:coord >17.584124 50.601196 11305</gx:coord>
<gx:coord >17.538931 50.579565 11305</gx:coord>
<gx:coord >17.492836 50.557617 11305</gx:coord>
<gx:coord >17.447084 50.53569 11304</gx:coord>
<gx:coord >17.400859 50.513368 11304</gx:coord>
<gx:coord >17.355206 50.491302 11312</gx:coord>
<gx:coord >17.309331 50.469097 11312</gx:coord>
<gx:coord >17.263233 50.446845 11312</gx:coord>
<gx:coord >17.216877 50.4245 11319</gx:coord>
<gx:coord >17.171037 50.402015 11326</gx:coord>
<gx:coord >17.1253 50.379639 11326</gx:coord>
<gx:coord >17.080029 50.35765 11318</gx:coord>
<gx:coord >17.034896 50.335771 11318</gx:coord>
<gx:coord >16.989345 50.313538 11326</gx:coord>
<gx:coord >16.943961 50.291174 11326</gx:coord>
<gx:coord >16.898707 50.269043 11326</gx:coord>
<gx:coord >16.85377 50.247042 11317</gx:coord>
<gx:coord >16.809443 50.225235 11317</gx:coord>
<gx:coord >16.764691 50.203237 11310</gx:coord>
<gx:coord >16.720469 50.181473 11302</gx:coord>
<gx:coord >16.676451 50.159683 11302</gx:coord>
<gx:coord >16.631927 50.137527 11302</gx:coord>
<gx:coord >16.58791 50.115646 11310</gx:coord>
<gx:coord >16.542953 50.093399 11310</gx:coord>
<gx:coord >16.498429 50.071335 11310</gx:coord>
<gx:coord >16.453956 50.049195 11317</gx:coord>
<gx:coord >16.40912 50.026757 11317</gx:coord>
<gx:coord >16.364642 50.004501 11325</gx:coord>
<gx:coord >16.319757 49.982025 11325</gx:coord>
<gx:coord >16.2748 49.959457 11325</gx:coord>
<gx:coord >16.230889 49.937377 11325</gx:coord>
<gx:coord >16.186276 49.914892 11325</gx:coord>
<gx:coord >16.142385 49.892715 11325</gx:coord>
<gx:coord >16.097356 49.869919 11324</gx:coord>
<gx:coord >16.052688 49.847305 11332</gx:coord>
<gx:coord >16.007658 49.824463 11332</gx:coord>
<gx:coord >15.963424 49.801987 11332</gx:coord>
<gx:coord >15.918596 49.779285 11332</gx:coord>
<gx:coord >15.874449 49.756714 11332</gx:coord>
<gx:coord >15.829709 49.733871 11332</gx:coord>
<gx:coord >15.78572 49.711319 11332</gx:coord>
<gx:coord >15.741552 49.688741 11332</gx:coord>
<gx:coord >15.697873 49.66626 11332</gx:coord>
<gx:coord >15.654217 49.643784 11332</gx:coord>
<gx:coord >15.610271 49.621124 11331</gx:coord>
<gx:coord >15.566543 49.598557 11331</gx:coord>
<gx:coord >15.522308 49.575714 11331</gx:coord>
<gx:coord >15.478771 49.553181 11331</gx:coord>
<gx:coord >15.434851 49.530441 11338</gx:coord>
<gx:coord >15.390617 49.507416 11338</gx:coord>
<gx:coord >15.346564 49.484563 11331</gx:coord>
<gx:coord >15.303213 49.461985 11338</gx:coord>
<gx:coord >15.259861 49.439547 11338</gx:coord>
<gx:coord >15.216417 49.417145 11338</gx:coord>
<gx:coord >15.172894 49.394394 11331</gx:coord>
<gx:coord >15.129653 49.371368 11331</gx:coord>
<gx:coord >15.086397 49.347886 11331</gx:coord>
<gx:coord >15.043593 49.324997 11331</gx:coord>
<gx:coord >15.000169 49.302311 11323</gx:coord>
<gx:coord >14.956657 49.27978 11338</gx:coord>
<gx:coord >14.912884 49.257019 11338</gx:coord>
<gx:coord >14.8692 49.234252 11338</gx:coord>
<gx:coord >14.826754 49.211655 11338</gx:coord>
<gx:coord >14.783443 49.188446 11338</gx:coord>
<gx:coord >14.740272 49.165512 11338</gx:coord>
<gx:coord >14.697172 49.142532 11338</gx:coord>
<gx:coord >14.653955 49.119408 11338</gx:coord>
<gx:coord >14.610949 49.096364 11338</gx:coord>
<gx:coord >14.56816 49.073367 11338</gx:coord>
<gx:coord >14.526166 49.05079 11338</gx:coord>
<gx:coord >14.483739 49.027932 11338</gx:coord>
<gx:coord >14.441095 49.005029 11338</gx:coord>
<gx:coord >14.401456 48.983688 11338</gx:coord>
<gx:coord >14.383272 48.973187 11337</gx:coord>
<gx:coord >14.366503 48.962666 11337</gx:coord>
<gx:coord >14.35118 48.952285 11337</gx:coord>
<gx:coord >14.334628 48.940181 11337</gx:coord>
<gx:coord >14.318727 48.927566 11330</gx:coord>
<gx:coord >14.303706 48.914795 11337</gx:coord>
<gx:coord >14.288917 48.901291 11345</gx:coord>
<gx:coord >14.272686 48.885343 11337</gx:coord>
<gx:coord >14.241967 48.854339 11337</gx:coord>
<gx:coord >14.210888 48.823522 11337</gx:coord>
<gx:coord >14.179547 48.792435 11337</gx:coord>
<gx:coord >14.148584 48.761607 11345</gx:coord>
<gx:coord >14.117784 48.730682 11345</gx:coord>
<gx:coord >14.086938 48.699692 11345</gx:coord>
<gx:coord >14.055634 48.668177 11346</gx:coord>
<gx:coord >14.024752 48.637161 11361</gx:coord>
<gx:coord >13.994125 48.606309 11361</gx:coord>
<gx:coord >13.962919 48.574768 11361</gx:coord>
<gx:coord >13.93158 48.543045 11369</gx:coord>
<gx:coord >13.900813 48.511808 11361</gx:coord>
<gx:coord >13.87038 48.480881 11361</gx:coord>
<gx:coord >13.839593 48.449567 11361</gx:coord>
<gx:coord >13.808441 48.417726 11361</gx:coord>
<gx:coord >13.777841 48.38649 11354</gx:coord>
<gx:coord >13.746784 48.354904 11355</gx:coord>
<gx:coord >13.715925 48.323411 11355</gx:coord>
<gx:coord >13.684845 48.291662 11355</gx:coord>
<gx:coord >13.654488 48.260379 11355</gx:coord>
<gx:coord >13.62377 48.228956 11355</gx:coord>
<gx:coord >13.593327 48.197662 11347</gx:coord>
<gx:coord >13.562692 48.166077 11347</gx:coord>
<gx:coord >13.531723 48.133987 11347</gx:coord>
<gx:coord >13.501493 48.102567 11355</gx:coord>
<gx:coord >13.471069 48.071005 11355</gx:coord>
<gx:coord >13.440262 48.03923 11355</gx:coord>
<gx:coord >13.409659 48.007694 11362</gx:coord>
<gx:coord >13.378807 47.975647 11362</gx:coord>
<gx:coord >13.348595 47.944153 11370</gx:coord>
<gx:coord >13.31797 47.912201 11385</gx:coord>
<gx:coord >13.306366 47.900024 11362</gx:coord>
<gx:coord >13.29726 47.890522 11347</gx:coord>
<gx:coord >13.288809 47.881677 11316</gx:coord>
<gx:coord >13.269865 47.861799 11217</gx:coord>
<gx:coord >13.250954 47.841934 11111</gx:coord>
<gx:coord >13.230356 47.820321 11019</gx:coord>
<gx:coord >13.209549 47.798584 10935</gx:coord>
<gx:coord >13.190284 47.778284 10829</gx:coord>
<gx:coord >13.182115 47.769718 10798</gx:coord>
<gx:coord >13.173664 47.760874 10775</gx:coord>
<gx:coord >13.157959 47.744348 10752</gx:coord>
<gx:coord >13.127495 47.712387 10752</gx:coord>
<gx:coord >13.097041 47.680338 10752</gx:coord>
<gx:coord >13.066658 47.6483 10752</gx:coord>
<gx:coord >13.036171 47.616074 10752</gx:coord>
<gx:coord >13.00589 47.583939 10752</gx:coord>
<gx:coord >12.976403 47.552552 10752</gx:coord>
<gx:coord >12.946613 47.520943 10752</gx:coord>
<gx:coord >12.916077 47.488541 10751</gx:coord>
<gx:coord >12.885796 47.45636 10751</gx:coord>
<gx:coord >12.855583 47.424133 10758</gx:coord>
<gx:coord >12.825783 47.392319 10758</gx:coord>
<gx:coord >12.796051 47.360458 10758</gx:coord>
<gx:coord >12.766606 47.328915 10758</gx:coord>
<gx:coord >12.736244 47.296417 10757</gx:coord>
<gx:coord >12.706041 47.263882 10757</gx:coord>
<gx:coord >12.675687 47.231295 10757</gx:coord>
<gx:coord >12.645686 47.199128 10757</gx:coord>
<gx:coord >12.616108 47.167239 10757</gx:coord>
<gx:coord >12.585895 47.13456 10756</gx:coord>
<gx:coord >12.556317 47.102718 10741</gx:coord>
<gx:coord >12.545964 47.091499 10710</gx:coord>
<gx:coord >12.523933 47.067673 10634</gx:coord>
<gx:coord >12.499202 47.040897 10550</gx:coord>
<gx:coord >12.474483 47.01385 10474</gx:coord>
<gx:coord >12.464058 47.002808 10459</gx:coord>
<gx:coord >12.451172 46.990155 10459</gx:coord>
<gx:coord >12.433708 46.974152 10451</gx:coord>
<gx:coord >12.399339 46.944068 10450</gx:coord>
<gx:coord >12.365394 46.914181 10450</gx:coord>
<gx:coord >12.331673 46.883698 10450</gx:coord>
<gx:coord >12.29906 46.853714 10450</gx:coord>
<gx:coord >12.26657 46.82373 10458</gx:coord>
<gx:coord >12.233879 46.793472 10450</gx:coord>
<gx:coord >12.201347 46.763352 10458</gx:coord>
<gx:coord >12.169569 46.733917 10458</gx:coord>
<gx:coord >12.137213 46.703842 10458</gx:coord>
<gx:coord >12.113164 46.681274 10458</gx:coord>
<gx:coord >12.105423 46.673087 10458</gx:coord>
<gx:coord >12.098831 46.665034 10458</gx:coord>
<gx:coord >12.093201 46.656784 10458</gx:coord>
<gx:coord >12.088109 46.647858 10458</gx:coord>
<gx:coord >12.08141 46.633987 10458</gx:coord>
<gx:coord >12.067611 46.605286 10458</gx:coord>
<gx:coord >12.051865 46.575002 10458</gx:coord>
<gx:coord >12.032501 46.539064 10458</gx:coord>
<gx:coord >12.013206 46.502986 10458</gx:coord>
<gx:coord >11.994257 46.467178 10458</gx:coord>
<gx:coord >11.975647 46.431481 10458</gx:coord>
<gx:coord >11.95697 46.395636 10466</gx:coord>
<gx:coord >11.938431 46.360303 10458</gx:coord>
<gx:coord >11.919898 46.32486 10466</gx:coord>
<gx:coord >11.901208 46.288651 10467</gx:coord>
<gx:coord >11.882786 46.253448 10467</gx:coord>
<gx:coord >11.864273 46.217341 10467</gx:coord>
<gx:coord >11.84594 46.181589 10467</gx:coord>
<gx:coord >11.827469 46.145651 10467</gx:coord>
<gx:coord >11.809135 46.110038 10467</gx:coord>
<gx:coord >11.797462 46.087321 10459</gx:coord>
<gx:coord >11.791489 46.075776 10444</gx:coord>
<gx:coord >11.777545 46.048737 10353</gx:coord>
<gx:coord >11.763745 46.02182 10262</gx:coord>
<gx:coord >11.749191 45.993751 10170</gx:coord>
<gx:coord >11.733733 45.963959 10102</gx:coord>
<gx:coord >11.7323 45.961257 10087</gx:coord>
<gx:coord >11.730719 45.958191 10071</gx:coord>
<gx:coord >11.729622 45.956043 10056</gx:coord>
<gx:coord >11.728661 45.954274 10041</gx:coord>
<gx:coord >11.726875 45.950783 10026</gx:coord>
<gx:coord >11.724824 45.946838 9980</gx:coord>
<gx:coord >11.722824 45.943055 9949</gx:coord>
<gx:coord >11.720284 45.938074 9888</gx:coord>
<gx:coord >11.717522 45.932739 9820</gx:coord>
<gx:coord >11.712766 45.923447 9706</gx:coord>
<gx:coord >11.709751 45.917679 9629</gx:coord>
<gx:coord >11.707607 45.913376 9576</gx:coord>
<gx:coord >11.706001 45.910236 9538</gx:coord>
<gx:coord >11.70401 45.906232 9492</gx:coord>
<gx:coord >11.702315 45.902939 9454</gx:coord>
<gx:coord >11.693941 45.886093 9332</gx:coord>
<gx:coord >11.686295 45.870853 9203</gx:coord>
<gx:coord >11.680527 45.859447 9104</gx:coord>
<gx:coord >11.671969 45.841919 8974</gx:coord>
<gx:coord >11.667882 45.831711 8898</gx:coord>
<gx:coord >11.666543 45.82782 8883</gx:coord>
<gx:coord >11.665764 45.825138 8861</gx:coord>
<gx:coord >11.664198 45.819305 8830</gx:coord>
<gx:coord >11.662331 45.80959 8792</gx:coord>
<gx:coord >11.661232 45.799861 8769</gx:coord>
<gx:coord >11.660982 45.790375 8739</gx:coord>
<gx:coord >11.661644 45.780402 8716</gx:coord>
<gx:coord >11.66326 45.77037 8686</gx:coord>
<gx:coord >11.665739 45.760849 8655</gx:coord>
<gx:coord >11.66949 45.750092 8617</gx:coord>
<gx:coord >11.675514 45.734734 8548</gx:coord>
<gx:coord >11.678673 45.726774 8503</gx:coord>
<gx:coord >11.6853 45.7099 8381</gx:coord>
<gx:coord >11.691307 45.694559 8244</gx:coord>
<gx:coord >11.69709 45.679138 8122</gx:coord>
<gx:coord >11.703049 45.662997 8001</gx:coord>
<gx:coord >11.709641 45.645214 7871</gx:coord>
<gx:coord >11.716517 45.627182 7742</gx:coord>
<gx:coord >11.724221 45.607224 7620</gx:coord>
<gx:coord >11.726833 45.598297 7566</gx:coord>
<gx:coord >11.728249 45.590888 7513</gx:coord>
<gx:coord >11.728843 45.583191 7475</gx:coord>
<gx:coord >11.728661 45.575944 7422</gx:coord>
<gx:coord >11.727838 45.569458 7384</gx:coord>
<gx:coord >11.726097 45.561813 7338</gx:coord>
<gx:coord >11.723991 45.555415 7307</gx:coord>
<gx:coord >11.720695 45.547687 7246</gx:coord>
<gx:coord >11.717246 45.541306 7208</gx:coord>
<gx:coord >11.712995 45.534714 7155</gx:coord>
<gx:coord >11.707808 45.527949 7086</gx:coord>
<gx:coord >11.697954 45.516541 6987</gx:coord>
<gx:coord >11.695993 45.514252 6949</gx:coord>
<gx:coord >11.694096 45.5121 6942</gx:coord>
<gx:coord >11.691396 45.509095 6926</gx:coord>
<gx:coord >11.68239 45.498688 6888</gx:coord>
<gx:coord >11.66815 45.481676 6827</gx:coord>
<gx:coord >11.653346 45.463241 6767</gx:coord>
<gx:coord >11.642828 45.45002 6714</gx:coord>
<gx:coord >11.640407 45.446915 6691</gx:coord>
<gx:coord >11.63838 45.444397 6676</gx:coord>
<gx:coord >11.636156 45.441605 6645</gx:coord>
<gx:coord >11.633344 45.438034 6600</gx:coord>
<gx:coord >11.62722 45.430375 6516</gx:coord>
<gx:coord >11.619938 45.421371 6386</gx:coord>
<gx:coord >11.612418 45.412033 6272</gx:coord>
<gx:coord >11.606989 45.405284 6173</gx:coord>
<gx:coord >11.602232 45.399511 6112</gx:coord>
<gx:coord >11.597704 45.39386 6066</gx:coord>
<gx:coord >11.586557 45.380099 5967</gx:coord>
<gx:coord >11.573377 45.363922 5853</gx:coord>
<gx:coord >11.560967 45.34863 5739</gx:coord>
<gx:coord >11.548658 45.333435 5609</gx:coord>
<gx:coord >11.537083 45.31929 5480</gx:coord>
<gx:coord >11.529301 45.309769 5403</gx:coord>
<gx:coord >11.517138 45.294891 5289</gx:coord>
<gx:coord >11.504517 45.279373 5176</gx:coord>
<gx:coord >11.491699 45.263625 5061</gx:coord>
<gx:coord >11.479797 45.248886 4939</gx:coord>
<gx:coord >11.46765 45.233925 4818</gx:coord>
<gx:coord >11.455928 45.219543 4688</gx:coord>
<gx:coord >11.444404 45.205388 4566</gx:coord>
<gx:coord >11.432078 45.190306 4437</gx:coord>
<gx:coord >11.4197 45.175049 4322</gx:coord>
<gx:coord >11.407928 45.160446 4194</gx:coord>
<gx:coord >11.395569 45.145196 4072</gx:coord>
<gx:coord >11.383471 45.130096 3958</gx:coord>
<gx:coord >11.370065 45.113525 3843</gx:coord>
<gx:coord >11.362414 45.104095 3790</gx:coord>
<gx:coord >11.355375 45.095432 3729</gx:coord>
<gx:coord >11.349008 45.087662 3668</gx:coord>
<gx:coord >11.343451 45.080815 3607</gx:coord>
<gx:coord >11.338092 45.074297 3538</gx:coord>
<gx:coord >11.33194 45.066605 3478</gx:coord>
<gx:coord >11.324627 45.057539 3402</gx:coord>
<gx:coord >11.316655 45.047576 3349</gx:coord>
<gx:coord >11.308281 45.037009 3303</gx:coord>
<gx:coord >11.299706 45.026395 3257</gx:coord>
<gx:coord >11.291065 45.015595 3204</gx:coord>
<gx:coord >11.282959 45.005493 3158</gx:coord>
<gx:coord >11.274987 44.995578 3113</gx:coord>
<gx:coord >11.268376 44.987274 3075</gx:coord>
<gx:coord >11.260249 44.97705 3029</gx:coord>
<gx:coord >11.25242 44.967224 2976</gx:coord>
<gx:coord >11.244376 44.957291 2931</gx:coord>
<gx:coord >11.237967 44.94928 2893</gx:coord>
<gx:coord >11.230774 44.940262 2877</gx:coord>
<gx:coord >11.213052 44.918106 2855</gx:coord>
<gx:coord >11.210275 44.914065 2839</gx:coord>
<gx:coord >11.207886 44.909729 2832</gx:coord>
<gx:coord >11.206512 44.90625 2809</gx:coord>
<gx:coord >11.205586 44.90238 2786</gx:coord>
<gx:coord >11.205139 44.8992 2763</gx:coord>
<gx:coord >11.20527 44.894989 2748</gx:coord>
<gx:coord >11.205921 44.890788 2725</gx:coord>
<gx:coord >11.207428 44.884232 2695</gx:coord>
<gx:coord >11.210342 44.87375 2634</gx:coord>
<gx:coord >11.212921 44.864456 2573</gx:coord>
<gx:coord >11.215602 44.854889 2504</gx:coord>
<gx:coord >11.217577 44.84689 2466</gx:coord>
<gx:coord >11.218218 44.842163 2420</gx:coord>
<gx:coord >11.218153 44.837311 2390</gx:coord>
<gx:coord >11.217711 44.834088 2359</gx:coord>
<gx:coord >11.216505 44.830038 2329</gx:coord>
<gx:coord >11.21521 44.827011 2306</gx:coord>
<gx:coord >11.213314 44.823944 2291</gx:coord>
<gx:coord >11.210829 44.820602 2268</gx:coord>
<gx:coord >11.208064 44.817701 2253</gx:coord>
<gx:coord >11.204648 44.814676 2245</gx:coord>
<gx:coord >11.200629 44.811836 2223</gx:coord>
<gx:coord >11.196769 44.80957 2216</gx:coord>
<gx:coord >11.192456 44.807506 2185</gx:coord>
<gx:coord >11.18781 44.805588 2170</gx:coord>
<gx:coord >11.180398 44.802991 2155</gx:coord>
<gx:coord >11.171461 44.799957 2124</gx:coord>
<gx:coord >11.162829 44.797028 2094</gx:coord>
<gx:coord >11.154131 44.794006 2063</gx:coord>
<gx:coord >11.145496 44.790934 2025</gx:coord>
<gx:coord >11.137524 44.788048 1995</gx:coord>
<gx:coord >11.128949 44.784929 1956</gx:coord>
<gx:coord >11.120387 44.781784 1934</gx:coord>
<gx:coord >11.111063 44.778365 1895</gx:coord>
<gx:coord >11.10289 44.775339 1865</gx:coord>
<gx:coord >11.095341 44.772583 1835</gx:coord>
<gx:coord >11.087349 44.769613 1804</gx:coord>
<gx:coord >11.078927 44.766495 1774</gx:coord>
<gx:coord >11.071271 44.763654 1743</gx:coord>
<gx:coord >11.06263 44.760489 1713</gx:coord>
<gx:coord >11.053881 44.757339 1675</gx:coord>
<gx:coord >11.04548 44.754297 1644</gx:coord>
<gx:coord >11.03714 44.751251 1614</gx:coord>
<gx:coord >11.029403 44.748292 1583</gx:coord>
<gx:coord >11.025303 44.746399 1568</gx:coord>
<gx:coord >11.021632 44.744289 1553</gx:coord>
<gx:coord >11.018349 44.742101 1530</gx:coord>
<gx:coord >11.015625 44.739807 1507</gx:coord>
<gx:coord >11.012813 44.736877 1484</gx:coord>
<gx:coord >11.009976 44.733163 1469</gx:coord>
<gx:coord >11.006601 44.727997 1431</gx:coord>
<gx:coord >11.002873 44.722092 1400</gx:coord>
<gx:coord >10.999669 44.717056 1370</gx:coord>
<gx:coord >10.996913 44.71268 1332</gx:coord>
<gx:coord >10.993697 44.707745 1301</gx:coord>
<gx:coord >10.990883 44.703509 1271</gx:coord>
<gx:coord >10.987869 44.69904 1240</gx:coord>
<gx:coord >10.983582 44.692848 1210</gx:coord>
<gx:coord >10.977954 44.684841 1179</gx:coord>
<gx:coord >10.972394 44.676695 1141</gx:coord>
<gx:coord >10.97092 44.673715 1133</gx:coord>
<gx:coord >10.970241 44.671555 1133</gx:coord>
<gx:coord >10.969718 44.668304 1126</gx:coord>
<gx:coord >10.969782 44.666034 1126</gx:coord>
<gx:coord >10.970241 44.663635 1126</gx:coord>
<gx:coord >10.97096 44.66153 1126</gx:coord>
<gx:coord >10.972059 44.659331 1126</gx:coord>
<gx:coord >10.973903 44.656586 1126</gx:coord>
<gx:coord >10.976548 44.653465 1126</gx:coord>
<gx:coord >10.979331 44.650864 1126</gx:coord>
<gx:coord >10.982175 44.648577 1126</gx:coord>
<gx:coord >10.985609 44.646286 1126</gx:coord>
<gx:coord >10.989276 44.644155 1126</gx:coord>
<gx:coord >10.993563 44.64206 1126</gx:coord>
<gx:coord >10.999324 44.639546 1126</gx:coord>
<gx:coord >11.007363 44.63652 1126</gx:coord>
<gx:coord >11.03132 44.627747 1118</gx:coord>
<gx:coord >11.033936 44.626785 1126</gx:coord>
<gx:coord >11.035834 44.626092 1126</gx:coord>
<gx:coord >11.038714 44.625022 1126</gx:coord>
<gx:coord >11.041461 44.623998 1133</gx:coord>
<gx:coord >11.045968 44.622391 1126</gx:coord>
<gx:coord >11.053921 44.619482 1103</gx:coord>
<gx:coord >11.061728 44.616623 1073</gx:coord>
<gx:coord >11.068595 44.614151 1042</gx:coord>
<gx:coord >11.07533 44.611771 1004</gx:coord>
<gx:coord >11.081253 44.609659 973</gx:coord>
<gx:coord >11.087494 44.607468 951</gx:coord>
<gx:coord >11.093903 44.605225 913</gx:coord>
<gx:coord >11.100377 44.602936 882</gx:coord>
<gx:coord >11.106589 44.600693 852</gx:coord>
<gx:coord >11.113542 44.598254 821</gx:coord>
<gx:coord >11.120911 44.595566 783</gx:coord>
<gx:coord >11.128614 44.592854 752</gx:coord>
<gx:coord >11.135559 44.590347 722</gx:coord>
<gx:coord >11.142622 44.58783 684</gx:coord>
<gx:coord >11.150011 44.585175 661</gx:coord>
<gx:coord >11.156028 44.583069 631</gx:coord>
<gx:coord >11.162511 44.580704 592</gx:coord>
<gx:coord >11.168845 44.578445 554</gx:coord>
<gx:coord >11.17477 44.576328 524</gx:coord>
<gx:coord >11.178654 44.574921 509</gx:coord>
<gx:coord >11.183886 44.573044 486</gx:coord>
<gx:coord >11.190229 44.570755 455</gx:coord>
<gx:coord >11.196944 44.568368 425</gx:coord>
<gx:coord >11.203308 44.566086 402</gx:coord>
<gx:coord >11.209848 44.563751 356</gx:coord>
<gx:coord >11.216976 44.561188 326</gx:coord>
<gx:coord >11.224038 44.55867 303</gx:coord>
<gx:coord >11.229466 44.556702 272</gx:coord>
<gx:coord >11.236006 44.554321 242</gx:coord>
<gx:coord >11.243068 44.551849 211</gx:coord>
<gx:coord >11.249665 44.549514 181</gx:coord>
<gx:coord >11.256297 44.547093 143</gx:coord>
<gx:coord >11.26321 44.544571 112</gx:coord>
<gx:coord >11.270566 44.541973 82</gx:coord>
<gx:coord >11.27485 44.540405 59</gx:coord>
<gx:coord >11.27485 44.540405 59</gx:coord>
</gx:Track>
</Placemark>
<Placemark ><name >9H-WAF</name>
<Style ><LineStyle ><color >ff1c1ae3</color>
<width >4</width>
</LineStyle>
<IconStyle ><Icon ><href >http://maps.google.com/mapfiles/kml/shapes/airports.png</href>
</Icon>
</IconStyle>
</Style>
<gx:Track ><extrude >0</extrude>
<when >2025-07-06T06:06:14.200Z</when>
<when >2025-07-06T06:06:16.170Z</when>
<when >2025-07-06T06:06:40.750Z</when>
<when >2025-07-06T06:06:44.550Z</when>
<when >2025-07-06T06:06:48.450Z</when>
<when >2025-07-06T06:06:53.990Z</when>
<when >2025-07-06T06:06:56.990Z</when>
<when >2025-07-06T06:07:02.110Z</when>
<when >2025-07-06T06:07:06.250Z</when>
<when >2025-07-06T06:07:10.950Z</when>
<when >2025-07-06T06:07:16.210Z</when>
<when >2025-07-06T06:07:23.990Z</when>
<when >2025-07-06T06:07:25.480Z</when>
<when >2025-07-06T06:07:31.100Z</when>
<when >2025-07-06T06:07:39.620Z</when>
<when >2025-07-06T06:07:45.250Z</when>
<when >2025-07-06T06:07:47.380Z</when>
<when >2025-07-06T06:07:48.460Z</when>
<when >2025-07-06T06:07:54.580Z</when>
<when >2025-07-06T06:07:59.180Z</when>
<when >2025-07-06T06:08:07.830Z</when>
<when >2025-07-06T06:08:14.820Z</when>
<when >2025-07-06T06:08:38.540Z</when>
<when >2025-07-06T06:09:28.460Z</when>
<when >2025-07-06T06:09:28.460Z</when>
<gx:coord >11.296365 44.532681 0</gx:coord>
<gx:coord >11.297044 44.532429 0</gx:coord>
<gx:coord >11.299254 44.530951 0</gx:coord>
<gx:coord >11.299046 44.530838 0</gx:coord>
<gx:coord >11.298817 44.530724 0</gx:coord>
<gx:coord >11.298467 44.530567 0</gx:coord>
<gx:coord >11.298294 44.530483 0</gx:coord>
<gx:coord >11.298082 44.530312 0</gx:coord>
<gx:coord >11.297998 44.530137 0</gx:coord>
<gx:coord >11.297902 44.529957 0</gx:coord>
<gx:coord >11.297747 44.529799 0</gx:coord>
<gx:coord >11.297345 44.529822 0</gx:coord>
<gx:coord >11.29728 44.529854 0</gx:coord>
<gx:coord >11.29701 44.529974 0</gx:coord>
<gx:coord >11.296643 44.530094 0</gx:coord>
<gx:coord >11.296463 44.530003 0</gx:coord>
<gx:coord >11.296441 44.529939 0</gx:coord>
<gx:coord >11.296447 44.529911 0</gx:coord>
<gx:coord >11.296365 44.529785 0</gx:coord>
<gx:coord >11.296323 44.529729 0</gx:coord>
<gx:coord >11.29625 44.529625 0</gx:coord>
<gx:coord >11.296201 44.529579 0</gx:coord>
<gx:coord >11.296169 44.529533 0</gx:coord>
<gx:coord >11.296169 44.529522 0</gx:coord>
<gx:coord >11.296169 44.529522 0</gx:coord>
</gx:Track>
</Placemark>
</Folder>
</Folder>
</kml>
