<?xml version="1.0" encoding="UTF-8"?>
<kml xmlns="http://www.opengis.net/kml/2.2" xmlns:gx="http://www.google.com/kml/ext/2.2"><Folder ><Folder ><name >HA-LVE track</name>
<Placemark ><name >HA-LVE</name>
<Style ><LineStyle ><color >ff1c1ae3</color>
<width >4</width>
</LineStyle>
<IconStyle ><Icon ><href >http://maps.google.com/mapfiles/kml/shapes/airports.png</href>
</Icon>
</IconStyle>
</Style>
<gx:Track ><altitudeMode >absolute</altitudeMode>
<extrude >1</extrude>
<when >2025-08-28T07:31:40.722Z</when>
<when >2025-08-28T07:31:40.722Z</when>
<when >2025-08-28T07:31:56.172Z</when>
<when >2025-08-28T07:32:02.372Z</when>
<when >2025-08-28T07:32:05.332Z</when>
<when >2025-08-28T07:32:10.312Z</when>
<when >2025-08-28T07:32:18.302Z</when>
<when >2025-08-28T07:32:23.722Z</when>
<when >2025-08-28T07:32:34.272Z</when>
<when >2025-08-28T07:32:38.282Z</when>
<when >2025-08-28T07:32:43.842Z</when>
<when >2025-08-28T07:32:46.782Z</when>
<when >2025-08-28T07:32:52.762Z</when>
<when >2025-08-28T07:32:59.242Z</when>
<when >2025-08-28T07:33:02.752Z</when>
<when >2025-08-28T07:33:05.162Z</when>
<when >2025-08-28T07:33:08.992Z</when>
<when >2025-08-28T07:33:10.762Z</when>
<when >2025-08-28T07:33:17.642Z</when>
<when >2025-08-28T07:33:19.752Z</when>
<when >2025-08-28T07:33:21.772Z</when>
<when >2025-08-28T07:33:26.062Z</when>
<when >2025-08-28T07:33:28.892Z</when>
<when >2025-08-28T07:33:29.772Z</when>
<when >2025-08-28T07:33:33.792Z</when>
<when >2025-08-28T07:33:34.622Z</when>
<when >2025-08-28T07:33:37.642Z</when>
<when >2025-08-28T07:33:44.652Z</when>
<when >2025-08-28T07:33:46.892Z</when>
<when >2025-08-28T07:33:55.572Z</when>
<when >2025-08-28T07:34:03.632Z</when>
<when >2025-08-28T07:34:12.592Z</when>
<when >2025-08-28T07:34:20.232Z</when>
<when >2025-08-28T07:35:00.482Z</when>
<when >2025-08-28T07:35:03.432Z</when>
<when >2025-08-28T07:35:09.092Z</when>
<when >2025-08-28T07:35:12.192Z</when>
<when >2025-08-28T07:35:16.802Z</when>
<when >2025-08-28T07:35:22.692Z</when>
<when >2025-08-28T07:35:28.722Z</when>
<when >2025-08-28T07:35:31.592Z</when>
<when >2025-08-28T07:35:35.472Z</when>
<when >2025-08-28T07:35:40.812Z</when>
<when >2025-08-28T07:35:45.912Z</when>
<when >2025-08-28T07:35:51.732Z</when>
<when >2025-08-28T07:35:56.502Z</when>
<when >2025-08-28T07:36:02.332Z</when>
<when >2025-08-28T07:36:07.292Z</when>
<when >2025-08-28T07:36:12.142Z</when>
<when >2025-08-28T07:36:16.142Z</when>
<when >2025-08-28T07:36:21.062Z</when>
<when >2025-08-28T07:36:26.202Z</when>
<when >2025-08-28T07:36:33.842Z</when>
<when >2025-08-28T07:36:38.992Z</when>
<when >2025-08-28T07:36:49.622Z</when>
<when >2025-08-28T07:36:59.252Z</when>
<when >2025-08-28T07:37:08.642Z</when>
<when >2025-08-28T07:37:18.462Z</when>
<when >2025-08-28T07:37:29.452Z</when>
<when >2025-08-28T07:37:37.062Z</when>
<when >2025-08-28T07:37:50.772Z</when>
<when >2025-08-28T07:38:02.812Z</when>
<when >2025-08-28T07:38:12.792Z</when>
<when >2025-08-28T07:38:23.562Z</when>
<when >2025-08-28T07:38:33.922Z</when>
<when >2025-08-28T07:38:46.082Z</when>
<when >2025-08-28T07:38:49.222Z</when>
<when >2025-08-28T07:38:50.882Z</when>
<when >2025-08-28T07:38:53.962Z</when>
<when >2025-08-28T07:39:00.732Z</when>
<when >2025-08-28T07:39:06.872Z</when>
<when >2025-08-28T07:39:13.442Z</when>
<when >2025-08-28T07:39:18.502Z</when>
<when >2025-08-28T07:39:21.462Z</when>
<when >2025-08-28T07:39:24.372Z</when>
<when >2025-08-28T07:39:26.912Z</when>
<when >2025-08-28T07:39:28.202Z</when>
<when >2025-08-28T07:39:40.532Z</when>
<when >2025-08-28T07:39:51.392Z</when>
<when >2025-08-28T07:40:00.192Z</when>
<when >2025-08-28T07:40:02.672Z</when>
<when >2025-08-28T07:40:07.962Z</when>
<when >2025-08-28T07:40:19.352Z</when>
<when >2025-08-28T07:40:33.182Z</when>
<when >2025-08-28T07:40:48.642Z</when>
<when >2025-08-28T07:40:54.752Z</when>
<when >2025-08-28T07:40:58.932Z</when>
<when >2025-08-28T07:41:03.342Z</when>
<when >2025-08-28T07:41:07.052Z</when>
<when >2025-08-28T07:41:11.562Z</when>
<when >2025-08-28T07:41:18.402Z</when>
<when >2025-08-28T07:41:27.662Z</when>
<when >2025-08-28T07:41:34.442Z</when>
<when >2025-08-28T07:41:36.312Z</when>
<when >2025-08-28T07:41:49.222Z</when>
<when >2025-08-28T07:42:01.712Z</when>
<when >2025-08-28T07:42:14.162Z</when>
<when >2025-08-28T07:42:25.662Z</when>
<when >2025-08-28T07:42:38.162Z</when>
<when >2025-08-28T07:42:50.812Z</when>
<when >2025-08-28T07:43:02.752Z</when>
<when >2025-08-28T07:43:11.422Z</when>
<when >2025-08-28T07:43:23.002Z</when>
<when >2025-08-28T07:43:39.262Z</when>
<when >2025-08-28T07:43:53.322Z</when>
<when >2025-08-28T07:44:09.082Z</when>
<when >2025-08-28T07:44:24.532Z</when>
<when >2025-08-28T07:44:40.992Z</when>
<when >2025-08-28T07:44:55.922Z</when>
<when >2025-08-28T07:45:10.682Z</when>
<when >2025-08-28T07:45:21.372Z</when>
<when >2025-08-28T07:45:27.142Z</when>
<when >2025-08-28T07:45:32.022Z</when>
<when >2025-08-28T07:45:36.302Z</when>
<when >2025-08-28T07:45:42.262Z</when>
<when >2025-08-28T07:45:48.692Z</when>
<when >2025-08-28T07:46:03.722Z</when>
<when >2025-08-28T07:46:18.602Z</when>
<when >2025-08-28T07:46:33.092Z</when>
<when >2025-08-28T07:46:47.592Z</when>
<when >2025-08-28T07:47:01.502Z</when>
<when >2025-08-28T07:47:14.722Z</when>
<when >2025-08-28T07:47:28.552Z</when>
<when >2025-08-28T07:47:42.092Z</when>
<when >2025-08-28T07:47:56.562Z</when>
<when >2025-08-28T07:48:10.022Z</when>
<when >2025-08-28T07:48:23.402Z</when>
<when >2025-08-28T07:48:37.332Z</when>
<when >2025-08-28T07:48:51.042Z</when>
<when >2025-08-28T07:49:05.592Z</when>
<when >2025-08-28T07:49:20.582Z</when>
<when >2025-08-28T07:49:36.322Z</when>
<when >2025-08-28T07:49:52.612Z</when>
<when >2025-08-28T07:50:09.392Z</when>
<when >2025-08-28T07:50:25.722Z</when>
<when >2025-08-28T07:50:42.122Z</when>
<when >2025-08-28T07:50:58.592Z</when>
<when >2025-08-28T07:51:14.782Z</when>
<when >2025-08-28T07:51:31.732Z</when>
<when >2025-08-28T07:51:48.832Z</when>
<when >2025-08-28T07:52:04.952Z</when>
<when >2025-08-28T07:52:20.882Z</when>
<when >2025-08-28T07:52:37.352Z</when>
<when >2025-08-28T07:52:53.552Z</when>
<when >2025-08-28T07:53:09.722Z</when>
<when >2025-08-28T07:53:27.832Z</when>
<when >2025-08-28T07:53:47.432Z</when>
<when >2025-08-28T07:54:07.042Z</when>
<when >2025-08-28T07:54:26.432Z</when>
<when >2025-08-28T07:54:46.152Z</when>
<when >2025-08-28T07:55:05.772Z</when>
<when >2025-08-28T07:55:25.602Z</when>
<when >2025-08-28T07:55:45.162Z</when>
<when >2025-08-28T07:56:05.062Z</when>
<when >2025-08-28T07:56:25.042Z</when>
<when >2025-08-28T07:56:44.712Z</when>
<when >2025-08-28T07:57:04.152Z</when>
<when >2025-08-28T07:57:23.792Z</when>
<when >2025-08-28T07:57:43.732Z</when>
<when >2025-08-28T07:58:03.562Z</when>
<when >2025-08-28T07:58:23.162Z</when>
<when >2025-08-28T07:58:43.112Z</when>
<when >2025-08-28T07:59:02.592Z</when>
<when >2025-08-28T07:59:22.322Z</when>
<when >2025-08-28T07:59:41.852Z</when>
<when >2025-08-28T08:00:01.662Z</when>
<when >2025-08-28T08:00:21.542Z</when>
<when >2025-08-28T08:00:33.732Z</when>
<when >2025-08-28T08:00:43.362Z</when>
<when >2025-08-28T08:00:52.622Z</when>
<when >2025-08-28T08:01:02.042Z</when>
<when >2025-08-28T08:01:12.252Z</when>
<when >2025-08-28T08:01:22.302Z</when>
<when >2025-08-28T08:01:32.442Z</when>
<when >2025-08-28T08:01:46.782Z</when>
<when >2025-08-28T08:02:06.432Z</when>
<when >2025-08-28T08:02:26.192Z</when>
<when >2025-08-28T08:02:46.012Z</when>
<when >2025-08-28T08:03:05.762Z</when>
<when >2025-08-28T08:03:25.452Z</when>
<when >2025-08-28T08:03:45.222Z</when>
<when >2025-08-28T08:04:05.072Z</when>
<when >2025-08-28T08:04:24.672Z</when>
<when >2025-08-28T08:04:44.652Z</when>
<when >2025-08-28T08:05:04.342Z</when>
<when >2025-08-28T08:05:23.842Z</when>
<when >2025-08-28T08:05:43.202Z</when>
<when >2025-08-28T08:06:03.002Z</when>
<when >2025-08-28T08:06:22.892Z</when>
<when >2025-08-28T08:06:42.742Z</when>
<when >2025-08-28T08:07:02.702Z</when>
<when >2025-08-28T08:07:22.582Z</when>
<when >2025-08-28T08:07:42.192Z</when>
<when >2025-08-28T08:08:02.032Z</when>
<when >2025-08-28T08:08:21.662Z</when>
<when >2025-08-28T08:08:41.472Z</when>
<when >2025-08-28T08:09:01.252Z</when>
<when >2025-08-28T08:09:21.172Z</when>
<when >2025-08-28T08:09:41.122Z</when>
<when >2025-08-28T08:10:01.052Z</when>
<when >2025-08-28T08:10:20.762Z</when>
<when >2025-08-28T08:10:40.352Z</when>
<when >2025-08-28T08:11:00.222Z</when>
<when >2025-08-28T08:11:19.942Z</when>
<when >2025-08-28T08:11:39.812Z</when>
<when >2025-08-28T08:11:59.552Z</when>
<when >2025-08-28T08:12:19.142Z</when>
<when >2025-08-28T08:12:38.762Z</when>
<when >2025-08-28T08:12:58.282Z</when>
<when >2025-08-28T08:13:18.162Z</when>
<when >2025-08-28T08:13:37.812Z</when>
<when >2025-08-28T08:13:57.372Z</when>
<when >2025-08-28T08:14:17.032Z</when>
<when >2025-08-28T08:14:36.572Z</when>
<when >2025-08-28T08:14:56.072Z</when>
<when >2025-08-28T08:15:15.842Z</when>
<when >2025-08-28T08:15:35.572Z</when>
<when >2025-08-28T08:15:55.232Z</when>
<when >2025-08-28T08:16:14.992Z</when>
<when >2025-08-28T08:16:34.862Z</when>
<when >2025-08-28T08:16:54.322Z</when>
<when >2025-08-28T08:17:14.292Z</when>
<when >2025-08-28T08:17:34.092Z</when>
<when >2025-08-28T08:17:53.992Z</when>
<when >2025-08-28T08:18:13.652Z</when>
<when >2025-08-28T08:18:33.582Z</when>
<when >2025-08-28T08:18:53.152Z</when>
<when >2025-08-28T08:19:12.852Z</when>
<when >2025-08-28T08:19:32.592Z</when>
<when >2025-08-28T08:19:52.212Z</when>
<when >2025-08-28T08:20:12.162Z</when>
<when >2025-08-28T08:20:31.682Z</when>
<when >2025-08-28T08:20:51.252Z</when>
<when >2025-08-28T08:21:11.232Z</when>
<when >2025-08-28T08:21:31.152Z</when>
<when >2025-08-28T08:21:50.792Z</when>
<when >2025-08-28T08:22:10.542Z</when>
<when >2025-08-28T08:22:30.292Z</when>
<when >2025-08-28T08:22:49.812Z</when>
<when >2025-08-28T08:23:09.482Z</when>
<when >2025-08-28T08:23:29.152Z</when>
<when >2025-08-28T08:23:48.622Z</when>
<when >2025-08-28T08:24:08.502Z</when>
<when >2025-08-28T08:24:28.332Z</when>
<when >2025-08-28T08:24:48.062Z</when>
<when >2025-08-28T08:25:07.742Z</when>
<when >2025-08-28T08:25:27.722Z</when>
<when >2025-08-28T08:25:47.292Z</when>
<when >2025-08-28T08:26:07.272Z</when>
<when >2025-08-28T08:26:27.252Z</when>
<when >2025-08-28T08:26:47.222Z</when>
<when >2025-08-28T08:27:07.062Z</when>
<when >2025-08-28T08:27:26.472Z</when>
<when >2025-08-28T08:27:46.382Z</when>
<when >2025-08-28T08:28:06.172Z</when>
<when >2025-08-28T08:28:25.842Z</when>
<when >2025-08-28T08:28:45.322Z</when>
<when >2025-08-28T08:29:04.902Z</when>
<when >2025-08-28T08:29:24.702Z</when>
<when >2025-08-28T08:29:44.572Z</when>
<when >2025-08-28T08:30:04.472Z</when>
<when >2025-08-28T08:30:24.252Z</when>
<when >2025-08-28T08:30:43.842Z</when>
<when >2025-08-28T08:31:03.282Z</when>
<when >2025-08-28T08:31:23.192Z</when>
<when >2025-08-28T08:31:42.762Z</when>
<when >2025-08-28T08:32:02.472Z</when>
<when >2025-08-28T08:32:22.312Z</when>
<when >2025-08-28T08:32:42.172Z</when>
<when >2025-08-28T08:33:01.912Z</when>
<when >2025-08-28T08:33:21.812Z</when>
<when >2025-08-28T08:33:41.752Z</when>
<when >2025-08-28T08:34:01.542Z</when>
<when >2025-08-28T08:34:21.072Z</when>
<when >2025-08-28T08:34:40.812Z</when>
<when >2025-08-28T08:35:00.262Z</when>
<when >2025-08-28T08:35:19.752Z</when>
<when >2025-08-28T08:35:39.592Z</when>
<when >2025-08-28T08:35:59.442Z</when>
<when >2025-08-28T08:36:19.282Z</when>
<when >2025-08-28T08:36:38.942Z</when>
<when >2025-08-28T08:36:58.672Z</when>
<when >2025-08-28T08:37:10.322Z</when>
<when >2025-08-28T08:37:28.102Z</when>
<when >2025-08-28T08:37:46.442Z</when>
<when >2025-08-28T08:38:05.692Z</when>
<when >2025-08-28T08:38:23.842Z</when>
<when >2025-08-28T08:38:33.342Z</when>
<when >2025-08-28T08:38:53.022Z</when>
<when >2025-08-28T08:39:12.792Z</when>
<when >2025-08-28T08:39:32.762Z</when>
<when >2025-08-28T08:39:52.732Z</when>
<when >2025-08-28T08:40:12.222Z</when>
<when >2025-08-28T08:40:31.842Z</when>
<when >2025-08-28T08:40:51.812Z</when>
<when >2025-08-28T08:41:11.722Z</when>
<when >2025-08-28T08:41:31.302Z</when>
<when >2025-08-28T08:41:50.942Z</when>
<when >2025-08-28T08:42:01.612Z</when>
<when >2025-08-28T08:42:07.762Z</when>
<when >2025-08-28T08:42:15.132Z</when>
<when >2025-08-28T08:42:34.922Z</when>
<when >2025-08-28T08:42:54.732Z</when>
<when >2025-08-28T08:43:14.222Z</when>
<when >2025-08-28T08:43:34.022Z</when>
<when >2025-08-28T08:43:53.572Z</when>
<when >2025-08-28T08:44:13.542Z</when>
<when >2025-08-28T08:44:32.992Z</when>
<when >2025-08-28T08:44:52.642Z</when>
<when >2025-08-28T08:45:12.622Z</when>
<when >2025-08-28T08:45:32.282Z</when>
<when >2025-08-28T08:45:52.172Z</when>
<when >2025-08-28T08:46:11.902Z</when>
<when >2025-08-28T08:46:31.882Z</when>
<when >2025-08-28T08:46:51.392Z</when>
<when >2025-08-28T08:47:11.352Z</when>
<when >2025-08-28T08:47:31.272Z</when>
<when >2025-08-28T08:47:50.902Z</when>
<when >2025-08-28T08:48:10.702Z</when>
<when >2025-08-28T08:48:30.532Z</when>
<when >2025-08-28T08:48:50.282Z</when>
<when >2025-08-28T08:49:09.922Z</when>
<when >2025-08-28T08:49:29.382Z</when>
<when >2025-08-28T08:49:49.302Z</when>
<when >2025-08-28T08:50:09.062Z</when>
<when >2025-08-28T08:50:28.702Z</when>
<when >2025-08-28T08:50:48.502Z</when>
<when >2025-08-28T08:51:08.462Z</when>
<when >2025-08-28T08:51:27.992Z</when>
<when >2025-08-28T08:51:47.492Z</when>
<when >2025-08-28T08:52:07.392Z</when>
<when >2025-08-28T08:52:27.022Z</when>
<when >2025-08-28T08:52:47.012Z</when>
<when >2025-08-28T08:53:06.802Z</when>
<when >2025-08-28T08:53:26.752Z</when>
<when >2025-08-28T08:53:46.472Z</when>
<when >2025-08-28T08:54:06.092Z</when>
<when >2025-08-28T08:54:25.582Z</when>
<when >2025-08-28T08:54:45.382Z</when>
<when >2025-08-28T08:55:05.082Z</when>
<when >2025-08-28T08:55:24.732Z</when>
<when >2025-08-28T08:55:44.312Z</when>
<when >2025-08-28T08:56:04.122Z</when>
<when >2025-08-28T08:56:23.832Z</when>
<when >2025-08-28T08:56:43.682Z</when>
<when >2025-08-28T08:57:03.342Z</when>
<when >2025-08-28T08:57:22.782Z</when>
<when >2025-08-28T08:57:42.362Z</when>
<when >2025-08-28T08:58:02.132Z</when>
<when >2025-08-28T08:58:21.642Z</when>
<when >2025-08-28T08:58:41.642Z</when>
<when >2025-08-28T08:59:01.612Z</when>
<when >2025-08-28T08:59:21.512Z</when>
<when >2025-08-28T08:59:41.072Z</when>
<when >2025-08-28T09:00:00.682Z</when>
<when >2025-08-28T09:00:20.682Z</when>
<when >2025-08-28T09:00:36.442Z</when>
<when >2025-08-28T09:00:41.492Z</when>
<when >2025-08-28T09:00:46.422Z</when>
<when >2025-08-28T09:00:51.392Z</when>
<when >2025-08-28T09:00:56.392Z</when>
<when >2025-08-28T09:01:01.812Z</when>
<when >2025-08-28T09:01:21.442Z</when>
<when >2025-08-28T09:01:37.702Z</when>
<when >2025-08-28T09:01:57.502Z</when>
<when >2025-08-28T09:02:17.102Z</when>
<when >2025-08-28T09:02:36.672Z</when>
<when >2025-08-28T09:02:56.492Z</when>
<when >2025-08-28T09:03:16.372Z</when>
<when >2025-08-28T09:03:36.202Z</when>
<when >2025-08-28T09:03:55.872Z</when>
<when >2025-08-28T09:04:15.622Z</when>
<when >2025-08-28T09:04:35.432Z</when>
<when >2025-08-28T09:04:55.232Z</when>
<when >2025-08-28T09:05:14.992Z</when>
<when >2025-08-28T09:05:34.982Z</when>
<when >2025-08-28T09:05:54.532Z</when>
<when >2025-08-28T09:06:14.022Z</when>
<when >2025-08-28T09:06:33.532Z</when>
<when >2025-08-28T09:06:53.282Z</when>
<when >2025-08-28T09:07:13.282Z</when>
<when >2025-08-28T09:07:24.362Z</when>
<when >2025-08-28T09:07:29.432Z</when>
<when >2025-08-28T09:07:34.042Z</when>
<when >2025-08-28T09:07:39.282Z</when>
<when >2025-08-28T09:07:43.372Z</when>
<when >2025-08-28T09:07:48.672Z</when>
<when >2025-08-28T09:07:53.792Z</when>
<when >2025-08-28T09:07:58.982Z</when>
<when >2025-08-28T09:08:05.582Z</when>
<when >2025-08-28T09:08:12.132Z</when>
<when >2025-08-28T09:08:18.792Z</when>
<when >2025-08-28T09:08:26.152Z</when>
<when >2025-08-28T09:08:32.712Z</when>
<when >2025-08-28T09:08:39.082Z</when>
<when >2025-08-28T09:08:44.892Z</when>
<when >2025-08-28T09:08:50.762Z</when>
<when >2025-08-28T09:08:56.642Z</when>
<when >2025-08-28T09:09:00.662Z</when>
<when >2025-08-28T09:09:05.812Z</when>
<when >2025-08-28T09:09:11.322Z</when>
<when >2025-08-28T09:09:17.932Z</when>
<when >2025-08-28T09:09:25.112Z</when>
<when >2025-08-28T09:09:32.572Z</when>
<when >2025-08-28T09:09:41.772Z</when>
<when >2025-08-28T09:09:51.772Z</when>
<when >2025-08-28T09:10:01.502Z</when>
<when >2025-08-28T09:10:10.702Z</when>
<when >2025-08-28T09:10:19.082Z</when>
<when >2025-08-28T09:10:28.162Z</when>
<when >2025-08-28T09:10:38.172Z</when>
<when >2025-08-28T09:10:47.962Z</when>
<when >2025-08-28T09:10:56.812Z</when>
<when >2025-08-28T09:11:05.862Z</when>
<when >2025-08-28T09:11:15.592Z</when>
<when >2025-08-28T09:11:25.032Z</when>
<when >2025-08-28T09:11:34.392Z</when>
<when >2025-08-28T09:11:44.112Z</when>
<when >2025-08-28T09:11:53.382Z</when>
<when >2025-08-28T09:12:02.212Z</when>
<when >2025-08-28T09:12:08.552Z</when>
<when >2025-08-28T09:12:13.842Z</when>
<when >2025-08-28T09:12:18.502Z</when>
<when >2025-08-28T09:12:23.922Z</when>
<when >2025-08-28T09:12:28.422Z</when>
<when >2025-08-28T09:12:33.522Z</when>
<when >2025-08-28T09:12:38.252Z</when>
<when >2025-08-28T09:12:46.142Z</when>
<when >2025-08-28T09:12:57.242Z</when>
<when >2025-08-28T09:13:08.312Z</when>
<when >2025-08-28T09:13:19.102Z</when>
<when >2025-08-28T09:13:30.022Z</when>
<when >2025-08-28T09:13:40.362Z</when>
<when >2025-08-28T09:13:47.212Z</when>
<when >2025-08-28T09:13:48.862Z</when>
<when >2025-08-28T09:13:50.402Z</when>
<when >2025-08-28T09:13:56.032Z</when>
<when >2025-08-28T09:13:58.192Z</when>
<when >2025-08-28T09:13:59.612Z</when>
<when >2025-08-28T09:14:07.522Z</when>
<when >2025-08-28T09:14:14.972Z</when>
<when >2025-08-28T09:14:22.362Z</when>
<when >2025-08-28T09:14:29.842Z</when>
<when >2025-08-28T09:14:33.062Z</when>
<when >2025-08-28T09:14:35.192Z</when>
<when >2025-08-28T09:14:41.322Z</when>
<when >2025-08-28T09:14:47.092Z</when>
<when >2025-08-28T09:14:58.722Z</when>
<when >2025-08-28T09:15:09.802Z</when>
<when >2025-08-28T09:15:12.912Z</when>
<when >2025-08-28T09:15:15.002Z</when>
<when >2025-08-28T09:15:16.762Z</when>
<when >2025-08-28T09:15:18.612Z</when>
<when >2025-08-28T09:15:21.102Z</when>
<when >2025-08-28T09:15:23.002Z</when>
<when >2025-08-28T09:15:29.612Z</when>
<when >2025-08-28T09:15:32.672Z</when>
<when >2025-08-28T09:15:41.112Z</when>
<when >2025-08-28T09:15:50.332Z</when>
<when >2025-08-28T09:15:54.312Z</when>
<when >2025-08-28T09:16:00.872Z</when>
<when >2025-08-28T09:16:03.952Z</when>
<when >2025-08-28T09:16:07.242Z</when>
<when >2025-08-28T09:16:11.072Z</when>
<when >2025-08-28T09:16:15.662Z</when>
<when >2025-08-28T09:16:20.112Z</when>
<when >2025-08-28T09:16:24.182Z</when>
<when >2025-08-28T09:16:26.662Z</when>
<when >2025-08-28T09:16:28.832Z</when>
<when >2025-08-28T09:16:30.372Z</when>
<when >2025-08-28T09:16:37.572Z</when>
<when >2025-08-28T09:16:45.972Z</when>
<when >2025-08-28T09:16:54.612Z</when>
<when >2025-08-28T09:17:00.972Z</when>
<when >2025-08-28T09:17:07.782Z</when>
<when >2025-08-28T09:17:13.452Z</when>
<when >2025-08-28T09:17:19.772Z</when>
<when >2025-08-28T09:17:26.222Z</when>
<when >2025-08-28T09:17:32.982Z</when>
<when >2025-08-28T09:17:38.952Z</when>
<when >2025-08-28T09:17:47.272Z</when>
<when >2025-08-28T09:17:56.032Z</when>
<when >2025-08-28T09:18:04.432Z</when>
<when >2025-08-28T09:18:13.222Z</when>
<when >2025-08-28T09:18:21.722Z</when>
<when >2025-08-28T09:18:30.352Z</when>
<when >2025-08-28T09:18:39.982Z</when>
<when >2025-08-28T09:18:50.452Z</when>
<when >2025-08-28T09:19:03.002Z</when>
<when >2025-08-28T09:19:13.782Z</when>
<when >2025-08-28T09:19:23.672Z</when>
<when >2025-08-28T09:19:32.802Z</when>
<when >2025-08-28T09:19:43.122Z</when>
<when >2025-08-28T09:19:49.942Z</when>
<when >2025-08-28T09:19:56.642Z</when>
<when >2025-08-28T09:20:03.132Z</when>
<when >2025-08-28T09:20:10.742Z</when>
<when >2025-08-28T09:20:17.062Z</when>
<when >2025-08-28T09:20:24.412Z</when>
<when >2025-08-28T09:20:32.052Z</when>
<when >2025-08-28T09:20:37.992Z</when>
<when >2025-08-28T09:20:43.142Z</when>
<when >2025-08-28T09:20:47.782Z</when>
<when >2025-08-28T09:20:52.752Z</when>
<when >2025-08-28T09:20:57.212Z</when>
<when >2025-08-28T09:21:01.962Z</when>
<when >2025-08-28T09:21:07.212Z</when>
<when >2025-08-28T09:21:11.932Z</when>
<when >2025-08-28T09:21:16.272Z</when>
<when >2025-08-28T09:21:19.742Z</when>
<when >2025-08-28T09:21:22.342Z</when>
<when >2025-08-28T09:21:25.432Z</when>
<when >2025-08-28T09:21:27.692Z</when>
<when >2025-08-28T09:21:30.252Z</when>
<when >2025-08-28T09:21:32.792Z</when>
<when >2025-08-28T09:21:35.422Z</when>
<when >2025-08-28T09:21:38.022Z</when>
<when >2025-08-28T09:21:40.432Z</when>
<when >2025-08-28T09:21:43.412Z</when>
<when >2025-08-28T09:21:46.232Z</when>
<when >2025-08-28T09:21:48.902Z</when>
<when >2025-08-28T09:21:51.402Z</when>
<when >2025-08-28T09:21:54.422Z</when>
<when >2025-08-28T09:21:56.882Z</when>
<when >2025-08-28T09:21:59.542Z</when>
<when >2025-08-28T09:22:02.202Z</when>
<when >2025-08-28T09:22:04.252Z</when>
<when >2025-08-28T09:22:05.772Z</when>
<when >2025-08-28T09:22:10.602Z</when>
<when >2025-08-28T09:22:15.712Z</when>
<when >2025-08-28T09:22:22.302Z</when>
<when >2025-08-28T09:22:28.872Z</when>
<when >2025-08-28T09:22:36.832Z</when>
<when >2025-08-28T09:22:45.302Z</when>
<when >2025-08-28T09:22:50.392Z</when>
<when >2025-08-28T09:22:54.692Z</when>
<when >2025-08-28T09:22:58.282Z</when>
<when >2025-08-28T09:23:01.432Z</when>
<when >2025-08-28T09:23:05.742Z</when>
<when >2025-08-28T09:23:09.172Z</when>
<when >2025-08-28T09:23:13.712Z</when>
<when >2025-08-28T09:23:16.162Z</when>
<when >2025-08-28T09:23:19.292Z</when>
<when >2025-08-28T09:23:21.572Z</when>
<when >2025-08-28T09:23:23.532Z</when>
<when >2025-08-28T09:23:25.732Z</when>
<when >2025-08-28T09:23:28.022Z</when>
<when >2025-08-28T09:23:30.232Z</when>
<when >2025-08-28T09:23:32.202Z</when>
<when >2025-08-28T09:23:34.212Z</when>
<when >2025-08-28T09:23:38.202Z</when>
<when >2025-08-28T09:23:39.072Z</when>
<when >2025-08-28T09:23:41.592Z</when>
<when >2025-08-28T09:23:43.172Z</when>
<when >2025-08-28T09:23:47.402Z</when>
<when >2025-08-28T09:23:51.352Z</when>
<when >2025-08-28T09:23:55.762Z</when>
<when >2025-08-28T09:24:00.402Z</when>
<when >2025-08-28T09:24:05.912Z</when>
<when >2025-08-28T09:24:12.272Z</when>
<when >2025-08-28T09:24:18.092Z</when>
<when >2025-08-28T09:24:24.142Z</when>
<when >2025-08-28T09:24:30.972Z</when>
<when >2025-08-28T09:24:37.792Z</when>
<when >2025-08-28T09:24:44.332Z</when>
<when >2025-08-28T09:24:51.052Z</when>
<when >2025-08-28T09:24:58.822Z</when>
<when >2025-08-28T09:25:04.582Z</when>
<when >2025-08-28T09:25:11.212Z</when>
<when >2025-08-28T09:25:19.302Z</when>
<when >2025-08-28T09:25:25.202Z</when>
<when >2025-08-28T09:25:30.952Z</when>
<when >2025-08-28T09:25:36.592Z</when>
<when >2025-08-28T09:25:44.702Z</when>
<when >2025-08-28T09:25:53.392Z</when>
<when >2025-08-28T09:26:02.112Z</when>
<when >2025-08-28T09:26:10.822Z</when>
<when >2025-08-28T09:26:18.812Z</when>
<when >2025-08-28T09:26:27.192Z</when>
<when >2025-08-28T09:26:34.102Z</when>
<when >2025-08-28T09:26:42.702Z</when>
<when >2025-08-28T09:26:51.482Z</when>
<when >2025-08-28T09:26:57.862Z</when>
<when >2025-08-28T09:27:06.242Z</when>
<when >2025-08-28T09:27:13.542Z</when>
<when >2025-08-28T09:27:20.782Z</when>
<when >2025-08-28T09:27:22.302Z</when>
<when >2025-08-28T09:27:25.622Z</when>
<when >2025-08-28T09:27:25.622Z</when>
<gx:coord >9.549316 40.915512 432</gx:coord>
<gx:coord >9.549316 40.915512 432</gx:coord>
<gx:coord >9.563162 40.923002 570</gx:coord>
<gx:coord >9.569031 40.926086 622</gx:coord>
<gx:coord >9.571776 40.927564 645</gx:coord>
<gx:coord >9.576645 40.930124 676</gx:coord>
<gx:coord >9.584778 40.934464 744</gx:coord>
<gx:coord >9.590393 40.937439 775</gx:coord>
<gx:coord >9.602238 40.943624 844</gx:coord>
<gx:coord >9.60675 40.946045 876</gx:coord>
<gx:coord >9.613287 40.94949 913</gx:coord>
<gx:coord >9.61697 40.951445 924</gx:coord>
<gx:coord >9.624648 40.955448 950</gx:coord>
<gx:coord >9.632324 40.959503 1005</gx:coord>
<gx:coord >9.637819 40.962385 1044</gx:coord>
<gx:coord >9.641052 40.964127 1077</gx:coord>
<gx:coord >9.645934 40.966761 1125</gx:coord>
<gx:coord >9.648499 40.968109 1156</gx:coord>
<gx:coord >9.657607 40.973092 1278</gx:coord>
<gx:coord >9.660228 40.974488 1309</gx:coord>
<gx:coord >9.662975 40.976025 1341</gx:coord>
<gx:coord >9.668468 40.97905 1404</gx:coord>
<gx:coord >9.672151 40.981099 1446</gx:coord>
<gx:coord >9.673462 40.981844 1455</gx:coord>
<gx:coord >9.678711 40.98468 1496</gx:coord>
<gx:coord >9.679932 40.985367 1504</gx:coord>
<gx:coord >9.684011 40.98757 1528</gx:coord>
<gx:coord >9.693848 40.992828 1593</gx:coord>
<gx:coord >9.696808 40.994366 1610</gx:coord>
<gx:coord >9.709667 41.00093 1697</gx:coord>
<gx:coord >9.721465 41.006656 1766</gx:coord>
<gx:coord >9.735657 41.013336 1865</gx:coord>
<gx:coord >9.747932 41.019039 1994</gx:coord>
<gx:coord >9.81134 41.048355 2598</gx:coord>
<gx:coord >9.81591 41.050462 2629</gx:coord>
<gx:coord >9.825023 41.054791 2695</gx:coord>
<gx:coord >9.830017 41.057165 2726</gx:coord>
<gx:coord >9.837585 41.060715 2773</gx:coord>
<gx:coord >9.847046 41.065247 2840</gx:coord>
<gx:coord >9.856359 41.06992 2903</gx:coord>
<gx:coord >9.861145 41.072571 2934</gx:coord>
<gx:coord >9.867346 41.076345 2992</gx:coord>
<gx:coord >9.874939 41.081543 3054</gx:coord>
<gx:coord >9.882265 41.086865 3101</gx:coord>
<gx:coord >9.890629 41.093103 3169</gx:coord>
<gx:coord >9.897644 41.098251 3228</gx:coord>
<gx:coord >9.90564 41.104111 3291</gx:coord>
<gx:coord >9.913164 41.109583 3353</gx:coord>
<gx:coord >9.920044 41.114594 3416</gx:coord>
<gx:coord >9.926023 41.118986 3474</gx:coord>
<gx:coord >9.933228 41.124252 3550</gx:coord>
<gx:coord >9.94043 41.129471 3611</gx:coord>
<gx:coord >9.95199 41.137794 3717</gx:coord>
<gx:coord >9.959473 41.143158 3778</gx:coord>
<gx:coord >9.975403 41.154556 3915</gx:coord>
<gx:coord >9.989746 41.16481 4030</gx:coord>
<gx:coord >10.003906 41.175064 4159</gx:coord>
<gx:coord >10.018799 41.185822 4289</gx:coord>
<gx:coord >10.035199 41.197613 4403</gx:coord>
<gx:coord >10.046747 41.205853 4487</gx:coord>
<gx:coord >10.068542 41.221344 4594</gx:coord>
<gx:coord >10.08783 41.235031 4677</gx:coord>
<gx:coord >10.104248 41.24675 4731</gx:coord>
<gx:coord >10.122341 41.259667 4799</gx:coord>
<gx:coord >10.140069 41.27233 4868</gx:coord>
<gx:coord >10.161438 41.287674 4976</gx:coord>
<gx:coord >10.166931 41.291611 5014</gx:coord>
<gx:coord >10.169844 41.293744 5038</gx:coord>
<gx:coord >10.17515 41.297514 5090</gx:coord>
<gx:coord >10.186948 41.305987 5224</gx:coord>
<gx:coord >10.197685 41.313761 5335</gx:coord>
<gx:coord >10.208546 41.321535 5470</gx:coord>
<gx:coord >10.217035 41.327634 5564</gx:coord>
<gx:coord >10.222046 41.331207 5612</gx:coord>
<gx:coord >10.226746 41.334595 5660</gx:coord>
<gx:coord >10.231201 41.337799 5691</gx:coord>
<gx:coord >10.233093 41.339127 5706</gx:coord>
<gx:coord >10.253723 41.353867 5813</gx:coord>
<gx:coord >10.272522 41.367279 5927</gx:coord>
<gx:coord >10.287573 41.377957 6012</gx:coord>
<gx:coord >10.291199 41.380508 6027</gx:coord>
<gx:coord >10.301056 41.387512 6063</gx:coord>
<gx:coord >10.320594 41.401428 6110</gx:coord>
<gx:coord >10.34575 41.419281 6171</gx:coord>
<gx:coord >10.374351 41.439545 6262</gx:coord>
<gx:coord >10.385721 41.448157 6292</gx:coord>
<gx:coord >10.392505 41.454163 6314</gx:coord>
<gx:coord >10.399246 41.461166 6349</gx:coord>
<gx:coord >10.404302 41.467346 6387</gx:coord>
<gx:coord >10.409929 41.475158 6436</gx:coord>
<gx:coord >10.41753 41.486842 6521</gx:coord>
<gx:coord >10.427175 41.502391 6651</gx:coord>
<gx:coord >10.434889 41.514679 6739</gx:coord>
<gx:coord >10.437074 41.518112 6753</gx:coord>
<gx:coord >10.451192 41.540377 6864</gx:coord>
<gx:coord >10.465052 41.562117 6963</gx:coord>
<gx:coord >10.47846 41.583481 7078</gx:coord>
<gx:coord >10.491007 41.604034 7184</gx:coord>
<gx:coord >10.504365 41.62674 7291</gx:coord>
<gx:coord >10.517537 41.649399 7390</gx:coord>
<gx:coord >10.529959 41.67041 7512</gx:coord>
<gx:coord >10.539572 41.68634 7588</gx:coord>
<gx:coord >10.552113 41.706755 7672</gx:coord>
<gx:coord >10.570159 41.73587 7756</gx:coord>
<gx:coord >10.585966 41.761128 7855</gx:coord>
<gx:coord >10.603851 41.789525 7939</gx:coord>
<gx:coord >10.621907 41.817993 8030</gx:coord>
<gx:coord >10.641345 41.848367 8114</gx:coord>
<gx:coord >10.659165 41.875693 8213</gx:coord>
<gx:coord >10.677242 41.902926 8305</gx:coord>
<gx:coord >10.690783 41.922897 8381</gx:coord>
<gx:coord >10.698936 41.933212 8420</gx:coord>
<gx:coord >10.706739 41.941635 8443</gx:coord>
<gx:coord >10.714479 41.948914 8455</gx:coord>
<gx:coord >10.725528 41.957932 8478</gx:coord>
<gx:coord >10.738886 41.967819 8517</gx:coord>
<gx:coord >10.769411 41.990158 8601</gx:coord>
<gx:coord >10.800199 42.013115 8692</gx:coord>
<gx:coord >10.829461 42.035294 8784</gx:coord>
<gx:coord >10.858836 42.057619 8883</gx:coord>
<gx:coord >10.88726 42.079266 8974</gx:coord>
<gx:coord >10.914106 42.099655 9081</gx:coord>
<gx:coord >10.942071 42.120941 9180</gx:coord>
<gx:coord >10.969973 42.14209 9271</gx:coord>
<gx:coord >10.999187 42.1642 9378</gx:coord>
<gx:coord >11.027207 42.185359 9477</gx:coord>
<gx:coord >11.054737 42.206074 9568</gx:coord>
<gx:coord >11.083097 42.227442 9668</gx:coord>
<gx:coord >11.11161 42.24884 9767</gx:coord>
<gx:coord >11.141385 42.271179 9858</gx:coord>
<gx:coord >11.172329 42.294337 9942</gx:coord>
<gx:coord >11.204994 42.318741 10033</gx:coord>
<gx:coord >11.238951 42.344055 10117</gx:coord>
<gx:coord >11.273633 42.370078 10201</gx:coord>
<gx:coord >11.307741 42.395599 10276</gx:coord>
<gx:coord >11.342809 42.421751 10352</gx:coord>
<gx:coord >11.377466 42.44751 10444</gx:coord>
<gx:coord >11.411986 42.473145 10512</gx:coord>
<gx:coord >11.448393 42.500191 10596</gx:coord>
<gx:coord >11.484583 42.527069 10680</gx:coord>
<gx:coord >11.519602 42.552979 10764</gx:coord>
<gx:coord >11.553912 42.578213 10848</gx:coord>
<gx:coord >11.589453 42.60434 10939</gx:coord>
<gx:coord >11.624238 42.630072 11023</gx:coord>
<gx:coord >11.659049 42.655816 11099</gx:coord>
<gx:coord >11.698067 42.684677 11175</gx:coord>
<gx:coord >11.740452 42.715897 11236</gx:coord>
<gx:coord >11.783029 42.747151 11290</gx:coord>
<gx:coord >11.825846 42.778519 11343</gx:coord>
<gx:coord >11.869131 42.810104 11404</gx:coord>
<gx:coord >11.912973 42.842024 11450</gx:coord>
<gx:coord >11.956983 42.874239 11495</gx:coord>
<gx:coord >12.001321 42.906406 11503</gx:coord>
<gx:coord >12.046182 42.938993 11503</gx:coord>
<gx:coord >12.091859 42.972244 11504</gx:coord>
<gx:coord >12.136819 43.004957 11504</gx:coord>
<gx:coord >12.180961 43.037078 11504</gx:coord>
<gx:coord >12.225739 43.069473 11504</gx:coord>
<gx:coord >12.270962 43.102066 11504</gx:coord>
<gx:coord >12.316262 43.134791 11504</gx:coord>
<gx:coord >12.361058 43.167052 11490</gx:coord>
<gx:coord >12.406439 43.199707 11490</gx:coord>
<gx:coord >12.450714 43.23148 11490</gx:coord>
<gx:coord >12.496033 43.263974 11490</gx:coord>
<gx:coord >12.540894 43.295955 11491</gx:coord>
<gx:coord >12.586627 43.32843 11498</gx:coord>
<gx:coord >12.632185 43.360849 11506</gx:coord>
<gx:coord >12.659955 43.381073 11507</gx:coord>
<gx:coord >12.680642 43.39716 11507</gx:coord>
<gx:coord >12.700579 43.413849 11507</gx:coord>
<gx:coord >12.719552 43.430771 11515</gx:coord>
<gx:coord >12.739301 43.449671 11507</gx:coord>
<gx:coord >12.757874 43.468804 11507</gx:coord>
<gx:coord >12.77553 43.488356 11508</gx:coord>
<gx:coord >12.799334 43.516566 11516</gx:coord>
<gx:coord >12.831966 43.554879 11531</gx:coord>
<gx:coord >12.86499 43.593155 11524</gx:coord>
<gx:coord >12.898396 43.631607 11524</gx:coord>
<gx:coord >12.931039 43.669444 11517</gx:coord>
<gx:coord >12.96342 43.707092 11502</gx:coord>
<gx:coord >12.99606 43.745132 11487</gx:coord>
<gx:coord >13.02887 43.783264 11479</gx:coord>
<gx:coord >13.061371 43.820785 11479</gx:coord>
<gx:coord >13.094553 43.858932 11480</gx:coord>
<gx:coord >13.12742 43.896619 11496</gx:coord>
<gx:coord >13.159577 43.93364 11488</gx:coord>
<gx:coord >13.193207 43.972266 11488</gx:coord>
<gx:coord >13.226581 44.010727 11488</gx:coord>
<gx:coord >13.260236 44.049729 11488</gx:coord>
<gx:coord >13.293653 44.088554 11488</gx:coord>
<gx:coord >13.327332 44.127658 11488</gx:coord>
<gx:coord >13.360397 44.166 11488</gx:coord>
<gx:coord >13.393406 44.204143 11480</gx:coord>
<gx:coord >13.426834 44.242455 11480</gx:coord>
<gx:coord >13.459659 44.280163 11479</gx:coord>
<gx:coord >13.492819 44.318196 11472</gx:coord>
<gx:coord >13.525979 44.356136 11472</gx:coord>
<gx:coord >13.559614 44.394562 11472</gx:coord>
<gx:coord >13.593303 44.432947 11479</gx:coord>
<gx:coord >13.62684 44.471191 11479</gx:coord>
<gx:coord >13.66006 44.50914 11478</gx:coord>
<gx:coord >13.693019 44.546677 11478</gx:coord>
<gx:coord >13.726546 44.584707 11478</gx:coord>
<gx:coord >13.760049 44.622574 11478</gx:coord>
<gx:coord >13.793871 44.660867 11478</gx:coord>
<gx:coord >13.827299 44.698667 11486</gx:coord>
<gx:coord >13.860626 44.736237 11493</gx:coord>
<gx:coord >13.894088 44.773896 11493</gx:coord>
<gx:coord >13.927382 44.811417 11485</gx:coord>
<gx:coord >13.961203 44.849442 11477</gx:coord>
<gx:coord >13.994639 44.886785 11477</gx:coord>
<gx:coord >14.028335 44.924492 11477</gx:coord>
<gx:coord >14.062165 44.9622 11477</gx:coord>
<gx:coord >14.095526 44.999348 11476</gx:coord>
<gx:coord >14.12882 45.036637 11476</gx:coord>
<gx:coord >14.162881 45.07457 11476</gx:coord>
<gx:coord >14.196815 45.112331 11484</gx:coord>
<gx:coord >14.230499 45.149826 11476</gx:coord>
<gx:coord >14.264742 45.187652 11476</gx:coord>
<gx:coord >14.299175 45.225499 11469</gx:coord>
<gx:coord >14.332777 45.262665 11469</gx:coord>
<gx:coord >14.367174 45.300476 11475</gx:coord>
<gx:coord >14.401637 45.338058 11483</gx:coord>
<gx:coord >14.436102 45.375304 11475</gx:coord>
<gx:coord >14.470803 45.412499 11468</gx:coord>
<gx:coord >14.505705 45.449741 11468</gx:coord>
<gx:coord >14.540013 45.486603 11460</gx:coord>
<gx:coord >14.574476 45.523636 11460</gx:coord>
<gx:coord >14.608936 45.560623 11475</gx:coord>
<gx:coord >14.643196 45.597265 11474</gx:coord>
<gx:coord >14.678009 45.634554 11459</gx:coord>
<gx:coord >14.712273 45.671097 11467</gx:coord>
<gx:coord >14.746536 45.707501 11474</gx:coord>
<gx:coord >14.781435 45.744507 11474</gx:coord>
<gx:coord >14.816025 45.781379 11474</gx:coord>
<gx:coord >14.8503 45.817749 11467</gx:coord>
<gx:coord >14.884666 45.854141 11467</gx:coord>
<gx:coord >14.919166 45.890442 11459</gx:coord>
<gx:coord >14.953263 45.926376 11459</gx:coord>
<gx:coord >14.987428 45.96254 11459</gx:coord>
<gx:coord >15.021812 45.998639 11452</gx:coord>
<gx:coord >15.055458 46.034205 11444</gx:coord>
<gx:coord >15.090271 46.070795 11444</gx:coord>
<gx:coord >15.125153 46.107245 11444</gx:coord>
<gx:coord >15.159485 46.142857 11459</gx:coord>
<gx:coord >15.194298 46.179215 11459</gx:coord>
<gx:coord >15.229591 46.215851 11444</gx:coord>
<gx:coord >15.264404 46.25179 11459</gx:coord>
<gx:coord >15.299835 46.288519 11459</gx:coord>
<gx:coord >15.33506 46.325156 11452</gx:coord>
<gx:coord >15.370422 46.3617 11452</gx:coord>
<gx:coord >15.405981 46.398605 11444</gx:coord>
<gx:coord >15.440872 46.434368 11467</gx:coord>
<gx:coord >15.476454 46.470932 11467</gx:coord>
<gx:coord >15.511757 46.507278 11452</gx:coord>
<gx:coord >15.547165 46.543533 11459</gx:coord>
<gx:coord >15.582321 46.579517 11452</gx:coord>
<gx:coord >15.617546 46.615549 11444</gx:coord>
<gx:coord >15.653114 46.652092 11444</gx:coord>
<gx:coord >15.688945 46.688507 11444</gx:coord>
<gx:coord >15.725075 46.725319 11444</gx:coord>
<gx:coord >15.76096 46.761932 11452</gx:coord>
<gx:coord >15.796623 46.798034 11452</gx:coord>
<gx:coord >15.831969 46.833893 11459</gx:coord>
<gx:coord >15.868272 46.870655 11452</gx:coord>
<gx:coord >15.904048 46.906826 11444</gx:coord>
<gx:coord >15.940132 46.943069 11444</gx:coord>
<gx:coord >15.976112 46.979141 11452</gx:coord>
<gx:coord >16.012573 47.015762 11444</gx:coord>
<gx:coord >16.048553 47.05188 11452</gx:coord>
<gx:coord >16.085111 47.08838 11453</gx:coord>
<gx:coord >16.121544 47.12471 11445</gx:coord>
<gx:coord >16.157649 47.160815 11453</gx:coord>
<gx:coord >16.193003 47.196102 11445</gx:coord>
<gx:coord >16.229201 47.23204 11437</gx:coord>
<gx:coord >16.264641 47.267212 11445</gx:coord>
<gx:coord >16.30026 47.302567 11445</gx:coord>
<gx:coord >16.336247 47.338319 11437</gx:coord>
<gx:coord >16.372516 47.374071 11430</gx:coord>
<gx:coord >16.408856 47.40987 11430</gx:coord>
<gx:coord >16.444561 47.44483 11445</gx:coord>
<gx:coord >16.480247 47.47998 11437</gx:coord>
<gx:coord >16.500984 47.500443 11430</gx:coord>
<gx:coord >16.532945 47.531883 11361</gx:coord>
<gx:coord >16.565598 47.563843 11293</gx:coord>
<gx:coord >16.600479 47.597763 11225</gx:coord>
<gx:coord >16.633232 47.629486 11156</gx:coord>
<gx:coord >16.650192 47.646011 11134</gx:coord>
<gx:coord >16.68619 47.680943 11126</gx:coord>
<gx:coord >16.72229 47.716003 11126</gx:coord>
<gx:coord >16.758798 47.75133 11126</gx:coord>
<gx:coord >16.795349 47.786774 11126</gx:coord>
<gx:coord >16.830574 47.821014 11126</gx:coord>
<gx:coord >16.86628 47.855484 11127</gx:coord>
<gx:coord >16.902607 47.890475 11127</gx:coord>
<gx:coord >16.938995 47.925339 11135</gx:coord>
<gx:coord >16.974907 47.959808 11135</gx:coord>
<gx:coord >17.010956 47.994324 11127</gx:coord>
<gx:coord >17.031075 48.013138 11127</gx:coord>
<gx:coord >17.043297 48.023529 11127</gx:coord>
<gx:coord >17.058951 48.035578 11127</gx:coord>
<gx:coord >17.101662 48.067566 11127</gx:coord>
<gx:coord >17.144096 48.099884 11127</gx:coord>
<gx:coord >17.185857 48.131802 11127</gx:coord>
<gx:coord >17.228182 48.164062 11127</gx:coord>
<gx:coord >17.270074 48.195997 11127</gx:coord>
<gx:coord >17.312863 48.228398 11127</gx:coord>
<gx:coord >17.355074 48.260286 11128</gx:coord>
<gx:coord >17.397718 48.292407 11128</gx:coord>
<gx:coord >17.441085 48.324994 11128</gx:coord>
<gx:coord >17.484091 48.357347 11128</gx:coord>
<gx:coord >17.526952 48.389701 11128</gx:coord>
<gx:coord >17.569956 48.421921 11136</gx:coord>
<gx:coord >17.613831 48.454697 11128</gx:coord>
<gx:coord >17.656579 48.486649 11128</gx:coord>
<gx:coord >17.699987 48.519116 11128</gx:coord>
<gx:coord >17.74386 48.551843 11120</gx:coord>
<gx:coord >17.787227 48.583964 11120</gx:coord>
<gx:coord >17.8311 48.616364 11120</gx:coord>
<gx:coord >17.874967 48.648788 11120</gx:coord>
<gx:coord >17.918701 48.681107 11120</gx:coord>
<gx:coord >17.962083 48.713104 11120</gx:coord>
<gx:coord >18.005535 48.745102 11120</gx:coord>
<gx:coord >18.049742 48.777668 11120</gx:coord>
<gx:coord >18.093849 48.810013 11120</gx:coord>
<gx:coord >18.137705 48.842049 11120</gx:coord>
<gx:coord >18.182021 48.87442 11113</gx:coord>
<gx:coord >18.227186 48.907269 11113</gx:coord>
<gx:coord >18.270914 48.939111 11128</gx:coord>
<gx:coord >18.315054 48.971191 11120</gx:coord>
<gx:coord >18.359817 49.003725 11128</gx:coord>
<gx:coord >18.404268 49.035986 11128</gx:coord>
<gx:coord >18.449566 49.068741 11120</gx:coord>
<gx:coord >18.494544 49.101066 11120</gx:coord>
<gx:coord >18.539851 49.133652 11120</gx:coord>
<gx:coord >18.584853 49.165924 11113</gx:coord>
<gx:coord >18.629503 49.197968 11120</gx:coord>
<gx:coord >18.673941 49.229874 11113</gx:coord>
<gx:coord >18.719013 49.262054 11113</gx:coord>
<gx:coord >18.763733 49.294052 11128</gx:coord>
<gx:coord >18.808382 49.325867 11120</gx:coord>
<gx:coord >18.853262 49.357708 11113</gx:coord>
<gx:coord >18.898219 49.38955 11114</gx:coord>
<gx:coord >18.943035 49.421356 11114</gx:coord>
<gx:coord >18.988384 49.453513 11106</gx:coord>
<gx:coord >19.033235 49.485123 11114</gx:coord>
<gx:coord >19.078048 49.516571 11106</gx:coord>
<gx:coord >19.122818 49.547967 11114</gx:coord>
<gx:coord >19.168099 49.579763 11114</gx:coord>
<gx:coord >19.212703 49.610962 11106</gx:coord>
<gx:coord >19.2586 49.643097 11114</gx:coord>
<gx:coord >19.304389 49.675055 11114</gx:coord>
<gx:coord >19.350042 49.706897 11106</gx:coord>
<gx:coord >19.394989 49.738083 11098</gx:coord>
<gx:coord >19.440308 49.769577 11106</gx:coord>
<gx:coord >19.486331 49.801491 11106</gx:coord>
<gx:coord >19.522631 49.826722 11115</gx:coord>
<gx:coord >19.533394 49.835102 11107</gx:coord>
<gx:coord >19.543377 49.843826 11107</gx:coord>
<gx:coord >19.552249 49.852838 11107</gx:coord>
<gx:coord >19.560362 49.862457 11107</gx:coord>
<gx:coord >19.568135 49.873088 11115</gx:coord>
<gx:coord >19.595675 49.911447 11107</gx:coord>
<gx:coord >19.620023 49.943196 11107</gx:coord>
<gx:coord >19.650161 49.981415 11099</gx:coord>
<gx:coord >19.680055 50.019241 11099</gx:coord>
<gx:coord >19.709695 50.057156 11099</gx:coord>
<gx:coord >19.739757 50.095734 11108</gx:coord>
<gx:coord >19.769681 50.134094 11108</gx:coord>
<gx:coord >19.799532 50.172455 11100</gx:coord>
<gx:coord >19.82906 50.210173 11100</gx:coord>
<gx:coord >19.8588 50.248032 11093</gx:coord>
<gx:coord >19.888723 50.286072 11093</gx:coord>
<gx:coord >19.918436 50.32376 11086</gx:coord>
<gx:coord >19.94857 50.361877 11094</gx:coord>
<gx:coord >19.978855 50.400238 11086</gx:coord>
<gx:coord >20.008479 50.437674 11094</gx:coord>
<gx:coord >20.038051 50.475037 11094</gx:coord>
<gx:coord >20.067716 50.512297 11095</gx:coord>
<gx:coord >20.097854 50.550097 11087</gx:coord>
<gx:coord >20.12811 50.588196 11087</gx:coord>
<gx:coord >20.14514 50.609452 11080</gx:coord>
<gx:coord >20.152757 50.619049 11065</gx:coord>
<gx:coord >20.159551 50.627472 11042</gx:coord>
<gx:coord >20.167646 50.637634 10998</gx:coord>
<gx:coord >20.173793 50.645297 10963</gx:coord>
<gx:coord >20.181885 50.655487 10888</gx:coord>
<gx:coord >20.189546 50.6651 10819</gx:coord>
<gx:coord >20.197473 50.674942 10730</gx:coord>
<gx:coord >20.207643 50.687622 10601</gx:coord>
<gx:coord >20.217514 50.700042 10478</gx:coord>
<gx:coord >20.227834 50.712936 10362</gx:coord>
<gx:coord >20.239192 50.727036 10235</gx:coord>
<gx:coord >20.249252 50.739519 10119</gx:coord>
<gx:coord >20.259094 50.751808 9984</gx:coord>
<gx:coord >20.268326 50.76326 9860</gx:coord>
<gx:coord >20.27757 50.77478 9728</gx:coord>
<gx:coord >20.286865 50.78635 9616</gx:coord>
<gx:coord >20.293121 50.794124 9525</gx:coord>
<gx:coord >20.30125 50.80426 9410</gx:coord>
<gx:coord >20.309935 50.815018 9291</gx:coord>
<gx:coord >20.320587 50.828294 9154</gx:coord>
<gx:coord >20.332204 50.842667 9024</gx:coord>
<gx:coord >20.344162 50.857482 8917</gx:coord>
<gx:coord >20.358887 50.875637 8787</gx:coord>
<gx:coord >20.374962 50.895264 8650</gx:coord>
<gx:coord >20.39032 50.914089 8536</gx:coord>
<gx:coord >20.404729 50.931702 8406</gx:coord>
<gx:coord >20.417938 50.948026 8269</gx:coord>
<gx:coord >20.432046 50.965347 8139</gx:coord>
<gx:coord >20.447693 50.984569 8017</gx:coord>
<gx:coord >20.462704 51.003021 7889</gx:coord>
<gx:coord >20.476379 51.01981 7759</gx:coord>
<gx:coord >20.490096 51.036667 7637</gx:coord>
<gx:coord >20.504913 51.054956 7500</gx:coord>
<gx:coord >20.519104 51.072274 7378</gx:coord>
<gx:coord >20.533371 51.089591 7249</gx:coord>
<gx:coord >20.548019 51.107421 7119</gx:coord>
<gx:coord >20.562027 51.124557 6997</gx:coord>
<gx:coord >20.574943 51.140854 6868</gx:coord>
<gx:coord >20.582809 51.152577 6789</gx:coord>
<gx:coord >20.588676 51.162781 6716</gx:coord>
<gx:coord >20.592981 51.171753 6661</gx:coord>
<gx:coord >20.596771 51.182323 6602</gx:coord>
<gx:coord >20.599213 51.191261 6546</gx:coord>
<gx:coord >20.600776 51.201279 6487</gx:coord>
<gx:coord >20.601425 51.21072 6428</gx:coord>
<gx:coord >20.601073 51.226227 6350</gx:coord>
<gx:coord >20.600553 51.247513 6235</gx:coord>
<gx:coord >20.600433 51.268631 6114</gx:coord>
<gx:coord >20.60051 51.289207 5992</gx:coord>
<gx:coord >20.600662 51.309737 5863</gx:coord>
<gx:coord >20.600776 51.328995 5741</gx:coord>
<gx:coord >20.600891 51.341811 5653</gx:coord>
<gx:coord >20.600891 51.344604 5632</gx:coord>
<gx:coord >20.600891 51.34763 5601</gx:coord>
<gx:coord >20.60085 51.358063 5478</gx:coord>
<gx:coord >20.60085 51.361862 5441</gx:coord>
<gx:coord >20.600891 51.364669 5411</gx:coord>
<gx:coord >20.600776 51.379669 5284</gx:coord>
<gx:coord >20.600586 51.393345 5162</gx:coord>
<gx:coord >20.600433 51.407497 5032</gx:coord>
<gx:coord >20.600182 51.421738 4901</gx:coord>
<gx:coord >20.600128 51.42784 4852</gx:coord>
<gx:coord >20.600052 51.43175 4820</gx:coord>
<gx:coord >20.599959 51.443481 4757</gx:coord>
<gx:coord >20.599823 51.454142 4706</gx:coord>
<gx:coord >20.599514 51.475433 4636</gx:coord>
<gx:coord >20.599213 51.495201 4581</gx:coord>
<gx:coord >20.599136 51.500694 4563</gx:coord>
<gx:coord >20.59906 51.504418 4541</gx:coord>
<gx:coord >20.598994 51.50766 4527</gx:coord>
<gx:coord >20.598984 51.510843 4504</gx:coord>
<gx:coord >20.598907 51.515172 4466</gx:coord>
<gx:coord >20.598831 51.518524 4434</gx:coord>
<gx:coord >20.598602 51.529976 4310</gx:coord>
<gx:coord >20.598526 51.535469 4256</gx:coord>
<gx:coord >20.598252 51.550415 4127</gx:coord>
<gx:coord >20.598068 51.566566 3997</gx:coord>
<gx:coord >20.598029 51.573578 3937</gx:coord>
<gx:coord >20.597955 51.585251 3829</gx:coord>
<gx:coord >20.597916 51.590633 3760</gx:coord>
<gx:coord >20.597806 51.596649 3704</gx:coord>
<gx:coord >20.597763 51.603249 3644</gx:coord>
<gx:coord >20.597687 51.611582 3578</gx:coord>
<gx:coord >20.597534 51.619589 3512</gx:coord>
<gx:coord >20.597435 51.626862 3450</gx:coord>
<gx:coord >20.597361 51.631256 3411</gx:coord>
<gx:coord >20.597305 51.635184 3388</gx:coord>
<gx:coord >20.597305 51.637884 3373</gx:coord>
<gx:coord >20.597064 51.650711 3319</gx:coord>
<gx:coord >20.596841 51.665497 3265</gx:coord>
<gx:coord >20.596542 51.679827 3220</gx:coord>
<gx:coord >20.596396 51.690308 3181</gx:coord>
<gx:coord >20.596247 51.701935 3121</gx:coord>
<gx:coord >20.596099 51.711365 3060</gx:coord>
<gx:coord >20.596008 51.721817 3000</gx:coord>
<gx:coord >20.595856 51.732385 2938</gx:coord>
<gx:coord >20.595703 51.743324 2871</gx:coord>
<gx:coord >20.595579 51.75293 2832</gx:coord>
<gx:coord >20.595398 51.766461 2771</gx:coord>
<gx:coord >20.595169 51.780892 2725</gx:coord>
<gx:coord >20.594911 51.794495 2680</gx:coord>
<gx:coord >20.594711 51.808777 2634</gx:coord>
<gx:coord >20.594482 51.822463 2581</gx:coord>
<gx:coord >20.59433 51.836569 2543</gx:coord>
<gx:coord >20.594243 51.85199 2489</gx:coord>
<gx:coord >20.594177 51.868736 2436</gx:coord>
<gx:coord >20.594025 51.888381 2405</gx:coord>
<gx:coord >20.593796 51.905182 2367</gx:coord>
<gx:coord >20.593491 51.920517 2322</gx:coord>
<gx:coord >20.593185 51.934891 2276</gx:coord>
<gx:coord >20.59288 51.950867 2230</gx:coord>
<gx:coord >20.592728 51.961395 2201</gx:coord>
<gx:coord >20.592538 51.97143 2169</gx:coord>
<gx:coord >20.592422 51.981079 2133</gx:coord>
<gx:coord >20.592346 51.992203 2108</gx:coord>
<gx:coord >20.592224 52.001457 2080</gx:coord>
<gx:coord >20.592146 52.011745 2048</gx:coord>
<gx:coord >20.591965 52.022598 2017</gx:coord>
<gx:coord >20.591888 52.030746 1981</gx:coord>
<gx:coord >20.591832 52.037674 1949</gx:coord>
<gx:coord >20.591736 52.044113 1919</gx:coord>
<gx:coord >20.591675 52.050988 1888</gx:coord>
<gx:coord >20.591583 52.056885 1856</gx:coord>
<gx:coord >20.591507 52.063339 1821</gx:coord>
<gx:coord >20.591439 52.070354 1790</gx:coord>
<gx:coord >20.591278 52.076797 1760</gx:coord>
<gx:coord >20.591204 52.082551 1733</gx:coord>
<gx:coord >20.591439 52.087252 1703</gx:coord>
<gx:coord >20.59191 52.090651 1672</gx:coord>
<gx:coord >20.59288 52.094559 1639</gx:coord>
<gx:coord >20.593948 52.097443 1609</gx:coord>
<gx:coord >20.59552 52.100659 1576</gx:coord>
<gx:coord >20.597534 52.103989 1543</gx:coord>
<gx:coord >20.599823 52.107147 1513</gx:coord>
<gx:coord >20.60219 52.110063 1482</gx:coord>
<gx:coord >20.60463 52.113052 1450</gx:coord>
<gx:coord >20.607605 52.116577 1416</gx:coord>
<gx:coord >20.610509 52.119932 1384</gx:coord>
<gx:coord >20.613098 52.122894 1351</gx:coord>
<gx:coord >20.615692 52.125916 1319</gx:coord>
<gx:coord >20.618668 52.129395 1287</gx:coord>
<gx:coord >20.621185 52.132324 1256</gx:coord>
<gx:coord >20.623703 52.135254 1225</gx:coord>
<gx:coord >20.626282 52.138274 1194</gx:coord>
<gx:coord >20.628433 52.140747 1169</gx:coord>
<gx:coord >20.629892 52.14251 1155</gx:coord>
<gx:coord >20.634613 52.148117 1120</gx:coord>
<gx:coord >20.639648 52.154068 1088</gx:coord>
<gx:coord >20.645981 52.161667 1057</gx:coord>
<gx:coord >20.6521 52.169091 1020</gx:coord>
<gx:coord >20.659555 52.178122 989</gx:coord>
<gx:coord >20.667267 52.187439 966</gx:coord>
<gx:coord >20.671844 52.192978 966</gx:coord>
<gx:coord >20.675583 52.19751 959</gx:coord>
<gx:coord >20.678787 52.201401 959</gx:coord>
<gx:coord >20.681534 52.204651 959</gx:coord>
<gx:coord >20.68512 52.208954 959</gx:coord>
<gx:coord >20.687962 52.212385 959</gx:coord>
<gx:coord >20.691964 52.216621 959</gx:coord>
<gx:coord >20.69458 52.218796 959</gx:coord>
<gx:coord >20.698242 52.221137 959</gx:coord>
<gx:coord >20.701303 52.22258 959</gx:coord>
<gx:coord >20.704128 52.223697 966</gx:coord>
<gx:coord >20.707092 52.224609 966</gx:coord>
<gx:coord >20.710526 52.225433 966</gx:coord>
<gx:coord >20.713882 52.226074 966</gx:coord>
<gx:coord >20.716919 52.226444 966</gx:coord>
<gx:coord >20.719833 52.226715 966</gx:coord>
<gx:coord >20.725708 52.22699 966</gx:coord>
<gx:coord >20.727005 52.227036 966</gx:coord>
<gx:coord >20.730573 52.226956 966</gx:coord>
<gx:coord >20.732771 52.226909 966</gx:coord>
<gx:coord >20.738525 52.226532 958</gx:coord>
<gx:coord >20.7436 52.225978 943</gx:coord>
<gx:coord >20.749207 52.225113 928</gx:coord>
<gx:coord >20.755081 52.224014 904</gx:coord>
<gx:coord >20.761871 52.222549 868</gx:coord>
<gx:coord >20.769501 52.220673 837</gx:coord>
<gx:coord >20.776749 52.218796 806</gx:coord>
<gx:coord >20.78392 52.216873 776</gx:coord>
<gx:coord >20.79194 52.214759 745</gx:coord>
<gx:coord >20.800095 52.212524 715</gx:coord>
<gx:coord >20.807635 52.21043 684</gx:coord>
<gx:coord >20.815325 52.208288 647</gx:coord>
<gx:coord >20.824114 52.205867 616</gx:coord>
<gx:coord >20.830314 52.204098 600</gx:coord>
<gx:coord >20.837402 52.202087 571</gx:coord>
<gx:coord >20.845795 52.199753 540</gx:coord>
<gx:coord >20.851815 52.198093 509</gx:coord>
<gx:coord >20.857544 52.196503 486</gx:coord>
<gx:coord >20.86288 52.195021 463</gx:coord>
<gx:coord >20.870514 52.192886 433</gx:coord>
<gx:coord >20.878372 52.190643 402</gx:coord>
<gx:coord >20.886307 52.188446 372</gx:coord>
<gx:coord >20.894394 52.186157 341</gx:coord>
<gx:coord >20.901794 52.184097 311</gx:coord>
<gx:coord >20.909494 52.18194 288</gx:coord>
<gx:coord >20.915615 52.180217 258</gx:coord>
<gx:coord >20.923619 52.177936 227</gx:coord>
<gx:coord >20.931549 52.17572 203</gx:coord>
<gx:coord >20.937352 52.174119 167</gx:coord>
<gx:coord >20.944885 52.171977 144</gx:coord>
<gx:coord >20.95132 52.170208 120</gx:coord>
<gx:coord >20.957598 52.168439 117</gx:coord>
<gx:coord >20.958854 52.168114 116</gx:coord>
<gx:coord >20.961304 52.167389 115</gx:coord>
<gx:coord >20.961304 52.167389 115</gx:coord>
</gx:Track>
</Placemark>
<Placemark ><name >HA-LVE</name>
<Style ><LineStyle ><color >ff1c1ae3</color>
<width >4</width>
</LineStyle>
<IconStyle ><Icon ><href >http://maps.google.com/mapfiles/kml/shapes/airports.png</href>
</Icon>
</IconStyle>
</Style>
<gx:Track ><extrude >0</extrude>
<when >2025-08-28T09:27:25.952Z</when>
<when >2025-08-28T09:27:29.262Z</when>
<when >2025-08-28T09:27:30.582Z</when>
<when >2025-08-28T09:27:31.242Z</when>
<when >2025-08-28T09:27:32.802Z</when>
<when >2025-08-28T09:27:34.002Z</when>
<when >2025-08-28T09:27:34.962Z</when>
<when >2025-08-28T09:27:36.202Z</when>
<when >2025-08-28T09:27:37.762Z</when>
<when >2025-08-28T09:27:39.822Z</when>
<when >2025-08-28T09:27:41.452Z</when>
<when >2025-08-28T09:27:43.642Z</when>
<when >2025-08-28T09:27:45.582Z</when>
<when >2025-08-28T09:27:47.962Z</when>
<when >2025-08-28T09:27:49.432Z</when>
<when >2025-08-28T09:27:51.392Z</when>
<when >2025-08-28T09:27:53.332Z</when>
<when >2025-08-28T09:27:54.642Z</when>
<when >2025-08-28T09:27:56.262Z</when>
<when >2025-08-28T09:27:57.862Z</when>
<when >2025-08-28T09:27:59.192Z</when>
<when >2025-08-28T09:28:00.952Z</when>
<when >2025-08-28T09:28:02.482Z</when>
<when >2025-08-28T09:28:03.662Z</when>
<when >2025-08-28T09:28:08.802Z</when>
<when >2025-08-28T09:28:10.472Z</when>
<when >2025-08-28T09:28:13.522Z</when>
<when >2025-08-28T09:28:19.632Z</when>
<when >2025-08-28T09:28:26.642Z</when>
<when >2025-08-28T09:28:31.602Z</when>
<when >2025-08-28T09:28:37.502Z</when>
<when >2025-08-28T09:28:45.322Z</when>
<when >2025-08-28T09:28:52.872Z</when>
<when >2025-08-28T09:29:00.482Z</when>
<when >2025-08-28T09:29:07.492Z</when>
<when >2025-08-28T09:29:14.702Z</when>
<when >2025-08-28T09:29:16.762Z</when>
<when >2025-08-28T09:29:19.212Z</when>
<when >2025-08-28T09:29:22.102Z</when>
<when >2025-08-28T09:29:24.892Z</when>
<when >2025-08-28T09:29:28.912Z</when>
<when >2025-08-28T09:29:31.922Z</when>
<when >2025-08-28T09:29:34.482Z</when>
<when >2025-08-28T09:29:54.112Z</when>
<when >2025-08-28T09:30:11.142Z</when>
<when >2025-08-28T09:30:11.142Z</when>
<gx:coord >20.961541 52.167334 0</gx:coord>
<gx:coord >20.963405 52.16681 0</gx:coord>
<gx:coord >20.964012 52.166634 0</gx:coord>
<gx:coord >20.964523 52.166484 0</gx:coord>
<gx:coord >20.965269 52.166275 0</gx:coord>
<gx:coord >20.965824 52.166119 0</gx:coord>
<gx:coord >20.966282 52.165993 0</gx:coord>
<gx:coord >20.966878 52.165833 0</gx:coord>
<gx:coord >20.967464 52.165672 0</gx:coord>
<gx:coord >20.968208 52.165466 0</gx:coord>
<gx:coord >20.968761 52.165329 0</gx:coord>
<gx:coord >20.96941 52.165215 0</gx:coord>
<gx:coord >20.970056 52.165134 0</gx:coord>
<gx:coord >20.97086 52.165088 0</gx:coord>
<gx:coord >20.97126 52.165077 0</gx:coord>
<gx:coord >20.971737 52.1651 0</gx:coord>
<gx:coord >20.972347 52.165134 0</gx:coord>
<gx:coord >20.972652 52.165157 0</gx:coord>
<gx:coord >20.972959 52.165181 0</gx:coord>
<gx:coord >20.973167 52.165192 0</gx:coord>
<gx:coord >20.973301 52.165215 0</gx:coord>
<gx:coord >20.973454 52.16526 0</gx:coord>
<gx:coord >20.973568 52.165318 0</gx:coord>
<gx:coord >20.973606 52.165375 0</gx:coord>
<gx:coord >20.973685 52.165623 0</gx:coord>
<gx:coord >20.973626 52.165693 0</gx:coord>
<gx:coord >20.973492 52.165821 0</gx:coord>
<gx:coord >20.973244 52.166096 0</gx:coord>
<gx:coord >20.97292 52.166473 0</gx:coord>
<gx:coord >20.972652 52.166759 0</gx:coord>
<gx:coord >20.972309 52.16716 0</gx:coord>
<gx:coord >20.971794 52.167767 0</gx:coord>
<gx:coord >20.971331 52.168288 0</gx:coord>
<gx:coord >20.97088 52.1688 0</gx:coord>
<gx:coord >20.970566 52.169091 0</gx:coord>
<gx:coord >20.970173 52.168986 0</gx:coord>
<gx:coord >20.970078 52.168934 0</gx:coord>
<gx:coord >20.969977 52.168905 0</gx:coord>
<gx:coord >20.969906 52.168877 0</gx:coord>
<gx:coord >20.96983 52.168877 0</gx:coord>
<gx:coord >20.969722 52.168905 0</gx:coord>
<gx:coord >20.969639 52.168922 0</gx:coord>
<gx:coord >20.969546 52.168928 0</gx:coord>
<gx:coord >20.969193 52.168963 0</gx:coord>
<gx:coord >20.969193 52.168963 0</gx:coord>
<gx:coord >20.969193 52.168963 0</gx:coord>
</gx:Track>
</Placemark>
</Folder>
</Folder>
</kml>
