<?xml version="1.0" encoding="UTF-8"?>
<kml xmlns="http://www.opengis.net/kml/2.2" xmlns:gx="http://www.google.com/kml/ext/2.2"><Folder ><Folder ><name >HA-LGM track</name>
<Placemark ><name >HA-LGM</name>
<Style ><LineStyle ><color >ff1c1ae3</color>
<width >4</width>
</LineStyle>
<IconStyle ><Icon ><href >http://maps.google.com/mapfiles/kml/shapes/airports.png</href>
</Icon>
</IconStyle>
</Style>
<gx:Track ><extrude >0</extrude>
<when >2025-09-05T12:53:04.520Z</when>
<when >2025-09-05T12:53:04.520Z</when>
<when >2025-09-05T12:53:10.240Z</when>
<when >2025-09-05T12:53:27.490Z</when>
<when >2025-09-05T12:53:44.980Z</when>
<when >2025-09-05T12:54:19.100Z</when>
<when >2025-09-05T12:54:37.710Z</when>
<when >2025-09-05T12:55:08.880Z</when>
<when >2025-09-05T12:55:24.560Z</when>
<when >2025-09-05T12:56:15.340Z</when>
<when >2025-09-05T12:56:25.180Z</when>
<when >2025-09-05T12:56:46.270Z</when>
<when >2025-09-05T12:57:16.070Z</when>
<when >2025-09-05T12:57:35.240Z</when>
<when >2025-09-05T12:57:54.120Z</when>
<when >2025-09-05T12:58:09.350Z</when>
<when >2025-09-05T12:59:04.850Z</when>
<when >2025-09-05T12:59:24.850Z</when>
<when >2025-09-05T12:59:36.910Z</when>
<when >2025-09-05T12:59:40.810Z</when>
<when >2025-09-05T12:59:44.980Z</when>
<when >2025-09-05T12:59:48.930Z</when>
<when >2025-09-05T12:59:53.510Z</when>
<when >2025-09-05T12:59:56.080Z</when>
<when >2025-09-05T12:59:58.140Z</when>
<when >2025-09-05T12:59:59.630Z</when>
<when >2025-09-05T13:00:00.980Z</when>
<when >2025-09-05T13:00:02.400Z</when>
<when >2025-09-05T13:00:04.860Z</when>
<when >2025-09-05T13:00:07.960Z</when>
<when >2025-09-05T13:00:16.980Z</when>
<when >2025-09-05T13:00:25.800Z</when>
<when >2025-09-05T13:00:34.400Z</when>
<when >2025-09-05T13:00:44.250Z</when>
<when >2025-09-05T13:00:53.710Z</when>
<when >2025-09-05T13:01:02.110Z</when>
<when >2025-09-05T13:01:09.450Z</when>
<when >2025-09-05T13:01:12.240Z</when>
<when >2025-09-05T13:01:15.340Z</when>
<when >2025-09-05T13:01:18.390Z</when>
<when >2025-09-05T13:01:22.510Z</when>
<when >2025-09-05T13:01:25.220Z</when>
<when >2025-09-05T13:01:28.030Z</when>
<when >2025-09-05T13:01:29.420Z</when>
<when >2025-09-05T13:01:32.280Z</when>
<when >2025-09-05T13:01:34.230Z</when>
<when >2025-09-05T13:01:35.880Z</when>
<when >2025-09-05T13:01:38.610Z</when>
<when >2025-09-05T13:01:41.640Z</when>
<when >2025-09-05T13:01:45.080Z</when>
<when >2025-09-05T13:01:49.790Z</when>
<when >2025-09-05T13:01:54.950Z</when>
<when >2025-09-05T13:02:02.000Z</when>
<when >2025-09-05T13:02:11.660Z</when>
<when >2025-09-05T13:02:19.820Z</when>
<when >2025-09-05T13:02:28.530Z</when>
<when >2025-09-05T13:02:36.810Z</when>
<when >2025-09-05T13:02:38.280Z</when>
<when >2025-09-05T13:02:41.990Z</when>
<when >2025-09-05T13:02:44.090Z</when>
<when >2025-09-05T13:02:46.390Z</when>
<when >2025-09-05T13:02:48.500Z</when>
<when >2025-09-05T13:02:52.000Z</when>
<when >2025-09-05T13:03:26.540Z</when>
<when >2025-09-05T13:03:42.310Z</when>
<when >2025-09-05T13:03:42.920Z</when>
<when >2025-09-05T13:03:45.080Z</when>
<when >2025-09-05T13:03:47.060Z</when>
<when >2025-09-05T13:03:47.060Z</when>
<when >2025-09-05T13:03:48.820Z</when>
<when >2025-09-05T13:03:50.560Z</when>
<when >2025-09-05T13:03:52.060Z</when>
<when >2025-09-05T13:03:53.350Z</when>
<when >2025-09-05T13:03:54.830Z</when>
<when >2025-09-05T13:03:56.260Z</when>
<when >2025-09-05T13:03:57.550Z</when>
<when >2025-09-05T13:03:57.550Z</when>
<gx:coord >20.965406 52.173304 0</gx:coord>
<gx:coord >20.965406 52.173304 0</gx:coord>
<gx:coord >20.965387 52.173304 0</gx:coord>
<gx:coord >20.965387 52.173306 0</gx:coord>
<gx:coord >20.965387 52.173304 0</gx:coord>
<gx:coord >20.965385 52.173294 0</gx:coord>
<gx:coord >20.965385 52.173294 0</gx:coord>
<gx:coord >20.965387 52.173293 0</gx:coord>
<gx:coord >20.965405 52.173294 0</gx:coord>
<gx:coord >20.965387 52.173304 0</gx:coord>
<gx:coord >20.965387 52.173293 0</gx:coord>
<gx:coord >20.965405 52.173294 0</gx:coord>
<gx:coord >20.965387 52.173293 0</gx:coord>
<gx:coord >20.965406 52.173293 0</gx:coord>
<gx:coord >20.965406 52.173293 0</gx:coord>
<gx:coord >20.965405 52.173294 0</gx:coord>
<gx:coord >20.965405 52.173294 0</gx:coord>
<gx:coord >20.965347 52.173246 0</gx:coord>
<gx:coord >20.965269 52.173176 0</gx:coord>
<gx:coord >20.965249 52.173153 0</gx:coord>
<gx:coord >20.965157 52.1731 0</gx:coord>
<gx:coord >20.965053 52.173071 0</gx:coord>
<gx:coord >20.964916 52.173036 0</gx:coord>
<gx:coord >20.964794 52.173031 0</gx:coord>
<gx:coord >20.964661 52.173088 0</gx:coord>
<gx:coord >20.964622 52.173111 0</gx:coord>
<gx:coord >20.964565 52.17318 0</gx:coord>
<gx:coord >20.964527 52.173237 0</gx:coord>
<gx:coord >20.964489 52.173328 0</gx:coord>
<gx:coord >20.964406 52.173432 0</gx:coord>
<gx:coord >20.964146 52.173729 0</gx:coord>
<gx:coord >20.963879 52.174038 0</gx:coord>
<gx:coord >20.963621 52.174352 0</gx:coord>
<gx:coord >20.963327 52.174677 0</gx:coord>
<gx:coord >20.963072 52.174968 0</gx:coord>
<gx:coord >20.962777 52.175306 0</gx:coord>
<gx:coord >20.962522 52.175597 0</gx:coord>
<gx:coord >20.96241 52.175686 0</gx:coord>
<gx:coord >20.962228 52.175771 0</gx:coord>
<gx:coord >20.962071 52.175806 0</gx:coord>
<gx:coord >20.961819 52.175835 0</gx:coord>
<gx:coord >20.961639 52.175841 0</gx:coord>
<gx:coord >20.961443 52.175818 0</gx:coord>
<gx:coord >20.961286 52.175795 0</gx:coord>
<gx:coord >20.961129 52.17576 0</gx:coord>
<gx:coord >20.961031 52.175737 0</gx:coord>
<gx:coord >20.960953 52.175713 0</gx:coord>
<gx:coord >20.960874 52.175667 0</gx:coord>
<gx:coord >20.960796 52.175608 0</gx:coord>
<gx:coord >20.960732 52.175537 0</gx:coord>
<gx:coord >20.960678 52.175446 0</gx:coord>
<gx:coord >20.960598 52.175343 0</gx:coord>
<gx:coord >20.960426 52.175137 0</gx:coord>
<gx:coord >20.960236 52.174873 0</gx:coord>
<gx:coord >20.96007 52.174666 0</gx:coord>
<gx:coord >20.959874 52.17441 0</gx:coord>
<gx:coord >20.959717 52.1742 0</gx:coord>
<gx:coord >20.959697 52.174177 0</gx:coord>
<gx:coord >20.95974 52.174118 0</gx:coord>
<gx:coord >20.959797 52.174084 0</gx:coord>
<gx:coord >20.959835 52.174061 0</gx:coord>
<gx:coord >20.959893 52.174026 0</gx:coord>
<gx:coord >20.959972 52.173968 0</gx:coord>
<gx:coord >20.959972 52.173956 0</gx:coord>
<gx:coord >20.960026 52.173901 0</gx:coord>
<gx:coord >20.960064 52.173843 0</gx:coord>
<gx:coord >20.960129 52.173781 0</gx:coord>
<gx:coord >20.960274 52.173603 0</gx:coord>
<gx:coord >20.960423 52.173421 0</gx:coord>
<gx:coord >20.960541 52.173294 0</gx:coord>
<gx:coord >20.960796 52.173013 0</gx:coord>
<gx:coord >20.961113 52.172665 0</gx:coord>
<gx:coord >20.961514 52.172195 0</gx:coord>
<gx:coord >20.961914 52.171726 0</gx:coord>
<gx:coord >20.9622 52.171417 0</gx:coord>
<gx:coord >20.962639 52.170902 0</gx:coord>
<gx:coord >20.962639 52.170902 0</gx:coord>
</gx:Track>
</Placemark>
<Placemark ><name >HA-LGM</name>
<Style ><LineStyle ><color >ff1c1ae3</color>
<width >4</width>
</LineStyle>
<IconStyle ><Icon ><href >http://maps.google.com/mapfiles/kml/shapes/airports.png</href>
</Icon>
</IconStyle>
</Style>
<gx:Track ><altitudeMode >absolute</altitudeMode>
<extrude >1</extrude>
<when >2025-09-05T13:03:59.920Z</when>
<when >2025-09-05T13:04:01.470Z</when>
<when >2025-09-05T13:04:04.130Z</when>
<when >2025-09-05T13:04:05.730Z</when>
<when >2025-09-05T13:04:06.220Z</when>
<when >2025-09-05T13:04:09.680Z</when>
<when >2025-09-05T13:04:11.620Z</when>
<when >2025-09-05T13:04:13.680Z</when>
<when >2025-09-05T13:04:16.020Z</when>
<when >2025-09-05T13:04:18.580Z</when>
<when >2025-09-05T13:04:20.800Z</when>
<when >2025-09-05T13:04:22.460Z</when>
<when >2025-09-05T13:04:24.350Z</when>
<when >2025-09-05T13:04:26.110Z</when>
<when >2025-09-05T13:04:26.110Z</when>
<when >2025-09-05T13:04:27.810Z</when>
<when >2025-09-05T13:04:29.540Z</when>
<when >2025-09-05T13:04:31.980Z</when>
<when >2025-09-05T13:04:33.870Z</when>
<when >2025-09-05T13:04:36.530Z</when>
<when >2025-09-05T13:04:38.470Z</when>
<when >2025-09-05T13:04:41.280Z</when>
<when >2025-09-05T13:04:43.150Z</when>
<when >2025-09-05T13:04:45.900Z</when>
<when >2025-09-05T13:04:48.090Z</when>
<when >2025-09-05T13:04:51.450Z</when>
<when >2025-09-05T13:04:55.140Z</when>
<when >2025-09-05T13:04:58.210Z</when>
<when >2025-09-05T13:05:01.290Z</when>
<when >2025-09-05T13:05:03.810Z</when>
<when >2025-09-05T13:05:05.340Z</when>
<when >2025-09-05T13:05:07.170Z</when>
<when >2025-09-05T13:05:09.310Z</when>
<when >2025-09-05T13:05:11.870Z</when>
<when >2025-09-05T13:05:14.290Z</when>
<when >2025-09-05T13:05:16.860Z</when>
<when >2025-09-05T13:05:18.850Z</when>
<when >2025-09-05T13:05:22.310Z</when>
<when >2025-09-05T13:05:24.460Z</when>
<when >2025-09-05T13:05:26.680Z</when>
<when >2025-09-05T13:05:29.210Z</when>
<when >2025-09-05T13:05:31.040Z</when>
<when >2025-09-05T13:05:33.550Z</when>
<when >2025-09-05T13:05:35.930Z</when>
<when >2025-09-05T13:05:39.430Z</when>
<when >2025-09-05T13:05:43.060Z</when>
<when >2025-09-05T13:05:46.230Z</when>
<when >2025-09-05T13:05:48.370Z</when>
<when >2025-09-05T13:05:51.220Z</when>
<when >2025-09-05T13:05:53.340Z</when>
<when >2025-09-05T13:05:56.200Z</when>
<when >2025-09-05T13:05:59.140Z</when>
<when >2025-09-05T13:06:02.640Z</when>
<when >2025-09-05T13:06:05.970Z</when>
<when >2025-09-05T13:06:09.630Z</when>
<when >2025-09-05T13:06:12.710Z</when>
<when >2025-09-05T13:06:16.160Z</when>
<when >2025-09-05T13:06:19.890Z</when>
<when >2025-09-05T13:06:24.040Z</when>
<when >2025-09-05T13:06:27.490Z</when>
<when >2025-09-05T13:06:30.170Z</when>
<when >2025-09-05T13:06:33.020Z</when>
<when >2025-09-05T13:06:36.110Z</when>
<when >2025-09-05T13:06:39.200Z</when>
<when >2025-09-05T13:06:41.640Z</when>
<when >2025-09-05T13:06:44.760Z</when>
<when >2025-09-05T13:06:46.140Z</when>
<when >2025-09-05T13:06:49.300Z</when>
<when >2025-09-05T13:06:51.890Z</when>
<when >2025-09-05T13:06:55.720Z</when>
<when >2025-09-05T13:06:58.840Z</when>
<when >2025-09-05T13:07:00.290Z</when>
<when >2025-09-05T13:07:04.760Z</when>
<when >2025-09-05T13:07:07.070Z</when>
<when >2025-09-05T13:07:10.630Z</when>
<when >2025-09-05T13:07:14.130Z</when>
<when >2025-09-05T13:07:16.310Z</when>
<when >2025-09-05T13:07:19.640Z</when>
<when >2025-09-05T13:07:22.640Z</when>
<when >2025-09-05T13:07:25.830Z</when>
<when >2025-09-05T13:07:28.540Z</when>
<when >2025-09-05T13:07:31.350Z</when>
<when >2025-09-05T13:07:34.020Z</when>
<when >2025-09-05T13:07:36.860Z</when>
<when >2025-09-05T13:07:39.080Z</when>
<when >2025-09-05T13:07:41.300Z</when>
<when >2025-09-05T13:07:43.870Z</when>
<when >2025-09-05T13:07:45.270Z</when>
<when >2025-09-05T13:07:46.990Z</when>
<when >2025-09-05T13:07:48.630Z</when>
<when >2025-09-05T13:07:50.160Z</when>
<when >2025-09-05T13:07:51.800Z</when>
<when >2025-09-05T13:07:53.230Z</when>
<when >2025-09-05T13:07:56.720Z</when>
<when >2025-09-05T13:08:00.500Z</when>
<when >2025-09-05T13:08:03.780Z</when>
<when >2025-09-05T13:08:07.830Z</when>
<when >2025-09-05T13:08:12.470Z</when>
<when >2025-09-05T13:08:16.450Z</when>
<when >2025-09-05T13:08:20.690Z</when>
<when >2025-09-05T13:08:25.380Z</when>
<when >2025-09-05T13:08:30.420Z</when>
<when >2025-09-05T13:08:35.250Z</when>
<when >2025-09-05T13:08:40.090Z</when>
<when >2025-09-05T13:08:44.800Z</when>
<when >2025-09-05T13:08:49.260Z</when>
<when >2025-09-05T13:08:53.630Z</when>
<when >2025-09-05T13:08:58.290Z</when>
<when >2025-09-05T13:09:03.860Z</when>
<when >2025-09-05T13:09:05.570Z</when>
<when >2025-09-05T13:09:08.520Z</when>
<when >2025-09-05T13:09:17.270Z</when>
<when >2025-09-05T13:09:26.290Z</when>
<when >2025-09-05T13:09:30.280Z</when>
<when >2025-09-05T13:09:32.920Z</when>
<when >2025-09-05T13:09:34.340Z</when>
<when >2025-09-05T13:09:34.900Z</when>
<when >2025-09-05T13:09:39.850Z</when>
<when >2025-09-05T13:09:43.360Z</when>
<when >2025-09-05T13:09:45.990Z</when>
<when >2025-09-05T13:09:46.960Z</when>
<when >2025-09-05T13:09:53.980Z</when>
<when >2025-09-05T13:09:58.270Z</when>
<when >2025-09-05T13:09:59.410Z</when>
<when >2025-09-05T13:09:59.920Z</when>
<when >2025-09-05T13:10:02.700Z</when>
<when >2025-09-05T13:10:04.110Z</when>
<when >2025-09-05T13:10:09.570Z</when>
<when >2025-09-05T13:10:13.700Z</when>
<when >2025-09-05T13:10:14.720Z</when>
<when >2025-09-05T13:10:16.630Z</when>
<when >2025-09-05T13:10:17.040Z</when>
<when >2025-09-05T13:10:18.050Z</when>
<when >2025-09-05T13:10:20.470Z</when>
<when >2025-09-05T13:10:21.560Z</when>
<when >2025-09-05T13:10:32.700Z</when>
<when >2025-09-05T13:10:36.050Z</when>
<when >2025-09-05T13:10:38.090Z</when>
<when >2025-09-05T13:10:43.810Z</when>
<when >2025-09-05T13:10:51.970Z</when>
<when >2025-09-05T13:11:03.970Z</when>
<when >2025-09-05T13:11:15.170Z</when>
<when >2025-09-05T13:11:25.720Z</when>
<when >2025-09-05T13:11:36.030Z</when>
<when >2025-09-05T13:11:46.790Z</when>
<when >2025-09-05T13:11:57.520Z</when>
<when >2025-09-05T13:12:08.230Z</when>
<when >2025-09-05T13:12:21.130Z</when>
<when >2025-09-05T13:12:32.350Z</when>
<when >2025-09-05T13:12:41.610Z</when>
<when >2025-09-05T13:12:41.920Z</when>
<when >2025-09-05T13:12:50.110Z</when>
<when >2025-09-05T13:12:59.270Z</when>
<when >2025-09-05T13:13:04.390Z</when>
<when >2025-09-05T13:13:10.550Z</when>
<when >2025-09-05T13:13:24.160Z</when>
<when >2025-09-05T13:13:36.930Z</when>
<when >2025-09-05T13:13:48.710Z</when>
<when >2025-09-05T13:14:00.820Z</when>
<when >2025-09-05T13:14:12.490Z</when>
<when >2025-09-05T13:14:24.680Z</when>
<when >2025-09-05T13:14:35.750Z</when>
<when >2025-09-05T13:14:48.110Z</when>
<when >2025-09-05T13:14:59.640Z</when>
<when >2025-09-05T13:15:14.880Z</when>
<when >2025-09-05T13:15:28.050Z</when>
<when >2025-09-05T13:15:42.190Z</when>
<when >2025-09-05T13:15:56.810Z</when>
<when >2025-09-05T13:16:11.110Z</when>
<when >2025-09-05T13:16:27.500Z</when>
<when >2025-09-05T13:16:39.480Z</when>
<when >2025-09-05T13:16:50.980Z</when>
<when >2025-09-05T13:17:04.410Z</when>
<when >2025-09-05T13:17:19.030Z</when>
<when >2025-09-05T13:17:25.150Z</when>
<when >2025-09-05T13:17:35.740Z</when>
<when >2025-09-05T13:17:49.190Z</when>
<when >2025-09-05T13:17:56.300Z</when>
<when >2025-09-05T13:18:11.630Z</when>
<when >2025-09-05T13:18:24.780Z</when>
<when >2025-09-05T13:18:39.170Z</when>
<when >2025-09-05T13:18:54.680Z</when>
<when >2025-09-05T13:19:09.460Z</when>
<when >2025-09-05T13:19:27.120Z</when>
<when >2025-09-05T13:19:34.280Z</when>
<when >2025-09-05T13:19:47.860Z</when>
<when >2025-09-05T13:20:04.050Z</when>
<when >2025-09-05T13:20:20.350Z</when>
<when >2025-09-05T13:20:36.390Z</when>
<when >2025-09-05T13:20:50.480Z</when>
<when >2025-09-05T13:21:06.750Z</when>
<when >2025-09-05T13:21:22.050Z</when>
<when >2025-09-05T13:21:38.210Z</when>
<when >2025-09-05T13:21:52.900Z</when>
<when >2025-09-05T13:22:08.840Z</when>
<when >2025-09-05T13:22:27.260Z</when>
<when >2025-09-05T13:22:42.690Z</when>
<when >2025-09-05T13:23:00.850Z</when>
<when >2025-09-05T13:23:15.640Z</when>
<when >2025-09-05T13:23:31.590Z</when>
<when >2025-09-05T13:23:51.320Z</when>
<when >2025-09-05T13:24:10.380Z</when>
<when >2025-09-05T13:24:23.290Z</when>
<when >2025-09-05T13:24:37.840Z</when>
<when >2025-09-05T13:24:49.560Z</when>
<when >2025-09-05T13:25:01.300Z</when>
<when >2025-09-05T13:25:09.100Z</when>
<when >2025-09-05T13:25:25.410Z</when>
<when >2025-09-05T13:25:43.270Z</when>
<when >2025-09-05T13:25:59.700Z</when>
<when >2025-09-05T13:26:07.980Z</when>
<when >2025-09-05T13:26:16.640Z</when>
<when >2025-09-05T13:26:36.390Z</when>
<when >2025-09-05T13:26:56.350Z</when>
<when >2025-09-05T13:27:16.170Z</when>
<when >2025-09-05T13:27:35.610Z</when>
<when >2025-09-05T13:27:55.390Z</when>
<when >2025-09-05T13:28:15.000Z</when>
<when >2025-09-05T13:28:34.700Z</when>
<when >2025-09-05T13:28:54.240Z</when>
<when >2025-09-05T13:29:14.040Z</when>
<when >2025-09-05T13:29:33.170Z</when>
<when >2025-09-05T13:29:53.040Z</when>
<when >2025-09-05T13:30:13.030Z</when>
<when >2025-09-05T13:30:32.780Z</when>
<when >2025-09-05T13:30:52.740Z</when>
<when >2025-09-05T13:31:12.740Z</when>
<when >2025-09-05T13:31:32.060Z</when>
<when >2025-09-05T13:31:51.540Z</when>
<when >2025-09-05T13:32:11.110Z</when>
<when >2025-09-05T13:32:30.980Z</when>
<when >2025-09-05T13:32:50.720Z</when>
<when >2025-09-05T13:33:10.710Z</when>
<when >2025-09-05T13:33:30.460Z</when>
<when >2025-09-05T13:33:50.370Z</when>
<when >2025-09-05T13:34:09.940Z</when>
<when >2025-09-05T13:34:29.210Z</when>
<when >2025-09-05T13:34:49.050Z</when>
<when >2025-09-05T13:35:08.620Z</when>
<when >2025-09-05T13:35:28.510Z</when>
<when >2025-09-05T13:35:48.330Z</when>
<when >2025-09-05T13:36:07.990Z</when>
<when >2025-09-05T13:36:27.850Z</when>
<when >2025-09-05T13:36:47.270Z</when>
<when >2025-09-05T13:37:06.870Z</when>
<when >2025-09-05T13:37:26.670Z</when>
<when >2025-09-05T13:37:46.560Z</when>
<when >2025-09-05T13:38:06.390Z</when>
<when >2025-09-05T13:38:25.880Z</when>
<when >2025-09-05T13:38:45.720Z</when>
<when >2025-09-05T13:39:05.640Z</when>
<when >2025-09-05T13:39:19.620Z</when>
<when >2025-09-05T13:39:39.170Z</when>
<when >2025-09-05T13:39:58.290Z</when>
<when >2025-09-05T13:40:17.560Z</when>
<when >2025-09-05T13:40:37.280Z</when>
<when >2025-09-05T13:40:57.190Z</when>
<when >2025-09-05T13:41:16.780Z</when>
<when >2025-09-05T13:41:36.300Z</when>
<when >2025-09-05T13:41:55.770Z</when>
<when >2025-09-05T13:42:15.640Z</when>
<when >2025-09-05T13:42:35.590Z</when>
<when >2025-09-05T13:42:55.280Z</when>
<when >2025-09-05T13:43:14.980Z</when>
<when >2025-09-05T13:43:34.890Z</when>
<when >2025-09-05T13:43:54.750Z</when>
<when >2025-09-05T13:44:14.570Z</when>
<when >2025-09-05T13:44:34.250Z</when>
<when >2025-09-05T13:44:53.780Z</when>
<when >2025-09-05T13:45:13.740Z</when>
<when >2025-09-05T13:45:33.300Z</when>
<when >2025-09-05T13:45:53.060Z</when>
<when >2025-09-05T13:46:12.660Z</when>
<when >2025-09-05T13:46:32.560Z</when>
<when >2025-09-05T13:46:52.280Z</when>
<when >2025-09-05T13:47:11.830Z</when>
<when >2025-09-05T13:47:31.600Z</when>
<when >2025-09-05T13:47:51.420Z</when>
<when >2025-09-05T13:48:11.170Z</when>
<when >2025-09-05T13:48:30.820Z</when>
<when >2025-09-05T13:48:50.590Z</when>
<when >2025-09-05T13:49:10.340Z</when>
<when >2025-09-05T13:49:30.280Z</when>
<when >2025-09-05T13:49:50.130Z</when>
<when >2025-09-05T13:50:09.670Z</when>
<when >2025-09-05T13:50:29.540Z</when>
<when >2025-09-05T13:50:48.880Z</when>
<when >2025-09-05T13:51:08.840Z</when>
<when >2025-09-05T13:51:28.420Z</when>
<when >2025-09-05T13:51:48.260Z</when>
<when >2025-09-05T13:52:07.440Z</when>
<when >2025-09-05T13:52:27.380Z</when>
<when >2025-09-05T13:52:47.160Z</when>
<when >2025-09-05T13:53:07.130Z</when>
<when >2025-09-05T13:53:26.720Z</when>
<when >2025-09-05T13:53:46.200Z</when>
<when >2025-09-05T13:54:05.800Z</when>
<when >2025-09-05T13:54:25.440Z</when>
<when >2025-09-05T13:54:45.210Z</when>
<when >2025-09-05T13:55:05.080Z</when>
<when >2025-09-05T13:55:24.770Z</when>
<when >2025-09-05T13:55:44.190Z</when>
<when >2025-09-05T13:56:03.830Z</when>
<when >2025-09-05T13:56:23.750Z</when>
<when >2025-09-05T13:56:43.520Z</when>
<when >2025-09-05T13:57:03.230Z</when>
<when >2025-09-05T13:57:22.860Z</when>
<when >2025-09-05T13:57:42.500Z</when>
<when >2025-09-05T13:58:02.100Z</when>
<when >2025-09-05T13:58:22.060Z</when>
<when >2025-09-05T13:58:41.960Z</when>
<when >2025-09-05T13:59:01.790Z</when>
<when >2025-09-05T13:59:21.350Z</when>
<when >2025-09-05T13:59:41.280Z</when>
<when >2025-09-05T14:00:01.110Z</when>
<when >2025-09-05T14:00:20.960Z</when>
<when >2025-09-05T14:00:40.660Z</when>
<when >2025-09-05T14:01:00.280Z</when>
<when >2025-09-05T14:01:19.850Z</when>
<when >2025-09-05T14:01:39.280Z</when>
<when >2025-09-05T14:01:59.240Z</when>
<when >2025-09-05T14:02:18.920Z</when>
<when >2025-09-05T14:02:38.810Z</when>
<when >2025-09-05T14:02:58.250Z</when>
<when >2025-09-05T14:03:17.900Z</when>
<when >2025-09-05T14:03:37.350Z</when>
<when >2025-09-05T14:03:57.150Z</when>
<when >2025-09-05T14:04:16.960Z</when>
<when >2025-09-05T14:04:36.400Z</when>
<when >2025-09-05T14:04:56.280Z</when>
<when >2025-09-05T14:05:16.180Z</when>
<when >2025-09-05T14:05:35.920Z</when>
<when >2025-09-05T14:05:55.780Z</when>
<when >2025-09-05T14:06:15.510Z</when>
<when >2025-09-05T14:06:35.350Z</when>
<when >2025-09-05T14:06:54.670Z</when>
<when >2025-09-05T14:07:14.430Z</when>
<when >2025-09-05T14:07:34.000Z</when>
<when >2025-09-05T14:07:53.650Z</when>
<when >2025-09-05T14:08:13.600Z</when>
<when >2025-09-05T14:08:31.030Z</when>
<when >2025-09-05T14:08:37.790Z</when>
<when >2025-09-05T14:08:43.940Z</when>
<when >2025-09-05T14:08:48.780Z</when>
<when >2025-09-05T14:08:54.590Z</when>
<when >2025-09-05T14:09:14.390Z</when>
<when >2025-09-05T14:09:30.270Z</when>
<when >2025-09-05T14:09:49.890Z</when>
<when >2025-09-05T14:10:09.320Z</when>
<when >2025-09-05T14:10:29.230Z</when>
<when >2025-09-05T14:10:48.710Z</when>
<when >2025-09-05T14:11:05.560Z</when>
<when >2025-09-05T14:11:14.390Z</when>
<when >2025-09-05T14:11:29.300Z</when>
<when >2025-09-05T14:11:48.780Z</when>
<when >2025-09-05T14:12:08.630Z</when>
<when >2025-09-05T14:12:28.450Z</when>
<when >2025-09-05T14:12:48.310Z</when>
<when >2025-09-05T14:13:08.050Z</when>
<when >2025-09-05T14:13:17.190Z</when>
<when >2025-09-05T14:13:36.960Z</when>
<when >2025-09-05T14:13:56.900Z</when>
<when >2025-09-05T14:14:16.700Z</when>
<when >2025-09-05T14:14:36.210Z</when>
<when >2025-09-05T14:14:55.810Z</when>
<when >2025-09-05T14:15:14.220Z</when>
<when >2025-09-05T14:15:34.130Z</when>
<when >2025-09-05T14:15:53.980Z</when>
<when >2025-09-05T14:16:13.490Z</when>
<when >2025-09-05T14:16:33.190Z</when>
<when >2025-09-05T14:16:53.090Z</when>
<when >2025-09-05T14:17:13.000Z</when>
<when >2025-09-05T14:17:32.570Z</when>
<when >2025-09-05T14:17:52.390Z</when>
<when >2025-09-05T14:18:12.380Z</when>
<when >2025-09-05T14:18:32.140Z</when>
<when >2025-09-05T14:18:51.720Z</when>
<when >2025-09-05T14:19:11.320Z</when>
<when >2025-09-05T14:19:31.100Z</when>
<when >2025-09-05T14:19:50.620Z</when>
<when >2025-09-05T14:20:10.430Z</when>
<when >2025-09-05T14:20:30.280Z</when>
<when >2025-09-05T14:20:50.140Z</when>
<when >2025-09-05T14:21:10.110Z</when>
<when >2025-09-05T14:21:29.810Z</when>
<when >2025-09-05T14:21:49.590Z</when>
<when >2025-09-05T14:22:09.420Z</when>
<when >2025-09-05T14:22:29.250Z</when>
<when >2025-09-05T14:22:49.060Z</when>
<when >2025-09-05T14:23:08.940Z</when>
<when >2025-09-05T14:23:28.940Z</when>
<when >2025-09-05T14:23:48.590Z</when>
<when >2025-09-05T14:24:08.430Z</when>
<when >2025-09-05T14:24:28.290Z</when>
<when >2025-09-05T14:24:48.020Z</when>
<when >2025-09-05T14:25:04.380Z</when>
<when >2025-09-05T14:25:14.730Z</when>
<when >2025-09-05T14:25:25.350Z</when>
<when >2025-09-05T14:25:45.260Z</when>
<when >2025-09-05T14:26:05.180Z</when>
<when >2025-09-05T14:26:25.060Z</when>
<when >2025-09-05T14:26:45.040Z</when>
<when >2025-09-05T14:27:04.970Z</when>
<when >2025-09-05T14:27:24.750Z</when>
<when >2025-09-05T14:27:44.560Z</when>
<when >2025-09-05T14:28:04.270Z</when>
<when >2025-09-05T14:28:23.870Z</when>
<when >2025-09-05T14:28:43.810Z</when>
<when >2025-09-05T14:29:02.900Z</when>
<when >2025-09-05T14:29:22.860Z</when>
<when >2025-09-05T14:29:42.230Z</when>
<when >2025-09-05T14:30:01.830Z</when>
<when >2025-09-05T14:30:21.390Z</when>
<when >2025-09-05T14:30:41.090Z</when>
<when >2025-09-05T14:31:00.980Z</when>
<when >2025-09-05T14:31:20.530Z</when>
<when >2025-09-05T14:31:39.970Z</when>
<when >2025-09-05T14:31:59.140Z</when>
<when >2025-09-05T14:32:18.980Z</when>
<when >2025-09-05T14:32:38.640Z</when>
<when >2025-09-05T14:32:57.990Z</when>
<when >2025-09-05T14:33:17.840Z</when>
<when >2025-09-05T14:33:37.330Z</when>
<when >2025-09-05T14:33:57.290Z</when>
<when >2025-09-05T14:34:17.250Z</when>
<when >2025-09-05T14:34:36.810Z</when>
<when >2025-09-05T14:34:56.710Z</when>
<when >2025-09-05T14:35:15.760Z</when>
<when >2025-09-05T14:35:35.380Z</when>
<when >2025-09-05T14:35:55.180Z</when>
<when >2025-09-05T14:36:14.710Z</when>
<when >2025-09-05T14:36:34.570Z</when>
<when >2025-09-05T14:36:54.330Z</when>
<when >2025-09-05T14:37:14.060Z</when>
<when >2025-09-05T14:37:33.800Z</when>
<when >2025-09-05T14:37:53.360Z</when>
<when >2025-09-05T14:38:13.000Z</when>
<when >2025-09-05T14:38:24.800Z</when>
<when >2025-09-05T14:38:30.640Z</when>
<when >2025-09-05T14:38:35.960Z</when>
<when >2025-09-05T14:38:41.180Z</when>
<when >2025-09-05T14:38:44.380Z</when>
<when >2025-09-05T14:38:49.340Z</when>
<when >2025-09-05T14:38:56.140Z</when>
<when >2025-09-05T14:39:15.810Z</when>
<when >2025-09-05T14:39:35.530Z</when>
<when >2025-09-05T14:39:54.960Z</when>
<when >2025-09-05T14:40:14.100Z</when>
<when >2025-09-05T14:40:33.800Z</when>
<when >2025-09-05T14:40:53.370Z</when>
<when >2025-09-05T14:41:12.900Z</when>
<when >2025-09-05T14:41:32.780Z</when>
<when >2025-09-05T14:41:46.290Z</when>
<when >2025-09-05T14:41:52.060Z</when>
<when >2025-09-05T14:41:58.670Z</when>
<when >2025-09-05T14:42:05.470Z</when>
<when >2025-09-05T14:42:14.650Z</when>
<when >2025-09-05T14:42:34.180Z</when>
<when >2025-09-05T14:42:53.920Z</when>
<when >2025-09-05T14:43:08.310Z</when>
<when >2025-09-05T14:43:13.650Z</when>
<when >2025-09-05T14:43:18.820Z</when>
<when >2025-09-05T14:43:23.450Z</when>
<when >2025-09-05T14:43:27.930Z</when>
<when >2025-09-05T14:43:47.830Z</when>
<when >2025-09-05T14:44:06.010Z</when>
<when >2025-09-05T14:44:25.430Z</when>
<when >2025-09-05T14:44:45.120Z</when>
<when >2025-09-05T14:45:04.520Z</when>
<when >2025-09-05T14:45:24.270Z</when>
<when >2025-09-05T14:45:44.040Z</when>
<when >2025-09-05T14:46:03.880Z</when>
<when >2025-09-05T14:46:23.710Z</when>
<when >2025-09-05T14:46:43.380Z</when>
<when >2025-09-05T14:47:03.180Z</when>
<when >2025-09-05T14:47:22.850Z</when>
<when >2025-09-05T14:47:42.580Z</when>
<when >2025-09-05T14:48:01.790Z</when>
<when >2025-09-05T14:48:21.330Z</when>
<when >2025-09-05T14:48:40.850Z</when>
<when >2025-09-05T14:49:00.540Z</when>
<when >2025-09-05T14:49:20.140Z</when>
<when >2025-09-05T14:49:40.000Z</when>
<when >2025-09-05T14:49:58.700Z</when>
<when >2025-09-05T14:50:18.430Z</when>
<when >2025-09-05T14:50:37.970Z</when>
<when >2025-09-05T14:50:57.300Z</when>
<when >2025-09-05T14:51:16.570Z</when>
<when >2025-09-05T14:51:36.290Z</when>
<when >2025-09-05T14:51:55.870Z</when>
<when >2025-09-05T14:52:14.650Z</when>
<when >2025-09-05T14:52:21.380Z</when>
<when >2025-09-05T14:52:27.400Z</when>
<when >2025-09-05T14:52:27.660Z</when>
<when >2025-09-05T14:52:28.440Z</when>
<when >2025-09-05T14:52:47.770Z</when>
<when >2025-09-05T14:53:07.650Z</when>
<when >2025-09-05T14:53:26.530Z</when>
<when >2025-09-05T14:53:46.160Z</when>
<when >2025-09-05T14:54:06.100Z</when>
<when >2025-09-05T14:54:25.920Z</when>
<when >2025-09-05T14:54:45.530Z</when>
<when >2025-09-05T14:55:05.400Z</when>
<when >2025-09-05T14:55:25.380Z</when>
<when >2025-09-05T14:55:45.100Z</when>
<when >2025-09-05T14:56:04.730Z</when>
<when >2025-09-05T14:56:23.940Z</when>
<when >2025-09-05T14:56:43.930Z</when>
<when >2025-09-05T14:56:52.880Z</when>
<when >2025-09-05T14:57:03.830Z</when>
<when >2025-09-05T14:57:22.940Z</when>
<when >2025-09-05T14:57:42.640Z</when>
<when >2025-09-05T14:58:02.610Z</when>
<when >2025-09-05T14:58:22.490Z</when>
<when >2025-09-05T14:58:42.320Z</when>
<when >2025-09-05T14:59:02.090Z</when>
<when >2025-09-05T14:59:21.230Z</when>
<when >2025-09-05T14:59:41.120Z</when>
<when >2025-09-05T15:00:00.390Z</when>
<when >2025-09-05T15:00:19.830Z</when>
<when >2025-09-05T15:00:39.540Z</when>
<when >2025-09-05T15:00:58.780Z</when>
<when >2025-09-05T15:01:18.280Z</when>
<when >2025-09-05T15:01:38.240Z</when>
<when >2025-09-05T15:01:58.150Z</when>
<when >2025-09-05T15:02:17.600Z</when>
<when >2025-09-05T15:02:37.390Z</when>
<when >2025-09-05T15:02:56.950Z</when>
<when >2025-09-05T15:03:16.590Z</when>
<when >2025-09-05T15:03:36.120Z</when>
<when >2025-09-05T15:03:55.710Z</when>
<when >2025-09-05T15:04:15.150Z</when>
<when >2025-09-05T15:04:35.000Z</when>
<when >2025-09-05T15:04:54.650Z</when>
<when >2025-09-05T15:05:13.660Z</when>
<when >2025-09-05T15:05:25.860Z</when>
<when >2025-09-05T15:05:45.670Z</when>
<when >2025-09-05T15:06:05.590Z</when>
<when >2025-09-05T15:06:25.360Z</when>
<when >2025-09-05T15:06:45.120Z</when>
<when >2025-09-05T15:07:04.500Z</when>
<when >2025-09-05T15:07:24.260Z</when>
<when >2025-09-05T15:07:43.970Z</when>
<when >2025-09-05T15:08:03.360Z</when>
<when >2025-09-05T15:08:22.760Z</when>
<when >2025-09-05T15:08:42.330Z</when>
<when >2025-09-05T15:09:02.000Z</when>
<when >2025-09-05T15:09:21.190Z</when>
<when >2025-09-05T15:09:40.770Z</when>
<when >2025-09-05T15:10:00.680Z</when>
<when >2025-09-05T15:10:20.060Z</when>
<when >2025-09-05T15:10:39.440Z</when>
<when >2025-09-05T15:10:58.720Z</when>
<when >2025-09-05T15:11:17.840Z</when>
<when >2025-09-05T15:11:37.750Z</when>
<when >2025-09-05T15:11:57.070Z</when>
<when >2025-09-05T15:12:16.550Z</when>
<when >2025-09-05T15:12:36.420Z</when>
<when >2025-09-05T15:12:56.230Z</when>
<when >2025-09-05T15:13:16.180Z</when>
<when >2025-09-05T15:13:34.820Z</when>
<when >2025-09-05T15:13:54.500Z</when>
<when >2025-09-05T15:14:13.730Z</when>
<when >2025-09-05T15:14:33.510Z</when>
<when >2025-09-05T15:14:53.440Z</when>
<when >2025-09-05T15:15:12.440Z</when>
<when >2025-09-05T15:15:31.420Z</when>
<when >2025-09-05T15:15:51.180Z</when>
<when >2025-09-05T15:16:11.160Z</when>
<when >2025-09-05T15:16:29.940Z</when>
<when >2025-09-05T15:16:49.530Z</when>
<when >2025-09-05T15:17:09.470Z</when>
<when >2025-09-05T15:17:29.350Z</when>
<when >2025-09-05T15:17:48.890Z</when>
<when >2025-09-05T15:18:08.430Z</when>
<when >2025-09-05T15:18:28.420Z</when>
<when >2025-09-05T15:18:47.990Z</when>
<when >2025-09-05T15:19:07.890Z</when>
<when >2025-09-05T15:19:27.810Z</when>
<when >2025-09-05T15:19:47.330Z</when>
<when >2025-09-05T15:20:07.110Z</when>
<when >2025-09-05T15:20:26.800Z</when>
<when >2025-09-05T15:20:46.610Z</when>
<when >2025-09-05T15:21:06.120Z</when>
<when >2025-09-05T15:21:25.580Z</when>
<when >2025-09-05T15:21:44.930Z</when>
<when >2025-09-05T15:22:04.640Z</when>
<when >2025-09-05T15:22:23.710Z</when>
<when >2025-09-05T15:22:43.300Z</when>
<when >2025-09-05T15:23:02.850Z</when>
<when >2025-09-05T15:23:22.220Z</when>
<when >2025-09-05T15:23:41.920Z</when>
<when >2025-09-05T15:24:01.540Z</when>
<when >2025-09-05T15:24:21.470Z</when>
<when >2025-09-05T15:24:41.300Z</when>
<when >2025-09-05T15:25:01.260Z</when>
<when >2025-09-05T15:25:20.050Z</when>
<when >2025-09-05T15:25:39.520Z</when>
<when >2025-09-05T15:25:59.280Z</when>
<when >2025-09-05T15:26:18.800Z</when>
<when >2025-09-05T15:26:38.600Z</when>
<when >2025-09-05T15:26:58.270Z</when>
<when >2025-09-05T15:27:17.800Z</when>
<when >2025-09-05T15:27:36.870Z</when>
<when >2025-09-05T15:27:56.580Z</when>
<when >2025-09-05T15:28:15.730Z</when>
<when >2025-09-05T15:28:35.250Z</when>
<when >2025-09-05T15:28:54.570Z</when>
<when >2025-09-05T15:29:13.850Z</when>
<when >2025-09-05T15:29:33.230Z</when>
<when >2025-09-05T15:29:52.310Z</when>
<when >2025-09-05T15:30:11.330Z</when>
<when >2025-09-05T15:30:30.930Z</when>
<when >2025-09-05T15:30:50.830Z</when>
<when >2025-09-05T15:31:10.760Z</when>
<when >2025-09-05T15:31:30.130Z</when>
<when >2025-09-05T15:31:49.460Z</when>
<when >2025-09-05T15:32:09.260Z</when>
<when >2025-09-05T15:32:28.920Z</when>
<when >2025-09-05T15:32:47.010Z</when>
<when >2025-09-05T15:33:06.820Z</when>
<when >2025-09-05T15:33:25.950Z</when>
<when >2025-09-05T15:33:45.930Z</when>
<when >2025-09-05T15:34:05.650Z</when>
<when >2025-09-05T15:34:25.110Z</when>
<when >2025-09-05T15:34:44.450Z</when>
<when >2025-09-05T15:35:04.160Z</when>
<when >2025-09-05T15:35:23.850Z</when>
<when >2025-09-05T15:35:42.970Z</when>
<when >2025-09-05T15:36:02.600Z</when>
<when >2025-09-05T15:36:18.150Z</when>
<when >2025-09-05T15:36:26.530Z</when>
<when >2025-09-05T15:36:34.890Z</when>
<when >2025-09-05T15:36:43.640Z</when>
<when >2025-09-05T15:36:52.070Z</when>
<when >2025-09-05T15:37:02.070Z</when>
<when >2025-09-05T15:37:10.890Z</when>
<when >2025-09-05T15:37:20.460Z</when>
<when >2025-09-05T15:37:30.430Z</when>
<when >2025-09-05T15:37:39.680Z</when>
<when >2025-09-05T15:37:47.910Z</when>
<when >2025-09-05T15:37:57.490Z</when>
<when >2025-09-05T15:38:07.440Z</when>
<when >2025-09-05T15:38:15.510Z</when>
<when >2025-09-05T15:38:25.070Z</when>
<when >2025-09-05T15:38:44.700Z</when>
<when >2025-09-05T15:39:04.320Z</when>
<when >2025-09-05T15:39:23.340Z</when>
<when >2025-09-05T15:39:42.550Z</when>
<when >2025-09-05T15:40:00.760Z</when>
<when >2025-09-05T15:40:20.030Z</when>
<when >2025-09-05T15:40:39.260Z</when>
<when >2025-09-05T15:40:59.230Z</when>
<when >2025-09-05T15:41:18.540Z</when>
<when >2025-09-05T15:41:37.930Z</when>
<when >2025-09-05T15:41:57.900Z</when>
<when >2025-09-05T15:42:17.430Z</when>
<when >2025-09-05T15:42:37.130Z</when>
<when >2025-09-05T15:42:56.880Z</when>
<when >2025-09-05T15:43:16.640Z</when>
<when >2025-09-05T15:43:36.540Z</when>
<when >2025-09-05T15:43:56.410Z</when>
<when >2025-09-05T15:44:16.080Z</when>
<when >2025-09-05T15:44:35.480Z</when>
<when >2025-09-05T15:44:54.880Z</when>
<when >2025-09-05T15:45:13.660Z</when>
<when >2025-09-05T15:45:33.040Z</when>
<when >2025-09-05T15:45:52.750Z</when>
<when >2025-09-05T15:46:11.940Z</when>
<when >2025-09-05T15:46:31.670Z</when>
<when >2025-09-05T15:46:43.470Z</when>
<when >2025-09-05T15:46:52.640Z</when>
<when >2025-09-05T15:47:00.070Z</when>
<when >2025-09-05T15:47:09.480Z</when>
<when >2025-09-05T15:47:18.090Z</when>
<when >2025-09-05T15:47:27.640Z</when>
<when >2025-09-05T15:47:36.760Z</when>
<when >2025-09-05T15:47:45.540Z</when>
<when >2025-09-05T15:47:54.910Z</when>
<when >2025-09-05T15:48:03.830Z</when>
<when >2025-09-05T15:48:14.120Z</when>
<when >2025-09-05T15:48:33.830Z</when>
<when >2025-09-05T15:48:53.080Z</when>
<when >2025-09-05T15:49:11.970Z</when>
<when >2025-09-05T15:49:30.740Z</when>
<when >2025-09-05T15:49:50.500Z</when>
<when >2025-09-05T15:50:09.720Z</when>
<when >2025-09-05T15:50:29.400Z</when>
<when >2025-09-05T15:50:49.320Z</when>
<when >2025-09-05T15:51:08.500Z</when>
<when >2025-09-05T15:51:27.320Z</when>
<when >2025-09-05T15:51:47.210Z</when>
<when >2025-09-05T15:52:06.500Z</when>
<when >2025-09-05T15:52:25.720Z</when>
<when >2025-09-05T15:52:45.690Z</when>
<when >2025-09-05T15:53:04.720Z</when>
<when >2025-09-05T15:53:23.490Z</when>
<when >2025-09-05T15:53:43.010Z</when>
<when >2025-09-05T15:54:02.750Z</when>
<when >2025-09-05T15:54:22.420Z</when>
<when >2025-09-05T15:54:41.880Z</when>
<when >2025-09-05T15:55:01.670Z</when>
<when >2025-09-05T15:55:21.060Z</when>
<when >2025-09-05T15:55:35.900Z</when>
<when >2025-09-05T15:55:42.220Z</when>
<when >2025-09-05T15:55:46.870Z</when>
<when >2025-09-05T15:55:51.010Z</when>
<when >2025-09-05T15:55:55.400Z</when>
<when >2025-09-05T15:56:05.580Z</when>
<when >2025-09-05T15:56:20.170Z</when>
<when >2025-09-05T15:56:37.960Z</when>
<when >2025-09-05T15:56:57.920Z</when>
<when >2025-09-05T15:57:17.220Z</when>
<when >2025-09-05T15:57:36.700Z</when>
<when >2025-09-05T15:57:55.600Z</when>
<when >2025-09-05T15:58:15.050Z</when>
<when >2025-09-05T15:58:34.990Z</when>
<when >2025-09-05T15:58:54.710Z</when>
<when >2025-09-05T15:59:13.910Z</when>
<when >2025-09-05T15:59:33.790Z</when>
<when >2025-09-05T15:59:53.030Z</when>
<when >2025-09-05T16:00:12.780Z</when>
<when >2025-09-05T16:00:32.730Z</when>
<when >2025-09-05T16:00:51.520Z</when>
<when >2025-09-05T16:01:11.500Z</when>
<when >2025-09-05T16:01:31.250Z</when>
<when >2025-09-05T16:01:50.270Z</when>
<when >2025-09-05T16:02:10.140Z</when>
<when >2025-09-05T16:02:29.990Z</when>
<when >2025-09-05T16:02:49.800Z</when>
<when >2025-09-05T16:03:09.470Z</when>
<when >2025-09-05T16:03:29.280Z</when>
<when >2025-09-05T16:03:48.580Z</when>
<when >2025-09-05T16:04:08.290Z</when>
<when >2025-09-05T16:04:27.500Z</when>
<when >2025-09-05T16:04:46.280Z</when>
<when >2025-09-05T16:05:05.640Z</when>
<when >2025-09-05T16:05:25.440Z</when>
<when >2025-09-05T16:05:45.290Z</when>
<when >2025-09-05T16:05:56.580Z</when>
<when >2025-09-05T16:06:04.150Z</when>
<when >2025-09-05T16:06:13.190Z</when>
<when >2025-09-05T16:06:21.110Z</when>
<when >2025-09-05T16:06:30.550Z</when>
<when >2025-09-05T16:06:40.040Z</when>
<when >2025-09-05T16:06:48.720Z</when>
<when >2025-09-05T16:06:57.980Z</when>
<when >2025-09-05T16:07:07.500Z</when>
<when >2025-09-05T16:07:16.820Z</when>
<when >2025-09-05T16:07:35.690Z</when>
<when >2025-09-05T16:07:55.190Z</when>
<when >2025-09-05T16:08:14.070Z</when>
<when >2025-09-05T16:08:33.830Z</when>
<when >2025-09-05T16:08:43.360Z</when>
<when >2025-09-05T16:08:52.090Z</when>
<when >2025-09-05T16:09:00.740Z</when>
<when >2025-09-05T16:09:10.190Z</when>
<when >2025-09-05T16:09:18.890Z</when>
<when >2025-09-05T16:09:28.930Z</when>
<when >2025-09-05T16:09:38.130Z</when>
<when >2025-09-05T16:09:47.540Z</when>
<when >2025-09-05T16:09:56.760Z</when>
<when >2025-09-05T16:10:05.350Z</when>
<when >2025-09-05T16:10:13.700Z</when>
<when >2025-09-05T16:10:23.250Z</when>
<when >2025-09-05T16:10:31.330Z</when>
<when >2025-09-05T16:10:41.130Z</when>
<when >2025-09-05T16:10:50.250Z</when>
<when >2025-09-05T16:10:58.390Z</when>
<when >2025-09-05T16:11:08.340Z</when>
<when >2025-09-05T16:11:16.860Z</when>
<when >2025-09-05T16:11:25.910Z</when>
<when >2025-09-05T16:11:45.110Z</when>
<when >2025-09-05T16:12:04.080Z</when>
<when >2025-09-05T16:12:24.010Z</when>
<when >2025-09-05T16:12:43.450Z</when>
<when >2025-09-05T16:13:02.200Z</when>
<when >2025-09-05T16:13:22.110Z</when>
<when >2025-09-05T16:13:41.660Z</when>
<when >2025-09-05T16:14:01.360Z</when>
<when >2025-09-05T16:14:19.880Z</when>
<when >2025-09-05T16:14:39.320Z</when>
<when >2025-09-05T16:14:58.960Z</when>
<when >2025-09-05T16:15:18.440Z</when>
<when >2025-09-05T16:15:37.710Z</when>
<when >2025-09-05T16:15:56.490Z</when>
<when >2025-09-05T16:16:15.280Z</when>
<when >2025-09-05T16:16:22.770Z</when>
<when >2025-09-05T16:16:29.310Z</when>
<when >2025-09-05T16:16:38.790Z</when>
<when >2025-09-05T16:16:57.700Z</when>
<when >2025-09-05T16:17:17.360Z</when>
<when >2025-09-05T16:17:37.170Z</when>
<when >2025-09-05T16:17:56.630Z</when>
<when >2025-09-05T16:18:16.580Z</when>
<when >2025-09-05T16:18:35.710Z</when>
<when >2025-09-05T16:18:55.570Z</when>
<when >2025-09-05T16:19:15.240Z</when>
<when >2025-09-05T16:19:34.790Z</when>
<when >2025-09-05T16:19:42.270Z</when>
<when >2025-09-05T16:19:48.950Z</when>
<when >2025-09-05T16:20:04.760Z</when>
<when >2025-09-05T16:20:07.070Z</when>
<when >2025-09-05T16:20:14.320Z</when>
<when >2025-09-05T16:20:25.820Z</when>
<when >2025-09-05T16:20:30.340Z</when>
<when >2025-09-05T16:20:32.650Z</when>
<when >2025-09-05T16:20:39.520Z</when>
<when >2025-09-05T16:20:57.920Z</when>
<when >2025-09-05T16:21:15.020Z</when>
<when >2025-09-05T16:21:30.720Z</when>
<when >2025-09-05T16:21:47.220Z</when>
<when >2025-09-05T16:22:04.270Z</when>
<when >2025-09-05T16:22:21.280Z</when>
<when >2025-09-05T16:22:37.960Z</when>
<when >2025-09-05T16:22:53.590Z</when>
<when >2025-09-05T16:23:09.260Z</when>
<when >2025-09-05T16:23:18.370Z</when>
<when >2025-09-05T16:23:28.080Z</when>
<when >2025-09-05T16:23:36.480Z</when>
<when >2025-09-05T16:23:41.390Z</when>
<when >2025-09-05T16:23:48.890Z</when>
<when >2025-09-05T16:23:57.110Z</when>
<when >2025-09-05T16:24:03.140Z</when>
<when >2025-09-05T16:24:10.040Z</when>
<when >2025-09-05T16:24:15.350Z</when>
<when >2025-09-05T16:24:24.630Z</when>
<when >2025-09-05T16:24:33.100Z</when>
<when >2025-09-05T16:24:43.420Z</when>
<when >2025-09-05T16:24:52.930Z</when>
<when >2025-09-05T16:25:01.510Z</when>
<when >2025-09-05T16:25:12.610Z</when>
<when >2025-09-05T16:25:22.200Z</when>
<when >2025-09-05T16:25:34.160Z</when>
<when >2025-09-05T16:25:44.890Z</when>
<when >2025-09-05T16:25:51.400Z</when>
<when >2025-09-05T16:25:59.550Z</when>
<when >2025-09-05T16:26:09.720Z</when>
<when >2025-09-05T16:26:21.830Z</when>
<when >2025-09-05T16:26:31.280Z</when>
<when >2025-09-05T16:26:39.730Z</when>
<when >2025-09-05T16:26:49.980Z</when>
<when >2025-09-05T16:26:58.710Z</when>
<when >2025-09-05T16:27:05.190Z</when>
<when >2025-09-05T16:27:14.520Z</when>
<when >2025-09-05T16:27:22.970Z</when>
<when >2025-09-05T16:27:32.320Z</when>
<when >2025-09-05T16:27:40.660Z</when>
<when >2025-09-05T16:27:48.340Z</when>
<when >2025-09-05T16:27:52.900Z</when>
<when >2025-09-05T16:27:55.340Z</when>
<when >2025-09-05T16:27:58.150Z</when>
<when >2025-09-05T16:28:04.180Z</when>
<when >2025-09-05T16:28:08.110Z</when>
<when >2025-09-05T16:28:14.780Z</when>
<when >2025-09-05T16:28:20.730Z</when>
<when >2025-09-05T16:28:27.030Z</when>
<when >2025-09-05T16:28:35.620Z</when>
<when >2025-09-05T16:28:52.450Z</when>
<when >2025-09-05T16:29:05.640Z</when>
<when >2025-09-05T16:29:14.960Z</when>
<when >2025-09-05T16:29:21.850Z</when>
<when >2025-09-05T16:29:27.930Z</when>
<when >2025-09-05T16:29:34.990Z</when>
<when >2025-09-05T16:29:38.060Z</when>
<when >2025-09-05T16:29:48.630Z</when>
<when >2025-09-05T16:29:53.310Z</when>
<when >2025-09-05T16:30:05.020Z</when>
<when >2025-09-05T16:30:15.900Z</when>
<when >2025-09-05T16:30:22.850Z</when>
<when >2025-09-05T16:30:27.420Z</when>
<when >2025-09-05T16:30:36.270Z</when>
<when >2025-09-05T16:30:38.810Z</when>
<when >2025-09-05T16:30:44.170Z</when>
<when >2025-09-05T16:30:46.810Z</when>
<when >2025-09-05T16:30:49.350Z</when>
<when >2025-09-05T16:30:54.010Z</when>
<when >2025-09-05T16:31:04.790Z</when>
<when >2025-09-05T16:31:12.210Z</when>
<when >2025-09-05T16:31:19.740Z</when>
<when >2025-09-05T16:31:26.060Z</when>
<when >2025-09-05T16:31:31.950Z</when>
<when >2025-09-05T16:31:37.820Z</when>
<when >2025-09-05T16:31:40.550Z</when>
<when >2025-09-05T16:31:43.780Z</when>
<when >2025-09-05T16:31:46.550Z</when>
<when >2025-09-05T16:31:46.550Z</when>
<when >2025-09-05T16:31:57.110Z</when>
<when >2025-09-05T16:32:05.130Z</when>
<when >2025-09-05T16:32:07.830Z</when>
<when >2025-09-05T16:32:17.930Z</when>
<when >2025-09-05T16:32:22.490Z</when>
<when >2025-09-05T16:32:27.070Z</when>
<when >2025-09-05T16:32:36.440Z</when>
<when >2025-09-05T16:32:44.310Z</when>
<when >2025-09-05T16:32:51.550Z</when>
<when >2025-09-05T16:32:58.470Z</when>
<when >2025-09-05T16:33:06.340Z</when>
<when >2025-09-05T16:33:14.420Z</when>
<when >2025-09-05T16:33:21.440Z</when>
<when >2025-09-05T16:33:29.300Z</when>
<when >2025-09-05T16:33:36.970Z</when>
<when >2025-09-05T16:33:45.170Z</when>
<when >2025-09-05T16:33:51.360Z</when>
<when >2025-09-05T16:33:58.890Z</when>
<when >2025-09-05T16:34:06.420Z</when>
<when >2025-09-05T16:34:11.850Z</when>
<when >2025-09-05T16:34:19.460Z</when>
<when >2025-09-05T16:34:28.290Z</when>
<when >2025-09-05T16:34:32.740Z</when>
<when >2025-09-05T16:34:38.100Z</when>
<when >2025-09-05T16:34:43.060Z</when>
<when >2025-09-05T16:34:45.490Z</when>
<when >2025-09-05T16:34:49.800Z</when>
<when >2025-09-05T16:34:54.160Z</when>
<when >2025-09-05T16:34:56.260Z</when>
<when >2025-09-05T16:35:00.550Z</when>
<when >2025-09-05T16:35:03.780Z</when>
<when >2025-09-05T16:35:06.880Z</when>
<when >2025-09-05T16:35:12.290Z</when>
<when >2025-09-05T16:35:17.520Z</when>
<when >2025-09-05T16:35:24.100Z</when>
<when >2025-09-05T16:35:28.260Z</when>
<when >2025-09-05T16:35:32.940Z</when>
<when >2025-09-05T16:35:35.670Z</when>
<when >2025-09-05T16:35:40.800Z</when>
<when >2025-09-05T16:35:57.800Z</when>
<when >2025-09-05T16:36:10.100Z</when>
<when >2025-09-05T16:36:17.630Z</when>
<when >2025-09-05T16:36:29.080Z</when>
<when >2025-09-05T16:36:31.430Z</when>
<when >2025-09-05T16:36:33.880Z</when>
<when >2025-09-05T16:36:38.770Z</when>
<when >2025-09-05T16:36:40.060Z</when>
<when >2025-09-05T16:36:43.360Z</when>
<when >2025-09-05T16:36:50.140Z</when>
<when >2025-09-05T16:36:57.020Z</when>
<when >2025-09-05T16:37:02.090Z</when>
<when >2025-09-05T16:37:07.690Z</when>
<when >2025-09-05T16:37:10.120Z</when>
<when >2025-09-05T16:37:18.430Z</when>
<when >2025-09-05T16:37:25.890Z</when>
<when >2025-09-05T16:37:29.560Z</when>
<when >2025-09-05T16:37:33.210Z</when>
<when >2025-09-05T16:37:38.320Z</when>
<when >2025-09-05T16:37:49.560Z</when>
<when >2025-09-05T16:38:01.060Z</when>
<when >2025-09-05T16:38:06.660Z</when>
<when >2025-09-05T16:38:10.220Z</when>
<when >2025-09-05T16:38:29.450Z</when>
<when >2025-09-05T16:38:35.660Z</when>
<when >2025-09-05T16:38:39.580Z</when>
<when >2025-09-05T16:38:43.690Z</when>
<when >2025-09-05T16:38:46.200Z</when>
<when >2025-09-05T16:38:48.580Z</when>
<when >2025-09-05T16:38:51.790Z</when>
<when >2025-09-05T16:38:55.220Z</when>
<when >2025-09-05T16:38:58.190Z</when>
<when >2025-09-05T16:39:02.570Z</when>
<when >2025-09-05T16:39:08.330Z</when>
<when >2025-09-05T16:39:18.470Z</when>
<when >2025-09-05T16:39:31.030Z</when>
<when >2025-09-05T16:39:44.610Z</when>
<when >2025-09-05T16:39:48.770Z</when>
<when >2025-09-05T16:39:52.430Z</when>
<when >2025-09-05T16:39:56.400Z</when>
<when >2025-09-05T16:40:03.440Z</when>
<when >2025-09-05T16:40:08.710Z</when>
<when >2025-09-05T16:40:13.850Z</when>
<when >2025-09-05T16:40:20.970Z</when>
<when >2025-09-05T16:40:25.630Z</when>
<when >2025-09-05T16:40:29.940Z</when>
<when >2025-09-05T16:40:39.920Z</when>
<when >2025-09-05T16:40:42.560Z</when>
<when >2025-09-05T16:40:47.740Z</when>
<when >2025-09-05T16:40:54.840Z</when>
<when >2025-09-05T16:40:57.230Z</when>
<when >2025-09-05T16:40:59.490Z</when>
<when >2025-09-05T16:41:04.300Z</when>
<when >2025-09-05T16:41:11.370Z</when>
<when >2025-09-05T16:41:13.850Z</when>
<when >2025-09-05T16:41:20.800Z</when>
<when >2025-09-05T16:41:23.050Z</when>
<when >2025-09-05T16:41:25.380Z</when>
<when >2025-09-05T16:41:32.120Z</when>
<when >2025-09-05T16:41:37.570Z</when>
<when >2025-09-05T16:41:48.090Z</when>
<when >2025-09-05T16:41:55.970Z</when>
<when >2025-09-05T16:42:03.380Z</when>
<when >2025-09-05T16:42:03.380Z</when>
<gx:coord >20.963405 52.170069 105</gx:coord>
<gx:coord >20.963745 52.169632 105</gx:coord>
<gx:coord >20.964584 52.168671 106</gx:coord>
<gx:coord >20.965805 52.167297 106</gx:coord>
<gx:coord >20.965958 52.167114 106</gx:coord>
<gx:coord >20.966797 52.166153 106</gx:coord>
<gx:coord >20.968323 52.164413 107</gx:coord>
<gx:coord >20.968857 52.163773 107</gx:coord>
<gx:coord >20.970535 52.161896 108</gx:coord>
<gx:coord >20.971451 52.160843 109</gx:coord>
<gx:coord >20.973136 52.158943 104</gx:coord>
<gx:coord >20.974731 52.157089 106</gx:coord>
<gx:coord >20.975342 52.156357 114</gx:coord>
<gx:coord >20.976353 52.155312 122</gx:coord>
<gx:coord >20.976639 52.154938 129</gx:coord>
<gx:coord >20.978012 52.153381 160</gx:coord>
<gx:coord >20.979335 52.152007 182</gx:coord>
<gx:coord >20.98053 52.150635 208</gx:coord>
<gx:coord >20.981768 52.149306 239</gx:coord>
<gx:coord >20.983582 52.147293 268</gx:coord>
<gx:coord >20.984828 52.145908 299</gx:coord>
<gx:coord >20.986241 52.144325 331</gx:coord>
<gx:coord >20.987549 52.142899 362</gx:coord>
<gx:coord >20.989075 52.141113 398</gx:coord>
<gx:coord >20.990524 52.139511 429</gx:coord>
<gx:coord >20.992584 52.137177 471</gx:coord>
<gx:coord >20.994638 52.134829 501</gx:coord>
<gx:coord >20.996678 52.132501 530</gx:coord>
<gx:coord >20.998483 52.130406 563</gx:coord>
<gx:coord >21.000137 52.128525 595</gx:coord>
<gx:coord >21.001053 52.127472 610</gx:coord>
<gx:coord >21.002274 52.126053 643</gx:coord>
<gx:coord >21.003571 52.124588 674</gx:coord>
<gx:coord >21.004996 52.122818 705</gx:coord>
<gx:coord >21.006012 52.121384 735</gx:coord>
<gx:coord >21.00708 52.119278 768</gx:coord>
<gx:coord >21.007538 52.117676 791</gx:coord>
<gx:coord >21.007919 52.114929 824</gx:coord>
<gx:coord >21.0079 52.113601 833</gx:coord>
<gx:coord >21.007614 52.111633 857</gx:coord>
<gx:coord >21.00688 52.109644 873</gx:coord>
<gx:coord >21.006241 52.108429 888</gx:coord>
<gx:coord >21.004791 52.106506 913</gx:coord>
<gx:coord >21.003342 52.104904 929</gx:coord>
<gx:coord >21.0009 52.102386 964</gx:coord>
<gx:coord >20.998383 52.099869 996</gx:coord>
<gx:coord >20.996323 52.097855 1027</gx:coord>
<gx:coord >20.994644 52.096252 1058</gx:coord>
<gx:coord >20.992661 52.094421 1091</gx:coord>
<gx:coord >20.990906 52.092819 1122</gx:coord>
<gx:coord >20.989066 52.091116 1151</gx:coord>
<gx:coord >20.986712 52.088975 1179</gx:coord>
<gx:coord >20.984497 52.087006 1214</gx:coord>
<gx:coord >20.981598 52.084396 1255</gx:coord>
<gx:coord >20.978851 52.08197 1283</gx:coord>
<gx:coord >20.976334 52.079727 1315</gx:coord>
<gx:coord >20.973587 52.077255 1346</gx:coord>
<gx:coord >20.970546 52.074544 1374</gx:coord>
<gx:coord >20.966779 52.071471 1408</gx:coord>
<gx:coord >20.963287 52.069153 1432</gx:coord>
<gx:coord >20.96058 52.067654 1456</gx:coord>
<gx:coord >20.956735 52.065931 1482</gx:coord>
<gx:coord >20.95289 52.064581 1499</gx:coord>
<gx:coord >20.948486 52.063431 1515</gx:coord>
<gx:coord >20.94429 52.062653 1539</gx:coord>
<gx:coord >20.939392 52.061974 1555</gx:coord>
<gx:coord >20.937038 52.061695 1564</gx:coord>
<gx:coord >20.931937 52.06109 1580</gx:coord>
<gx:coord >20.927734 52.060593 1594</gx:coord>
<gx:coord >20.921186 52.05988 1620</gx:coord>
<gx:coord >20.915771 52.059274 1636</gx:coord>
<gx:coord >20.912857 52.058945 1643</gx:coord>
<gx:coord >20.905413 52.058111 1664</gx:coord>
<gx:coord >20.901018 52.057645 1673</gx:coord>
<gx:coord >20.894191 52.0569 1697</gx:coord>
<gx:coord >20.887451 52.056152 1728</gx:coord>
<gx:coord >20.883179 52.055695 1744</gx:coord>
<gx:coord >20.877005 52.054992 1775</gx:coord>
<gx:coord >20.871041 52.05434 1807</gx:coord>
<gx:coord >20.865021 52.05368 1840</gx:coord>
<gx:coord >20.85927 52.053036 1872</gx:coord>
<gx:coord >20.853806 52.052399 1903</gx:coord>
<gx:coord >20.848519 52.051826 1934</gx:coord>
<gx:coord >20.842634 52.051128 1965</gx:coord>
<gx:coord >20.838699 52.050659 1997</gx:coord>
<gx:coord >20.833664 52.05011 2026</gx:coord>
<gx:coord >20.829058 52.049545 2055</gx:coord>
<gx:coord >20.825882 52.049194 2086</gx:coord>
<gx:coord >20.822545 52.0488 2110</gx:coord>
<gx:coord >20.819168 52.048416 2140</gx:coord>
<gx:coord >20.815874 52.048009 2171</gx:coord>
<gx:coord >20.812912 52.047684 2203</gx:coord>
<gx:coord >20.810089 52.047318 2236</gx:coord>
<gx:coord >20.802689 52.046448 2300</gx:coord>
<gx:coord >20.796099 52.045681 2365</gx:coord>
<gx:coord >20.789261 52.044846 2428</gx:coord>
<gx:coord >20.781503 52.043959 2491</gx:coord>
<gx:coord >20.772781 52.042923 2555</gx:coord>
<gx:coord >20.763925 52.041864 2627</gx:coord>
<gx:coord >20.755842 52.040933 2688</gx:coord>
<gx:coord >20.746739 52.039862 2749</gx:coord>
<gx:coord >20.736771 52.038712 2811</gx:coord>
<gx:coord >20.726571 52.037581 2872</gx:coord>
<gx:coord >20.71684 52.036464 2934</gx:coord>
<gx:coord >20.707321 52.035416 2999</gx:coord>
<gx:coord >20.698776 52.034454 3061</gx:coord>
<gx:coord >20.689774 52.033447 3123</gx:coord>
<gx:coord >20.680161 52.032349 3185</gx:coord>
<gx:coord >20.66905 52.031064 3251</gx:coord>
<gx:coord >20.665126 52.030645 3267</gx:coord>
<gx:coord >20.65918 52.029968 3290</gx:coord>
<gx:coord >20.640945 52.027863 3344</gx:coord>
<gx:coord >20.621567 52.025528 3389</gx:coord>
<gx:coord >20.612627 52.02436 3411</gx:coord>
<gx:coord >20.606842 52.023605 3433</gx:coord>
<gx:coord >20.60376 52.02315 3448</gx:coord>
<gx:coord >20.602426 52.022964 3455</gx:coord>
<gx:coord >20.591583 52.021454 3518</gx:coord>
<gx:coord >20.583357 52.020264 3554</gx:coord>
<gx:coord >20.577774 52.01944 3580</gx:coord>
<gx:coord >20.575485 52.019073 3587</gx:coord>
<gx:coord >20.559845 52.016739 3644</gx:coord>
<gx:coord >20.550084 52.015189 3702</gx:coord>
<gx:coord >20.547714 52.014816 3711</gx:coord>
<gx:coord >20.546417 52.014587 3718</gx:coord>
<gx:coord >20.539398 52.013535 3773</gx:coord>
<gx:coord >20.536346 52.013123 3794</gx:coord>
<gx:coord >20.524368 52.011383 3903</gx:coord>
<gx:coord >20.514832 52.01001 3981</gx:coord>
<gx:coord >20.512695 52.009689 3990</gx:coord>
<gx:coord >20.50827 52.009048 4014</gx:coord>
<gx:coord >20.507315 52.008905 4022</gx:coord>
<gx:coord >20.504913 52.008545 4030</gx:coord>
<gx:coord >20.499154 52.007695 4047</gx:coord>
<gx:coord >20.496979 52.007355 4056</gx:coord>
<gx:coord >20.47059 52.003365 4129</gx:coord>
<gx:coord >20.462742 52.002155 4159</gx:coord>
<gx:coord >20.458298 52.00145 4182</gx:coord>
<gx:coord >20.444641 51.999298 4250</gx:coord>
<gx:coord >20.425075 51.996243 4365</gx:coord>
<gx:coord >20.396824 51.991774 4471</gx:coord>
<gx:coord >20.36972 51.987762 4593</gx:coord>
<gx:coord >20.344325 51.983999 4723</gx:coord>
<gx:coord >20.318985 51.980255 4852</gx:coord>
<gx:coord >20.292511 51.976364 4966</gx:coord>
<gx:coord >20.266401 51.972455 5095</gx:coord>
<gx:coord >20.239868 51.968445 5217</gx:coord>
<gx:coord >20.208487 51.963703 5331</gx:coord>
<gx:coord >20.180629 51.95942 5453</gx:coord>
<gx:coord >20.157087 51.955882 5549</gx:coord>
<gx:coord >20.155988 51.955742 5549</gx:coord>
<gx:coord >20.135651 51.952698 5667</gx:coord>
<gx:coord >20.113142 51.949318 5791</gx:coord>
<gx:coord >20.100115 51.947363 5855</gx:coord>
<gx:coord >20.084342 51.944989 5910</gx:coord>
<gx:coord >20.050583 51.93988 6010</gx:coord>
<gx:coord >20.017776 51.934891 6116</gx:coord>
<gx:coord >19.987793 51.930267 6231</gx:coord>
<gx:coord >19.956894 51.925507 6337</gx:coord>
<gx:coord >19.926376 51.920837 6452</gx:coord>
<gx:coord >19.895377 51.916033 6551</gx:coord>
<gx:coord >19.866562 51.911636 6673</gx:coord>
<gx:coord >19.83456 51.906723 6787</gx:coord>
<gx:coord >19.804347 51.902114 6886</gx:coord>
<gx:coord >19.764557 51.895981 6970</gx:coord>
<gx:coord >19.729156 51.890476 7076</gx:coord>
<gx:coord >19.692307 51.88475 7168</gx:coord>
<gx:coord >19.653244 51.878698 7259</gx:coord>
<gx:coord >19.613419 51.872507 7358</gx:coord>
<gx:coord >19.568729 51.865494 7442</gx:coord>
<gx:coord >19.535751 51.86031 7526</gx:coord>
<gx:coord >19.504013 51.855329 7640</gx:coord>
<gx:coord >19.467328 51.849518 7724</gx:coord>
<gx:coord >19.427032 51.843179 7822</gx:coord>
<gx:coord >19.409332 51.840386 7870</gx:coord>
<gx:coord >19.380996 51.835922 7960</gx:coord>
<gx:coord >19.343583 51.829926 8059</gx:coord>
<gx:coord >19.323578 51.826746 8098</gx:coord>
<gx:coord >19.28108 51.819946 8180</gx:coord>
<gx:coord >19.244156 51.814037 8272</gx:coord>
<gx:coord >19.20372 51.807566 8363</gx:coord>
<gx:coord >19.160004 51.800584 8447</gx:coord>
<gx:coord >19.118118 51.793834 8539</gx:coord>
<gx:coord >19.067917 51.785687 8615</gx:coord>
<gx:coord >19.047012 51.782289 8653</gx:coord>
<gx:coord >19.007907 51.775909 8744</gx:coord>
<gx:coord >18.961411 51.76837 8836</gx:coord>
<gx:coord >18.914032 51.760688 8912</gx:coord>
<gx:coord >18.866717 51.75293 8996</gx:coord>
<gx:coord >18.82515 51.746164 9064</gx:coord>
<gx:coord >18.776779 51.738204 9139</gx:coord>
<gx:coord >18.732071 51.730848 9223</gx:coord>
<gx:coord >18.684329 51.723038 9300</gx:coord>
<gx:coord >18.639832 51.715672 9391</gx:coord>
<gx:coord >18.592148 51.707805 9475</gx:coord>
<gx:coord >18.536911 51.698588 9543</gx:coord>
<gx:coord >18.490807 51.690903 9627</gx:coord>
<gx:coord >18.435669 51.681689 9695</gx:coord>
<gx:coord >18.390742 51.674194 9786</gx:coord>
<gx:coord >18.342133 51.666001 9878</gx:coord>
<gx:coord >18.282547 51.655899 9931</gx:coord>
<gx:coord >18.223724 51.645844 10000</gx:coord>
<gx:coord >18.183041 51.638947 10061</gx:coord>
<gx:coord >18.138428 51.631348 10151</gx:coord>
<gx:coord >18.102341 51.625221 10242</gx:coord>
<gx:coord >18.066711 51.619076 10349</gx:coord>
<gx:coord >18.043411 51.615097 10395</gx:coord>
<gx:coord >17.993527 51.606537 10471</gx:coord>
<gx:coord >17.940292 51.597383 10540</gx:coord>
<gx:coord >17.890641 51.58873 10585</gx:coord>
<gx:coord >17.865829 51.583743 10608</gx:coord>
<gx:coord >17.840118 51.577831 10639</gx:coord>
<gx:coord >17.783154 51.564148 10691</gx:coord>
<gx:coord >17.725475 51.550644 10699</gx:coord>
<gx:coord >17.667313 51.537284 10699</gx:coord>
<gx:coord >17.610931 51.524156 10699</gx:coord>
<gx:coord >17.553482 51.510749 10699</gx:coord>
<gx:coord >17.496396 51.49736 10699</gx:coord>
<gx:coord >17.438812 51.483842 10690</gx:coord>
<gx:coord >17.381973 51.470435 10690</gx:coord>
<gx:coord >17.323837 51.456702 10690</gx:coord>
<gx:coord >17.268578 51.443573 10690</gx:coord>
<gx:coord >17.210751 51.429794 10690</gx:coord>
<gx:coord >17.15271 51.416062 10690</gx:coord>
<gx:coord >17.095032 51.402236 10690</gx:coord>
<gx:coord >17.037277 51.38841 10674</gx:coord>
<gx:coord >16.979816 51.374634 10674</gx:coord>
<gx:coord >16.923599 51.361131 10674</gx:coord>
<gx:coord >16.866989 51.347398 10674</gx:coord>
<gx:coord >16.810455 51.333711 10681</gx:coord>
<gx:coord >16.753311 51.319839 10674</gx:coord>
<gx:coord >16.696027 51.305832 10674</gx:coord>
<gx:coord >16.637532 51.29155 10666</gx:coord>
<gx:coord >16.580522 51.277542 10673</gx:coord>
<gx:coord >16.52298 51.263464 10680</gx:coord>
<gx:coord >16.465982 51.249481 10680</gx:coord>
<gx:coord >16.410675 51.235858 10680</gx:coord>
<gx:coord >16.353378 51.221707 10680</gx:coord>
<gx:coord >16.297104 51.207825 10680</gx:coord>
<gx:coord >16.240465 51.193817 10673</gx:coord>
<gx:coord >16.183167 51.179577 10673</gx:coord>
<gx:coord >16.127262 51.165619 10672</gx:coord>
<gx:coord >16.070994 51.151428 10672</gx:coord>
<gx:coord >16.016211 51.137604 10656</gx:coord>
<gx:coord >15.960611 51.123642 10649</gx:coord>
<gx:coord >15.904541 51.109562 10649</gx:coord>
<gx:coord >15.848999 51.095503 10641</gx:coord>
<gx:coord >15.793144 51.081345 10641</gx:coord>
<gx:coord >15.738583 51.067474 10634</gx:coord>
<gx:coord >15.682686 51.053192 10634</gx:coord>
<gx:coord >15.627458 51.03891 10641</gx:coord>
<gx:coord >15.588684 51.028142 10640</gx:coord>
<gx:coord >15.535039 51.012589 10640</gx:coord>
<gx:coord >15.481873 50.997045 10648</gx:coord>
<gx:coord >15.428696 50.981637 10648</gx:coord>
<gx:coord >15.37403 50.965988 10648</gx:coord>
<gx:coord >15.31895 50.950241 10648</gx:coord>
<gx:coord >15.264511 50.934759 10640</gx:coord>
<gx:coord >15.210342 50.919303 10640</gx:coord>
<gx:coord >15.156827 50.903915 10640</gx:coord>
<gx:coord >15.102539 50.888206 10648</gx:coord>
<gx:coord >15.048078 50.872421 10648</gx:coord>
<gx:coord >14.993896 50.856784 10648</gx:coord>
<gx:coord >14.939847 50.84111 10648</gx:coord>
<gx:coord >14.885635 50.825407 10648</gx:coord>
<gx:coord >14.83139 50.80958 10640</gx:coord>
<gx:coord >14.777428 50.793777 10640</gx:coord>
<gx:coord >14.724426 50.778259 10625</gx:coord>
<gx:coord >14.671173 50.762608 10617</gx:coord>
<gx:coord >14.617829 50.746948 10617</gx:coord>
<gx:coord >14.56459 50.731279 10625</gx:coord>
<gx:coord >14.511261 50.715498 10616</gx:coord>
<gx:coord >14.458389 50.699949 10616</gx:coord>
<gx:coord >14.405229 50.684235 10616</gx:coord>
<gx:coord >14.352227 50.668433 10616</gx:coord>
<gx:coord >14.299968 50.652838 10616</gx:coord>
<gx:coord >14.247099 50.637039 10616</gx:coord>
<gx:coord >14.194697 50.621338 10601</gx:coord>
<gx:coord >14.141854 50.605448 10601</gx:coord>
<gx:coord >14.089677 50.589798 10609</gx:coord>
<gx:coord >14.036913 50.573868 10609</gx:coord>
<gx:coord >13.985521 50.558337 10601</gx:coord>
<gx:coord >13.932 50.542184 10601</gx:coord>
<gx:coord >13.879491 50.526215 10600</gx:coord>
<gx:coord >13.827407 50.510388 10600</gx:coord>
<gx:coord >13.77448 50.494235 10593</gx:coord>
<gx:coord >13.722889 50.4785 10593</gx:coord>
<gx:coord >13.670036 50.462346 10593</gx:coord>
<gx:coord >13.617183 50.446146 10593</gx:coord>
<gx:coord >13.56414 50.429855 10593</gx:coord>
<gx:coord >13.512293 50.413932 10600</gx:coord>
<gx:coord >13.458772 50.397406 10593</gx:coord>
<gx:coord >13.40577 50.381066 10592</gx:coord>
<gx:coord >13.351655 50.364261 10599</gx:coord>
<gx:coord >13.299024 50.347828 10599</gx:coord>
<gx:coord >13.246468 50.331488 10599</gx:coord>
<gx:coord >13.194002 50.31514 10592</gx:coord>
<gx:coord >13.141672 50.298889 10592</gx:coord>
<gx:coord >13.089468 50.282515 10584</gx:coord>
<gx:coord >13.036763 50.265943 10576</gx:coord>
<gx:coord >12.984429 50.249463 10569</gx:coord>
<gx:coord >12.933061 50.233263 10569</gx:coord>
<gx:coord >12.88212 50.217224 10569</gx:coord>
<gx:coord >12.831215 50.201049 10568</gx:coord>
<gx:coord >12.780135 50.184814 10560</gx:coord>
<gx:coord >12.729468 50.168655 10552</gx:coord>
<gx:coord >12.679235 50.152496 10568</gx:coord>
<gx:coord >12.628116 50.136155 10568</gx:coord>
<gx:coord >12.576748 50.119815 10560</gx:coord>
<gx:coord >12.525379 50.103429 10560</gx:coord>
<gx:coord >12.474085 50.086996 10560</gx:coord>
<gx:coord >12.423586 50.070786 10552</gx:coord>
<gx:coord >12.372485 50.054123 10560</gx:coord>
<gx:coord >12.321241 50.036999 10552</gx:coord>
<gx:coord >12.270095 50.019495 10552</gx:coord>
<gx:coord >12.218282 50.001712 10552</gx:coord>
<gx:coord >12.166563 49.984039 10560</gx:coord>
<gx:coord >12.115173 49.966425 10560</gx:coord>
<gx:coord >12.063205 49.948608 10560</gx:coord>
<gx:coord >12.011768 49.93086 10560</gx:coord>
<gx:coord >11.958835 49.912674 10560</gx:coord>
<gx:coord >11.906433 49.894688 10537</gx:coord>
<gx:coord >11.854248 49.876831 10537</gx:coord>
<gx:coord >11.803102 49.859216 10537</gx:coord>
<gx:coord >11.751363 49.841247 10537</gx:coord>
<gx:coord >11.699789 49.823273 10537</gx:coord>
<gx:coord >11.647883 49.805215 10537</gx:coord>
<gx:coord >11.594841 49.786652 10530</gx:coord>
<gx:coord >11.5428 49.768387 10537</gx:coord>
<gx:coord >11.489695 49.749818 10537</gx:coord>
<gx:coord >11.436334 49.731354 10545</gx:coord>
<gx:coord >11.382875 49.712576 10545</gx:coord>
<gx:coord >11.330085 49.693909 10545</gx:coord>
<gx:coord >11.276278 49.674915 10545</gx:coord>
<gx:coord >11.22246 49.655829 10537</gx:coord>
<gx:coord >11.170421 49.637192 10530</gx:coord>
<gx:coord >11.11708 49.61824 10530</gx:coord>
<gx:coord >11.064643 49.59964 10522</gx:coord>
<gx:coord >11.011481 49.580887 10522</gx:coord>
<gx:coord >10.957778 49.561844 10530</gx:coord>
<gx:coord >10.910983 49.545081 10530</gx:coord>
<gx:coord >10.893538 49.538098 10530</gx:coord>
<gx:coord >10.878766 49.531395 10522</gx:coord>
<gx:coord >10.866666 49.525296 10522</gx:coord>
<gx:coord >10.853191 49.517761 10522</gx:coord>
<gx:coord >10.808884 49.491486 10522</gx:coord>
<gx:coord >10.773107 49.471069 10522</gx:coord>
<gx:coord >10.728001 49.445971 10514</gx:coord>
<gx:coord >10.683843 49.421485 10514</gx:coord>
<gx:coord >10.638235 49.396021 10506</gx:coord>
<gx:coord >10.594342 49.371094 10513</gx:coord>
<gx:coord >10.556488 49.349189 10498</gx:coord>
<gx:coord >10.537334 49.337225 10498</gx:coord>
<gx:coord >10.506662 49.316757 10498</gx:coord>
<gx:coord >10.465489 49.289509 10506</gx:coord>
<gx:coord >10.42349 49.262009 10506</gx:coord>
<gx:coord >10.381446 49.234634 10506</gx:coord>
<gx:coord >10.33958 49.207438 10506</gx:coord>
<gx:coord >10.297659 49.180251 10506</gx:coord>
<gx:coord >10.278144 49.167636 10536</gx:coord>
<gx:coord >10.236222 49.140356 10597</gx:coord>
<gx:coord >10.193763 49.11264 10650</gx:coord>
<gx:coord >10.151578 49.08522 10704</gx:coord>
<gx:coord >10.110602 49.058517 10742</gx:coord>
<gx:coord >10.068825 49.031331 10795</gx:coord>
<gx:coord >10.029532 49.005524 10833</gx:coord>
<gx:coord >9.987277 48.977783 10826</gx:coord>
<gx:coord >9.944868 48.949725 10826</gx:coord>
<gx:coord >9.903189 48.922119 10826</gx:coord>
<gx:coord >9.861779 48.894791 10826</gx:coord>
<gx:coord >9.819898 48.867188 10826</gx:coord>
<gx:coord >9.777977 48.839489 10826</gx:coord>
<gx:coord >9.736985 48.812302 10826</gx:coord>
<gx:coord >9.695294 48.784561 10833</gx:coord>
<gx:coord >9.653672 48.756683 10841</gx:coord>
<gx:coord >9.612387 48.729067 10841</gx:coord>
<gx:coord >9.571188 48.701648 10841</gx:coord>
<gx:coord >9.529583 48.674149 10841</gx:coord>
<gx:coord >9.488357 48.64667 10841</gx:coord>
<gx:coord >9.44723 48.619018 10841</gx:coord>
<gx:coord >9.405887 48.591133 10841</gx:coord>
<gx:coord >9.364577 48.563187 10833</gx:coord>
<gx:coord >9.323237 48.535126 10826</gx:coord>
<gx:coord >9.281351 48.506734 10818</gx:coord>
<gx:coord >9.240065 48.478775 10826</gx:coord>
<gx:coord >9.199007 48.450943 10840</gx:coord>
<gx:coord >9.157104 48.422562 10840</gx:coord>
<gx:coord >9.115272 48.394089 10840</gx:coord>
<gx:coord >9.07351 48.365707 10848</gx:coord>
<gx:coord >9.030906 48.33733 10840</gx:coord>
<gx:coord >8.988647 48.309494 10848</gx:coord>
<gx:coord >8.946744 48.281708 10848</gx:coord>
<gx:coord >8.903996 48.253098 10863</gx:coord>
<gx:coord >8.8616 48.224808 10863</gx:coord>
<gx:coord >8.819347 48.196509 10863</gx:coord>
<gx:coord >8.784726 48.173559 10855</gx:coord>
<gx:coord >8.761665 48.159393 10855</gx:coord>
<gx:coord >8.737863 48.145581 10855</gx:coord>
<gx:coord >8.692228 48.119791 10840</gx:coord>
<gx:coord >8.646804 48.093676 10848</gx:coord>
<gx:coord >8.602295 48.06752 10855</gx:coord>
<gx:coord >8.557388 48.040833 10855</gx:coord>
<gx:coord >8.512825 48.014236 10855</gx:coord>
<gx:coord >8.468536 47.988007 10863</gx:coord>
<gx:coord >8.42466 47.961731 10863</gx:coord>
<gx:coord >8.381058 47.935455 10870</gx:coord>
<gx:coord >8.337567 47.909422 10870</gx:coord>
<gx:coord >8.294128 47.883545 10870</gx:coord>
<gx:coord >8.251859 47.858168 10870</gx:coord>
<gx:coord >8.208829 47.832238 10870</gx:coord>
<gx:coord >8.166 47.806503 10863</gx:coord>
<gx:coord >8.123634 47.780869 10855</gx:coord>
<gx:coord >8.08168 47.755142 10863</gx:coord>
<gx:coord >8.039246 47.729171 10863</gx:coord>
<gx:coord >7.996216 47.703102 10863</gx:coord>
<gx:coord >7.95382 47.677499 10878</gx:coord>
<gx:coord >7.910912 47.651459 10886</gx:coord>
<gx:coord >7.868752 47.625687 10878</gx:coord>
<gx:coord >7.825787 47.599291 10886</gx:coord>
<gx:coord >7.78318 47.573221 10886</gx:coord>
<gx:coord >7.741065 47.547292 10886</gx:coord>
<gx:coord >7.698951 47.521362 10893</gx:coord>
<gx:coord >7.656837 47.495433 10893</gx:coord>
<gx:coord >7.614418 47.469223 10886</gx:coord>
<gx:coord >7.572327 47.443248 10886</gx:coord>
<gx:coord >7.530579 47.41745 10893</gx:coord>
<gx:coord >7.489295 47.391947 10893</gx:coord>
<gx:coord >7.449012 47.367135 10909</gx:coord>
<gx:coord >7.408095 47.341717 10901</gx:coord>
<gx:coord >7.367742 47.316439 10893</gx:coord>
<gx:coord >7.3274 47.291336 10893</gx:coord>
<gx:coord >7.2864 47.265791 10901</gx:coord>
<gx:coord >7.245895 47.240387 10916</gx:coord>
<gx:coord >7.205834 47.215142 10916</gx:coord>
<gx:coord >7.166039 47.19017 10916</gx:coord>
<gx:coord >7.126419 47.165314 10916</gx:coord>
<gx:coord >7.086868 47.140411 10909</gx:coord>
<gx:coord >7.063082 47.125575 10909</gx:coord>
<gx:coord >7.050613 47.118896 10909</gx:coord>
<gx:coord >7.039419 47.113658 10909</gx:coord>
<gx:coord >7.027199 47.108734 10909</gx:coord>
<gx:coord >7.019489 47.106023 10909</gx:coord>
<gx:coord >7.007235 47.102159 10909</gx:coord>
<gx:coord >6.990756 47.097551 10909</gx:coord>
<gx:coord >6.942655 47.084656 10909</gx:coord>
<gx:coord >6.89378 47.071435 10909</gx:coord>
<gx:coord >6.846173 47.05854 10908</gx:coord>
<gx:coord >6.798917 47.045738 10908</gx:coord>
<gx:coord >6.750412 47.0327 10915</gx:coord>
<gx:coord >6.701731 47.019669 10923</gx:coord>
<gx:coord >6.65387 47.006882 10923</gx:coord>
<gx:coord >6.604294 46.993652 10930</gx:coord>
<gx:coord >6.570669 46.984615 10938</gx:coord>
<gx:coord >6.555669 46.97996 10938</gx:coord>
<gx:coord >6.53968 46.974426 10938</gx:coord>
<gx:coord >6.524963 46.968601 10938</gx:coord>
<gx:coord >6.502498 46.959011 10938</gx:coord>
<gx:coord >6.457558 46.939453 10938</gx:coord>
<gx:coord >6.411415 46.919586 10938</gx:coord>
<gx:coord >6.377916 46.905057 10938</gx:coord>
<gx:coord >6.366366 46.899378 10938</gx:coord>
<gx:coord >6.354836 46.89299 10938</gx:coord>
<gx:coord >6.345379 46.887135 10946</gx:coord>
<gx:coord >6.336224 46.880943 10946</gx:coord>
<gx:coord >6.297913 46.853896 10953</gx:coord>
<gx:coord >6.261658 46.829317 10953</gx:coord>
<gx:coord >6.222656 46.803294 10953</gx:coord>
<gx:coord >6.183159 46.77681 10938</gx:coord>
<gx:coord >6.145109 46.751175 10938</gx:coord>
<gx:coord >6.105183 46.724075 10938</gx:coord>
<gx:coord >6.06617 46.697574 10930</gx:coord>
<gx:coord >6.027341 46.671112 10938</gx:coord>
<gx:coord >5.987961 46.644225 10938</gx:coord>
<gx:coord >5.949646 46.618109 10938</gx:coord>
<gx:coord >5.910301 46.591249 10938</gx:coord>
<gx:coord >5.87178 46.5649 10938</gx:coord>
<gx:coord >5.833204 46.538452 10938</gx:coord>
<gx:coord >5.795489 46.512543 10938</gx:coord>
<gx:coord >5.756836 46.485947 10938</gx:coord>
<gx:coord >5.71825 46.459351 10946</gx:coord>
<gx:coord >5.679664 46.4328 10946</gx:coord>
<gx:coord >5.640724 46.405878 10946</gx:coord>
<gx:coord >5.601889 46.379059 10953</gx:coord>
<gx:coord >5.564508 46.353241 10954</gx:coord>
<gx:coord >5.525185 46.325958 10954</gx:coord>
<gx:coord >5.485954 46.298714 10954</gx:coord>
<gx:coord >5.447209 46.271759 10954</gx:coord>
<gx:coord >5.409119 46.245179 10954</gx:coord>
<gx:coord >5.36997 46.217834 10962</gx:coord>
<gx:coord >5.330647 46.190369 10962</gx:coord>
<gx:coord >5.293076 46.164271 10962</gx:coord>
<gx:coord >5.278864 46.155441 10962</gx:coord>
<gx:coord >5.266069 46.148163 10962</gx:coord>
<gx:coord >5.264992 46.147513 10921</gx:coord>
<gx:coord >5.263756 46.146861 10962</gx:coord>
<gx:coord >5.220784 46.122894 10962</gx:coord>
<gx:coord >5.177788 46.098214 10970</gx:coord>
<gx:coord >5.136711 46.074417 10970</gx:coord>
<gx:coord >5.094017 46.04966 10962</gx:coord>
<gx:coord >5.05069 46.024661 10970</gx:coord>
<gx:coord >5.008627 46.000397 10970</gx:coord>
<gx:coord >4.966232 45.975968 10977</gx:coord>
<gx:coord >4.922562 45.95069 10977</gx:coord>
<gx:coord >4.880609 45.926331 10969</gx:coord>
<gx:coord >4.837468 45.901291 10969</gx:coord>
<gx:coord >4.795464 45.877091 10969</gx:coord>
<gx:coord >4.754133 45.853134 10969</gx:coord>
<gx:coord >4.711393 45.828232 10969</gx:coord>
<gx:coord >4.692535 45.818062 10961</gx:coord>
<gx:coord >4.666855 45.805074 10961</gx:coord>
<gx:coord >4.623368 45.784058 10961</gx:coord>
<gx:coord >4.579033 45.762526 10961</gx:coord>
<gx:coord >4.534004 45.740204 10960</gx:coord>
<gx:coord >4.489791 45.717819 10968</gx:coord>
<gx:coord >4.445618 45.695304 10968</gx:coord>
<gx:coord >4.401766 45.672913 10968</gx:coord>
<gx:coord >4.358963 45.650893 10975</gx:coord>
<gx:coord >4.314143 45.627823 10968</gx:coord>
<gx:coord >4.271278 45.605784 10975</gx:coord>
<gx:coord >4.227124 45.583237 10975</gx:coord>
<gx:coord >4.183456 45.560861 10982</gx:coord>
<gx:coord >4.139753 45.538376 10974</gx:coord>
<gx:coord >4.096331 45.515991 10974</gx:coord>
<gx:coord >4.052481 45.493314 10982</gx:coord>
<gx:coord >4.008 45.470224 10989</gx:coord>
<gx:coord >3.963787 45.447367 10989</gx:coord>
<gx:coord >3.920042 45.42465 10989</gx:coord>
<gx:coord >3.876408 45.401779 10982</gx:coord>
<gx:coord >3.832594 45.378891 10982</gx:coord>
<gx:coord >3.789747 45.356544 10982</gx:coord>
<gx:coord >3.746606 45.334012 10981</gx:coord>
<gx:coord >3.702527 45.310922 10981</gx:coord>
<gx:coord >3.658578 45.287888 10988</gx:coord>
<gx:coord >3.615614 45.265366 10988</gx:coord>
<gx:coord >3.572968 45.242863 10988</gx:coord>
<gx:coord >3.546099 45.228012 10988</gx:coord>
<gx:coord >3.504116 45.203888 10988</gx:coord>
<gx:coord >3.461936 45.179352 10988</gx:coord>
<gx:coord >3.419233 45.154724 10988</gx:coord>
<gx:coord >3.377626 45.130905 10988</gx:coord>
<gx:coord >3.335201 45.106705 10988</gx:coord>
<gx:coord >3.292482 45.082444 10996</gx:coord>
<gx:coord >3.25058 45.058548 10988</gx:coord>
<gx:coord >3.209773 45.03511 10996</gx:coord>
<gx:coord >3.168052 45.011169 10996</gx:coord>
<gx:coord >3.125945 44.986872 10988</gx:coord>
<gx:coord >3.084739 44.963196 10988</gx:coord>
<gx:coord >3.042428 44.938934 10988</gx:coord>
<gx:coord >3.000641 44.914856 10996</gx:coord>
<gx:coord >2.960554 44.891739 10997</gx:coord>
<gx:coord >2.916805 44.866333 10997</gx:coord>
<gx:coord >2.875279 44.842072 11005</gx:coord>
<gx:coord >2.833688 44.817764 11012</gx:coord>
<gx:coord >2.792671 44.793867 11012</gx:coord>
<gx:coord >2.750132 44.769147 11012</gx:coord>
<gx:coord >2.708784 44.745117 11020</gx:coord>
<gx:coord >2.667062 44.720764 11012</gx:coord>
<gx:coord >2.624594 44.695735 11012</gx:coord>
<gx:coord >2.582122 44.670783 11012</gx:coord>
<gx:coord >2.54 44.646103 11012</gx:coord>
<gx:coord >2.499259 44.622208 11006</gx:coord>
<gx:coord >2.457668 44.597809 11006</gx:coord>
<gx:coord >2.417796 44.574373 11006</gx:coord>
<gx:coord >2.374923 44.549188 11006</gx:coord>
<gx:coord >2.332518 44.524236 11013</gx:coord>
<gx:coord >2.292458 44.500541 11006</gx:coord>
<gx:coord >2.252331 44.47666 11013</gx:coord>
<gx:coord >2.211066 44.452127 11013</gx:coord>
<gx:coord >2.16908 44.4272 11006</gx:coord>
<gx:coord >2.129405 44.403573 11006</gx:coord>
<gx:coord >2.088273 44.379086 11006</gx:coord>
<gx:coord >2.046858 44.354416 11006</gx:coord>
<gx:coord >2.005139 44.329555 11013</gx:coord>
<gx:coord >1.962825 44.304199 11013</gx:coord>
<gx:coord >1.922138 44.279744 11013</gx:coord>
<gx:coord >1.880493 44.254715 11021</gx:coord>
<gx:coord >1.839205 44.229933 11022</gx:coord>
<gx:coord >1.797403 44.204841 11022</gx:coord>
<gx:coord >1.755654 44.179703 11014</gx:coord>
<gx:coord >1.714325 44.154844 11014</gx:coord>
<gx:coord >1.673052 44.129883 11022</gx:coord>
<gx:coord >1.631797 44.1048 11022</gx:coord>
<gx:coord >1.591317 44.080081 11022</gx:coord>
<gx:coord >1.549268 44.054384 11029</gx:coord>
<gx:coord >1.509443 44.030177 11029</gx:coord>
<gx:coord >1.467825 44.004913 11029</gx:coord>
<gx:coord >1.426434 43.979782 11029</gx:coord>
<gx:coord >1.386697 43.955554 11029</gx:coord>
<gx:coord >1.345564 43.930369 11029</gx:coord>
<gx:coord >1.304626 43.905396 11030</gx:coord>
<gx:coord >1.263747 43.880447 11038</gx:coord>
<gx:coord >1.222687 43.855234 11030</gx:coord>
<gx:coord >1.182755 43.830551 11038</gx:coord>
<gx:coord >1.14127 43.804911 11030</gx:coord>
<gx:coord >1.100071 43.7794 11030</gx:coord>
<gx:coord >1.058023 43.753424 11030</gx:coord>
<gx:coord >1.019505 43.729636 11038</gx:coord>
<gx:coord >0.979125 43.70462 11038</gx:coord>
<gx:coord >0.938565 43.679443 11038</gx:coord>
<gx:coord >0.898707 43.654678 11030</gx:coord>
<gx:coord >0.857892 43.629272 11030</gx:coord>
<gx:coord >0.816389 43.603386 11038</gx:coord>
<gx:coord >0.776069 43.578232 11038</gx:coord>
<gx:coord >0.73602 43.553192 11038</gx:coord>
<gx:coord >0.696847 43.52867 11053</gx:coord>
<gx:coord >0.656106 43.503159 11053</gx:coord>
<gx:coord >0.61632 43.478165 11053</gx:coord>
<gx:coord >0.576527 43.453171 11052</gx:coord>
<gx:coord >0.536957 43.42821 11052</gx:coord>
<gx:coord >0.497131 43.403165 11052</gx:coord>
<gx:coord >0.458352 43.378492 11045</gx:coord>
<gx:coord >0.420866 43.354385 11045</gx:coord>
<gx:coord >0.380467 43.328309 11045</gx:coord>
<gx:coord >0.34147 43.302979 11045</gx:coord>
<gx:coord >0.30062 43.276403 11037</gx:coord>
<gx:coord >0.260734 43.25029 11036</gx:coord>
<gx:coord >0.2228 43.225382 11044</gx:coord>
<gx:coord >0.182616 43.198929 11059</gx:coord>
<gx:coord >0.143476 43.173197 11059</gx:coord>
<gx:coord >0.106201 43.14885 11067</gx:coord>
<gx:coord >0.067195 43.12413 11074</gx:coord>
<gx:coord >0.026616 43.09876 11074</gx:coord>
<gx:coord >-0.014052 43.073364 11073</gx:coord>
<gx:coord >-0.054801 43.047925 11081</gx:coord>
<gx:coord >-0.094534 43.022873 11081</gx:coord>
<gx:coord >-0.132948 42.998487 11073</gx:coord>
<gx:coord >-0.173427 42.972743 11066</gx:coord>
<gx:coord >-0.211618 42.948396 11073</gx:coord>
<gx:coord >-0.251705 42.922886 11058</gx:coord>
<gx:coord >-0.288902 42.899185 11066</gx:coord>
<gx:coord >-0.321925 42.877716 11066</gx:coord>
<gx:coord >-0.33751 42.86673 11066</gx:coord>
<gx:coord >-0.353001 42.855059 11066</gx:coord>
<gx:coord >-0.368936 42.842239 11066</gx:coord>
<gx:coord >-0.382989 42.830109 11066</gx:coord>
<gx:coord >-0.399915 42.814407 11066</gx:coord>
<gx:coord >-0.414351 42.800127 11066</gx:coord>
<gx:coord >-0.428339 42.785184 11066</gx:coord>
<gx:coord >-0.443669 42.767494 11066</gx:coord>
<gx:coord >-0.455613 42.752598 11073</gx:coord>
<gx:coord >-0.467044 42.737183 11073</gx:coord>
<gx:coord >-0.478289 42.720802 11066</gx:coord>
<gx:coord >-0.489594 42.702787 11066</gx:coord>
<gx:coord >-0.498442 42.687286 11073</gx:coord>
<gx:coord >-0.508118 42.668757 11081</gx:coord>
<gx:coord >-0.526641 42.633098 11081</gx:coord>
<gx:coord >-0.54632 42.595917 11081</gx:coord>
<gx:coord >-0.565796 42.559127 11073</gx:coord>
<gx:coord >-0.58471 42.523087 11081</gx:coord>
<gx:coord >-0.602971 42.488321 11081</gx:coord>
<gx:coord >-0.621914 42.452133 11088</gx:coord>
<gx:coord >-0.640765 42.41597 11088</gx:coord>
<gx:coord >-0.660678 42.377655 11089</gx:coord>
<gx:coord >-0.679529 42.341217 11097</gx:coord>
<gx:coord >-0.698631 42.304276 11097</gx:coord>
<gx:coord >-0.717816 42.267337 11097</gx:coord>
<gx:coord >-0.73727 42.22966 11097</gx:coord>
<gx:coord >-0.756995 42.191666 11105</gx:coord>
<gx:coord >-0.775597 42.155823 11105</gx:coord>
<gx:coord >-0.795551 42.117206 11105</gx:coord>
<gx:coord >-0.81536 42.078827 11106</gx:coord>
<gx:coord >-0.834194 42.042257 11106</gx:coord>
<gx:coord >-0.8535 42.004944 11106</gx:coord>
<gx:coord >-0.872726 41.967453 11098</gx:coord>
<gx:coord >-0.891362 41.930904 11098</gx:coord>
<gx:coord >-0.908672 41.896967 11106</gx:coord>
<gx:coord >-0.928033 41.859055 11098</gx:coord>
<gx:coord >-0.947315 41.821274 11098</gx:coord>
<gx:coord >-0.965519 41.785615 11098</gx:coord>
<gx:coord >-0.984587 41.748322 11106</gx:coord>
<gx:coord >-0.996635 41.726028 11106</gx:coord>
<gx:coord >-1.005561 41.711288 11113</gx:coord>
<gx:coord >-1.015299 41.696457 11113</gx:coord>
<gx:coord >-1.027349 41.679755 11113</gx:coord>
<gx:coord >-1.038208 41.665929 11113</gx:coord>
<gx:coord >-1.052133 41.649496 11113</gx:coord>
<gx:coord >-1.065674 41.634659 11113</gx:coord>
<gx:coord >-1.079344 41.620697 11113</gx:coord>
<gx:coord >-1.093577 41.607056 11113</gx:coord>
<gx:coord >-1.109557 41.592773 11113</gx:coord>
<gx:coord >-1.126723 41.578354 11113</gx:coord>
<gx:coord >-1.159869 41.551208 11121</gx:coord>
<gx:coord >-1.194124 41.522641 11121</gx:coord>
<gx:coord >-1.226661 41.495407 11121</gx:coord>
<gx:coord >-1.258701 41.468594 11120</gx:coord>
<gx:coord >-1.293016 41.439972 11128</gx:coord>
<gx:coord >-1.3261 41.412323 11120</gx:coord>
<gx:coord >-1.359246 41.38466 11128</gx:coord>
<gx:coord >-1.3927 41.356705 11128</gx:coord>
<gx:coord >-1.424866 41.329834 11128</gx:coord>
<gx:coord >-1.457124 41.302775 11120</gx:coord>
<gx:coord >-1.490845 41.274399 11120</gx:coord>
<gx:coord >-1.524231 41.246384 11112</gx:coord>
<gx:coord >-1.555664 41.219925 11111</gx:coord>
<gx:coord >-1.58871 41.192027 11111</gx:coord>
<gx:coord >-1.621704 41.164169 11119</gx:coord>
<gx:coord >-1.652283 41.13826 11119</gx:coord>
<gx:coord >-1.685715 41.109909 11127</gx:coord>
<gx:coord >-1.717987 41.082629 11134</gx:coord>
<gx:coord >-1.751282 41.054443 11134</gx:coord>
<gx:coord >-1.785278 41.025604 11133</gx:coord>
<gx:coord >-1.816302 40.999254 11133</gx:coord>
<gx:coord >-1.850769 40.969894 11133</gx:coord>
<gx:coord >-1.875305 40.949203 11134</gx:coord>
<gx:coord >-1.88739 40.940094 11139</gx:coord>
<gx:coord >-1.896702 40.933895 11144</gx:coord>
<gx:coord >-1.904968 40.929062 11147</gx:coord>
<gx:coord >-1.913431 40.924538 11148</gx:coord>
<gx:coord >-1.934204 40.914322 11148</gx:coord>
<gx:coord >-1.965492 40.898701 11156</gx:coord>
<gx:coord >-2.001135 40.879894 11156</gx:coord>
<gx:coord >-2.043335 40.857239 11156</gx:coord>
<gx:coord >-2.082275 40.836365 11148</gx:coord>
<gx:coord >-2.12085 40.815903 11148</gx:coord>
<gx:coord >-2.161743 40.794296 11141</gx:coord>
<gx:coord >-2.20105 40.773514 11141</gx:coord>
<gx:coord >-2.242647 40.751317 11141</gx:coord>
<gx:coord >-2.282959 40.729797 11141</gx:coord>
<gx:coord >-2.322859 40.708582 11141</gx:coord>
<gx:coord >-2.363996 40.686609 11133</gx:coord>
<gx:coord >-2.401886 40.666359 11141</gx:coord>
<gx:coord >-2.443115 40.644333 11148</gx:coord>
<gx:coord >-2.486281 40.621343 11156</gx:coord>
<gx:coord >-2.525085 40.600571 11156</gx:coord>
<gx:coord >-2.565369 40.578873 11156</gx:coord>
<gx:coord >-2.607422 40.556213 11156</gx:coord>
<gx:coord >-2.645832 40.535454 11156</gx:coord>
<gx:coord >-2.687439 40.513046 11157</gx:coord>
<gx:coord >-2.729104 40.490578 11157</gx:coord>
<gx:coord >-2.769803 40.468652 11157</gx:coord>
<gx:coord >-2.810669 40.446533 11157</gx:coord>
<gx:coord >-2.851888 40.424194 11157</gx:coord>
<gx:coord >-2.891479 40.402725 11157</gx:coord>
<gx:coord >-2.931415 40.380994 11165</gx:coord>
<gx:coord >-2.970741 40.35958 11157</gx:coord>
<gx:coord >-3.009277 40.338547 11157</gx:coord>
<gx:coord >-3.048706 40.316986 11149</gx:coord>
<gx:coord >-3.089405 40.294826 11149</gx:coord>
<gx:coord >-3.130066 40.272629 11149</gx:coord>
<gx:coord >-3.153139 40.26033 11149</gx:coord>
<gx:coord >-3.167808 40.253161 11149</gx:coord>
<gx:coord >-3.188969 40.243618 11149</gx:coord>
<gx:coord >-3.20575 40.23674 11149</gx:coord>
<gx:coord >-3.226868 40.228775 11149</gx:coord>
<gx:coord >-3.24852 40.221366 11149</gx:coord>
<gx:coord >-3.267434 40.215454 11149</gx:coord>
<gx:coord >-3.28949 40.209274 11149</gx:coord>
<gx:coord >-3.312565 40.20349 11149</gx:coord>
<gx:coord >-3.335449 40.198425 11149</gx:coord>
<gx:coord >-3.37915 40.188904 11157</gx:coord>
<gx:coord >-3.42688 40.178055 11157</gx:coord>
<gx:coord >-3.472678 40.167552 11157</gx:coord>
<gx:coord >-3.519653 40.156723 11157</gx:coord>
<gx:coord >-3.542358 40.150772 11157</gx:coord>
<gx:coord >-3.561829 40.14505 11157</gx:coord>
<gx:coord >-3.582764 40.138229 11157</gx:coord>
<gx:coord >-3.602722 40.130997 11157</gx:coord>
<gx:coord >-3.623108 40.122986 11157</gx:coord>
<gx:coord >-3.645339 40.113412 11157</gx:coord>
<gx:coord >-3.664939 40.104194 11157</gx:coord>
<gx:coord >-3.684814 40.094147 11157</gx:coord>
<gx:coord >-3.703266 40.084037 11157</gx:coord>
<gx:coord >-3.72037 40.073982 11157</gx:coord>
<gx:coord >-3.737599 40.063135 11157</gx:coord>
<gx:coord >-3.755249 40.051163 11165</gx:coord>
<gx:coord >-3.770081 40.040451 11165</gx:coord>
<gx:coord >-3.787903 40.026489 11165</gx:coord>
<gx:coord >-3.803766 40.013092 11165</gx:coord>
<gx:coord >-3.81675 40.001407 11172</gx:coord>
<gx:coord >-3.83273 39.985905 11172</gx:coord>
<gx:coord >-3.846069 39.972015 11172</gx:coord>
<gx:coord >-3.858261 39.9583 11172</gx:coord>
<gx:coord >-3.88529 39.927156 11171</gx:coord>
<gx:coord >-3.913391 39.895407 11171</gx:coord>
<gx:coord >-3.941772 39.863193 11171</gx:coord>
<gx:coord >-3.969604 39.831538 11171</gx:coord>
<gx:coord >-3.99562 39.801727 11171</gx:coord>
<gx:coord >-4.022489 39.770874 11171</gx:coord>
<gx:coord >-4.050134 39.739059 11164</gx:coord>
<gx:coord >-4.077881 39.707104 11156</gx:coord>
<gx:coord >-4.105304 39.675476 11155</gx:coord>
<gx:coord >-4.131836 39.644956 11147</gx:coord>
<gx:coord >-4.158445 39.614319 11147</gx:coord>
<gx:coord >-4.186448 39.582001 11147</gx:coord>
<gx:coord >-4.2126 39.551834 11155</gx:coord>
<gx:coord >-4.240112 39.520103 11163</gx:coord>
<gx:coord >-4.265979 39.490082 11163</gx:coord>
<gx:coord >-4.276184 39.477694 11163</gx:coord>
<gx:coord >-4.284967 39.465683 11163</gx:coord>
<gx:coord >-4.295117 39.450348 11163</gx:coord>
<gx:coord >-4.31781 39.4155 11163</gx:coord>
<gx:coord >-4.340077 39.382004 11163</gx:coord>
<gx:coord >-4.364197 39.345998 11162</gx:coord>
<gx:coord >-4.387127 39.311737 11162</gx:coord>
<gx:coord >-4.409851 39.277566 11162</gx:coord>
<gx:coord >-4.432922 39.242792 11169</gx:coord>
<gx:coord >-4.45627 39.207504 11162</gx:coord>
<gx:coord >-4.478882 39.173243 11177</gx:coord>
<gx:coord >-4.50238 39.137444 11169</gx:coord>
<gx:coord >-4.509828 39.126114 11160</gx:coord>
<gx:coord >-4.517761 39.114028 11125</gx:coord>
<gx:coord >-4.536458 39.085831 11049</gx:coord>
<gx:coord >-4.540039 39.080417 11019</gx:coord>
<gx:coord >-4.548157 39.068267 10964</gx:coord>
<gx:coord >-4.559804 39.050674 10835</gx:coord>
<gx:coord >-4.56464 39.043442 10789</gx:coord>
<gx:coord >-4.568342 39.037903 10766</gx:coord>
<gx:coord >-4.577637 39.023856 10714</gx:coord>
<gx:coord >-4.597778 38.993411 10637</gx:coord>
<gx:coord >-4.617432 38.963339 10561</gx:coord>
<gx:coord >-4.635193 38.936152 10484</gx:coord>
<gx:coord >-4.656433 38.903379 10401</gx:coord>
<gx:coord >-4.6745 38.875727 10309</gx:coord>
<gx:coord >-4.693726 38.846213 10233</gx:coord>
<gx:coord >-4.713254 38.816162 10134</gx:coord>
<gx:coord >-4.733215 38.785323 10050</gx:coord>
<gx:coord >-4.751465 38.757298 9966</gx:coord>
<gx:coord >-4.762634 38.740214 9921</gx:coord>
<gx:coord >-4.772034 38.725782 9844</gx:coord>
<gx:coord >-4.783352 38.70845 9747</gx:coord>
<gx:coord >-4.789612 38.698736 9675</gx:coord>
<gx:coord >-4.797622 38.686478 9563</gx:coord>
<gx:coord >-4.80622 38.673111 9439</gx:coord>
<gx:coord >-4.814281 38.660751 9319</gx:coord>
<gx:coord >-4.822401 38.648254 9209</gx:coord>
<gx:coord >-4.82782 38.639894 9138</gx:coord>
<gx:coord >-4.839355 38.62225 9029</gx:coord>
<gx:coord >-4.85083 38.604607 8907</gx:coord>
<gx:coord >-4.862644 38.586411 8785</gx:coord>
<gx:coord >-4.873291 38.570065 8679</gx:coord>
<gx:coord >-4.883662 38.553955 8557</gx:coord>
<gx:coord >-4.89563 38.535384 8435</gx:coord>
<gx:coord >-4.907664 38.51651 8320</gx:coord>
<gx:coord >-4.921159 38.495453 8191</gx:coord>
<gx:coord >-4.933533 38.476262 8076</gx:coord>
<gx:coord >-4.940857 38.465043 7993</gx:coord>
<gx:coord >-4.950623 38.450193 7917</gx:coord>
<gx:coord >-4.961426 38.433621 7757</gx:coord>
<gx:coord >-4.972866 38.415985 7627</gx:coord>
<gx:coord >-4.982957 38.400429 7513</gx:coord>
<gx:coord >-4.993637 38.384033 7414</gx:coord>
<gx:coord >-5.003922 38.368103 7276</gx:coord>
<gx:coord >-5.009467 38.359556 7210</gx:coord>
<gx:coord >-5.019856 38.343309 7109</gx:coord>
<gx:coord >-5.028872 38.329111 6964</gx:coord>
<gx:coord >-5.038926 38.313263 6842</gx:coord>
<gx:coord >-5.046582 38.301041 6751</gx:coord>
<gx:coord >-5.056935 38.284467 6644</gx:coord>
<gx:coord >-5.06271 38.275177 6552</gx:coord>
<gx:coord >-5.067802 38.267057 6500</gx:coord>
<gx:coord >-5.070788 38.262262 6484</gx:coord>
<gx:coord >-5.074251 38.256769 6382</gx:coord>
<gx:coord >-5.080042 38.247551 6257</gx:coord>
<gx:coord >-5.083028 38.242803 6202</gx:coord>
<gx:coord >-5.088879 38.233586 6045</gx:coord>
<gx:coord >-5.095865 38.222646 5912</gx:coord>
<gx:coord >-5.102134 38.21273 5792</gx:coord>
<gx:coord >-5.112675 38.195892 5623</gx:coord>
<gx:coord >-5.127986 38.17131 5380</gx:coord>
<gx:coord >-5.143453 38.14658 5167</gx:coord>
<gx:coord >-5.152822 38.131622 5091</gx:coord>
<gx:coord >-5.158798 38.12214 4974</gx:coord>
<gx:coord >-5.165795 38.110977 4946</gx:coord>
<gx:coord >-5.170762 38.103058 4827</gx:coord>
<gx:coord >-5.175788 38.095047 4801</gx:coord>
<gx:coord >-5.187338 38.076891 4562</gx:coord>
<gx:coord >-5.188001 38.075912 4545</gx:coord>
<gx:coord >-5.202202 38.053528 4534</gx:coord>
<gx:coord >-5.212416 38.037182 4213</gx:coord>
<gx:coord >-5.220237 38.02452 4106</gx:coord>
<gx:coord >-5.224174 38.018234 4048</gx:coord>
<gx:coord >-5.232298 38.005061 3945</gx:coord>
<gx:coord >-5.235582 37.999754 3925</gx:coord>
<gx:coord >-5.240011 37.992599 3842</gx:coord>
<gx:coord >-5.242991 37.987747 3808</gx:coord>
<gx:coord >-5.245255 37.984066 3782</gx:coord>
<gx:coord >-5.249375 37.977362 3732</gx:coord>
<gx:coord >-5.259227 37.961488 3666</gx:coord>
<gx:coord >-5.266392 37.949943 3627</gx:coord>
<gx:coord >-5.273438 37.938538 3582</gx:coord>
<gx:coord >-5.278871 37.929832 3524</gx:coord>
<gx:coord >-5.284603 37.920568 3469</gx:coord>
<gx:coord >-5.289499 37.912794 3414</gx:coord>
<gx:coord >-5.291729 37.909149 3370</gx:coord>
<gx:coord >-5.294097 37.905392 3349</gx:coord>
<gx:coord >-5.296903 37.900923 3312</gx:coord>
<gx:coord >-5.298274 37.898712 3304</gx:coord>
<gx:coord >-5.307799 37.883514 3263</gx:coord>
<gx:coord >-5.313203 37.874994 3217</gx:coord>
<gx:coord >-5.314578 37.872757 3217</gx:coord>
<gx:coord >-5.323519 37.858566 3156</gx:coord>
<gx:coord >-5.328429 37.850647 3133</gx:coord>
<gx:coord >-5.331593 37.845433 3118</gx:coord>
<gx:coord >-5.338654 37.833893 3065</gx:coord>
<gx:coord >-5.344192 37.824904 3034</gx:coord>
<gx:coord >-5.350459 37.814804 3004</gx:coord>
<gx:coord >-5.355954 37.80591 2965</gx:coord>
<gx:coord >-5.362403 37.795529 2920</gx:coord>
<gx:coord >-5.367756 37.786972 2890</gx:coord>
<gx:coord >-5.373747 37.77742 2829</gx:coord>
<gx:coord >-5.378918 37.769119 2776</gx:coord>
<gx:coord >-5.384411 37.76033 2693</gx:coord>
<gx:coord >-5.389988 37.751398 2639</gx:coord>
<gx:coord >-5.395631 37.74234 2578</gx:coord>
<gx:coord >-5.401007 37.73378 2539</gx:coord>
<gx:coord >-5.405214 37.727051 2463</gx:coord>
<gx:coord >-5.410408 37.718578 2404</gx:coord>
<gx:coord >-5.416026 37.709381 2357</gx:coord>
<gx:coord >-5.421216 37.700842 2297</gx:coord>
<gx:coord >-5.424738 37.694976 2270</gx:coord>
<gx:coord >-5.428298 37.689194 2235</gx:coord>
<gx:coord >-5.431187 37.684502 2207</gx:coord>
<gx:coord >-5.433382 37.680954 2183</gx:coord>
<gx:coord >-5.436713 37.675507 2163</gx:coord>
<gx:coord >-5.439427 37.671142 2119</gx:coord>
<gx:coord >-5.441505 37.66777 2090</gx:coord>
<gx:coord >-5.444263 37.663367 2059</gx:coord>
<gx:coord >-5.446293 37.660109 2036</gx:coord>
<gx:coord >-5.448263 37.656943 2019</gx:coord>
<gx:coord >-5.451965 37.651078 1982</gx:coord>
<gx:coord >-5.457339 37.642419 1940</gx:coord>
<gx:coord >-5.461101 37.63646 1904</gx:coord>
<gx:coord >-5.464265 37.631339 1882</gx:coord>
<gx:coord >-5.466773 37.627336 1859</gx:coord>
<gx:coord >-5.469146 37.623459 1840</gx:coord>
<gx:coord >-5.472477 37.618195 1778</gx:coord>
<gx:coord >-5.484574 37.598694 1649</gx:coord>
<gx:coord >-5.493164 37.584741 1558</gx:coord>
<gx:coord >-5.497762 37.577199 1497</gx:coord>
<gx:coord >-5.505464 37.564537 1416</gx:coord>
<gx:coord >-5.506955 37.562119 1400</gx:coord>
<gx:coord >-5.509468 37.558136 1383</gx:coord>
<gx:coord >-5.511554 37.554854 1315</gx:coord>
<gx:coord >-5.513286 37.552061 1299</gx:coord>
<gx:coord >-5.514778 37.54964 1280</gx:coord>
<gx:coord >-5.519812 37.541611 1246</gx:coord>
<gx:coord >-5.523902 37.534973 1208</gx:coord>
<gx:coord >-5.527467 37.52916 1178</gx:coord>
<gx:coord >-5.5309 37.523571 1157</gx:coord>
<gx:coord >-5.534005 37.518543 1128</gx:coord>
<gx:coord >-5.538841 37.510723 1093</gx:coord>
<gx:coord >-5.543259 37.503693 1050</gx:coord>
<gx:coord >-5.546343 37.498764 1022</gx:coord>
<gx:coord >-5.54923 37.494057 1011</gx:coord>
<gx:coord >-5.552872 37.487958 1003</gx:coord>
<gx:coord >-5.558843 37.477857 995</gx:coord>
<gx:coord >-5.565744 37.466446 987</gx:coord>
<gx:coord >-5.569531 37.460306 987</gx:coord>
<gx:coord >-5.572039 37.45635 987</gx:coord>
<gx:coord >-5.583921 37.437217 995</gx:coord>
<gx:coord >-5.587802 37.431444 995</gx:coord>
<gx:coord >-5.590346 37.428726 995</gx:coord>
<gx:coord >-5.594145 37.425842 990</gx:coord>
<gx:coord >-5.597773 37.423996 996</gx:coord>
<gx:coord >-5.600456 37.422913 995</gx:coord>
<gx:coord >-5.605306 37.421585 995</gx:coord>
<gx:coord >-5.609163 37.420807 992</gx:coord>
<gx:coord >-5.612999 37.420272 994</gx:coord>
<gx:coord >-5.617812 37.4198 987</gx:coord>
<gx:coord >-5.623013 37.419434 995</gx:coord>
<gx:coord >-5.637957 37.418828 995</gx:coord>
<gx:coord >-5.652583 37.41861 995</gx:coord>
<gx:coord >-5.66877 37.418564 988</gx:coord>
<gx:coord >-5.67414 37.418503 988</gx:coord>
<gx:coord >-5.677663 37.418456 989</gx:coord>
<gx:coord >-5.684052 37.418456 970</gx:coord>
<gx:coord >-5.690978 37.418456 940</gx:coord>
<gx:coord >-5.69571 37.418472 901</gx:coord>
<gx:coord >-5.702442 37.418503 878</gx:coord>
<gx:coord >-5.709384 37.418518 843</gx:coord>
<gx:coord >-5.715579 37.418518 814</gx:coord>
<gx:coord >-5.721715 37.418472 787</gx:coord>
<gx:coord >-5.730364 37.418472 740</gx:coord>
<gx:coord >-5.732296 37.418456 730</gx:coord>
<gx:coord >-5.738662 37.418427 697</gx:coord>
<gx:coord >-5.74579 37.418409 660</gx:coord>
<gx:coord >-5.74772 37.418427 652</gx:coord>
<gx:coord >-5.750328 37.418409 645</gx:coord>
<gx:coord >-5.755045 37.418409 626</gx:coord>
<gx:coord >-5.760896 37.418409 590</gx:coord>
<gx:coord >-5.763822 37.418363 575</gx:coord>
<gx:coord >-5.768718 37.418363 545</gx:coord>
<gx:coord >-5.771329 37.418335 529</gx:coord>
<gx:coord >-5.772778 37.418363 529</gx:coord>
<gx:coord >-5.779335 37.418335 499</gx:coord>
<gx:coord >-5.782607 37.418289 483</gx:coord>
<gx:coord >-5.790438 37.418335 445</gx:coord>
<gx:coord >-5.797859 37.418289 429</gx:coord>
<gx:coord >-5.802393 37.41827 393</gx:coord>
<gx:coord >-5.802393 37.41827 393</gx:coord>
</gx:Track>
</Placemark>
</Folder>
</Folder>
</kml>
