<?xml version="1.0" encoding="UTF-8"?>
<kml xmlns="http://www.opengis.net/kml/2.2">
<Document>
  <name>HA-LVP track</name>
  <Style id="flightPath">
    <IconStyle>
      <Icon>
        <href>http://maps.google.com/mapfiles/kml/shapes/airports.png</href>
      </Icon>
    </IconStyle>
  </Style>
  <Placemark>
    <name>HA-LVP</name>
    <description>ff1c1ae3</description>
    <styleUrl>#flightPath</styleUrl>
    <LineString>
      <extrude>0</extrude>
      <altitudeMode>absolute</altitudeMode>
      <coordinates>
        20.966587,52.17255,0
        20.966644,52.172619,0
        20.966721,52.172676,0
        20.966778,52.172699,0
        20.966838,52.172722,0
        20.966936,52.172757,0
        20.966988,52.172768,0
        20.967121,52.172802,0
        20.967236,52.172859,0
        20.967255,52.172905,0
        20.967274,52.172951,0
        20.967255,52.172997,0
        20.967231,52.173025,0
        20.967197,52.173065,0
        20.967113,52.173118,0
        20.967054,52.173153,0
        20.966969,52.173248,0
        20.966799,52.173432,0
        20.96653,52.173752,0
        20.966244,52.174084,0
        20.965955,52.174421,0
        20.965786,52.174587,0
        20.965504,52.174689,0
        20.965195,52.174702,0
        20.965061,52.174679,0
        20.964935,52.174643,0
        20.964756,52.174576,0
        20.964241,52.174404,0
        20.963954,52.174375,0
        20.963444,52.174526,0
        20.963405,52.174573,0
        20.963345,52.174656,0
        20.963248,52.174771,0
        20.963013,52.17505,0
        20.962817,52.175294,0
        20.962601,52.175527,0
        20.962467,52.175629,0
        20.962219,52.175755,0
        20.962086,52.175789,0
        20.961875,52.17583,0
        20.961704,52.175823,0
        20.961571,52.175812,0
        20.961361,52.175789,0
        20.961227,52.175766,0
        20.961113,52.175743,0
        20.961031,52.175713,0
        20.960941,52.175674,0
        20.960855,52.17562,0
        20.960796,52.175574,0
        20.960757,52.17555,0
        20.960712,52.175491,0
        20.960678,52.175446,0
        20.960639,52.175387,0
        20.960484,52.175194,0
        20.96035,52.175011,0
        20.960109,52.174724,0
        20.959911,52.174461,0
        20.959717,52.174212,0
        20.959663,52.174129,0
        20.959678,52.174096,0
        20.959697,52.174061,0
        20.959756,52.174049,0
        20.959795,52.174037,0
        20.959854,52.174015,0
        20.959913,52.174002,0
        20.959911,52.173992,0
        20.960007,52.173901,0
        20.960064,52.17382,0
        20.96014,52.17374,0
        20.960236,52.173637,0
        20.960331,52.173523,0
        20.960462,52.173386,0
        20.960757,52.173036,0
        20.961018,52.172745,0
        20.961247,52.172501,0
        20.961437,52.172276,0
        20.962048,52.171589,0
        20.962639,52.170925,0
      </coordinates>
    </LineString>
    <TimeSpan>
      <begin>2025-08-05T11:18:27.790Z</begin>
      <end>2025-08-05T11:29:13.770Z</end>
    </TimeSpan>
  </Placemark>
  <Placemark>
    <name>HA-LVP</name>
    <description>ff1c1ae3</description>
    <styleUrl>#flightPath</styleUrl>
    <LineString>
      <extrude>1</extrude>
      <altitudeMode>absolute</altitudeMode>
      <coordinates>
        20.963516,52.169907,113
        20.964033,52.169277,113
        20.96419,52.169138,113
        20.965131,52.16802,113
        20.967329,52.165553,113
        20.968781,52.16391,114
        20.969315,52.163269,114
        20.971527,52.160797,99
        20.971756,52.160568,100
        20.973685,52.158338,108
        20.974655,52.157227,123
        20.976353,52.155265,153
        20.978012,52.153381,184
        20.979767,52.151413,218
        20.981598,52.149261,249
        20.983353,52.147247,280
        20.984726,52.145599,311
        20.986099,52.143951,342
        20.987549,52.142349,373
        20.988831,52.140741,406
        20.990086,52.139344,436
        20.991669,52.137589,467
        20.992833,52.136272,498
        20.994415,52.134567,533
        20.995941,52.132874,562
        20.997391,52.13118,597
        20.999032,52.129336,629
        21.000602,52.127567,660
        21.001816,52.126144,691
        21.003342,52.124359,723
        21.004486,52.12294,754
        21.006095,52.121235,787
        21.008292,52.119327,816
        21.01059,52.117676,847
        21.012802,52.116394,872
        21.015041,52.11537,887
        21.017838,52.114334,912
        21.021005,52.113461,945
        21.02226,52.113135,952
        21.025009,52.112595,982
        21.027679,52.112137,1015
        21.030807,52.111633,1045
        21.033249,52.111267,1077
        21.036148,52.110901,1108
        21.03772,52.110668,1116
        21.039603,52.110435,1132
        21.045018,52.109737,1164
        21.050589,52.108992,1187
        21.056061,52.108383,1219
        21.060638,52.107834,1235
        21.064453,52.107422,1253
        21.071167,52.106735,1277
        21.077652,52.106094,1300
        21.08284,52.105545,1320
        21.088257,52.105035,1345
        21.095428,52.104355,1368
        21.099557,52.104151,1389
        21.102295,52.10408,1405
        21.106855,52.104151,1425
        21.111328,52.104384,1459
        21.11557,52.104767,1489
        21.119489,52.105268,1523
        21.124191,52.105957,1552
        21.128159,52.106689,1581
        21.132278,52.107513,1606
        21.138077,52.108841,1637
        21.141697,52.109877,1661
        21.144836,52.110808,1693
        21.148682,52.112183,1726
        21.152267,52.113647,1755
        21.156006,52.115295,1788
        21.156845,52.115707,1796
        21.158981,52.11676,1804
        21.163025,52.119141,1828
        21.167374,52.122208,1852
        21.170883,52.125183,1868
        21.173401,52.127846,1885
        21.175834,52.131011,1900
        21.177902,52.134659,1910
        21.179276,52.138321,1926
        21.17981,52.141388,1934
        21.179757,52.145862,1957
        21.179286,52.148236,1965
        21.178284,52.15123,1980
        21.176529,52.154709,2001
        21.1745,52.157686,2026
        21.171875,52.160431,2049
        21.1689,52.163086,2080
        21.16626,52.165041,2103
        21.165004,52.165972,2118
        21.162567,52.167664,2150
        21.160296,52.169091,2179
        21.157471,52.17086,2210
        21.15237,52.173979,2261
        21.146484,52.177424,2326
        21.140442,52.180869,2399
        21.134491,52.18428,2457
        21.129063,52.18734,2521
        21.122942,52.190785,2583
        21.11702,52.194077,2644
        21.111093,52.197395,2706
        21.104422,52.201166,2770
        21.096878,52.205475,2828
        21.089478,52.209732,2890
        21.082458,52.21376,2956
        21.075466,52.217831,3023
        21.067657,52.222412,3086
        21.059952,52.226944,3152
        21.052237,52.231518,3213
        21.044846,52.235962,3271
        21.037013,52.240642,3333
        21.029434,52.245117,3403
        21.020926,52.250278,3466
        21.014021,52.254421,3527
        21.006622,52.25885,3585
        21.000366,52.262615,3645
        20.99401,52.266478,3704
        20.985613,52.271553,3770
        20.975571,52.277573,3832
        20.971603,52.279953,3855
        20.957794,52.288239,3901
        20.943316,52.296831,3939
        20.925293,52.307556,3992
        20.907689,52.318012,4038
        20.888519,52.329391,4106
        20.884018,52.332047,4127
        20.879974,52.334427,4151
        20.867981,52.342079,4235
        20.857465,52.349574,4306
        20.841221,52.361631,4450
        20.823288,52.375076,4571
        20.802689,52.390411,4678
        20.782318,52.405426,4792
        20.762041,52.42038,4914
        20.73822,52.437836,5013
        20.724374,52.448032,5074
        20.70656,52.461113,5189
        20.689296,52.473822,5326
        20.670619,52.487602,5455
        20.651245,52.501831,5585
        20.629654,52.51767,5692
        20.610275,52.531815,5806
        20.593166,52.544256,5913
        20.570526,52.560745,6025
        20.563126,52.566147,6059
        20.542079,52.581497,6179
        20.521676,52.596394,6269
        20.519104,52.598236,6276
        20.51736,52.599467,6283
        20.516654,52.599513,6283
        20.516105,52.59956,6283
        20.515084,52.600584,6291
        20.511789,52.60361,6299
        20.501709,52.61087,6329
        20.500717,52.611786,6328
        20.49881,52.61293,6344
        20.496826,52.614532,6344
        20.49319,52.617156,6360
        20.485343,52.622882,6399
        20.474472,52.630554,6457
        20.473785,52.630966,6464
        20.471531,52.632938,6472
        20.469894,52.633896,6478
        20.468079,52.634846,6486
        20.467137,52.635405,6493
        <!-- Interpolated points for large jump -->
        18.974175,53.366912,6878
        17.686945,53.948201,7269
        16.399715,54.52949,7660
        15.112485,55.110779,8051
        13.825255,55.692068,8442
        12.538025,56.273357,8833
        11.250795,56.854646,9224
        10.963565,57.435935,9615
        10.676335,58.017224,10006
        10.389105,58.598513,10397
        <!-- Descent phase -->
        10.368439,59.406006,996
        10.352247,59.406056,966
        10.335767,59.406195,943
        10.317488,59.406335,928
        10.309438,59.406381,928
        10.30014,59.406418,928
        10.288412,59.406335,920
        10.284245,59.406102,920
        10.279699,59.40545,920
        10.2761,59.404612,920
        10.273315,59.403717,920
        10.271459,59.40303,920
        10.267576,59.400981,920
        10.265492,59.399631,920
        10.26297,59.397537,920
        10.260681,59.395111,920
        10.259583,59.393692,920
        10.258209,59.391403,920
        10.256684,59.387993,920
        10.255927,59.385479,920
        10.255453,59.382454,920
        10.255188,59.378311,920
        10.25473,59.36142,920
        10.254885,59.346795,920
        10.255096,59.338348,920
        10.25528,59.332123,898
        10.255371,59.328369,884
        10.255463,59.324661,857
        10.255463,59.31958,826
        10.255646,59.314911,785
        10.255737,59.310111,753
        10.255829,59.304428,729
        10.25592,59.299988,699
        10.256012,59.294724,663
        10.256104,59.290787,642
        10.256211,59.286649,615
        10.256287,59.283325,596
        10.256378,59.280533,584
        10.25647,59.27916,584
        10.256561,59.275406,561
        10.256684,59.273708,546
        10.256779,59.271287,530
        10.256744,59.268997,504
        10.256779,59.265142,500
        10.256874,59.260114,478
        10.256836,59.25531,433
        10.256969,59.25113,417
        10.257063,59.246149,395
        10.257202,59.242447,370
        10.257294,59.237686,341
        10.257568,59.232513,311
        10.257631,59.227574,288
        10.257726,59.222593,257
        10.257916,59.216914,219
        10.258105,59.212212,196
        10.258118,59.206833,166
        10.258209,59.202759,135
        10.258484,59.196716,105
        10.258484,59.194885,97
        10.25865,59.186607,128
        10.25872,59.184887,128
        10.258736,59.183418,0
        10.258759,59.182961,0
        10.258768,59.18272,0
        10.258768,59.18264,0
        10.258575,59.182423,0
        10.258224,59.182278,0
        10.258095,59.182217,0
        10.257845,59.182129,0
        10.257385,59.181953,0
        10.257065,59.181805,0
      </coordinates>
    </LineString>
    <TimeSpan>
      <begin>2025-08-05T11:29:17.040Z</begin>
      <end>2025-08-05T12:59:13.700Z</end>
    </TimeSpan>
  </Placemark>
  <Placemark>
    <name>HA-LVP</name>
    <description>ff1c1ae3</description>
    <styleUrl>#flightPath</styleUrl>
    <LineString>
      <extrude>0</extrude>
      <altitudeMode>absolute</altitudeMode>
      <coordinates>
        10.256996,59.181782,0
        10.25647,59.18153,0
        10.256035,59.181324,0
        10.255501,59.181023,0
        10.255359,59.180813,0
        10.255098,59.180683,0
        10.253843,59.18066,0
        10.253632,59.18066,0
      </coordinates>
    </LineString>
    <TimeSpan>
      <begin>2025-08-05T13:07:37.550Z</begin>
      <end>2025-08-05T13:08:33.750Z</end>
    </TimeSpan>
  </Placemark>
</Document>
</kml>