<?xml version="1.0" encoding="UTF-8"?>
<kml xmlns="http://www.opengis.net/kml/2.2" xmlns:gx="http://www.google.com/kml/ext/2.2"><Folder ><Folder ><name >HA-LXJ track</name>
<Placemark ><name >HA-LXJ</name>
<Style ><LineStyle ><color >ff1c1ae3</color>
<width >4</width>
</LineStyle>
<IconStyle ><Icon ><href >http://maps.google.com/mapfiles/kml/shapes/airports.png</href>
</Icon>
</IconStyle>
</Style>
<gx:Track ><extrude >0</extrude>
<when >2025-09-02T10:21:52.600Z</when>
<when >2025-09-02T10:21:52.600Z</when>
<when >2025-09-02T10:22:23.150Z</when>
<when >2025-09-02T10:22:48.160Z</when>
<when >2025-09-02T10:23:43.940Z</when>
<when >2025-09-02T10:24:28.510Z</when>
<when >2025-09-02T10:24:53.580Z</when>
<when >2025-09-02T10:25:23.450Z</when>
<when >2025-09-02T10:25:58.650Z</when>
<when >2025-09-02T10:26:26.560Z</when>
<when >2025-09-02T10:26:32.230Z</when>
<when >2025-09-02T10:26:37.270Z</when>
<when >2025-09-02T10:26:41.030Z</when>
<when >2025-09-02T10:26:44.940Z</when>
<when >2025-09-02T10:26:45.810Z</when>
<when >2025-09-02T10:26:48.570Z</when>
<when >2025-09-02T10:26:49.960Z</when>
<when >2025-09-02T10:26:51.230Z</when>
<when >2025-09-02T10:26:52.720Z</when>
<when >2025-09-02T10:26:54.790Z</when>
<when >2025-09-02T10:26:58.290Z</when>
<when >2025-09-02T10:27:03.910Z</when>
<when >2025-09-02T10:27:12.170Z</when>
<when >2025-09-02T10:27:19.680Z</when>
<when >2025-09-02T10:27:26.380Z</when>
<when >2025-09-02T10:27:32.580Z</when>
<when >2025-09-02T10:27:38.850Z</when>
<when >2025-09-02T10:27:45.150Z</when>
<when >2025-09-02T10:27:50.230Z</when>
<when >2025-09-02T10:27:54.750Z</when>
<when >2025-09-02T10:27:59.280Z</when>
<when >2025-09-02T10:28:05.740Z</when>
<when >2025-09-02T10:28:12.390Z</when>
<when >2025-09-02T10:28:19.650Z</when>
<when >2025-09-02T10:28:24.960Z</when>
<when >2025-09-02T10:28:27.480Z</when>
<when >2025-09-02T10:28:45.460Z</when>
<when >2025-09-02T10:29:05.340Z</when>
<when >2025-09-02T10:29:14.890Z</when>
<when >2025-09-02T10:29:18.370Z</when>
<when >2025-09-02T10:29:21.120Z</when>
<when >2025-09-02T10:29:23.750Z</when>
<when >2025-09-02T10:29:27.470Z</when>
<when >2025-09-02T10:29:33.000Z</when>
<when >2025-09-02T10:29:36.490Z</when>
<when >2025-09-02T10:29:41.120Z</when>
<when >2025-09-02T10:30:00.660Z</when>
<when >2025-09-02T10:30:30.600Z</when>
<when >2025-09-02T10:30:55.400Z</when>
<when >2025-09-02T10:31:25.400Z</when>
<when >2025-09-02T10:31:39.620Z</when>
<when >2025-09-02T10:31:42.580Z</when>
<when >2025-09-02T10:31:45.770Z</when>
<when >2025-09-02T10:31:50.230Z</when>
<when >2025-09-02T10:31:57.020Z</when>
<when >2025-09-02T10:32:01.430Z</when>
<when >2025-09-02T10:32:09.170Z</when>
<when >2025-09-02T10:32:34.190Z</when>
<when >2025-09-02T10:33:29.730Z</when>
<when >2025-09-02T10:34:09.390Z</when>
<when >2025-09-02T10:34:29.520Z</when>
<when >2025-09-02T10:34:44.610Z</when>
<when >2025-09-02T10:34:47.960Z</when>
<when >2025-09-02T10:34:51.210Z</when>
<when >2025-09-02T10:34:58.100Z</when>
<when >2025-09-02T10:35:04.940Z</when>
<when >2025-09-02T10:35:11.880Z</when>
<when >2025-09-02T10:35:18.900Z</when>
<when >2025-09-02T10:35:25.140Z</when>
<when >2025-09-02T10:35:28.350Z</when>
<when >2025-09-02T10:35:30.350Z</when>
<when >2025-09-02T10:35:31.780Z</when>
<when >2025-09-02T10:35:32.820Z</when>
<when >2025-09-02T10:35:35.120Z</when>
<when >2025-09-02T10:35:36.560Z</when>
<when >2025-09-02T10:35:41.940Z</when>
<when >2025-09-02T10:36:36.800Z</when>
<when >2025-09-02T10:36:41.040Z</when>
<when >2025-09-02T10:36:42.290Z</when>
<when >2025-09-02T10:36:43.770Z</when>
<when >2025-09-02T10:36:44.090Z</when>
<when >2025-09-02T10:36:46.390Z</when>
<when >2025-09-02T10:36:47.640Z</when>
<when >2025-09-02T10:36:48.120Z</when>
<when >2025-09-02T10:36:49.160Z</when>
<when >2025-09-02T10:36:50.400Z</when>
<when >2025-09-02T10:36:51.380Z</when>
<when >2025-09-02T10:36:52.270Z</when>
<when >2025-09-02T10:36:53.020Z</when>
<when >2025-09-02T10:36:54.010Z</when>
<when >2025-09-02T10:36:55.240Z</when>
<when >2025-09-02T10:36:55.240Z</when>
<gx:coord >20.96827 52.170057 0</gx:coord>
<gx:coord >20.96827 52.170057 0</gx:coord>
<gx:coord >20.96827 52.170057 0</gx:coord>
<gx:coord >20.96827 52.170057 0</gx:coord>
<gx:coord >20.968266 52.170055 0</gx:coord>
<gx:coord >20.96827 52.170057 0</gx:coord>
<gx:coord >20.96827 52.170057 0</gx:coord>
<gx:coord >20.968266 52.170055 0</gx:coord>
<gx:coord >20.96827 52.170057 0</gx:coord>
<gx:coord >20.968132 52.170067 0</gx:coord>
<gx:coord >20.968037 52.170055 0</gx:coord>
<gx:coord >20.967898 52.170022 0</gx:coord>
<gx:coord >20.96777 52.169975 0</gx:coord>
<gx:coord >20.967617 52.169964 0</gx:coord>
<gx:coord >20.967541 52.169987 0</gx:coord>
<gx:coord >20.967407 52.170055 0</gx:coord>
<gx:coord >20.967368 52.170092 0</gx:coord>
<gx:coord >20.967331 52.170147 0</gx:coord>
<gx:coord >20.96727 52.170197 0</gx:coord>
<gx:coord >20.967211 52.170255 0</gx:coord>
<gx:coord >20.967113 52.170406 0</gx:coord>
<gx:coord >20.966917 52.170627 0</gx:coord>
<gx:coord >20.966583 52.171 0</gx:coord>
<gx:coord >20.96625 52.171384 0</gx:coord>
<gx:coord >20.965916 52.171768 0</gx:coord>
<gx:coord >20.965576 52.172161 0</gx:coord>
<gx:coord >20.965252 52.172539 0</gx:coord>
<gx:coord >20.964896 52.172932 0</gx:coord>
<gx:coord >20.964603 52.173271 0</gx:coord>
<gx:coord >20.964317 52.173603 0</gx:coord>
<gx:coord >20.964013 52.173944 0</gx:coord>
<gx:coord >20.96368 52.174328 0</gx:coord>
<gx:coord >20.963366 52.174677 0</gx:coord>
<gx:coord >20.96302 52.175068 0</gx:coord>
<gx:coord >20.962856 52.175283 0</gx:coord>
<gx:coord >20.962817 52.175318 0</gx:coord>
<gx:coord >20.962791 52.175343 0</gx:coord>
<gx:coord >20.962699 52.175446 0</gx:coord>
<gx:coord >20.962543 52.175617 0</gx:coord>
<gx:coord >20.962448 52.175697 0</gx:coord>
<gx:coord >20.962346 52.175748 0</gx:coord>
<gx:coord >20.962248 52.175783 0</gx:coord>
<gx:coord >20.96213 52.175818 0</gx:coord>
<gx:coord >20.961953 52.175853 0</gx:coord>
<gx:coord >20.961875 52.175865 0</gx:coord>
<gx:coord >20.961757 52.175853 0</gx:coord>
<gx:coord >20.961742 52.175858 0</gx:coord>
<gx:coord >20.961742 52.175846 0</gx:coord>
<gx:coord >20.961737 52.175853 0</gx:coord>
<gx:coord >20.961737 52.175853 0</gx:coord>
<gx:coord >20.961639 52.175841 0</gx:coord>
<gx:coord >20.961552 52.175823 0</gx:coord>
<gx:coord >20.961418 52.175812 0</gx:coord>
<gx:coord >20.961227 52.175777 0</gx:coord>
<gx:coord >20.960922 52.175743 0</gx:coord>
<gx:coord >20.960855 52.175678 0</gx:coord>
<gx:coord >20.960827 52.175583 0</gx:coord>
<gx:coord >20.960835 52.175608 0</gx:coord>
<gx:coord >20.960846 52.175606 0</gx:coord>
<gx:coord >20.960846 52.175606 0</gx:coord>
<gx:coord >20.960855 52.175608 0</gx:coord>
<gx:coord >20.960789 52.17556 0</gx:coord>
<gx:coord >20.960737 52.175504 0</gx:coord>
<gx:coord >20.960658 52.175411 0</gx:coord>
<gx:coord >20.960462 52.175178 0</gx:coord>
<gx:coord >20.960266 52.17491 0</gx:coord>
<gx:coord >20.960026 52.174656 0</gx:coord>
<gx:coord >20.959816 52.174427 0</gx:coord>
<gx:coord >20.959638 52.174258 0</gx:coord>
<gx:coord >20.959658 52.1742 0</gx:coord>
<gx:coord >20.959702 52.174175 0</gx:coord>
<gx:coord >20.959736 52.174165 0</gx:coord>
<gx:coord >20.959776 52.174165 0</gx:coord>
<gx:coord >20.959835 52.174154 0</gx:coord>
<gx:coord >20.959854 52.174141 0</gx:coord>
<gx:coord >20.959873 52.174118 0</gx:coord>
<gx:coord >20.959892 52.174118 0</gx:coord>
<gx:coord >20.959969 52.174026 0</gx:coord>
<gx:coord >20.960031 52.173956 0</gx:coord>
<gx:coord >20.960129 52.173851 0</gx:coord>
<gx:coord >20.960178 52.173786 0</gx:coord>
<gx:coord >20.960384 52.173549 0</gx:coord>
<gx:coord >20.960619 52.173281 0</gx:coord>
<gx:coord >20.960698 52.173176 0</gx:coord>
<gx:coord >20.960884 52.172962 0</gx:coord>
<gx:coord >20.96107 52.172746 0</gx:coord>
<gx:coord >20.961306 52.172478 0</gx:coord>
<gx:coord >20.961514 52.17223 0</gx:coord>
<gx:coord >20.961742 52.171989 0</gx:coord>
<gx:coord >20.961993 52.171698 0</gx:coord>
<gx:coord >20.962267 52.171372 0</gx:coord>
<gx:coord >20.962267 52.171372 0</gx:coord>
</gx:Track>
</Placemark>
<Placemark ><name >HA-LXJ</name>
<Style ><LineStyle ><color >ff1c1ae3</color>
<width >4</width>
</LineStyle>
<IconStyle ><Icon ><href >http://maps.google.com/mapfiles/kml/shapes/airports.png</href>
</Icon>
</IconStyle>
</Style>
<gx:Track ><altitudeMode >absolute</altitudeMode>
<extrude >1</extrude>
<when >2025-09-02T10:36:57.260Z</when>
<when >2025-09-02T10:36:58.650Z</when>
<when >2025-09-02T10:37:00.380Z</when>
<when >2025-09-02T10:37:01.290Z</when>
<when >2025-09-02T10:37:02.760Z</when>
<when >2025-09-02T10:37:03.980Z</when>
<when >2025-09-02T10:37:05.840Z</when>
<when >2025-09-02T10:37:07.000Z</when>
<when >2025-09-02T10:37:11.300Z</when>
<when >2025-09-02T10:37:18.180Z</when>
<when >2025-09-02T10:37:18.750Z</when>
<when >2025-09-02T10:37:20.610Z</when>
<when >2025-09-02T10:37:21.100Z</when>
<when >2025-09-02T10:37:22.510Z</when>
<when >2025-09-02T10:37:24.180Z</when>
<when >2025-09-02T10:37:26.180Z</when>
<when >2025-09-02T10:37:28.240Z</when>
<when >2025-09-02T10:37:30.480Z</when>
<when >2025-09-02T10:37:32.320Z</when>
<when >2025-09-02T10:37:34.820Z</when>
<when >2025-09-02T10:37:36.840Z</when>
<when >2025-09-02T10:37:39.250Z</when>
<when >2025-09-02T10:37:41.220Z</when>
<when >2025-09-02T10:37:43.290Z</when>
<when >2025-09-02T10:37:45.490Z</when>
<when >2025-09-02T10:37:47.570Z</when>
<when >2025-09-02T10:37:50.040Z</when>
<when >2025-09-02T10:37:52.500Z</when>
<when >2025-09-02T10:37:55.290Z</when>
<when >2025-09-02T10:37:58.250Z</when>
<when >2025-09-02T10:38:00.840Z</when>
<when >2025-09-02T10:38:03.550Z</when>
<when >2025-09-02T10:38:06.930Z</when>
<when >2025-09-02T10:38:09.810Z</when>
<when >2025-09-02T10:38:13.010Z</when>
<when >2025-09-02T10:38:16.690Z</when>
<when >2025-09-02T10:38:19.510Z</when>
<when >2025-09-02T10:38:22.580Z</when>
<when >2025-09-02T10:38:24.410Z</when>
<when >2025-09-02T10:38:27.150Z</when>
<when >2025-09-02T10:38:28.930Z</when>
<when >2025-09-02T10:38:31.200Z</when>
<when >2025-09-02T10:38:33.280Z</when>
<when >2025-09-02T10:38:35.540Z</when>
<when >2025-09-02T10:38:38.100Z</when>
<when >2025-09-02T10:38:40.860Z</when>
<when >2025-09-02T10:38:43.380Z</when>
<when >2025-09-02T10:38:46.570Z</when>
<when >2025-09-02T10:38:50.420Z</when>
<when >2025-09-02T10:38:54.530Z</when>
<when >2025-09-02T10:38:59.220Z</when>
<when >2025-09-02T10:39:03.490Z</when>
<when >2025-09-02T10:39:07.060Z</when>
<when >2025-09-02T10:39:10.860Z</when>
<when >2025-09-02T10:39:14.990Z</when>
<when >2025-09-02T10:39:17.940Z</when>
<when >2025-09-02T10:39:20.140Z</when>
<when >2025-09-02T10:39:23.010Z</when>
<when >2025-09-02T10:39:27.230Z</when>
<when >2025-09-02T10:39:31.990Z</when>
<when >2025-09-02T10:39:35.130Z</when>
<when >2025-09-02T10:39:37.720Z</when>
<when >2025-09-02T10:39:40.740Z</when>
<when >2025-09-02T10:39:44.330Z</when>
<when >2025-09-02T10:39:47.810Z</when>
<when >2025-09-02T10:39:51.370Z</when>
<when >2025-09-02T10:39:55.160Z</when>
<when >2025-09-02T10:39:58.780Z</when>
<when >2025-09-02T10:40:01.970Z</when>
<when >2025-09-02T10:40:04.880Z</when>
<when >2025-09-02T10:40:07.400Z</when>
<when >2025-09-02T10:40:10.190Z</when>
<when >2025-09-02T10:40:12.440Z</when>
<when >2025-09-02T10:40:15.070Z</when>
<when >2025-09-02T10:40:17.640Z</when>
<when >2025-09-02T10:40:19.890Z</when>
<when >2025-09-02T10:40:22.190Z</when>
<when >2025-09-02T10:40:24.700Z</when>
<when >2025-09-02T10:40:26.770Z</when>
<when >2025-09-02T10:40:28.360Z</when>
<when >2025-09-02T10:40:30.060Z</when>
<when >2025-09-02T10:40:31.890Z</when>
<when >2025-09-02T10:40:34.060Z</when>
<when >2025-09-02T10:40:35.580Z</when>
<when >2025-09-02T10:40:38.700Z</when>
<when >2025-09-02T10:40:41.890Z</when>
<when >2025-09-02T10:40:45.030Z</when>
<when >2025-09-02T10:40:48.340Z</when>
<when >2025-09-02T10:40:51.680Z</when>
<when >2025-09-02T10:40:54.700Z</when>
<when >2025-09-02T10:40:57.530Z</when>
<when >2025-09-02T10:41:00.570Z</when>
<when >2025-09-02T10:41:04.920Z</when>
<when >2025-09-02T10:41:09.660Z</when>
<when >2025-09-02T10:41:14.730Z</when>
<when >2025-09-02T10:41:20.160Z</when>
<when >2025-09-02T10:41:24.060Z</when>
<when >2025-09-02T10:41:28.850Z</when>
<when >2025-09-02T10:41:33.870Z</when>
<when >2025-09-02T10:41:38.670Z</when>
<when >2025-09-02T10:41:42.760Z</when>
<when >2025-09-02T10:41:45.620Z</when>
<when >2025-09-02T10:41:53.060Z</when>
<when >2025-09-02T10:42:01.260Z</when>
<when >2025-09-02T10:42:09.630Z</when>
<when >2025-09-02T10:42:16.990Z</when>
<when >2025-09-02T10:42:24.730Z</when>
<when >2025-09-02T10:42:32.060Z</when>
<when >2025-09-02T10:42:38.430Z</when>
<when >2025-09-02T10:42:44.380Z</when>
<when >2025-09-02T10:42:50.900Z</when>
<when >2025-09-02T10:43:01.810Z</when>
<when >2025-09-02T10:43:10.280Z</when>
<when >2025-09-02T10:43:18.690Z</when>
<when >2025-09-02T10:43:27.330Z</when>
<when >2025-09-02T10:43:36.520Z</when>
<when >2025-09-02T10:43:47.130Z</when>
<when >2025-09-02T10:43:54.180Z</when>
<when >2025-09-02T10:44:02.640Z</when>
<when >2025-09-02T10:44:10.930Z</when>
<when >2025-09-02T10:44:20.930Z</when>
<when >2025-09-02T10:44:31.620Z</when>
<when >2025-09-02T10:44:41.900Z</when>
<when >2025-09-02T10:44:49.490Z</when>
<when >2025-09-02T10:44:59.170Z</when>
<when >2025-09-02T10:45:11.710Z</when>
<when >2025-09-02T10:45:20.420Z</when>
<when >2025-09-02T10:45:31.090Z</when>
<when >2025-09-02T10:45:42.920Z</when>
<when >2025-09-02T10:45:54.480Z</when>
<when >2025-09-02T10:46:05.380Z</when>
<when >2025-09-02T10:46:17.040Z</when>
<when >2025-09-02T10:46:28.440Z</when>
<when >2025-09-02T10:46:40.250Z</when>
<when >2025-09-02T10:46:52.220Z</when>
<when >2025-09-02T10:47:04.910Z</when>
<when >2025-09-02T10:47:17.510Z</when>
<when >2025-09-02T10:47:29.870Z</when>
<when >2025-09-02T10:47:41.810Z</when>
<when >2025-09-02T10:47:54.320Z</when>
<when >2025-09-02T10:48:05.760Z</when>
<when >2025-09-02T10:48:18.200Z</when>
<when >2025-09-02T10:48:31.770Z</when>
<when >2025-09-02T10:48:44.460Z</when>
<when >2025-09-02T10:48:57.180Z</when>
<when >2025-09-02T10:49:11.140Z</when>
<when >2025-09-02T10:49:23.640Z</when>
<when >2025-09-02T10:49:36.280Z</when>
<when >2025-09-02T10:49:50.120Z</when>
<when >2025-09-02T10:50:04.100Z</when>
<when >2025-09-02T10:50:10.130Z</when>
<when >2025-09-02T10:50:15.790Z</when>
<when >2025-09-02T10:50:28.940Z</when>
<when >2025-09-02T10:50:43.820Z</when>
<when >2025-09-02T10:51:01.380Z</when>
<when >2025-09-02T10:51:16.460Z</when>
<when >2025-09-02T10:51:31.140Z</when>
<when >2025-09-02T10:51:46.780Z</when>
<when >2025-09-02T10:52:00.390Z</when>
<when >2025-09-02T10:52:13.790Z</when>
<when >2025-09-02T10:52:30.190Z</when>
<when >2025-09-02T10:52:46.270Z</when>
<when >2025-09-02T10:53:00.110Z</when>
<when >2025-09-02T10:53:14.560Z</when>
<when >2025-09-02T10:53:29.880Z</when>
<when >2025-09-02T10:53:45.120Z</when>
<when >2025-09-02T10:54:00.530Z</when>
<when >2025-09-02T10:54:15.940Z</when>
<when >2025-09-02T10:54:30.790Z</when>
<when >2025-09-02T10:54:46.300Z</when>
<when >2025-09-02T10:55:02.440Z</when>
<when >2025-09-02T10:55:20.490Z</when>
<when >2025-09-02T10:55:39.930Z</when>
<when >2025-09-02T10:55:58.230Z</when>
<when >2025-09-02T10:56:16.340Z</when>
<when >2025-09-02T10:56:30.920Z</when>
<when >2025-09-02T10:56:47.420Z</when>
<when >2025-09-02T10:56:55.920Z</when>
<when >2025-09-02T10:57:08.560Z</when>
<when >2025-09-02T10:57:15.230Z</when>
<when >2025-09-02T10:57:28.650Z</when>
<when >2025-09-02T10:57:44.690Z</when>
<when >2025-09-02T10:58:00.740Z</when>
<when >2025-09-02T10:58:11.660Z</when>
<when >2025-09-02T10:58:31.220Z</when>
<when >2025-09-02T10:58:47.320Z</when>
<when >2025-09-02T10:59:03.540Z</when>
<when >2025-09-02T10:59:20.790Z</when>
<when >2025-09-02T10:59:30.010Z</when>
<when >2025-09-02T10:59:49.780Z</when>
<when >2025-09-02T11:00:09.770Z</when>
<when >2025-09-02T11:00:29.430Z</when>
<when >2025-09-02T11:00:49.030Z</when>
<when >2025-09-02T11:01:08.650Z</when>
<when >2025-09-02T11:01:28.600Z</when>
<when >2025-09-02T11:01:48.540Z</when>
<when >2025-09-02T11:02:08.140Z</when>
<when >2025-09-02T11:02:27.960Z</when>
<when >2025-09-02T11:02:47.810Z</when>
<when >2025-09-02T11:03:07.540Z</when>
<when >2025-09-02T11:03:27.390Z</when>
<when >2025-09-02T11:03:47.050Z</when>
<when >2025-09-02T11:04:06.750Z</when>
<when >2025-09-02T11:04:26.240Z</when>
<when >2025-09-02T11:04:45.980Z</when>
<when >2025-09-02T11:05:05.570Z</when>
<when >2025-09-02T11:05:25.360Z</when>
<when >2025-09-02T11:05:45.090Z</when>
<when >2025-09-02T11:06:04.880Z</when>
<when >2025-09-02T11:06:24.310Z</when>
<when >2025-09-02T11:06:44.280Z</when>
<when >2025-09-02T11:07:04.210Z</when>
<when >2025-09-02T11:07:24.050Z</when>
<when >2025-09-02T11:07:43.650Z</when>
<when >2025-09-02T11:08:03.240Z</when>
<when >2025-09-02T11:08:22.900Z</when>
<when >2025-09-02T11:08:42.790Z</when>
<when >2025-09-02T11:09:02.690Z</when>
<when >2025-09-02T11:09:22.210Z</when>
<when >2025-09-02T11:09:42.200Z</when>
<when >2025-09-02T11:10:01.760Z</when>
<when >2025-09-02T11:10:21.450Z</when>
<when >2025-09-02T11:10:41.070Z</when>
<when >2025-09-02T11:11:01.060Z</when>
<when >2025-09-02T11:11:21.010Z</when>
<when >2025-09-02T11:11:40.840Z</when>
<when >2025-09-02T11:12:00.680Z</when>
<when >2025-09-02T11:12:20.330Z</when>
<when >2025-09-02T11:12:40.190Z</when>
<when >2025-09-02T11:12:59.790Z</when>
<when >2025-09-02T11:13:19.620Z</when>
<when >2025-09-02T11:13:39.520Z</when>
<when >2025-09-02T11:13:59.430Z</when>
<when >2025-09-02T11:14:18.890Z</when>
<when >2025-09-02T11:14:38.480Z</when>
<when >2025-09-02T11:14:57.940Z</when>
<when >2025-09-02T11:15:17.740Z</when>
<when >2025-09-02T11:15:37.370Z</when>
<when >2025-09-02T11:15:56.990Z</when>
<when >2025-09-02T11:16:16.600Z</when>
<when >2025-09-02T11:16:36.360Z</when>
<when >2025-09-02T11:16:55.870Z</when>
<when >2025-09-02T11:17:15.740Z</when>
<when >2025-09-02T11:17:35.450Z</when>
<when >2025-09-02T11:17:55.150Z</when>
<when >2025-09-02T11:18:15.090Z</when>
<when >2025-09-02T11:18:34.820Z</when>
<when >2025-09-02T11:18:54.500Z</when>
<when >2025-09-02T11:19:14.150Z</when>
<when >2025-09-02T11:19:33.950Z</when>
<when >2025-09-02T11:19:53.720Z</when>
<when >2025-09-02T11:20:13.610Z</when>
<when >2025-09-02T11:20:33.290Z</when>
<when >2025-09-02T11:20:53.180Z</when>
<when >2025-09-02T11:21:13.110Z</when>
<when >2025-09-02T11:21:32.820Z</when>
<when >2025-09-02T11:21:52.540Z</when>
<when >2025-09-02T11:22:11.660Z</when>
<when >2025-09-02T11:22:31.350Z</when>
<when >2025-09-02T11:22:50.980Z</when>
<when >2025-09-02T11:23:10.410Z</when>
<when >2025-09-02T11:23:30.120Z</when>
<when >2025-09-02T11:23:49.890Z</when>
<when >2025-09-02T11:24:09.480Z</when>
<when >2025-09-02T11:24:28.910Z</when>
<when >2025-09-02T11:24:48.420Z</when>
<when >2025-09-02T11:25:08.030Z</when>
<when >2025-09-02T11:25:27.240Z</when>
<when >2025-09-02T11:25:47.100Z</when>
<when >2025-09-02T11:26:06.830Z</when>
<when >2025-09-02T11:26:26.670Z</when>
<when >2025-09-02T11:26:46.460Z</when>
<when >2025-09-02T11:27:06.100Z</when>
<when >2025-09-02T11:27:25.420Z</when>
<when >2025-09-02T11:27:45.370Z</when>
<when >2025-09-02T11:28:05.110Z</when>
<when >2025-09-02T11:28:24.370Z</when>
<when >2025-09-02T11:28:44.020Z</when>
<when >2025-09-02T11:29:03.900Z</when>
<when >2025-09-02T11:29:23.590Z</when>
<when >2025-09-02T11:29:43.240Z</when>
<when >2025-09-02T11:30:03.010Z</when>
<when >2025-09-02T11:30:22.810Z</when>
<when >2025-09-02T11:30:42.540Z</when>
<when >2025-09-02T11:31:02.150Z</when>
<when >2025-09-02T11:31:22.030Z</when>
<when >2025-09-02T11:31:41.850Z</when>
<when >2025-09-02T11:32:01.450Z</when>
<when >2025-09-02T11:32:20.800Z</when>
<when >2025-09-02T11:32:40.800Z</when>
<when >2025-09-02T11:33:00.500Z</when>
<when >2025-09-02T11:33:20.170Z</when>
<when >2025-09-02T11:33:40.090Z</when>
<when >2025-09-02T11:33:59.790Z</when>
<when >2025-09-02T11:34:19.760Z</when>
<when >2025-09-02T11:34:39.690Z</when>
<when >2025-09-02T11:34:59.310Z</when>
<when >2025-09-02T11:35:19.060Z</when>
<when >2025-09-02T11:35:38.990Z</when>
<when >2025-09-02T11:35:58.640Z</when>
<when >2025-09-02T11:36:18.440Z</when>
<when >2025-09-02T11:36:38.060Z</when>
<when >2025-09-02T11:36:57.760Z</when>
<when >2025-09-02T11:37:17.580Z</when>
<when >2025-09-02T11:37:37.190Z</when>
<when >2025-09-02T11:37:56.770Z</when>
<when >2025-09-02T11:38:16.720Z</when>
<when >2025-09-02T11:38:36.360Z</when>
<when >2025-09-02T11:38:56.300Z</when>
<when >2025-09-02T11:39:16.250Z</when>
<when >2025-09-02T11:39:35.920Z</when>
<when >2025-09-02T11:39:55.370Z</when>
<when >2025-09-02T11:40:15.040Z</when>
<when >2025-09-02T11:40:34.530Z</when>
<when >2025-09-02T11:40:54.210Z</when>
<when >2025-09-02T11:41:13.840Z</when>
<when >2025-09-02T11:41:33.400Z</when>
<when >2025-09-02T11:41:52.810Z</when>
<when >2025-09-02T11:42:12.720Z</when>
<when >2025-09-02T11:42:32.710Z</when>
<when >2025-09-02T11:42:51.830Z</when>
<when >2025-09-02T11:43:11.770Z</when>
<when >2025-09-02T11:43:31.610Z</when>
<when >2025-09-02T11:43:51.600Z</when>
<when >2025-09-02T11:44:11.520Z</when>
<when >2025-09-02T11:44:31.060Z</when>
<when >2025-09-02T11:44:51.050Z</when>
<when >2025-09-02T11:45:10.800Z</when>
<when >2025-09-02T11:45:17.790Z</when>
<when >2025-09-02T11:45:24.170Z</when>
<when >2025-09-02T11:45:43.650Z</when>
<when >2025-09-02T11:46:03.530Z</when>
<when >2025-09-02T11:46:23.430Z</when>
<when >2025-09-02T11:46:43.210Z</when>
<when >2025-09-02T11:47:03.070Z</when>
<when >2025-09-02T11:47:22.300Z</when>
<when >2025-09-02T11:47:41.850Z</when>
<when >2025-09-02T11:48:01.630Z</when>
<when >2025-09-02T11:48:21.190Z</when>
<when >2025-09-02T11:48:40.760Z</when>
<when >2025-09-02T11:49:00.540Z</when>
<when >2025-09-02T11:49:20.510Z</when>
<when >2025-09-02T11:49:40.140Z</when>
<when >2025-09-02T11:50:00.030Z</when>
<when >2025-09-02T11:50:19.380Z</when>
<when >2025-09-02T11:50:38.980Z</when>
<when >2025-09-02T11:50:58.670Z</when>
<when >2025-09-02T11:51:18.450Z</when>
<when >2025-09-02T11:51:38.350Z</when>
<when >2025-09-02T11:51:58.050Z</when>
<when >2025-09-02T11:52:17.430Z</when>
<when >2025-09-02T11:52:37.270Z</when>
<when >2025-09-02T11:52:57.160Z</when>
<when >2025-09-02T11:53:17.020Z</when>
<when >2025-09-02T11:53:36.920Z</when>
<when >2025-09-02T11:53:56.530Z</when>
<when >2025-09-02T11:54:16.220Z</when>
<when >2025-09-02T11:54:36.190Z</when>
<when >2025-09-02T11:54:56.070Z</when>
<when >2025-09-02T11:55:15.710Z</when>
<when >2025-09-02T11:55:35.180Z</when>
<when >2025-09-02T11:55:55.060Z</when>
<when >2025-09-02T11:56:14.920Z</when>
<when >2025-09-02T11:56:34.360Z</when>
<when >2025-09-02T11:56:54.050Z</when>
<when >2025-09-02T11:57:13.310Z</when>
<when >2025-09-02T11:57:33.120Z</when>
<when >2025-09-02T11:57:52.330Z</when>
<when >2025-09-02T11:58:10.750Z</when>
<when >2025-09-02T11:58:30.660Z</when>
<when >2025-09-02T11:58:50.650Z</when>
<when >2025-09-02T11:59:10.520Z</when>
<when >2025-09-02T11:59:30.140Z</when>
<when >2025-09-02T11:59:49.740Z</when>
<when >2025-09-02T12:00:08.930Z</when>
<when >2025-09-02T12:00:28.370Z</when>
<when >2025-09-02T12:00:48.110Z</when>
<when >2025-09-02T12:01:07.880Z</when>
<when >2025-09-02T12:01:27.360Z</when>
<when >2025-09-02T12:01:46.800Z</when>
<when >2025-09-02T12:02:06.580Z</when>
<when >2025-09-02T12:02:26.480Z</when>
<when >2025-09-02T12:02:45.960Z</when>
<when >2025-09-02T12:03:05.890Z</when>
<when >2025-09-02T12:03:25.550Z</when>
<when >2025-09-02T12:03:45.490Z</when>
<when >2025-09-02T12:04:05.160Z</when>
<when >2025-09-02T12:04:24.520Z</when>
<when >2025-09-02T12:04:44.400Z</when>
<when >2025-09-02T12:05:04.300Z</when>
<when >2025-09-02T12:05:24.220Z</when>
<when >2025-09-02T12:05:44.090Z</when>
<when >2025-09-02T12:06:03.840Z</when>
<when >2025-09-02T12:06:23.450Z</when>
<when >2025-09-02T12:06:42.160Z</when>
<when >2025-09-02T12:07:01.890Z</when>
<when >2025-09-02T12:07:21.620Z</when>
<when >2025-09-02T12:07:41.510Z</when>
<when >2025-09-02T12:08:01.480Z</when>
<when >2025-09-02T12:08:21.290Z</when>
<when >2025-09-02T12:08:41.050Z</when>
<when >2025-09-02T12:09:00.370Z</when>
<when >2025-09-02T12:09:20.350Z</when>
<when >2025-09-02T12:09:40.290Z</when>
<when >2025-09-02T12:10:00.220Z</when>
<when >2025-09-02T12:10:19.840Z</when>
<when >2025-09-02T12:10:38.700Z</when>
<when >2025-09-02T12:10:58.100Z</when>
<when >2025-09-02T12:11:17.050Z</when>
<when >2025-09-02T12:11:36.920Z</when>
<when >2025-09-02T12:11:56.270Z</when>
<when >2025-09-02T12:12:16.080Z</when>
<when >2025-09-02T12:12:35.890Z</when>
<when >2025-09-02T12:12:55.860Z</when>
<when >2025-09-02T12:13:15.780Z</when>
<when >2025-09-02T12:13:35.090Z</when>
<when >2025-09-02T12:13:54.070Z</when>
<when >2025-09-02T12:14:13.780Z</when>
<when >2025-09-02T12:14:33.700Z</when>
<when >2025-09-02T12:14:53.700Z</when>
<when >2025-09-02T12:15:13.550Z</when>
<when >2025-09-02T12:15:32.970Z</when>
<when >2025-09-02T12:15:52.360Z</when>
<when >2025-09-02T12:16:11.930Z</when>
<when >2025-09-02T12:16:31.890Z</when>
<when >2025-09-02T12:16:51.540Z</when>
<when >2025-09-02T12:17:11.540Z</when>
<when >2025-09-02T12:17:31.460Z</when>
<when >2025-09-02T12:17:51.320Z</when>
<when >2025-09-02T12:18:11.250Z</when>
<when >2025-09-02T12:18:30.390Z</when>
<when >2025-09-02T12:18:34.430Z</when>
<when >2025-09-02T12:18:36.020Z</when>
<when >2025-09-02T12:18:37.280Z</when>
<when >2025-09-02T12:18:39.830Z</when>
<when >2025-09-02T12:18:41.780Z</when>
<when >2025-09-02T12:18:45.290Z</when>
<when >2025-09-02T12:18:52.970Z</when>
<when >2025-09-02T12:19:00.770Z</when>
<when >2025-09-02T12:19:06.410Z</when>
<when >2025-09-02T12:19:15.390Z</when>
<when >2025-09-02T12:19:23.870Z</when>
<when >2025-09-02T12:19:32.740Z</when>
<when >2025-09-02T12:19:42.970Z</when>
<when >2025-09-02T12:19:50.660Z</when>
<when >2025-09-02T12:19:57.800Z</when>
<when >2025-09-02T12:20:04.680Z</when>
<when >2025-09-02T12:20:11.530Z</when>
<when >2025-09-02T12:20:18.320Z</when>
<when >2025-09-02T12:20:24.600Z</when>
<when >2025-09-02T12:20:31.910Z</when>
<when >2025-09-02T12:20:38.870Z</when>
<when >2025-09-02T12:20:45.350Z</when>
<when >2025-09-02T12:20:52.490Z</when>
<when >2025-09-02T12:20:58.870Z</when>
<when >2025-09-02T12:21:05.270Z</when>
<when >2025-09-02T12:21:08.460Z</when>
<when >2025-09-02T12:21:13.600Z</when>
<when >2025-09-02T12:21:19.260Z</when>
<when >2025-09-02T12:21:23.120Z</when>
<when >2025-09-02T12:21:28.780Z</when>
<when >2025-09-02T12:21:33.470Z</when>
<when >2025-09-02T12:21:36.460Z</when>
<when >2025-09-02T12:21:38.010Z</when>
<when >2025-09-02T12:21:39.640Z</when>
<when >2025-09-02T12:21:47.560Z</when>
<when >2025-09-02T12:21:49.030Z</when>
<when >2025-09-02T12:21:52.410Z</when>
<when >2025-09-02T12:21:58.260Z</when>
<when >2025-09-02T12:22:04.160Z</when>
<when >2025-09-02T12:22:10.660Z</when>
<when >2025-09-02T12:22:17.040Z</when>
<when >2025-09-02T12:22:23.460Z</when>
<when >2025-09-02T12:22:31.030Z</when>
<when >2025-09-02T12:22:39.080Z</when>
<when >2025-09-02T12:22:48.080Z</when>
<when >2025-09-02T12:22:56.470Z</when>
<when >2025-09-02T12:23:04.400Z</when>
<when >2025-09-02T12:23:09.260Z</when>
<when >2025-09-02T12:23:19.470Z</when>
<when >2025-09-02T12:23:29.460Z</when>
<when >2025-09-02T12:23:37.430Z</when>
<when >2025-09-02T12:23:44.500Z</when>
<when >2025-09-02T12:23:49.600Z</when>
<when >2025-09-02T12:23:55.190Z</when>
<when >2025-09-02T12:23:59.480Z</when>
<when >2025-09-02T12:24:03.290Z</when>
<when >2025-09-02T12:24:08.250Z</when>
<when >2025-09-02T12:24:15.530Z</when>
<when >2025-09-02T12:24:23.850Z</when>
<when >2025-09-02T12:24:32.800Z</when>
<when >2025-09-02T12:24:40.820Z</when>
<when >2025-09-02T12:24:46.050Z</when>
<when >2025-09-02T12:24:52.070Z</when>
<when >2025-09-02T12:24:54.120Z</when>
<when >2025-09-02T12:24:56.410Z</when>
<when >2025-09-02T12:25:04.570Z</when>
<when >2025-09-02T12:25:10.440Z</when>
<when >2025-09-02T12:25:11.870Z</when>
<when >2025-09-02T12:25:13.960Z</when>
<when >2025-09-02T12:25:16.950Z</when>
<when >2025-09-02T12:25:19.640Z</when>
<when >2025-09-02T12:25:24.370Z</when>
<when >2025-09-02T12:25:26.790Z</when>
<when >2025-09-02T12:25:28.000Z</when>
<when >2025-09-02T12:25:29.210Z</when>
<when >2025-09-02T12:25:31.620Z</when>
<when >2025-09-02T12:25:34.000Z</when>
<when >2025-09-02T12:25:35.870Z</when>
<when >2025-09-02T12:25:42.940Z</when>
<when >2025-09-02T12:25:45.430Z</when>
<when >2025-09-02T12:25:48.100Z</when>
<when >2025-09-02T12:25:50.950Z</when>
<when >2025-09-02T12:25:55.780Z</when>
<when >2025-09-02T12:25:58.440Z</when>
<when >2025-09-02T12:26:02.340Z</when>
<when >2025-09-02T12:26:04.780Z</when>
<when >2025-09-02T12:26:08.570Z</when>
<when >2025-09-02T12:26:11.530Z</when>
<when >2025-09-02T12:26:13.670Z</when>
<when >2025-09-02T12:26:16.100Z</when>
<when >2025-09-02T12:26:18.490Z</when>
<when >2025-09-02T12:26:22.470Z</when>
<when >2025-09-02T12:26:26.130Z</when>
<when >2025-09-02T12:26:29.930Z</when>
<when >2025-09-02T12:26:34.110Z</when>
<when >2025-09-02T12:26:38.010Z</when>
<when >2025-09-02T12:26:42.320Z</when>
<when >2025-09-02T12:26:44.960Z</when>
<when >2025-09-02T12:26:45.980Z</when>
<when >2025-09-02T12:26:46.160Z</when>
<when >2025-09-02T12:26:51.300Z</when>
<when >2025-09-02T12:26:54.320Z</when>
<when >2025-09-02T12:26:58.310Z</when>
<when >2025-09-02T12:27:01.240Z</when>
<when >2025-09-02T12:27:04.770Z</when>
<when >2025-09-02T12:27:10.350Z</when>
<when >2025-09-02T12:27:13.480Z</when>
<when >2025-09-02T12:27:17.930Z</when>
<when >2025-09-02T12:27:23.300Z</when>
<when >2025-09-02T12:27:25.510Z</when>
<when >2025-09-02T12:27:27.660Z</when>
<when >2025-09-02T12:27:34.470Z</when>
<when >2025-09-02T12:27:41.020Z</when>
<when >2025-09-02T12:27:46.900Z</when>
<when >2025-09-02T12:27:52.060Z</when>
<when >2025-09-02T12:27:56.360Z</when>
<when >2025-09-02T12:27:59.620Z</when>
<when >2025-09-02T12:28:04.180Z</when>
<when >2025-09-02T12:28:05.340Z</when>
<when >2025-09-02T12:28:06.350Z</when>
<when >2025-09-02T12:28:08.410Z</when>
<when >2025-09-02T12:28:10.720Z</when>
<when >2025-09-02T12:28:17.410Z</when>
<when >2025-09-02T12:28:20.370Z</when>
<when >2025-09-02T12:28:27.630Z</when>
<when >2025-09-02T12:29:16.450Z</when>
<when >2025-09-02T12:29:20.680Z</when>
<when >2025-09-02T12:29:25.960Z</when>
<when >2025-09-02T12:29:32.190Z</when>
<when >2025-09-02T12:29:39.720Z</when>
<when >2025-09-02T12:29:46.760Z</when>
<when >2025-09-02T12:29:49.850Z</when>
<when >2025-09-02T12:29:54.140Z</when>
<when >2025-09-02T12:29:57.510Z</when>
<when >2025-09-02T12:30:01.430Z</when>
<when >2025-09-02T12:30:04.990Z</when>
<when >2025-09-02T12:30:10.330Z</when>
<when >2025-09-02T12:30:15.140Z</when>
<when >2025-09-02T12:30:28.250Z</when>
<when >2025-09-02T12:30:45.080Z</when>
<when >2025-09-02T12:30:46.640Z</when>
<when >2025-09-02T12:30:54.180Z</when>
<when >2025-09-02T12:31:26.020Z</when>
<when >2025-09-02T12:31:44.540Z</when>
<when >2025-09-02T12:32:02.850Z</when>
<when >2025-09-02T12:32:13.080Z</when>
<when >2025-09-02T12:33:13.280Z</when>
<when >2025-09-02T12:33:22.160Z</when>
<when >2025-09-02T12:34:11.150Z</when>
<when >2025-09-02T12:34:14.940Z</when>
<when >2025-09-02T12:34:30.810Z</when>
<when >2025-09-02T12:34:37.190Z</when>
<when >2025-09-02T12:34:45.840Z</when>
<when >2025-09-02T12:34:53.900Z</when>
<when >2025-09-02T12:35:01.860Z</when>
<when >2025-09-02T12:35:05.590Z</when>
<when >2025-09-02T12:35:28.930Z</when>
<when >2025-09-02T12:35:40.690Z</when>
<when >2025-09-02T12:35:44.670Z</when>
<when >2025-09-02T12:35:44.670Z</when>
<gx:coord >20.962753 52.170822 113</gx:coord>
<gx:coord >20.96344 52.17009 113</gx:coord>
<gx:coord >20.963954 52.16951 113</gx:coord>
<gx:coord >20.964355 52.169037 113</gx:coord>
<gx:coord >20.96489 52.168396 113</gx:coord>
<gx:coord >20.965347 52.167892 113</gx:coord>
<gx:coord >20.966152 52.16695 113</gx:coord>
<gx:coord >20.966721 52.16629 113</gx:coord>
<gx:coord >20.968663 52.164017 113</gx:coord>
<gx:coord >20.972586 52.159595 117</gx:coord>
<gx:coord >20.9729 52.159241 118</gx:coord>
<gx:coord >20.973764 52.158198 133</gx:coord>
<gx:coord >20.974391 52.157546 141</gx:coord>
<gx:coord >20.975266 52.156586 157</gx:coord>
<gx:coord >20.976257 52.155441 180</gx:coord>
<gx:coord >20.977452 52.154101 214</gx:coord>
<gx:coord >20.978546 52.152832 245</gx:coord>
<gx:coord >20.979885 52.151308 275</gx:coord>
<gx:coord >20.980835 52.150177 306</gx:coord>
<gx:coord >20.98216 52.148655 337</gx:coord>
<gx:coord >20.983276 52.147293 370</gx:coord>
<gx:coord >20.984593 52.145769 401</gx:coord>
<gx:coord >20.985718 52.144501 432</gx:coord>
<gx:coord >20.986786 52.143219 463</gx:coord>
<gx:coord >20.98793 52.141937 495</gx:coord>
<gx:coord >20.989144 52.140601 526</gx:coord>
<gx:coord >20.9904 52.139112 558</gx:coord>
<gx:coord >20.991734 52.137575 591</gx:coord>
<gx:coord >20.993271 52.135803 623</gx:coord>
<gx:coord >20.994873 52.134018 655</gx:coord>
<gx:coord >20.996286 52.132315 689</gx:coord>
<gx:coord >20.997777 52.130686 721</gx:coord>
<gx:coord >20.99968 52.128525 752</gx:coord>
<gx:coord >21.001282 52.12674 783</gx:coord>
<gx:coord >21.00296 52.124771 815</gx:coord>
<gx:coord >21.00502 52.122299 847</gx:coord>
<gx:coord >21.006252 52.120444 873</gx:coord>
<gx:coord >21.007193 52.118303 905</gx:coord>
<gx:coord >21.007507 52.116906 922</gx:coord>
<gx:coord >21.007586 52.115044 952</gx:coord>
<gx:coord >21.007309 52.113647 967</gx:coord>
<gx:coord >21.006801 52.112111 990</gx:coord>
<gx:coord >21.006016 52.110575 1014</gx:coord>
<gx:coord >21.004918 52.109225 1039</gx:coord>
<gx:coord >21.003418 52.107559 1068</gx:coord>
<gx:coord >21.001622 52.10578 1100</gx:coord>
<gx:coord >21.000052 52.104244 1125</gx:coord>
<gx:coord >20.998001 52.102295 1157</gx:coord>
<gx:coord >20.995331 52.099823 1192</gx:coord>
<gx:coord >20.992508 52.097305 1223</gx:coord>
<gx:coord >20.988998 52.094193 1251</gx:coord>
<gx:coord >20.985849 52.091395 1277</gx:coord>
<gx:coord >20.983102 52.088928 1308</gx:coord>
<gx:coord >20.980042 52.086228 1331</gx:coord>
<gx:coord >20.97702 52.083206 1351</gx:coord>
<gx:coord >20.975098 52.080735 1369</gx:coord>
<gx:coord >20.974077 52.078966 1385</gx:coord>
<gx:coord >20.972979 52.076359 1400</gx:coord>
<gx:coord >20.971802 52.072495 1432</gx:coord>
<gx:coord >20.970703 52.068073 1466</gx:coord>
<gx:coord >20.970075 52.065047 1480</gx:coord>
<gx:coord >20.969526 52.06244 1497</gx:coord>
<gx:coord >20.969009 52.059357 1520</gx:coord>
<gx:coord >20.968349 52.055597 1548</gx:coord>
<gx:coord >20.967789 52.051987 1573</gx:coord>
<gx:coord >20.96725 52.048195 1602</gx:coord>
<gx:coord >20.966701 52.044052 1633</gx:coord>
<gx:coord >20.966187 52.040085 1668</gx:coord>
<gx:coord >20.965729 52.036423 1702</gx:coord>
<gx:coord >20.965347 52.033127 1733</gx:coord>
<gx:coord >20.965053 52.030366 1764</gx:coord>
<gx:coord >20.964661 52.027039 1793</gx:coord>
<gx:coord >20.964347 52.024407 1826</gx:coord>
<gx:coord >20.964033 52.021427 1857</gx:coord>
<gx:coord >20.963669 52.018387 1888</gx:coord>
<gx:coord >20.963327 52.015702 1918</gx:coord>
<gx:coord >20.963013 52.013048 1948</gx:coord>
<gx:coord >20.962677 52.01001 1981</gx:coord>
<gx:coord >20.962372 52.007675 2012</gx:coord>
<gx:coord >20.962149 52.005739 2037</gx:coord>
<gx:coord >20.961914 52.003738 2067</gx:coord>
<gx:coord >20.961609 52.001495 2099</gx:coord>
<gx:coord >20.961286 51.999036 2131</gx:coord>
<gx:coord >20.961051 51.99722 2162</gx:coord>
<gx:coord >20.96058 51.99345 2216</gx:coord>
<gx:coord >20.960083 51.989777 2279</gx:coord>
<gx:coord >20.959549 51.985977 2342</gx:coord>
<gx:coord >20.959015 51.982315 2414</gx:coord>
<gx:coord >20.958481 51.978378 2473</gx:coord>
<gx:coord >20.958023 51.974808 2536</gx:coord>
<gx:coord >20.957565 51.971466 2584</gx:coord>
<gx:coord >20.957049 51.967986 2629</gx:coord>
<gx:coord >20.956421 51.963051 2690</gx:coord>
<gx:coord >20.955658 51.957504 2756</gx:coord>
<gx:coord >20.954819 51.951691 2818</gx:coord>
<gx:coord >20.953903 51.945236 2880</gx:coord>
<gx:coord >20.953293 51.940475 2941</gx:coord>
<gx:coord >20.952497 51.934794 3007</gx:coord>
<gx:coord >20.951614 51.928848 3070</gx:coord>
<gx:coord >20.950771 51.922969 3136</gx:coord>
<gx:coord >20.950089 51.917999 3191</gx:coord>
<gx:coord >20.949515 51.91445 3214</gx:coord>
<gx:coord >20.948181 51.905093 3282</gx:coord>
<gx:coord >20.946655 51.894653 3335</gx:coord>
<gx:coord >20.945053 51.883447 3388</gx:coord>
<gx:coord >20.943579 51.873459 3435</gx:coord>
<gx:coord >20.941946 51.862656 3495</gx:coord>
<gx:coord >20.940387 51.85231 3557</gx:coord>
<gx:coord >20.939051 51.843063 3624</gx:coord>
<gx:coord >20.937881 51.834474 3685</gx:coord>
<gx:coord >20.936508 51.824837 3746</gx:coord>
<gx:coord >20.9343 51.808731 3861</gx:coord>
<gx:coord >20.932465 51.795882 3975</gx:coord>
<gx:coord >20.93071 51.783266 4112</gx:coord>
<gx:coord >20.928881 51.770325 4234</gx:coord>
<gx:coord >20.926951 51.756454 4364</gx:coord>
<gx:coord >20.92465 51.740616 4486</gx:coord>
<gx:coord >20.923091 51.729813 4569</gx:coord>
<gx:coord >20.921309 51.717087 4699</gx:coord>
<gx:coord >20.919379 51.704361 4829</gx:coord>
<gx:coord >20.917226 51.689255 4950</gx:coord>
<gx:coord >20.914841 51.673077 5087</gx:coord>
<gx:coord >20.912933 51.657156 5209</gx:coord>
<gx:coord >20.912247 51.645425 5285</gx:coord>
<gx:coord >20.912253 51.630249 5369</gx:coord>
<gx:coord >20.912773 51.610519 5483</gx:coord>
<gx:coord >20.913292 51.596466 5582</gx:coord>
<gx:coord >20.913812 51.579529 5704</gx:coord>
<gx:coord >20.914078 51.560374 5826</gx:coord>
<gx:coord >20.914307 51.541614 5932</gx:coord>
<gx:coord >20.914536 51.523831 6062</gx:coord>
<gx:coord >20.914851 51.504959 6176</gx:coord>
<gx:coord >20.915298 51.485984 6306</gx:coord>
<gx:coord >20.915909 51.466711 6413</gx:coord>
<gx:coord >20.916748 51.446787 6518</gx:coord>
<gx:coord >20.91774 51.425652 6633</gx:coord>
<gx:coord >20.918808 51.404564 6739</gx:coord>
<gx:coord >20.919973 51.383514 6846</gx:coord>
<gx:coord >20.921173 51.363225 6960</gx:coord>
<gx:coord >20.922571 51.341675 7052</gx:coord>
<gx:coord >20.924056 51.321899 7166</gx:coord>
<gx:coord >20.925837 51.300247 7280</gx:coord>
<gx:coord >20.927505 51.276871 7387</gx:coord>
<gx:coord >20.929108 51.254526 7486</gx:coord>
<gx:coord >20.930557 51.232274 7600</gx:coord>
<gx:coord >20.931999 51.207642 7699</gx:coord>
<gx:coord >20.932922 51.185396 7806</gx:coord>
<gx:coord >20.933685 51.163004 7913</gx:coord>
<gx:coord >20.934296 51.138145 8003</gx:coord>
<gx:coord >20.934677 51.113286 8102</gx:coord>
<gx:coord >20.934003 51.102219 8141</gx:coord>
<gx:coord >20.932617 51.092012 8192</gx:coord>
<gx:coord >20.928116 51.06855 8293</gx:coord>
<gx:coord >20.923004 51.041968 8392</gx:coord>
<gx:coord >20.91713 51.01022 8468</gx:coord>
<gx:coord >20.91217 50.982521 8559</gx:coord>
<gx:coord >20.907288 50.955381 8651</gx:coord>
<gx:coord >20.902157 50.926437 8735</gx:coord>
<gx:coord >20.897522 50.900775 8826</gx:coord>
<gx:coord >20.892953 50.875671 8933</gx:coord>
<gx:coord >20.887375 50.844913 9024</gx:coord>
<gx:coord >20.881958 50.814654 9108</gx:coord>
<gx:coord >20.877438 50.788467 9206</gx:coord>
<gx:coord >20.872574 50.760886 9305</gx:coord>
<gx:coord >20.867462 50.731837 9389</gx:coord>
<gx:coord >20.862274 50.702649 9473</gx:coord>
<gx:coord >20.857099 50.673523 9564</gx:coord>
<gx:coord >20.851828 50.643807 9648</gx:coord>
<gx:coord >20.84678 50.615271 9732</gx:coord>
<gx:coord >20.841658 50.585756 9823</gx:coord>
<gx:coord >20.836222 50.554596 9899</gx:coord>
<gx:coord >20.830227 50.519792 9976</gx:coord>
<gx:coord >20.823573 50.481857 10037</gx:coord>
<gx:coord >20.81731 50.44596 10105</gx:coord>
<gx:coord >20.811075 50.410534 10174</gx:coord>
<gx:coord >20.806027 50.381765 10265</gx:coord>
<gx:coord >20.800227 50.349335 10341</gx:coord>
<gx:coord >20.797408 50.332672 10380</gx:coord>
<gx:coord >20.792999 50.307724 10402</gx:coord>
<gx:coord >20.790686 50.294357 10441</gx:coord>
<gx:coord >20.786133 50.267899 10540</gx:coord>
<gx:coord >20.780714 50.236335 10615</gx:coord>
<gx:coord >20.775219 50.205002 10699</gx:coord>
<gx:coord >20.771316 50.183487 10729</gx:coord>
<gx:coord >20.764449 50.144897 10782</gx:coord>
<gx:coord >20.758964 50.112972 10866</gx:coord>
<gx:coord >20.753471 50.080758 10950</gx:coord>
<gx:coord >20.747755 50.047007 11026</gx:coord>
<gx:coord >20.744563 50.028945 11064</gx:coord>
<gx:coord >20.737995 49.990677 11080</gx:coord>
<gx:coord >20.73135 49.952134 11080</gx:coord>
<gx:coord >20.725636 49.914459 11080</gx:coord>
<gx:coord >20.719781 49.876694 11080</gx:coord>
<gx:coord >20.713014 49.838546 11080</gx:coord>
<gx:coord >20.705888 49.799582 11087</gx:coord>
<gx:coord >20.69882 49.760559 11086</gx:coord>
<gx:coord >20.691954 49.722336 11094</gx:coord>
<gx:coord >20.685304 49.683746 11094</gx:coord>
<gx:coord >20.678719 49.645075 11094</gx:coord>
<gx:coord >20.67215 49.60675 11086</gx:coord>
<gx:coord >20.66558 49.568683 11079</gx:coord>
<gx:coord >20.658825 49.530557 11070</gx:coord>
<gx:coord >20.652129 49.492538 11070</gx:coord>
<gx:coord >20.645551 49.455093 11070</gx:coord>
<gx:coord >20.638944 49.417419 11070</gx:coord>
<gx:coord >20.632043 49.379562 11070</gx:coord>
<gx:coord >20.625096 49.341462 11077</gx:coord>
<gx:coord >20.61823 49.303196 11084</gx:coord>
<gx:coord >20.611436 49.265069 11092</gx:coord>
<gx:coord >20.604577 49.227264 11099</gx:coord>
<gx:coord >20.597816 49.188583 11092</gx:coord>
<gx:coord >20.591337 49.150543 11092</gx:coord>
<gx:coord >20.584646 49.112274 11092</gx:coord>
<gx:coord >20.577899 49.074857 11091</gx:coord>
<gx:coord >20.571104 49.037196 11083</gx:coord>
<gx:coord >20.564382 48.999489 11083</gx:coord>
<gx:coord >20.557516 48.960897 11091</gx:coord>
<gx:coord >20.550794 48.922492 11091</gx:coord>
<gx:coord >20.544217 48.884505 11083</gx:coord>
<gx:coord >20.537567 48.84568 11106</gx:coord>
<gx:coord >20.531123 48.807816 11106</gx:coord>
<gx:coord >20.524574 48.769684 11106</gx:coord>
<gx:coord >20.517954 48.731735 11106</gx:coord>
<gx:coord >20.510969 48.692989 11098</gx:coord>
<gx:coord >20.503885 48.654537 11098</gx:coord>
<gx:coord >20.497178 48.61647 11098</gx:coord>
<gx:coord >20.490558 48.577744 11097</gx:coord>
<gx:coord >20.48429 48.539658 11090</gx:coord>
<gx:coord >20.478023 48.501114 11097</gx:coord>
<gx:coord >20.471432 48.462742 11097</gx:coord>
<gx:coord >20.464783 48.424164 11097</gx:coord>
<gx:coord >20.458092 48.3853 11098</gx:coord>
<gx:coord >20.451411 48.346128 11098</gx:coord>
<gx:coord >20.445123 48.308188 11098</gx:coord>
<gx:coord >20.439485 48.269503 11098</gx:coord>
<gx:coord >20.433558 48.231237 11106</gx:coord>
<gx:coord >20.427035 48.19249 11106</gx:coord>
<gx:coord >20.420204 48.154007 11106</gx:coord>
<gx:coord >20.413302 48.115509 11106</gx:coord>
<gx:coord >20.406487 48.07695 11106</gx:coord>
<gx:coord >20.399689 48.038086 11106</gx:coord>
<gx:coord >20.393097 47.999817 11106</gx:coord>
<gx:coord >20.38647 47.960722 11106</gx:coord>
<gx:coord >20.37985 47.922177 11106</gx:coord>
<gx:coord >20.373047 47.88295 11106</gx:coord>
<gx:coord >20.366399 47.844156 11106</gx:coord>
<gx:coord >20.359779 47.805052 11106</gx:coord>
<gx:coord >20.353271 47.766357 11106</gx:coord>
<gx:coord >20.346817 47.728134 11114</gx:coord>
<gx:coord >20.340271 47.68923 11114</gx:coord>
<gx:coord >20.334045 47.650452 11106</gx:coord>
<gx:coord >20.327797 47.611267 11106</gx:coord>
<gx:coord >20.32148 47.572769 11106</gx:coord>
<gx:coord >20.315094 47.534088 11114</gx:coord>
<gx:coord >20.308509 47.495479 11106</gx:coord>
<gx:coord >20.302185 47.457047 11106</gx:coord>
<gx:coord >20.296044 47.418715 11106</gx:coord>
<gx:coord >20.289917 47.381333 11106</gx:coord>
<gx:coord >20.283649 47.3433 11106</gx:coord>
<gx:coord >20.277311 47.305406 11106</gx:coord>
<gx:coord >20.271043 47.267234 11106</gx:coord>
<gx:coord >20.264763 47.228989 11114</gx:coord>
<gx:coord >20.258507 47.190609 11114</gx:coord>
<gx:coord >20.252266 47.152313 11113</gx:coord>
<gx:coord >20.246183 47.114589 11113</gx:coord>
<gx:coord >20.239986 47.076369 11120</gx:coord>
<gx:coord >20.233788 47.037917 11120</gx:coord>
<gx:coord >20.227732 47.00035 11113</gx:coord>
<gx:coord >20.221464 46.961711 11128</gx:coord>
<gx:coord >20.215125 46.922933 11113</gx:coord>
<gx:coord >20.208928 46.884714 11120</gx:coord>
<gx:coord >20.20269 46.845982 11120</gx:coord>
<gx:coord >20.196489 46.807205 11120</gx:coord>
<gx:coord >20.190192 46.769669 11120</gx:coord>
<gx:coord >20.183961 46.730804 11120</gx:coord>
<gx:coord >20.177834 46.692174 11120</gx:coord>
<gx:coord >20.171836 46.654358 11120</gx:coord>
<gx:coord >20.165817 46.61634 11120</gx:coord>
<gx:coord >20.159706 46.577748 11113</gx:coord>
<gx:coord >20.153548 46.538773 11113</gx:coord>
<gx:coord >20.147141 46.500146 11120</gx:coord>
<gx:coord >20.140617 46.461601 11120</gx:coord>
<gx:coord >20.134389 46.422546 11113</gx:coord>
<gx:coord >20.128395 46.383858 11120</gx:coord>
<gx:coord >20.122421 46.345406 11120</gx:coord>
<gx:coord >20.116722 46.306023 11120</gx:coord>
<gx:coord >20.11116 46.267059 11120</gx:coord>
<gx:coord >20.105118 46.228234 11120</gx:coord>
<gx:coord >20.098884 46.189865 11128</gx:coord>
<gx:coord >20.092051 46.150177 11128</gx:coord>
<gx:coord >20.085892 46.111202 11128</gx:coord>
<gx:coord >20.080261 46.071958 11127</gx:coord>
<gx:coord >20.075103 46.031937 11127</gx:coord>
<gx:coord >20.070079 45.992844 11127</gx:coord>
<gx:coord >20.064537 45.953157 11135</gx:coord>
<gx:coord >20.058891 45.913467 11135</gx:coord>
<gx:coord >20.053264 45.874146 11135</gx:coord>
<gx:coord >20.047704 45.835556 11135</gx:coord>
<gx:coord >20.041876 45.79541 11135</gx:coord>
<gx:coord >20.036385 45.756846 11127</gx:coord>
<gx:coord >20.030823 45.717178 11127</gx:coord>
<gx:coord >20.02533 45.678592 11127</gx:coord>
<gx:coord >20.019768 45.639488 11119</gx:coord>
<gx:coord >20.014142 45.599808 11127</gx:coord>
<gx:coord >20.008716 45.560944 11119</gx:coord>
<gx:coord >20.003161 45.522034 11127</gx:coord>
<gx:coord >19.997596 45.482281 11127</gx:coord>
<gx:coord >19.99224 45.44371 11135</gx:coord>
<gx:coord >19.98655 45.403748 11135</gx:coord>
<gx:coord >19.980513 45.363899 11135</gx:coord>
<gx:coord >19.974886 45.325307 11135</gx:coord>
<gx:coord >19.969393 45.285738 11135</gx:coord>
<gx:coord >19.964185 45.246964 11142</gx:coord>
<gx:coord >19.958954 45.207962 11135</gx:coord>
<gx:coord >19.953657 45.169235 11135</gx:coord>
<gx:coord >19.948425 45.130692 11135</gx:coord>
<gx:coord >19.943063 45.091461 11135</gx:coord>
<gx:coord >19.937707 45.052418 11135</gx:coord>
<gx:coord >19.932404 45.013138 11135</gx:coord>
<gx:coord >19.927658 44.973651 11127</gx:coord>
<gx:coord >19.922768 44.93492 11135</gx:coord>
<gx:coord >19.917428 44.89595 11135</gx:coord>
<gx:coord >19.911673 44.855942 11135</gx:coord>
<gx:coord >19.905853 44.816162 11142</gx:coord>
<gx:coord >19.899902 44.776978 11135</gx:coord>
<gx:coord >19.894148 44.737976 11135</gx:coord>
<gx:coord >19.888469 44.698016 11135</gx:coord>
<gx:coord >19.883177 44.6584 11135</gx:coord>
<gx:coord >19.881837 44.644481 11142</gx:coord>
<gx:coord >19.881461 44.631775 11142</gx:coord>
<gx:coord >19.881723 44.592728 11150</gx:coord>
<gx:coord >19.881435 44.553238 11142</gx:coord>
<gx:coord >19.880833 44.513436 11142</gx:coord>
<gx:coord >19.880219 44.473709 11142</gx:coord>
<gx:coord >19.879761 44.434344 11142</gx:coord>
<gx:coord >19.879426 44.395705 11142</gx:coord>
<gx:coord >19.879158 44.35702 11135</gx:coord>
<gx:coord >19.878845 44.318161 11134</gx:coord>
<gx:coord >19.878488 44.279185 11134</gx:coord>
<gx:coord >19.87806 44.240387 11141</gx:coord>
<gx:coord >19.877818 44.200605 11134</gx:coord>
<gx:coord >19.877668 44.16057 11141</gx:coord>
<gx:coord >19.877397 44.121231 11141</gx:coord>
<gx:coord >19.876886 44.082001 11141</gx:coord>
<gx:coord >19.876491 44.043072 11141</gx:coord>
<gx:coord >19.87612 44.004501 11141</gx:coord>
<gx:coord >19.875837 43.965144 11134</gx:coord>
<gx:coord >19.875575 43.925528 11133</gx:coord>
<gx:coord >19.875314 43.885958 11140</gx:coord>
<gx:coord >19.87497 43.846619 11140</gx:coord>
<gx:coord >19.87466 43.807239 11140</gx:coord>
<gx:coord >19.874202 43.768367 11155</gx:coord>
<gx:coord >19.873679 43.727681 11155</gx:coord>
<gx:coord >19.873287 43.688111 11155</gx:coord>
<gx:coord >19.87299 43.648361 11155</gx:coord>
<gx:coord >19.872698 43.608833 11155</gx:coord>
<gx:coord >19.872479 43.569168 11155</gx:coord>
<gx:coord >19.872543 43.5298 11155</gx:coord>
<gx:coord >19.872502 43.489194 11148</gx:coord>
<gx:coord >19.872224 43.450058 11148</gx:coord>
<gx:coord >19.871776 43.411652 11148</gx:coord>
<gx:coord >19.871266 43.371506 11140</gx:coord>
<gx:coord >19.870882 43.33223 11148</gx:coord>
<gx:coord >19.870409 43.292231 11148</gx:coord>
<gx:coord >19.870052 43.253082 11155</gx:coord>
<gx:coord >19.869755 43.213791 11155</gx:coord>
<gx:coord >19.869428 43.174407 11155</gx:coord>
<gx:coord >19.868905 43.134745 11163</gx:coord>
<gx:coord >19.868578 43.097782 11163</gx:coord>
<gx:coord >19.868263 43.0578 11163</gx:coord>
<gx:coord >19.868008 43.01738 11163</gx:coord>
<gx:coord >19.867752 42.9776 11164</gx:coord>
<gx:coord >19.867467 42.937317 11164</gx:coord>
<gx:coord >19.867178 42.898132 11156</gx:coord>
<gx:coord >19.866878 42.858876 11156</gx:coord>
<gx:coord >19.866551 42.82061 11156</gx:coord>
<gx:coord >19.86609 42.780441 11150</gx:coord>
<gx:coord >19.865716 42.740662 11150</gx:coord>
<gx:coord >19.865279 42.700974 11150</gx:coord>
<gx:coord >19.865029 42.661743 11150</gx:coord>
<gx:coord >19.864779 42.621735 11150</gx:coord>
<gx:coord >19.864559 42.582356 11158</gx:coord>
<gx:coord >19.86428 42.54332 11158</gx:coord>
<gx:coord >19.86403 42.502396 11158</gx:coord>
<gx:coord >19.863728 42.462856 11158</gx:coord>
<gx:coord >19.863344 42.422287 11167</gx:coord>
<gx:coord >19.862907 42.382553 11175</gx:coord>
<gx:coord >19.862643 42.343124 11167</gx:coord>
<gx:coord >19.862407 42.303085 11167</gx:coord>
<gx:coord >19.862158 42.262848 11168</gx:coord>
<gx:coord >19.861908 42.222794 11160</gx:coord>
<gx:coord >19.861533 42.182831 11160</gx:coord>
<gx:coord >19.861493 42.142577 11160</gx:coord>
<gx:coord >19.861533 42.103317 11161</gx:coord>
<gx:coord >19.861301 42.065999 11154</gx:coord>
<gx:coord >19.860722 42.026138 11154</gx:coord>
<gx:coord >19.860151 41.986022 11154</gx:coord>
<gx:coord >19.859598 41.946442 11161</gx:coord>
<gx:coord >19.859161 41.90593 11162</gx:coord>
<gx:coord >19.858874 41.866429 11170</gx:coord>
<gx:coord >19.8586 41.826508 11170</gx:coord>
<gx:coord >19.85835 41.787231 11170</gx:coord>
<gx:coord >19.8581 41.74736 11170</gx:coord>
<gx:coord >19.857788 41.707535 11171</gx:coord>
<gx:coord >19.85766 41.66658 11163</gx:coord>
<gx:coord >19.857289 41.626785 11171</gx:coord>
<gx:coord >19.856766 41.589211 11171</gx:coord>
<gx:coord >19.856383 41.550433 11163</gx:coord>
<gx:coord >19.856191 41.512353 11163</gx:coord>
<gx:coord >19.856103 41.472244 11163</gx:coord>
<gx:coord >19.855978 41.432877 11172</gx:coord>
<gx:coord >19.855728 41.393646 11172</gx:coord>
<gx:coord >19.855354 41.353424 11172</gx:coord>
<gx:coord >19.854919 41.312988 11164</gx:coord>
<gx:coord >19.854614 41.271652 11164</gx:coord>
<gx:coord >19.854417 41.231829 11172</gx:coord>
<gx:coord >19.854292 41.192911 11172</gx:coord>
<gx:coord >19.854043 41.151992 11172</gx:coord>
<gx:coord >19.853638 41.110703 11173</gx:coord>
<gx:coord >19.853027 41.069962 11173</gx:coord>
<gx:coord >19.852357 41.02793 11173</gx:coord>
<gx:coord >19.851983 40.98757 11173</gx:coord>
<gx:coord >19.851746 40.947739 11173</gx:coord>
<gx:coord >19.851624 40.906906 11173</gx:coord>
<gx:coord >19.851421 40.866068 11173</gx:coord>
<gx:coord >19.851135 40.824097 11173</gx:coord>
<gx:coord >19.850859 40.782414 11173</gx:coord>
<gx:coord >19.850525 40.742432 11173</gx:coord>
<gx:coord >19.850159 40.701599 11173</gx:coord>
<gx:coord >19.849854 40.66127 11173</gx:coord>
<gx:coord >19.849548 40.62274 11181</gx:coord>
<gx:coord >19.849426 40.613342 11174</gx:coord>
<gx:coord >19.849423 40.611055 11174</gx:coord>
<gx:coord >19.849423 40.608076 11166</gx:coord>
<gx:coord >19.849361 40.602769 11144</gx:coord>
<gx:coord >19.849365 40.598877 11130</gx:coord>
<gx:coord >19.849299 40.591689 11090</gx:coord>
<gx:coord >19.849182 40.575806 10983</gx:coord>
<gx:coord >19.849049 40.559708 10867</gx:coord>
<gx:coord >19.848938 40.547882 10770</gx:coord>
<gx:coord >19.848799 40.529077 10647</gx:coord>
<gx:coord >19.848612 40.51269 10518</gx:coord>
<gx:coord >19.84845 40.493317 10396</gx:coord>
<gx:coord >19.848267 40.472855 10274</gx:coord>
<gx:coord >19.848145 40.456284 10144</gx:coord>
<gx:coord >19.848083 40.441635 10016</gx:coord>
<gx:coord >19.847961 40.427124 9907</gx:coord>
<gx:coord >19.8479 40.413071 9780</gx:coord>
<gx:coord >19.847801 40.398916 9665</gx:coord>
<gx:coord >19.847738 40.385742 9524</gx:coord>
<gx:coord >19.847613 40.370054 9420</gx:coord>
<gx:coord >19.847534 40.356079 9300</gx:coord>
<gx:coord >19.847412 40.341843 9164</gx:coord>
<gx:coord >19.847301 40.327505 9039</gx:coord>
<gx:coord >19.847168 40.314056 8906</gx:coord>
<gx:coord >19.847051 40.300505 8789</gx:coord>
<gx:coord >19.847051 40.293802 8728</gx:coord>
<gx:coord >19.846985 40.282516 8614</gx:coord>
<gx:coord >19.846924 40.270477 8496</gx:coord>
<gx:coord >19.846863 40.261871 8431</gx:coord>
<gx:coord >19.846739 40.250508 8267</gx:coord>
<gx:coord >19.84668 40.240265 8164</gx:coord>
<gx:coord >19.846619 40.234543 8111</gx:coord>
<gx:coord >19.846619 40.229965 8056</gx:coord>
<gx:coord >19.846614 40.226627 8032</gx:coord>
<gx:coord >19.846497 40.208862 7902</gx:coord>
<gx:coord >19.84649 40.206563 7878</gx:coord>
<gx:coord >19.84649 40.199207 7815</gx:coord>
<gx:coord >19.846375 40.186066 7692</gx:coord>
<gx:coord >19.846302 40.173138 7578</gx:coord>
<gx:coord >19.846191 40.159561 7441</gx:coord>
<gx:coord >19.846069 40.146515 7310</gx:coord>
<gx:coord >19.846008 40.131546 7176</gx:coord>
<gx:coord >19.845865 40.115646 7067</gx:coord>
<gx:coord >19.845764 40.098038 6946</gx:coord>
<gx:coord >19.845642 40.080597 6809</gx:coord>
<gx:coord >19.845553 40.061925 6679</gx:coord>
<gx:coord >19.845428 40.044002 6542</gx:coord>
<gx:coord >19.845366 40.033854 6481</gx:coord>
<gx:coord >19.845154 40.012527 6344</gx:coord>
<gx:coord >19.845032 39.992157 6230</gx:coord>
<gx:coord >19.844929 39.975803 6093</gx:coord>
<gx:coord >19.845054 39.962024 5993</gx:coord>
<gx:coord >19.84599 39.950758 5890</gx:coord>
<gx:coord >19.847717 39.940659 5809</gx:coord>
<gx:coord >19.850037 39.931183 5727</gx:coord>
<gx:coord >19.852232 39.92427 5661</gx:coord>
<gx:coord >19.856262 39.914121 5583</gx:coord>
<gx:coord >19.862624 39.900284 5462</gx:coord>
<gx:coord >19.870483 39.883583 5331</gx:coord>
<gx:coord >19.878479 39.866638 5210</gx:coord>
<gx:coord >19.885672 39.851303 5088</gx:coord>
<gx:coord >19.889832 39.842338 5011</gx:coord>
<gx:coord >19.894986 39.831207 4885</gx:coord>
<gx:coord >19.896912 39.827162 4854</gx:coord>
<gx:coord >19.898629 39.82338 4830</gx:coord>
<gx:coord >19.905334 39.808774 4738</gx:coord>
<gx:coord >19.910461 39.797601 4652</gx:coord>
<gx:coord >19.911346 39.795639 4625</gx:coord>
<gx:coord >19.912781 39.792574 4592</gx:coord>
<gx:coord >19.915161 39.78736 4530</gx:coord>
<gx:coord >19.917847 39.781587 4453</gx:coord>
<gx:coord >19.921616 39.773483 4339</gx:coord>
<gx:coord >19.923279 39.769903 4277</gx:coord>
<gx:coord >19.924064 39.768173 4253</gx:coord>
<gx:coord >19.925354 39.76548 4222</gx:coord>
<gx:coord >19.927289 39.761307 4180</gx:coord>
<gx:coord >19.928423 39.758835 4156</gx:coord>
<gx:coord >19.930752 39.753845 4114</gx:coord>
<gx:coord >19.935974 39.74253 4041</gx:coord>
<gx:coord >19.937988 39.738107 4012</gx:coord>
<gx:coord >19.940305 39.733063 3974</gx:coord>
<gx:coord >19.942335 39.728622 3935</gx:coord>
<gx:coord >19.945129 39.722606 3869</gx:coord>
<gx:coord >19.947828 39.716583 3807</gx:coord>
<gx:coord >19.950439 39.711014 3743</gx:coord>
<gx:coord >19.952665 39.706146 3684</gx:coord>
<gx:coord >19.955351 39.700195 3625</gx:coord>
<gx:coord >19.957322 39.695847 3584</gx:coord>
<gx:coord >19.958801 39.692719 3531</gx:coord>
<gx:coord >19.960571 39.688762 3485</gx:coord>
<gx:coord >19.962891 39.683781 3419</gx:coord>
<gx:coord >19.965323 39.678452 3364</gx:coord>
<gx:coord >19.968262 39.672003 3296</gx:coord>
<gx:coord >19.970935 39.666229 3235</gx:coord>
<gx:coord >19.974182 39.659201 3162</gx:coord>
<gx:coord >19.976906 39.653412 3097</gx:coord>
<gx:coord >19.979712 39.647278 3038</gx:coord>
<gx:coord >19.98222 39.641922 2962</gx:coord>
<gx:coord >19.982519 39.641281 2953</gx:coord>
<gx:coord >19.982849 39.640627 2945</gx:coord>
<gx:coord >19.986579 39.632584 2879</gx:coord>
<gx:coord >19.988953 39.62736 2846</gx:coord>
<gx:coord >19.992126 39.620517 2816</gx:coord>
<gx:coord >19.994042 39.616333 2789</gx:coord>
<gx:coord >19.996643 39.610647 2770</gx:coord>
<gx:coord >20.000122 39.603153 2731</gx:coord>
<gx:coord >20.002319 39.598404 2709</gx:coord>
<gx:coord >20.005249 39.592166 2683</gx:coord>
<gx:coord >20.008667 39.584764 2652</gx:coord>
<gx:coord >20.009626 39.582733 2644</gx:coord>
<gx:coord >20.012024 39.577595 2621</gx:coord>
<gx:coord >20.016373 39.568314 2559</gx:coord>
<gx:coord >20.020203 39.560045 2499</gx:coord>
<gx:coord >20.024109 39.551712 2437</gx:coord>
<gx:coord >20.027121 39.545105 2382</gx:coord>
<gx:coord >20.030106 39.538651 2324</gx:coord>
<gx:coord >20.031982 39.534535 2291</gx:coord>
<gx:coord >20.034424 39.529228 2245</gx:coord>
<gx:coord >20.035361 39.527161 2231</gx:coord>
<gx:coord >20.036377 39.524945 2208</gx:coord>
<gx:coord >20.037659 39.522198 2182</gx:coord>
<gx:coord >20.038818 39.519638 2145</gx:coord>
<gx:coord >20.042944 39.510773 2057</gx:coord>
<gx:coord >20.044854 39.506653 2027</gx:coord>
<gx:coord >20.049511 39.496536 1944</gx:coord>
<gx:coord >20.078291 39.43515 1500</gx:coord>
<gx:coord >20.080679 39.429932 1465</gx:coord>
<gx:coord >20.084045 39.422716 1418</gx:coord>
<gx:coord >20.087524 39.415221 1381</gx:coord>
<gx:coord >20.091307 39.406952 1349</gx:coord>
<gx:coord >20.095069 39.398529 1326</gx:coord>
<gx:coord >20.096558 39.395017 1311</gx:coord>
<gx:coord >20.098353 39.389053 1265</gx:coord>
<gx:coord >20.098938 39.385148 1249</gx:coord>
<gx:coord >20.09889 39.380356 1225</gx:coord>
<gx:coord >20.098413 39.376923 1207</gx:coord>
<gx:coord >20.096252 39.370391 1175</gx:coord>
<gx:coord >20.093278 39.365341 1152</gx:coord>
<gx:coord >20.082112 39.355087 1106</gx:coord>
<gx:coord >20.063961 39.344833 1030</gx:coord>
<gx:coord >20.062647 39.344467 1022</gx:coord>
<gx:coord >20.053452 39.343048 992</gx:coord>
<gx:coord >20.014221 39.348093 969</gx:coord>
<gx:coord >19.993744 39.356094 969</gx:coord>
<gx:coord >19.984788 39.371246 976</gx:coord>
<gx:coord >19.983593 39.380951 976</gx:coord>
<gx:coord >19.975891 39.430583 961</gx:coord>
<gx:coord >19.973204 39.437119 961</gx:coord>
<gx:coord >19.95965 39.473053 778</gx:coord>
<gx:coord >19.958695 39.475754 762</gx:coord>
<gx:coord >19.954635 39.48674 693</gx:coord>
<gx:coord >19.953083 39.490906 664</gx:coord>
<gx:coord >19.950867 39.496874 632</gx:coord>
<gx:coord >19.948843 39.502487 594</gx:coord>
<gx:coord >19.946992 39.507568 573</gx:coord>
<gx:coord >19.946156 39.50972 561</gx:coord>
<gx:coord >19.940063 39.525084 457</gx:coord>
<gx:coord >19.93726 39.532425 411</gx:coord>
<gx:coord >19.936245 39.53508 396</gx:coord>
<gx:coord >19.936245 39.53508 396</gx:coord>
</gx:Track>
</Placemark>
</Folder>
</Folder>
</kml>
