<?xml version="1.0" encoding="UTF-8"?>
<kml xmlns="http://www.opengis.net/kml/2.2">
    <Document>
        <name>Edited Path</name>
        <description>Path edited with KML Path Editor</description>
        <Style id="pathStyle">
            <LineStyle>
                <color>ff0000ff</color>
                <width>3</width>
            </LineStyle>
        </Style>
        <Placemark>
            <name>Edited Path</name>
            <description>Total points: 386</description>
            <styleUrl>#pathStyle</styleUrl>
            <LineString>
                <tessellate>1</tessellate>
                <coordinates>10.252167,59.18066,0 10.252167,59.18066,0 10.253133,59.18066,0 10.253488,59.18066,0 10.254293,59.18066,0 10.254913,59.180672,0 10.255453,59.180965,0 10.25576,59.181187,0 10.256211,59.181408,0 10.256653,59.181622,0 10.257454,59.181999,0 10.257912,59.182205,0 10.258744,59.182594,0 10.259218,59.182732,0 10.259697,59.182766,0 10.260426,59.182766,0 10.261459,59.182766,0 10.262444,59.183006,0 10.262444,59.183212,0 10.262462,59.183395,0 10.262444,59.183659,0 10.262444,59.184071,0 10.262444,59.184219,0 10.262438,59.184372,0 10.262421,59.184803,0 10.262421,59.185032,0 10.262414,59.185387,0 10.262398,59.185879,0 10.262398,59.186337,0 10.262367,59.186794,0 10.262367,59.187134,0 10.262352,59.187664,0 10.262352,59.188122,0 10.26232,59.188786,0 10.262329,59.18882,0 10.262306,59.189369,0 10.262296,59.189762,0 10.262306,59.190125,0 10.262296,59.190334,0 10.262272,59.190834,0 10.262272,59.191147,0 10.26226,59.19175,0 10.262249,59.19202,0 10.262238,59.192711,0 10.262225,59.19316,0 10.262225,59.193545,0 10.262215,59.19389,0 10.262192,59.194199,0 10.262201,59.194592,0 10.262178,59.194906,0 10.262169,59.195251,0 10.262178,59.195593,0 10.262146,59.196018,0 10.262154,59.196338,0 10.26213,59.196687,0 10.26213,59.196978,0 10.261642,59.19762,0 10.260734,59.198002,0 10.260132,59.19825,0 10.259674,59.198433,0 10.258965,59.198696,0 10.258415,59.195892,0 10.258415,59.195892,0 10.25885,59.180054,0 10.258942,59.178497,0 10.259052,59.176972,0 10.259125,59.175522,0 10.259147,59.17376,0 10.259147,59.172503,0 10.259125,59.170944,0 10.259242,59.169337,0 10.259242,59.168034,0 10.259336,59.166684,0 10.259308,59.16481,0 10.259308,59.163483,0 10.259308,59.162201,0 10.259308,59.161194,0 10.259308,59.159866,0 10.259308,59.15799,0 10.259336,59.155325,0 10.259242,59.152439,0 10.259147,59.149227,0 10.259033,59.147552,0 10.258957,59.144711,0 10.258942,59.141739,0 10.258942,59.14064,0 10.258942,59.137482,0 10.258863,59.136239,0 10.258673,59.132934,0 10.258673,59.130652,0 10.258667,59.128647,0 10.258667,59.126312,0 10.258673,59.12367,0 10.258768,59.122413,0 10.258957,59.118642,0 10.259033,59.117752,0 10.259147,59.116268,0 10.259216,59.115005,0 10.259399,59.11322,0 10.259431,59.11273,0 10.259526,59.110914,0 10.259526,59.110402,0 10.259766,59.107224,0 10.25981,59.104304,0 10.259949,59.100952,0 10.260132,59.098114,0 10.260406,59.095001,0 10.260773,59.093216,0 10.262272,59.089081,0 10.263314,59.08694,0 10.264924,59.084473,0 10.26625,59.08275,0 10.268555,59.080307,0 10.270844,59.078201,0 10.272308,59.07692,0 10.273637,59.075907,0 10.276289,59.074092,0 10.276952,59.073673,0 10.278442,59.072754,0 10.28009,59.071793,0 10.284302,59.069595,0 10.289265,59.067341,0 10.296204,59.064377,0 10.299774,59.062912,0 10.301605,59.062225,0 10.307373,59.059982,0 10.312753,59.057938,0 10.318909,59.055703,0 10.32486,59.053528,0 10.330179,59.051653,0 10.335571,59.049728,0 10.340692,59.047929,0 10.344269,59.046661,0 10.348932,59.045043,0 10.352325,59.043869,0 10.356171,59.042542,0 10.360657,59.040939,0 10.363138,59.040108,0 10.366333,59.039017,0 10.372833,59.036728,0 10.378386,59.034848,0 10.380524,59.034119,0 10.387194,59.031776,0 10.393635,59.029541,0 10.399696,59.0274,0 10.406326,59.025072,0 10.412933,59.022766,0 10.4198,59.020294,0 10.42792,59.017344,0 10.435913,59.014481,0 10.443168,59.011805,0 10.452026,59.00853,0 10.459931,59.005567,0 10.469687,59.001936,0 10.479492,58.998184,0 10.491211,58.993698,0 10.503214,58.989087,0 10.508707,58.986946,0 10.509979,58.986465,0 10.527744,58.979544,0 10.545776,58.972504,0 10.565277,58.964905,0 10.58277,58.958176,0 10.591673,58.954732,0 10.604095,58.949982,0 10.61535,58.945654,0 10.629651,58.940161,0 10.640353,58.936064,0 10.641395,58.935692,0 10.658386,58.929199,0 10.67568,58.922564,0 10.68733,58.918142,0 10.702423,58.912399,0 10.718584,58.90655,0 10.73279,58.901941,0 10.748607,58.897379,0 10.774273,58.89035,0 10.797193,58.884158,0 10.822101,58.877408,0 10.844264,58.871357,0 10.867278,58.865025,0 10.889156,58.858974,0 10.919495,58.85051,0 10.949524,58.842029,0 10.973304,58.835083,0 10.985442,58.830872,0 10.995117,58.826946,0 11.003448,58.823175,0 11.01406,58.817505,0 11.031337,58.807343,0 11.054284,58.79361,0 11.077674,58.779922,0 11.102875,58.765404,0 11.128235,58.751066,0 11.154785,58.736029,0 11.18107,58.721191,0 11.189487,58.716385,0 11.212079,58.703568,0 11.222623,58.697571,0 11.229179,58.693817,0 11.2601,58.676193,0 11.288984,58.659668,0 11.314636,58.644973,0 11.343292,58.628493,0 11.372001,58.612015,0 11.401611,58.594976,0 11.430084,58.578543,0 11.459981,58.56134,0 11.489685,58.54428,0 11.522919,58.525101,0 11.553497,58.507458,0 11.582514,58.490662,0 11.613007,58.473009,0 11.645242,58.454361,0 11.678467,58.435043,0 11.712158,58.415424,0 11.745714,58.395813,0 11.776337,58.377949,0 11.807468,58.359833,0 11.841339,58.340102,0 11.877107,58.319275,0 11.896953,58.307693,0 11.905334,58.302814,0 11.932983,58.286707,0 11.943911,58.280319,0 11.982971,58.257379,0 11.999451,58.247743,0 12.019043,58.236191,0 12.042965,58.222137,0 12.046326,58.220184,0 12.056122,58.214411,0 12.105011,58.185642,0 12.126068,58.173166,0 12.15976,58.153195,0 12.198457,58.130356,0 12.233551,58.109622,0 12.270905,58.087463,0 12.303802,58.067871,0 12.354746,58.037521,0 12.396476,58.012619,0 12.437675,57.987854,0 12.471771,57.967359,0 12.498277,57.951462,0 12.506104,57.946783,0 12.556487,57.916489,0 12.598206,57.891385,0 12.638855,57.866852,0 12.677948,57.843297,0 12.713104,57.822023,0 12.743609,57.803513,0 12.774264,57.784882,0 12.798431,57.770117,0 12.840088,57.744653,0 12.889538,57.714386,0 12.939749,57.683624,0 12.990389,57.652588,0 13.041544,57.621185,0 13.091841,57.59024,0 13.143511,57.558334,0 13.193808,57.527115,0 13.245348,57.495086,0 13.296204,57.463348,0 13.346586,57.431808,0 13.396626,57.400177,0 13.446922,57.368637,0 13.497324,57.337088,0 13.54694,57.305758,0 13.594379,57.275803,0 13.636603,57.24929,0 13.685875,57.218262,0 13.731493,57.189424,0 13.779779,57.158653,0 13.829395,57.126998,0 13.877682,57.09604,0 13.926888,57.064545,0 13.975468,57.033279,0 14.024402,57.001632,0 14.072689,56.970303,0 14.122659,56.937949,0 14.172718,56.905595,0 14.222317,56.873474,0 14.270974,56.841865,0 14.319261,56.81021,0 14.366485,56.778973,0 14.413974,56.747504,0 14.460843,56.716686,0 14.50913,56.684938,0 14.557142,56.653336,0 14.604435,56.622208,0 14.652433,56.590485,0 14.699541,56.559174,0 14.747086,56.527591,0 14.793923,56.496323,0 14.841281,56.464508,0 14.887676,56.433462,0 14.934797,56.401853,0 14.980607,56.370804,0 15.025635,56.340179,0 15.07144,56.309075,0 15.117937,56.277466,0 15.163713,56.246429,0 15.20997,56.214946,0 15.255804,56.183523,0 15.299877,56.153275,0 15.346319,56.121597,0 15.392512,56.090195,0 15.437789,56.059067,0 15.483731,56.027115,0 15.529861,55.995266,0 15.574923,55.964169,0 15.620728,55.932266,0 15.66556,55.901091,0 15.710616,55.869598,0 15.754644,55.838837,0 15.799026,55.807614,0 15.842285,55.777215,0 15.86792,55.75914,0 16.074347,55.631692,0 16.066967,55.617929,0 16.084383,55.603739,0 16.090976,55.600319,0 17.1399,54.82696,0 17.111871,54.854717,0 17.144958,54.831248,0 17.169827,54.814076,0 17.177902,54.805217,0 17.18912,54.799253,0 17.19525,54.794606,0 17.223487,54.772643,0 17.234632,54.768177,0 17.25136,54.751277,0 17.264847,54.742847,0 17.285381,54.727248,0 17.302451,54.715133,0 18.628965,53.679606,0 18.644684,53.669008,0 18.666601,53.651713,0 18.683495,53.636364,0 18.70265,53.621994,0 18.722035,53.606416,0 18.735591,53.596147,0 18.751734,53.582457,0 18.768605,53.5673,0 18.782949,53.557975,0 18.797685,53.545179,0 18.807118,53.537385,0 18.819344,53.527318,0 20.164992,52.579251,0 20.18064,52.571263,0 20.189372,52.564671,0 20.197887,52.558304,0 20.207735,52.553795,0 20.209043,52.553192,0 20.218262,52.546964,0 20.225557,52.542257,0 20.243095,52.532315,0 20.256372,52.523627,0 20.264333,52.518781,0 20.271446,52.513006,0 20.284422,52.505473,0 20.289479,52.50149,0 20.29621,52.497524,0 20.306966,52.490777,0 20.313878,52.486349,0 20.321131,52.48186,0 20.336699,52.472107,0 20.347824,52.465742,0 20.574006,52.323414,0 20.580057,52.319327,0 20.58837,52.314449,0 20.597754,52.308683,0 20.606523,52.302616,0 20.61357,52.298319,0 20.625122,52.291248,0 20.627705,52.28916,0 20.636474,52.284059,0 20.641349,52.280715,0 20.649129,52.276118,0 20.652875,52.273452,0 20.660384,52.268736,0 20.668217,52.264048,0 20.673531,52.259946,0 20.680403,52.256528,0 20.682302,52.254976,0 20.688433,52.251017,0 20.690749,52.249338,0</coordinates>
            </LineString>
        </Placemark>
    </Document>
</kml>