<?xml version="1.0" encoding="UTF-8"?>
<kml xmlns="http://www.opengis.net/kml/2.2" xmlns:gx="http://www.google.com/kml/ext/2.2"><Folder ><Folder ><name >9H-WAF track</name>
<Placemark ><name >9H-WAF</name>
<Style ><LineStyle ><color >ff1c1ae3</color>
<width >4</width>
</LineStyle>
<IconStyle ><Icon ><href >http://maps.google.com/mapfiles/kml/shapes/airports.png</href>
</Icon>
</IconStyle>
</Style>
<gx:Track ><extrude >0</extrude>
<when >2025-07-06T06:55:24.220Z</when>
<when >2025-07-06T06:55:24.220Z</when>
<when >2025-07-06T06:55:39.880Z</when>
<when >2025-07-06T06:55:48.790Z</when>
<when >2025-07-06T06:55:54.470Z</when>
<when >2025-07-06T06:56:05.610Z</when>
<when >2025-07-06T06:56:09.100Z</when>
<when >2025-07-06T06:56:13.470Z</when>
<when >2025-07-06T06:56:24.910Z</when>
<when >2025-07-06T06:56:29.280Z</when>
<when >2025-07-06T06:56:33.820Z</when>
<when >2025-07-06T06:56:36.280Z</when>
<when >2025-07-06T06:56:43.410Z</when>
<when >2025-07-06T06:56:46.720Z</when>
<when >2025-07-06T06:56:51.240Z</when>
<when >2025-07-06T06:57:00.160Z</when>
<when >2025-07-06T06:57:18.580Z</when>
<when >2025-07-06T06:57:28.790Z</when>
<when >2025-07-06T06:57:44.980Z</when>
<when >2025-07-06T06:57:53.740Z</when>
<when >2025-07-06T06:58:16.470Z</when>
<when >2025-07-06T06:58:21.370Z</when>
<when >2025-07-06T06:59:01.100Z</when>
<when >2025-07-06T06:59:35.900Z</when>
<when >2025-07-06T07:00:55.610Z</when>
<when >2025-07-06T07:01:05.440Z</when>
<when >2025-07-06T07:01:35.800Z</when>
<when >2025-07-06T07:02:04.210Z</when>
<when >2025-07-06T07:02:12.980Z</when>
<when >2025-07-06T07:02:22.150Z</when>
<when >2025-07-06T07:02:31.020Z</when>
<when >2025-07-06T07:02:33.040Z</when>
<when >2025-07-06T07:02:36.170Z</when>
<when >2025-07-06T07:02:41.350Z</when>
<when >2025-07-06T07:03:15.640Z</when>
<when >2025-07-06T07:03:26.010Z</when>
<when >2025-07-06T07:03:33.640Z</when>
<when >2025-07-06T07:03:40.070Z</when>
<when >2025-07-06T07:03:41.650Z</when>
<when >2025-07-06T07:04:10.760Z</when>
<when >2025-07-06T07:04:19.460Z</when>
<when >2025-07-06T07:04:19.460Z</when>
<gx:coord >11.296169 44.529533 0</gx:coord>
<gx:coord >11.296169 44.529533 0</gx:coord>
<gx:coord >11.296169 44.529533 0</gx:coord>
<gx:coord >11.296273 44.529648 0</gx:coord>
<gx:coord >11.296307 44.529683 0</gx:coord>
<gx:coord >11.296407 44.529787 0</gx:coord>
<gx:coord >11.296424 44.529811 0</gx:coord>
<gx:coord >11.296457 44.529846 0</gx:coord>
<gx:coord >11.296524 44.529939 0</gx:coord>
<gx:coord >11.296528 44.529968 0</gx:coord>
<gx:coord >11.296528 44.530014 0</gx:coord>
<gx:coord >11.296524 44.530044 0</gx:coord>
<gx:coord >11.296491 44.530113 0</gx:coord>
<gx:coord >11.296474 44.530148 0</gx:coord>
<gx:coord >11.296441 44.530172 0</gx:coord>
<gx:coord >11.296349 44.530209 0</gx:coord>
<gx:coord >11.29634 44.530206 0</gx:coord>
<gx:coord >11.296496 44.530151 0</gx:coord>
<gx:coord >11.296659 44.530106 0</gx:coord>
<gx:coord >11.296658 44.530102 0</gx:coord>
<gx:coord >11.296659 44.530106 0</gx:coord>
<gx:coord >11.296658 44.530102 0</gx:coord>
<gx:coord >11.296658 44.530102 0</gx:coord>
<gx:coord >11.296659 44.530094 0</gx:coord>
<gx:coord >11.296659 44.530094 0</gx:coord>
<gx:coord >11.296658 44.530102 0</gx:coord>
<gx:coord >11.296659 44.530094 0</gx:coord>
<gx:coord >11.296776 44.530067 0</gx:coord>
<gx:coord >11.296926 44.530009 0</gx:coord>
<gx:coord >11.297211 44.529904 0</gx:coord>
<gx:coord >11.297575 44.529785 0</gx:coord>
<gx:coord >11.29768 44.529787 0</gx:coord>
<gx:coord >11.29782 44.529877 0</gx:coord>
<gx:coord >11.297814 44.530113 0</gx:coord>
<gx:coord >11.295547 44.530987 0</gx:coord>
<gx:coord >11.294632 44.53133 0</gx:coord>
<gx:coord >11.293895 44.531591 0</gx:coord>
<gx:coord >11.293242 44.531824 0</gx:coord>
<gx:coord >11.293062 44.531891 0</gx:coord>
<gx:coord >11.289564 44.53315 0</gx:coord>
<gx:coord >11.288368 44.533581 0</gx:coord>
<gx:coord >11.288368 44.533581 0</gx:coord>
</gx:Track>
</Placemark>
<Placemark ><name >9H-WAF</name>
<Style ><LineStyle ><color >ff1c1ae3</color>
<width >4</width>
</LineStyle>
<IconStyle ><Icon ><href >http://maps.google.com/mapfiles/kml/shapes/airports.png</href>
</Icon>
</IconStyle>
</Style>
<gx:Track ><altitudeMode >absolute</altitudeMode>
<extrude >1</extrude>
<when >2025-07-06T07:08:01.490Z</when>
<when >2025-07-06T07:08:03.220Z</when>
<when >2025-07-06T07:08:05.410Z</when>
<when >2025-07-06T07:08:07.850Z</when>
<when >2025-07-06T07:08:10.680Z</when>
<when >2025-07-06T07:08:14.310Z</when>
<when >2025-07-06T07:08:21.270Z</when>
<when >2025-07-06T07:08:25.330Z</when>
<when >2025-07-06T07:08:27.900Z</when>
<when >2025-07-06T07:08:29.380Z</when>
<when >2025-07-06T07:08:31.470Z</when>
<when >2025-07-06T07:08:33.610Z</when>
<when >2025-07-06T07:08:35.480Z</when>
<when >2025-07-06T07:08:38.440Z</when>
<when >2025-07-06T07:08:40.580Z</when>
<when >2025-07-06T07:08:43.720Z</when>
<when >2025-07-06T07:08:45.760Z</when>
<when >2025-07-06T07:08:48.660Z</when>
<when >2025-07-06T07:08:51.830Z</when>
<when >2025-07-06T07:08:55.200Z</when>
<when >2025-07-06T07:08:58.090Z</when>
<when >2025-07-06T07:09:01.910Z</when>
<when >2025-07-06T07:09:04.650Z</when>
<when >2025-07-06T07:09:07.650Z</when>
<when >2025-07-06T07:09:10.870Z</when>
<when >2025-07-06T07:09:13.740Z</when>
<when >2025-07-06T07:09:16.440Z</when>
<when >2025-07-06T07:09:19.670Z</when>
<when >2025-07-06T07:09:22.510Z</when>
<when >2025-07-06T07:09:25.040Z</when>
<when >2025-07-06T07:09:27.530Z</when>
<when >2025-07-06T07:09:29.650Z</when>
<when >2025-07-06T07:09:31.740Z</when>
<when >2025-07-06T07:09:33.820Z</when>
<when >2025-07-06T07:09:35.610Z</when>
<when >2025-07-06T07:09:37.220Z</when>
<when >2025-07-06T07:09:39.190Z</when>
<when >2025-07-06T07:09:41.150Z</when>
<when >2025-07-06T07:09:42.930Z</when>
<when >2025-07-06T07:09:44.810Z</when>
<when >2025-07-06T07:09:46.530Z</when>
<when >2025-07-06T07:09:48.130Z</when>
<when >2025-07-06T07:09:50.150Z</when>
<when >2025-07-06T07:09:51.860Z</when>
<when >2025-07-06T07:09:53.820Z</when>
<when >2025-07-06T07:09:55.870Z</when>
<when >2025-07-06T07:09:57.850Z</when>
<when >2025-07-06T07:10:00.030Z</when>
<when >2025-07-06T07:10:02.590Z</when>
<when >2025-07-06T07:10:04.660Z</when>
<when >2025-07-06T07:10:07.330Z</when>
<when >2025-07-06T07:10:09.910Z</when>
<when >2025-07-06T07:10:12.760Z</when>
<when >2025-07-06T07:10:15.520Z</when>
<when >2025-07-06T07:10:18.080Z</when>
<when >2025-07-06T07:10:21.040Z</when>
<when >2025-07-06T07:10:23.500Z</when>
<when >2025-07-06T07:10:26.120Z</when>
<when >2025-07-06T07:10:29.070Z</when>
<when >2025-07-06T07:10:32.180Z</when>
<when >2025-07-06T07:10:35.380Z</when>
<when >2025-07-06T07:10:38.420Z</when>
<when >2025-07-06T07:10:41.550Z</when>
<when >2025-07-06T07:10:46.970Z</when>
<when >2025-07-06T07:10:52.880Z</when>
<when >2025-07-06T07:10:59.000Z</when>
<when >2025-07-06T07:11:01.120Z</when>
<when >2025-07-06T07:11:04.310Z</when>
<when >2025-07-06T07:11:07.270Z</when>
<when >2025-07-06T07:11:10.210Z</when>
<when >2025-07-06T07:11:13.660Z</when>
<when >2025-07-06T07:11:16.150Z</when>
<when >2025-07-06T07:11:19.170Z</when>
<when >2025-07-06T07:11:22.390Z</when>
<when >2025-07-06T07:11:24.790Z</when>
<when >2025-07-06T07:11:27.900Z</when>
<when >2025-07-06T07:11:31.140Z</when>
<when >2025-07-06T07:11:33.990Z</when>
<when >2025-07-06T07:11:39.130Z</when>
<when >2025-07-06T07:11:44.860Z</when>
<when >2025-07-06T07:11:50.350Z</when>
<when >2025-07-06T07:11:54.370Z</when>
<when >2025-07-06T07:11:58.060Z</when>
<when >2025-07-06T07:12:01.330Z</when>
<when >2025-07-06T07:12:04.930Z</when>
<when >2025-07-06T07:12:08.900Z</when>
<when >2025-07-06T07:12:12.700Z</when>
<when >2025-07-06T07:12:16.000Z</when>
<when >2025-07-06T07:12:19.020Z</when>
<when >2025-07-06T07:12:22.350Z</when>
<when >2025-07-06T07:12:25.410Z</when>
<when >2025-07-06T07:12:28.550Z</when>
<when >2025-07-06T07:12:31.900Z</when>
<when >2025-07-06T07:12:34.470Z</when>
<when >2025-07-06T07:12:35.910Z</when>
<when >2025-07-06T07:12:37.800Z</when>
<when >2025-07-06T07:12:40.120Z</when>
<when >2025-07-06T07:12:47.630Z</when>
<when >2025-07-06T07:12:55.390Z</when>
<when >2025-07-06T07:12:57.640Z</when>
<when >2025-07-06T07:13:02.680Z</when>
<when >2025-07-06T07:13:07.420Z</when>
<when >2025-07-06T07:13:12.380Z</when>
<when >2025-07-06T07:13:16.590Z</when>
<when >2025-07-06T07:13:20.400Z</when>
<when >2025-07-06T07:13:28.010Z</when>
<when >2025-07-06T07:13:36.810Z</when>
<when >2025-07-06T07:13:45.750Z</when>
<when >2025-07-06T07:13:54.710Z</when>
<when >2025-07-06T07:14:04.490Z</when>
<when >2025-07-06T07:14:14.320Z</when>
<when >2025-07-06T07:14:23.850Z</when>
<when >2025-07-06T07:14:34.130Z</when>
<when >2025-07-06T07:14:44.820Z</when>
<when >2025-07-06T07:14:54.400Z</when>
<when >2025-07-06T07:15:04.040Z</when>
<when >2025-07-06T07:15:12.780Z</when>
<when >2025-07-06T07:15:20.920Z</when>
<when >2025-07-06T07:15:25.790Z</when>
<when >2025-07-06T07:15:29.810Z</when>
<when >2025-07-06T07:15:41.750Z</when>
<when >2025-07-06T07:15:53.310Z</when>
<when >2025-07-06T07:16:04.440Z</when>
<when >2025-07-06T07:16:14.220Z</when>
<when >2025-07-06T07:16:22.720Z</when>
<when >2025-07-06T07:16:28.320Z</when>
<when >2025-07-06T07:16:33.090Z</when>
<when >2025-07-06T07:16:38.170Z</when>
<when >2025-07-06T07:16:47.330Z</when>
<when >2025-07-06T07:16:57.860Z</when>
<when >2025-07-06T07:17:02.210Z</when>
<when >2025-07-06T07:17:14.920Z</when>
<when >2025-07-06T07:17:27.560Z</when>
<when >2025-07-06T07:17:39.050Z</when>
<when >2025-07-06T07:17:50.140Z</when>
<when >2025-07-06T07:17:57.650Z</when>
<when >2025-07-06T07:18:04.880Z</when>
<when >2025-07-06T07:18:22.360Z</when>
<when >2025-07-06T07:18:38.470Z</when>
<when >2025-07-06T07:18:54.790Z</when>
<when >2025-07-06T07:19:06.850Z</when>
<when >2025-07-06T07:19:16.170Z</when>
<when >2025-07-06T07:19:26.210Z</when>
<when >2025-07-06T07:19:38.870Z</when>
<when >2025-07-06T07:19:51.490Z</when>
<when >2025-07-06T07:20:05.510Z</when>
<when >2025-07-06T07:20:18.190Z</when>
<when >2025-07-06T07:20:30.880Z</when>
<when >2025-07-06T07:20:44.290Z</when>
<when >2025-07-06T07:20:56.850Z</when>
<when >2025-07-06T07:21:09.210Z</when>
<when >2025-07-06T07:21:22.010Z</when>
<when >2025-07-06T07:21:34.470Z</when>
<when >2025-07-06T07:21:49.500Z</when>
<when >2025-07-06T07:22:02.930Z</when>
<when >2025-07-06T07:22:16.590Z</when>
<when >2025-07-06T07:22:30.440Z</when>
<when >2025-07-06T07:22:43.790Z</when>
<when >2025-07-06T07:22:57.560Z</when>
<when >2025-07-06T07:23:11.490Z</when>
<when >2025-07-06T07:23:25.170Z</when>
<when >2025-07-06T07:23:40.530Z</when>
<when >2025-07-06T07:23:54.790Z</when>
<when >2025-07-06T07:24:09.300Z</when>
<when >2025-07-06T07:24:25.640Z</when>
<when >2025-07-06T07:24:39.500Z</when>
<when >2025-07-06T07:24:53.160Z</when>
<when >2025-07-06T07:25:07.400Z</when>
<when >2025-07-06T07:25:22.220Z</when>
<when >2025-07-06T07:25:37.760Z</when>
<when >2025-07-06T07:25:52.340Z</when>
<when >2025-07-06T07:26:06.470Z</when>
<when >2025-07-06T07:26:21.150Z</when>
<when >2025-07-06T07:26:37.690Z</when>
<when >2025-07-06T07:26:54.390Z</when>
<when >2025-07-06T07:27:11.190Z</when>
<when >2025-07-06T07:27:29.100Z</when>
<when >2025-07-06T07:27:37.340Z</when>
<when >2025-07-06T07:27:50.190Z</when>
<when >2025-07-06T07:28:03.450Z</when>
<when >2025-07-06T07:28:16.990Z</when>
<when >2025-07-06T07:28:31.730Z</when>
<when >2025-07-06T07:28:48.680Z</when>
<when >2025-07-06T07:29:04.940Z</when>
<when >2025-07-06T07:29:19.490Z</when>
<when >2025-07-06T07:29:35.510Z</when>
<when >2025-07-06T07:29:51.690Z</when>
<when >2025-07-06T07:30:05.500Z</when>
<when >2025-07-06T07:30:25.260Z</when>
<when >2025-07-06T07:30:45.040Z</when>
<when >2025-07-06T07:31:04.690Z</when>
<when >2025-07-06T07:31:24.130Z</when>
<when >2025-07-06T07:31:43.710Z</when>
<when >2025-07-06T07:32:03.280Z</when>
<when >2025-07-06T07:32:23.000Z</when>
<when >2025-07-06T07:32:42.570Z</when>
<when >2025-07-06T07:33:02.360Z</when>
<when >2025-07-06T07:33:21.950Z</when>
<when >2025-07-06T07:33:41.720Z</when>
<when >2025-07-06T07:34:01.550Z</when>
<when >2025-07-06T07:34:21.540Z</when>
<when >2025-07-06T07:34:41.410Z</when>
<when >2025-07-06T07:35:01.290Z</when>
<when >2025-07-06T07:35:21.150Z</when>
<when >2025-07-06T07:35:40.940Z</when>
<when >2025-07-06T07:36:00.560Z</when>
<when >2025-07-06T07:36:20.260Z</when>
<when >2025-07-06T07:36:40.090Z</when>
<when >2025-07-06T07:36:59.900Z</when>
<when >2025-07-06T07:37:19.450Z</when>
<when >2025-07-06T07:37:39.030Z</when>
<when >2025-07-06T07:37:58.580Z</when>
<when >2025-07-06T07:38:18.200Z</when>
<when >2025-07-06T07:38:27.780Z</when>
<when >2025-07-06T07:38:37.210Z</when>
<when >2025-07-06T07:38:46.620Z</when>
<when >2025-07-06T07:38:55.930Z</when>
<when >2025-07-06T07:39:06.020Z</when>
<when >2025-07-06T07:39:15.390Z</when>
<when >2025-07-06T07:39:25.250Z</when>
<when >2025-07-06T07:39:34.990Z</when>
<when >2025-07-06T07:39:45.120Z</when>
<when >2025-07-06T07:39:54.920Z</when>
<when >2025-07-06T07:40:05.410Z</when>
<when >2025-07-06T07:40:15.220Z</when>
<when >2025-07-06T07:40:24.940Z</when>
<when >2025-07-06T07:40:35.210Z</when>
<when >2025-07-06T07:40:45.630Z</when>
<when >2025-07-06T07:41:05.330Z</when>
<when >2025-07-06T07:41:17.480Z</when>
<when >2025-07-06T07:41:34.140Z</when>
<when >2025-07-06T07:41:54.120Z</when>
<when >2025-07-06T07:42:13.860Z</when>
<when >2025-07-06T07:42:24.780Z</when>
<when >2025-07-06T07:42:34.030Z</when>
<when >2025-07-06T07:42:43.490Z</when>
<when >2025-07-06T07:43:03.110Z</when>
<when >2025-07-06T07:43:22.900Z</when>
<when >2025-07-06T07:43:42.320Z</when>
<when >2025-07-06T07:44:02.220Z</when>
<when >2025-07-06T07:44:21.980Z</when>
<when >2025-07-06T07:44:41.860Z</when>
<when >2025-07-06T07:45:01.520Z</when>
<when >2025-07-06T07:45:21.440Z</when>
<when >2025-07-06T07:45:40.990Z</when>
<when >2025-07-06T07:46:00.950Z</when>
<when >2025-07-06T07:46:20.900Z</when>
<when >2025-07-06T07:46:40.740Z</when>
<when >2025-07-06T07:47:00.300Z</when>
<when >2025-07-06T07:47:19.920Z</when>
<when >2025-07-06T07:47:39.880Z</when>
<when >2025-07-06T07:47:59.470Z</when>
<when >2025-07-06T07:48:19.190Z</when>
<when >2025-07-06T07:48:38.650Z</when>
<when >2025-07-06T07:48:58.520Z</when>
<when >2025-07-06T07:49:18.350Z</when>
<when >2025-07-06T07:49:37.850Z</when>
<when >2025-07-06T07:49:57.780Z</when>
<when >2025-07-06T07:50:17.430Z</when>
<when >2025-07-06T07:50:37.240Z</when>
<when >2025-07-06T07:50:57.170Z</when>
<when >2025-07-06T07:51:16.890Z</when>
<when >2025-07-06T07:51:36.690Z</when>
<when >2025-07-06T07:51:56.310Z</when>
<when >2025-07-06T07:52:16.000Z</when>
<when >2025-07-06T07:52:35.870Z</when>
<when >2025-07-06T07:52:55.410Z</when>
<when >2025-07-06T07:53:15.120Z</when>
<when >2025-07-06T07:53:23.740Z</when>
<when >2025-07-06T07:53:34.270Z</when>
<when >2025-07-06T07:53:50.780Z</when>
<when >2025-07-06T07:54:10.460Z</when>
<when >2025-07-06T07:54:30.100Z</when>
<when >2025-07-06T07:54:49.850Z</when>
<when >2025-07-06T07:55:09.670Z</when>
<when >2025-07-06T07:55:29.280Z</when>
<when >2025-07-06T07:55:48.900Z</when>
<when >2025-07-06T07:56:08.450Z</when>
<when >2025-07-06T07:56:28.390Z</when>
<when >2025-07-06T07:56:48.140Z</when>
<when >2025-07-06T07:57:08.030Z</when>
<when >2025-07-06T07:57:27.690Z</when>
<when >2025-07-06T07:57:47.620Z</when>
<when >2025-07-06T07:58:07.310Z</when>
<when >2025-07-06T07:58:27.250Z</when>
<when >2025-07-06T07:58:46.940Z</when>
<when >2025-07-06T07:59:06.910Z</when>
<when >2025-07-06T07:59:26.600Z</when>
<when >2025-07-06T07:59:46.190Z</when>
<when >2025-07-06T08:00:05.610Z</when>
<when >2025-07-06T08:00:25.530Z</when>
<when >2025-07-06T08:00:45.240Z</when>
<when >2025-07-06T08:01:05.150Z</when>
<when >2025-07-06T08:01:24.970Z</when>
<when >2025-07-06T08:01:44.810Z</when>
<when >2025-07-06T08:02:04.540Z</when>
<when >2025-07-06T08:02:24.380Z</when>
<when >2025-07-06T08:02:44.200Z</when>
<when >2025-07-06T08:03:04.000Z</when>
<when >2025-07-06T08:03:08.960Z</when>
<when >2025-07-06T08:03:14.930Z</when>
<when >2025-07-06T08:03:19.260Z</when>
<when >2025-07-06T08:03:30.560Z</when>
<when >2025-07-06T08:03:39.260Z</when>
<when >2025-07-06T08:03:44.470Z</when>
<when >2025-07-06T08:04:00.740Z</when>
<when >2025-07-06T08:04:17.140Z</when>
<when >2025-07-06T08:04:31.650Z</when>
<when >2025-07-06T08:04:37.930Z</when>
<when >2025-07-06T08:04:44.140Z</when>
<when >2025-07-06T08:05:04.070Z</when>
<when >2025-07-06T08:05:23.920Z</when>
<when >2025-07-06T08:05:43.690Z</when>
<when >2025-07-06T08:06:03.330Z</when>
<when >2025-07-06T08:06:22.800Z</when>
<when >2025-07-06T08:06:42.350Z</when>
<when >2025-07-06T08:07:02.080Z</when>
<when >2025-07-06T08:07:22.020Z</when>
<when >2025-07-06T08:07:41.800Z</when>
<when >2025-07-06T08:08:01.390Z</when>
<when >2025-07-06T08:08:21.030Z</when>
<when >2025-07-06T08:08:40.780Z</when>
<when >2025-07-06T08:09:00.770Z</when>
<when >2025-07-06T08:09:20.490Z</when>
<when >2025-07-06T08:09:40.290Z</when>
<when >2025-07-06T08:09:59.920Z</when>
<when >2025-07-06T08:10:19.510Z</when>
<when >2025-07-06T08:10:39.500Z</when>
<when >2025-07-06T08:10:58.870Z</when>
<when >2025-07-06T08:11:18.760Z</when>
<when >2025-07-06T08:11:38.740Z</when>
<when >2025-07-06T08:11:58.560Z</when>
<when >2025-07-06T08:12:18.460Z</when>
<when >2025-07-06T08:12:38.240Z</when>
<when >2025-07-06T08:12:58.190Z</when>
<when >2025-07-06T08:13:17.920Z</when>
<when >2025-07-06T08:13:37.630Z</when>
<when >2025-07-06T08:13:57.270Z</when>
<when >2025-07-06T08:14:17.150Z</when>
<when >2025-07-06T08:14:36.900Z</when>
<when >2025-07-06T08:14:56.480Z</when>
<when >2025-07-06T08:15:16.280Z</when>
<when >2025-07-06T08:15:36.040Z</when>
<when >2025-07-06T08:15:55.760Z</when>
<when >2025-07-06T08:16:08.010Z</when>
<when >2025-07-06T08:16:13.640Z</when>
<when >2025-07-06T08:16:18.050Z</when>
<when >2025-07-06T08:16:22.780Z</when>
<when >2025-07-06T08:16:27.300Z</when>
<when >2025-07-06T08:16:32.300Z</when>
<when >2025-07-06T08:16:37.370Z</when>
<when >2025-07-06T08:16:43.220Z</when>
<when >2025-07-06T08:16:58.350Z</when>
<when >2025-07-06T08:17:03.440Z</when>
<when >2025-07-06T08:17:07.460Z</when>
<when >2025-07-06T08:17:11.410Z</when>
<when >2025-07-06T08:17:16.940Z</when>
<when >2025-07-06T08:17:24.930Z</when>
<when >2025-07-06T08:17:33.940Z</when>
<when >2025-07-06T08:17:42.520Z</when>
<when >2025-07-06T08:17:50.480Z</when>
<when >2025-07-06T08:17:58.400Z</when>
<when >2025-07-06T08:18:06.920Z</when>
<when >2025-07-06T08:18:15.220Z</when>
<when >2025-07-06T08:18:21.990Z</when>
<when >2025-07-06T08:18:28.280Z</when>
<when >2025-07-06T08:18:34.470Z</when>
<when >2025-07-06T08:18:40.470Z</when>
<when >2025-07-06T08:18:43.240Z</when>
<when >2025-07-06T08:18:46.610Z</when>
<when >2025-07-06T08:18:53.860Z</when>
<when >2025-07-06T08:19:03.780Z</when>
<when >2025-07-06T08:19:14.310Z</when>
<when >2025-07-06T08:19:25.370Z</when>
<when >2025-07-06T08:19:35.220Z</when>
<when >2025-07-06T08:19:45.850Z</when>
<when >2025-07-06T08:19:56.260Z</when>
<when >2025-07-06T08:20:06.650Z</when>
<when >2025-07-06T08:20:16.580Z</when>
<when >2025-07-06T08:20:27.290Z</when>
<when >2025-07-06T08:20:37.360Z</when>
<when >2025-07-06T08:20:48.160Z</when>
<when >2025-07-06T08:20:59.750Z</when>
<when >2025-07-06T08:21:11.170Z</when>
<when >2025-07-06T08:21:16.280Z</when>
<when >2025-07-06T08:21:18.330Z</when>
<when >2025-07-06T08:21:18.850Z</when>
<when >2025-07-06T08:21:20.970Z</when>
<when >2025-07-06T08:21:22.980Z</when>
<when >2025-07-06T08:21:28.430Z</when>
<when >2025-07-06T08:21:31.070Z</when>
<when >2025-07-06T08:21:33.200Z</when>
<when >2025-07-06T08:21:35.210Z</when>
<when >2025-07-06T08:21:44.050Z</when>
<when >2025-07-06T08:21:52.850Z</when>
<when >2025-07-06T08:22:02.480Z</when>
<when >2025-07-06T08:22:10.460Z</when>
<when >2025-07-06T08:22:17.580Z</when>
<when >2025-07-06T08:22:24.780Z</when>
<when >2025-07-06T08:22:30.460Z</when>
<when >2025-07-06T08:22:38.100Z</when>
<when >2025-07-06T08:22:48.940Z</when>
<when >2025-07-06T08:22:59.500Z</when>
<when >2025-07-06T08:23:10.180Z</when>
<when >2025-07-06T08:23:18.000Z</when>
<when >2025-07-06T08:23:27.960Z</when>
<when >2025-07-06T08:23:38.810Z</when>
<when >2025-07-06T08:23:47.050Z</when>
<when >2025-07-06T08:23:54.790Z</when>
<when >2025-07-06T08:24:00.850Z</when>
<when >2025-07-06T08:24:07.120Z</when>
<when >2025-07-06T08:24:14.090Z</when>
<when >2025-07-06T08:24:21.480Z</when>
<when >2025-07-06T08:24:27.170Z</when>
<when >2025-07-06T08:24:37.140Z</when>
<when >2025-07-06T08:24:48.120Z</when>
<when >2025-07-06T08:24:53.750Z</when>
<when >2025-07-06T08:25:02.270Z</when>
<when >2025-07-06T08:25:05.360Z</when>
<when >2025-07-06T08:25:11.370Z</when>
<when >2025-07-06T08:25:23.070Z</when>
<when >2025-07-06T08:25:33.750Z</when>
<when >2025-07-06T08:25:44.690Z</when>
<when >2025-07-06T08:25:54.780Z</when>
<when >2025-07-06T08:26:04.380Z</when>
<when >2025-07-06T08:26:14.260Z</when>
<when >2025-07-06T08:26:20.390Z</when>
<when >2025-07-06T08:26:25.110Z</when>
<when >2025-07-06T08:26:35.340Z</when>
<when >2025-07-06T08:26:45.390Z</when>
<when >2025-07-06T08:26:55.230Z</when>
<when >2025-07-06T08:27:05.430Z</when>
<when >2025-07-06T08:27:14.750Z</when>
<when >2025-07-06T08:27:20.870Z</when>
<when >2025-07-06T08:27:24.390Z</when>
<when >2025-07-06T08:27:25.960Z</when>
<when >2025-07-06T08:27:31.130Z</when>
<when >2025-07-06T08:27:36.990Z</when>
<when >2025-07-06T08:27:42.300Z</when>
<when >2025-07-06T08:27:47.920Z</when>
<when >2025-07-06T08:27:53.700Z</when>
<when >2025-07-06T08:27:59.480Z</when>
<when >2025-07-06T08:28:05.170Z</when>
<when >2025-07-06T08:28:10.850Z</when>
<when >2025-07-06T08:28:17.240Z</when>
<when >2025-07-06T08:28:23.970Z</when>
<when >2025-07-06T08:28:29.080Z</when>
<when >2025-07-06T08:28:34.050Z</when>
<when >2025-07-06T08:28:39.040Z</when>
<when >2025-07-06T08:28:45.100Z</when>
<when >2025-07-06T08:28:50.340Z</when>
<when >2025-07-06T08:28:56.210Z</when>
<when >2025-07-06T08:29:02.150Z</when>
<when >2025-07-06T08:29:08.030Z</when>
<when >2025-07-06T08:29:13.160Z</when>
<when >2025-07-06T08:29:15.630Z</when>
<when >2025-07-06T08:29:18.220Z</when>
<when >2025-07-06T08:29:21.040Z</when>
<when >2025-07-06T08:29:24.160Z</when>
<when >2025-07-06T08:29:26.490Z</when>
<when >2025-07-06T08:29:29.780Z</when>
<when >2025-07-06T08:29:33.490Z</when>
<when >2025-07-06T08:29:37.440Z</when>
<when >2025-07-06T08:29:43.220Z</when>
<when >2025-07-06T08:29:48.600Z</when>
<when >2025-07-06T08:29:52.290Z</when>
<when >2025-07-06T08:29:56.070Z</when>
<when >2025-07-06T08:29:59.970Z</when>
<when >2025-07-06T08:30:04.240Z</when>
<when >2025-07-06T08:30:08.520Z</when>
<when >2025-07-06T08:30:13.160Z</when>
<when >2025-07-06T08:30:17.080Z</when>
<when >2025-07-06T08:30:22.040Z</when>
<when >2025-07-06T08:30:27.150Z</when>
<when >2025-07-06T08:30:31.890Z</when>
<when >2025-07-06T08:30:37.270Z</when>
<when >2025-07-06T08:30:44.530Z</when>
<when >2025-07-06T08:30:50.000Z</when>
<when >2025-07-06T08:30:56.110Z</when>
<when >2025-07-06T08:31:01.960Z</when>
<when >2025-07-06T08:31:07.950Z</when>
<when >2025-07-06T08:31:14.170Z</when>
<when >2025-07-06T08:31:20.040Z</when>
<when >2025-07-06T08:31:25.820Z</when>
<when >2025-07-06T08:31:31.620Z</when>
<when >2025-07-06T08:31:37.800Z</when>
<when >2025-07-06T08:31:43.870Z</when>
<when >2025-07-06T08:31:49.520Z</when>
<when >2025-07-06T08:31:55.920Z</when>
<when >2025-07-06T08:32:01.600Z</when>
<when >2025-07-06T08:32:07.250Z</when>
<when >2025-07-06T08:32:13.480Z</when>
<when >2025-07-06T08:32:19.210Z</when>
<when >2025-07-06T08:32:25.390Z</when>
<when >2025-07-06T08:32:31.420Z</when>
<when >2025-07-06T08:32:37.590Z</when>
<when >2025-07-06T08:32:43.720Z</when>
<when >2025-07-06T08:32:49.260Z</when>
<when >2025-07-06T08:32:55.290Z</when>
<when >2025-07-06T08:33:01.440Z</when>
<when >2025-07-06T08:33:07.410Z</when>
<when >2025-07-06T08:33:13.030Z</when>
<when >2025-07-06T08:33:19.990Z</when>
<when >2025-07-06T08:33:31.180Z</when>
<when >2025-07-06T08:33:35.090Z</when>
<when >2025-07-06T08:33:39.200Z</when>
<when >2025-07-06T08:33:43.670Z</when>
<when >2025-07-06T08:33:53.090Z</when>
<when >2025-07-06T08:33:56.130Z</when>
<when >2025-07-06T08:33:58.750Z</when>
<when >2025-07-06T08:34:01.230Z</when>
<when >2025-07-06T08:34:03.810Z</when>
<when >2025-07-06T08:34:06.660Z</when>
<when >2025-07-06T08:34:09.670Z</when>
<when >2025-07-06T08:34:13.990Z</when>
<when >2025-07-06T08:34:19.300Z</when>
<when >2025-07-06T08:34:28.480Z</when>
<when >2025-07-06T08:34:31.310Z</when>
<when >2025-07-06T08:34:36.440Z</when>
<when >2025-07-06T08:34:40.990Z</when>
<when >2025-07-06T08:34:46.360Z</when>
<when >2025-07-06T08:34:51.440Z</when>
<when >2025-07-06T08:34:57.720Z</when>
<when >2025-07-06T08:35:03.560Z</when>
<when >2025-07-06T08:35:09.030Z</when>
<when >2025-07-06T08:35:12.340Z</when>
<when >2025-07-06T08:35:17.220Z</when>
<when >2025-07-06T08:35:22.370Z</when>
<when >2025-07-06T08:35:25.480Z</when>
<when >2025-07-06T08:35:28.040Z</when>
<when >2025-07-06T08:35:32.540Z</when>
<when >2025-07-06T08:35:36.270Z</when>
<when >2025-07-06T08:35:40.070Z</when>
<when >2025-07-06T08:35:45.470Z</when>
<when >2025-07-06T08:35:51.390Z</when>
<when >2025-07-06T08:35:58.850Z</when>
<when >2025-07-06T08:36:07.450Z</when>
<when >2025-07-06T08:36:15.840Z</when>
<when >2025-07-06T08:36:23.020Z</when>
<when >2025-07-06T08:36:30.490Z</when>
<when >2025-07-06T08:36:39.290Z</when>
<when >2025-07-06T08:36:47.620Z</when>
<when >2025-07-06T08:36:55.160Z</when>
<when >2025-07-06T08:37:03.100Z</when>
<when >2025-07-06T08:37:10.680Z</when>
<when >2025-07-06T08:37:19.460Z</when>
<when >2025-07-06T08:37:26.020Z</when>
<when >2025-07-06T08:37:33.600Z</when>
<when >2025-07-06T08:37:38.650Z</when>
<when >2025-07-06T08:37:45.280Z</when>
<when >2025-07-06T08:37:47.470Z</when>
<when >2025-07-06T08:37:50.990Z</when>
<when >2025-07-06T08:37:50.990Z</when>
<gx:coord >11.291983 44.534271 36</gx:coord>
<gx:coord >11.293677 44.533686 59</gx:coord>
<gx:coord >11.29562 44.532988 74</gx:coord>
<gx:coord >11.297898 44.53215 112</gx:coord>
<gx:coord >11.300644 44.531172 151</gx:coord>
<gx:coord >11.304016 44.529968 181</gx:coord>
<gx:coord >11.310817 44.527725 272</gx:coord>
<gx:coord >11.315068 44.526947 318</gx:coord>
<gx:coord >11.317945 44.526672 356</gx:coord>
<gx:coord >11.31958 44.526672 364</gx:coord>
<gx:coord >11.322 44.52681 387</gx:coord>
<gx:coord >11.324158 44.527076 432</gx:coord>
<gx:coord >11.326435 44.527541 448</gx:coord>
<gx:coord >11.329585 44.528412 478</gx:coord>
<gx:coord >11.331728 44.529171 509</gx:coord>
<gx:coord >11.334943 44.530521 539</gx:coord>
<gx:coord >11.33691 44.53157 554</gx:coord>
<gx:coord >11.339525 44.533264 577</gx:coord>
<gx:coord >11.342178 44.535316 608</gx:coord>
<gx:coord >11.344888 44.53775 638</gx:coord>
<gx:coord >11.346934 44.539831 669</gx:coord>
<gx:coord >11.349614 44.54309 699</gx:coord>
<gx:coord >11.351222 44.545324 722</gx:coord>
<gx:coord >11.353062 44.548004 760</gx:coord>
<gx:coord >11.354828 44.550797 791</gx:coord>
<gx:coord >11.356397 44.553497 821</gx:coord>
<gx:coord >11.357921 44.555938 844</gx:coord>
<gx:coord >11.360064 44.558964 882</gx:coord>
<gx:coord >11.362152 44.561508 905</gx:coord>
<gx:coord >11.364114 44.563751 935</gx:coord>
<gx:coord >11.366227 44.565854 966</gx:coord>
<gx:coord >11.368036 44.567716 1012</gx:coord>
<gx:coord >11.369778 44.569392 1042</gx:coord>
<gx:coord >11.371586 44.571161 1073</gx:coord>
<gx:coord >11.373269 44.572769 1095</gx:coord>
<gx:coord >11.374534 44.574047 1111</gx:coord>
<gx:coord >11.376276 44.575676 1164</gx:coord>
<gx:coord >11.377978 44.577393 1194</gx:coord>
<gx:coord >11.37929 44.578656 1233</gx:coord>
<gx:coord >11.381051 44.580368 1263</gx:coord>
<gx:coord >11.382506 44.581868 1294</gx:coord>
<gx:coord >11.383913 44.583218 1316</gx:coord>
<gx:coord >11.385587 44.584894 1354</gx:coord>
<gx:coord >11.386994 44.586244 1393</gx:coord>
<gx:coord >11.388637 44.587921 1431</gx:coord>
<gx:coord >11.390337 44.589615 1454</gx:coord>
<gx:coord >11.391972 44.591217 1492</gx:coord>
<gx:coord >11.393803 44.593048 1514</gx:coord>
<gx:coord >11.395961 44.595154 1560</gx:coord>
<gx:coord >11.397713 44.596858 1583</gx:coord>
<gx:coord >11.399885 44.599045 1614</gx:coord>
<gx:coord >11.402174 44.601242 1652</gx:coord>
<gx:coord >11.404412 44.603468 1690</gx:coord>
<gx:coord >11.407013 44.606003 1705</gx:coord>
<gx:coord >11.409302 44.608246 1743</gx:coord>
<gx:coord >11.411981 44.61087 1773</gx:coord>
<gx:coord >11.414125 44.612965 1803</gx:coord>
<gx:coord >11.416403 44.615246 1834</gx:coord>
<gx:coord >11.419082 44.617853 1872</gx:coord>
<gx:coord >11.421792 44.62056 1902</gx:coord>
<gx:coord >11.424776 44.623486 1933</gx:coord>
<gx:coord >11.427547 44.626144 1971</gx:coord>
<gx:coord >11.43027 44.628839 1994</gx:coord>
<gx:coord >11.435093 44.633541 2024</gx:coord>
<gx:coord >11.44043 44.638824 2055</gx:coord>
<gx:coord >11.445988 44.644272 2093</gx:coord>
<gx:coord >11.447955 44.64625 2100</gx:coord>
<gx:coord >11.450958 44.649216 2115</gx:coord>
<gx:coord >11.45377 44.652008 2131</gx:coord>
<gx:coord >11.456731 44.654955 2146</gx:coord>
<gx:coord >11.459917 44.658142 2154</gx:coord>
<gx:coord >11.462533 44.660751 2176</gx:coord>
<gx:coord >11.465672 44.66391 2207</gx:coord>
<gx:coord >11.468856 44.667058 2230</gx:coord>
<gx:coord >11.471558 44.669724 2260</gx:coord>
<gx:coord >11.474818 44.673017 2283</gx:coord>
<gx:coord >11.478301 44.676462 2306</gx:coord>
<gx:coord >11.481517 44.679627 2329</gx:coord>
<gx:coord >11.487211 44.685353 2382</gx:coord>
<gx:coord >11.493575 44.691778 2443</gx:coord>
<gx:coord >11.500135 44.698013 2504</gx:coord>
<gx:coord >11.505498 44.702316 2550</gx:coord>
<gx:coord >11.510598 44.705841 2603</gx:coord>
<gx:coord >11.516017 44.708955 2649</gx:coord>
<gx:coord >11.521979 44.711888 2695</gx:coord>
<gx:coord >11.528879 44.715007 2778</gx:coord>
<gx:coord >11.535252 44.717743 2832</gx:coord>
<gx:coord >11.541399 44.720352 2900</gx:coord>
<gx:coord >11.546696 44.722595 2961</gx:coord>
<gx:coord >11.552392 44.725062 3015</gx:coord>
<gx:coord >11.557751 44.72739 3091</gx:coord>
<gx:coord >11.563045 44.729691 3152</gx:coord>
<gx:coord >11.568865 44.7323 3205</gx:coord>
<gx:coord >11.573247 44.734268 3266</gx:coord>
<gx:coord >11.575771 44.735351 3274</gx:coord>
<gx:coord >11.578987 44.73684 3297</gx:coord>
<gx:coord >11.583006 44.738609 3327</gx:coord>
<gx:coord >11.596203 44.744614 3380</gx:coord>
<gx:coord >11.610003 44.750899 3434</gx:coord>
<gx:coord >11.614224 44.752808 3457</gx:coord>
<gx:coord >11.623334 44.756997 3525</gx:coord>
<gx:coord >11.632298 44.760956 3579</gx:coord>
<gx:coord >11.641519 44.764709 3655</gx:coord>
<gx:coord >11.649824 44.767776 3723</gx:coord>
<gx:coord >11.657475 44.77034 3769</gx:coord>
<gx:coord >11.672907 44.775013 3914</gx:coord>
<gx:coord >11.691061 44.780273 4028</gx:coord>
<gx:coord >11.709483 44.785534 4158</gx:coord>
<gx:coord >11.727972 44.790841 4287</gx:coord>
<gx:coord >11.748404 44.796706 4417</gx:coord>
<gx:coord >11.769104 44.802665 4539</gx:coord>
<gx:coord >11.789402 44.808391 4675</gx:coord>
<gx:coord >11.811676 44.814697 4797</gx:coord>
<gx:coord >11.834821 44.821286 4926</gx:coord>
<gx:coord >11.855923 44.827291 5056</gx:coord>
<gx:coord >11.877159 44.83339 5170</gx:coord>
<gx:coord >11.896184 44.838883 5307</gx:coord>
<gx:coord >11.914215 44.844177 5437</gx:coord>
<gx:coord >11.92494 44.847336 5498</gx:coord>
<gx:coord >11.933765 44.850009 5543</gx:coord>
<gx:coord >11.96036 44.857923 5658</gx:coord>
<gx:coord >11.98628 44.865692 5764</gx:coord>
<gx:coord >12.011674 44.873331 5894</gx:coord>
<gx:coord >12.033848 44.879988 6024</gx:coord>
<gx:coord >12.053375 44.886017 6145</gx:coord>
<gx:coord >12.065604 44.890503 6206</gx:coord>
<gx:coord >12.075806 44.894852 6267</gx:coord>
<gx:coord >12.086138 44.899979 6321</gx:coord>
<gx:coord >12.104187 44.909912 6427</gx:coord>
<gx:coord >12.124954 44.921513 6557</gx:coord>
<gx:coord >12.133529 44.926261 6603</gx:coord>
<gx:coord >12.158985 44.94018 6709</gx:coord>
<gx:coord >12.184753 44.954132 6816</gx:coord>
<gx:coord >12.208623 44.966949 6923</gx:coord>
<gx:coord >12.231602 44.979191 7045</gx:coord>
<gx:coord >12.247009 44.987431 7112</gx:coord>
<gx:coord >12.262312 44.995605 7158</gx:coord>
<gx:coord >12.299391 45.015472 7234</gx:coord>
<gx:coord >12.333895 45.033983 7318</gx:coord>
<gx:coord >12.369132 45.052837 7402</gx:coord>
<gx:coord >12.395258 45.066802 7470</gx:coord>
<gx:coord >12.415422 45.077463 7547</gx:coord>
<gx:coord >12.437796 45.088589 7646</gx:coord>
<gx:coord >12.466334 45.101903 7745</gx:coord>
<gx:coord >12.495706 45.115082 7859</gx:coord>
<gx:coord >12.528099 45.129601 7950</gx:coord>
<gx:coord >12.557909 45.143008 8049</gx:coord>
<gx:coord >12.587389 45.156464 8171</gx:coord>
<gx:coord >12.618713 45.170883 8270</gx:coord>
<gx:coord >12.648272 45.184616 8377</gx:coord>
<gx:coord >12.677503 45.198166 8476</gx:coord>
<gx:coord >12.70765 45.212265 8583</gx:coord>
<gx:coord >12.737209 45.225998 8690</gx:coord>
<gx:coord >12.77298 45.242615 8781</gx:coord>
<gx:coord >12.805023 45.257492 8879</gx:coord>
<gx:coord >12.838244 45.272873 8986</gx:coord>
<gx:coord >12.871756 45.288345 9077</gx:coord>
<gx:coord >12.904162 45.30336 9176</gx:coord>
<gx:coord >12.938232 45.319061 9268</gx:coord>
<gx:coord >12.972442 45.334804 9367</gx:coord>
<gx:coord >13.00654 45.350399 9451</gx:coord>
<gx:coord >13.044657 45.367902 9542</gx:coord>
<gx:coord >13.080496 45.384289 9641</gx:coord>
<gx:coord >13.117283 45.401184 9732</gx:coord>
<gx:coord >13.158875 45.420227 9824</gx:coord>
<gx:coord >13.193977 45.436381 9923</gx:coord>
<gx:coord >13.228611 45.453046 10014</gx:coord>
<gx:coord >13.264226 45.470673 10113</gx:coord>
<gx:coord >13.301295 45.489171 10197</gx:coord>
<gx:coord >13.34035 45.508583 10289</gx:coord>
<gx:coord >13.377293 45.526794 10373</gx:coord>
<gx:coord >13.413369 45.544475 10463</gx:coord>
<gx:coord >13.450548 45.562683 10547</gx:coord>
<gx:coord >13.493087 45.583374 10623</gx:coord>
<gx:coord >13.536049 45.604248 10699</gx:coord>
<gx:coord >13.580106 45.625626 10783</gx:coord>
<gx:coord >13.626999 45.648376 10852</gx:coord>
<gx:coord >13.64857 45.658859 10897</gx:coord>
<gx:coord >13.682065 45.67511 10996</gx:coord>
<gx:coord >13.716967 45.691956 11103</gx:coord>
<gx:coord >13.752136 45.708897 11195</gx:coord>
<gx:coord >13.79052 45.727379 11277</gx:coord>
<gx:coord >13.834877 45.7487 11354</gx:coord>
<gx:coord >13.87738 45.769136 11430</gx:coord>
<gx:coord >13.915189 45.787262 11514</gx:coord>
<gx:coord >13.957192 45.807404 11597</gx:coord>
<gx:coord >13.999329 45.827745 11674</gx:coord>
<gx:coord >14.035378 45.845109 11712</gx:coord>
<gx:coord >14.087554 45.870026 11719</gx:coord>
<gx:coord >14.140342 45.895157 11718</gx:coord>
<gx:coord >14.192413 45.919965 11718</gx:coord>
<gx:coord >14.244042 45.944412 11718</gx:coord>
<gx:coord >14.29529 45.968536 11718</gx:coord>
<gx:coord >14.346359 45.992308 11718</gx:coord>
<gx:coord >14.398201 46.016422 11718</gx:coord>
<gx:coord >14.449631 46.040722 11718</gx:coord>
<gx:coord >14.501678 46.065395 11718</gx:coord>
<gx:coord >14.553401 46.089844 11711</gx:coord>
<gx:coord >14.605293 46.114321 11711</gx:coord>
<gx:coord >14.657302 46.138687 11711</gx:coord>
<gx:coord >14.709622 46.163132 11703</gx:coord>
<gx:coord >14.761436 46.187315 11703</gx:coord>
<gx:coord >14.813347 46.211382 11695</gx:coord>
<gx:coord >14.865257 46.235496 11695</gx:coord>
<gx:coord >14.916888 46.259308 11695</gx:coord>
<gx:coord >14.968068 46.282974 11703</gx:coord>
<gx:coord >15.019547 46.306721 11711</gx:coord>
<gx:coord >15.071366 46.330536 11711</gx:coord>
<gx:coord >15.123024 46.354298 11711</gx:coord>
<gx:coord >15.17466 46.378039 11711</gx:coord>
<gx:coord >15.226158 46.401641 11711</gx:coord>
<gx:coord >15.277829 46.425247 11703</gx:coord>
<gx:coord >15.329813 46.448959 11711</gx:coord>
<gx:coord >15.354904 46.460902 11711</gx:coord>
<gx:coord >15.378868 46.473239 11703</gx:coord>
<gx:coord >15.402497 46.486313 11711</gx:coord>
<gx:coord >15.424873 46.499587 11703</gx:coord>
<gx:coord >15.448769 46.51481 11711</gx:coord>
<gx:coord >15.470023 46.529297 11711</gx:coord>
<gx:coord >15.491728 46.54509 11711</gx:coord>
<gx:coord >15.512421 46.561129 11718</gx:coord>
<gx:coord >15.533127 46.578369 11718</gx:coord>
<gx:coord >15.552353 46.59549 11718</gx:coord>
<gx:coord >15.571953 46.614292 11718</gx:coord>
<gx:coord >15.589466 46.632248 11718</gx:coord>
<gx:coord >15.605873 46.650416 11718</gx:coord>
<gx:coord >15.622215 46.669922 11718</gx:coord>
<gx:coord >15.637871 46.690172 11711</gx:coord>
<gx:coord >15.666973 46.728745 11718</gx:coord>
<gx:coord >15.685593 46.752133 11718</gx:coord>
<gx:coord >15.712526 46.784134 11718</gx:coord>
<gx:coord >15.745284 46.822266 11718</gx:coord>
<gx:coord >15.777305 46.859756 11711</gx:coord>
<gx:coord >15.795456 46.880402 11711</gx:coord>
<gx:coord >15.811791 46.897655 11703</gx:coord>
<gx:coord >15.829256 46.91474 11703</gx:coord>
<gx:coord >15.867145 46.949887 11703</gx:coord>
<gx:coord >15.905034 46.985267 11703</gx:coord>
<gx:coord >15.941937 47.019902 11695</gx:coord>
<gx:coord >15.979896 47.055607 11695</gx:coord>
<gx:coord >16.017573 47.091033 11695</gx:coord>
<gx:coord >16.05542 47.126312 11695</gx:coord>
<gx:coord >16.093069 47.161374 11695</gx:coord>
<gx:coord >16.130951 47.196716 11696</gx:coord>
<gx:coord >16.168565 47.231342 11696</gx:coord>
<gx:coord >16.206595 47.266442 11696</gx:coord>
<gx:coord >16.244765 47.301869 11681</gx:coord>
<gx:coord >16.282425 47.336975 11681</gx:coord>
<gx:coord >16.319984 47.371582 11681</gx:coord>
<gx:coord >16.357516 47.406099 11681</gx:coord>
<gx:coord >16.396065 47.441528 11681</gx:coord>
<gx:coord >16.433786 47.476207 11681</gx:coord>
<gx:coord >16.471816 47.511167 11689</gx:coord>
<gx:coord >16.509361 47.545624 11689</gx:coord>
<gx:coord >16.547875 47.58081 11689</gx:coord>
<gx:coord >16.586468 47.615956 11682</gx:coord>
<gx:coord >16.624374 47.650452 11697</gx:coord>
<gx:coord >16.663101 47.685699 11697</gx:coord>
<gx:coord >16.70112 47.72028 11697</gx:coord>
<gx:coord >16.739713 47.755148 11697</gx:coord>
<gx:coord >16.778306 47.789969 11690</gx:coord>
<gx:coord >16.816086 47.823853 11682</gx:coord>
<gx:coord >16.853714 47.857498 11682</gx:coord>
<gx:coord >16.890724 47.890823 11683</gx:coord>
<gx:coord >16.928171 47.924644 11683</gx:coord>
<gx:coord >16.966482 47.95914 11683</gx:coord>
<gx:coord >17.004501 47.993134 11676</gx:coord>
<gx:coord >17.043022 48.027512 11683</gx:coord>
<gx:coord >17.060641 48.042282 11683</gx:coord>
<gx:coord >17.083459 48.059879 11691</gx:coord>
<gx:coord >17.120291 48.086786 11691</gx:coord>
<gx:coord >17.164009 48.118423 11683</gx:coord>
<gx:coord >17.206993 48.150192 11676</gx:coord>
<gx:coord >17.24938 48.182098 11676</gx:coord>
<gx:coord >17.292058 48.214371 11676</gx:coord>
<gx:coord >17.334313 48.246277 11677</gx:coord>
<gx:coord >17.376757 48.278348 11677</gx:coord>
<gx:coord >17.419035 48.310226 11677</gx:coord>
<gx:coord >17.461783 48.342407 11669</gx:coord>
<gx:coord >17.504319 48.374359 11669</gx:coord>
<gx:coord >17.546997 48.406311 11669</gx:coord>
<gx:coord >17.589039 48.43765 11654</gx:coord>
<gx:coord >17.631611 48.469352 11654</gx:coord>
<gx:coord >17.673622 48.500748 11654</gx:coord>
<gx:coord >17.716394 48.532663 11661</gx:coord>
<gx:coord >17.759047 48.564423 11669</gx:coord>
<gx:coord >17.802911 48.596905 11669</gx:coord>
<gx:coord >17.846163 48.628922 11669</gx:coord>
<gx:coord >17.889139 48.660635 11669</gx:coord>
<gx:coord >17.931639 48.691872 11669</gx:coord>
<gx:coord >17.975182 48.723816 11669</gx:coord>
<gx:coord >18.018353 48.755676 11669</gx:coord>
<gx:coord >18.061876 48.787811 11669</gx:coord>
<gx:coord >18.105469 48.819751 11669</gx:coord>
<gx:coord >18.149486 48.851918 11669</gx:coord>
<gx:coord >18.1935 48.883942 11661</gx:coord>
<gx:coord >18.237657 48.915985 11661</gx:coord>
<gx:coord >18.282166 48.948029 11661</gx:coord>
<gx:coord >18.326674 48.980118 11654</gx:coord>
<gx:coord >18.337844 48.988223 11638</gx:coord>
<gx:coord >18.35083 48.99765 11608</gx:coord>
<gx:coord >18.36076 49.004929 11585</gx:coord>
<gx:coord >18.385765 49.023277 11471</gx:coord>
<gx:coord >18.405057 49.037338 11387</gx:coord>
<gx:coord >18.416607 49.045761 11349</gx:coord>
<gx:coord >18.452947 49.072128 11273</gx:coord>
<gx:coord >18.489709 49.098587 11197</gx:coord>
<gx:coord >18.522315 49.121979 11097</gx:coord>
<gx:coord >18.536538 49.132209 11067</gx:coord>
<gx:coord >18.550345 49.142075 11059</gx:coord>
<gx:coord >18.595011 49.174153 11044</gx:coord>
<gx:coord >18.639462 49.205948 11036</gx:coord>
<gx:coord >18.6838 49.237656 11036</gx:coord>
<gx:coord >18.727957 49.26915 11036</gx:coord>
<gx:coord >18.771691 49.300323 11036</gx:coord>
<gx:coord >18.815605 49.331686 11036</gx:coord>
<gx:coord >18.860128 49.363295 11036</gx:coord>
<gx:coord >18.905217 49.395264 11037</gx:coord>
<gx:coord >18.94997 49.426885 11037</gx:coord>
<gx:coord >18.994205 49.45816 11030</gx:coord>
<gx:coord >19.038945 49.4897 11037</gx:coord>
<gx:coord >19.084069 49.521433 11030</gx:coord>
<gx:coord >19.129944 49.553507 11030</gx:coord>
<gx:coord >19.174829 49.584961 11030</gx:coord>
<gx:coord >19.219786 49.616684 11030</gx:coord>
<gx:coord >19.264671 49.648315 11030</gx:coord>
<gx:coord >19.309556 49.67981 11030</gx:coord>
<gx:coord >19.355757 49.711785 11030</gx:coord>
<gx:coord >19.400699 49.742752 11030</gx:coord>
<gx:coord >19.446914 49.774584 11030</gx:coord>
<gx:coord >19.493383 49.806612 11022</gx:coord>
<gx:coord >19.539704 49.8385 11031</gx:coord>
<gx:coord >19.586093 49.870193 11023</gx:coord>
<gx:coord >19.632279 49.901733 11023</gx:coord>
<gx:coord >19.678741 49.933746 11023</gx:coord>
<gx:coord >19.72469 49.965308 11023</gx:coord>
<gx:coord >19.770837 49.996994 11023</gx:coord>
<gx:coord >19.816662 50.028351 11024</gx:coord>
<gx:coord >19.863137 50.06012 11024</gx:coord>
<gx:coord >19.909305 50.091698 11017</gx:coord>
<gx:coord >19.955329 50.123074 11017</gx:coord>
<gx:coord >20.001839 50.154556 11017</gx:coord>
<gx:coord >20.048459 50.186005 11018</gx:coord>
<gx:coord >20.094662 50.217156 11018</gx:coord>
<gx:coord >20.123556 50.236862 11018</gx:coord>
<gx:coord >20.135416 50.245879 11018</gx:coord>
<gx:coord >20.144734 50.253845 11018</gx:coord>
<gx:coord >20.153454 50.262498 11018</gx:coord>
<gx:coord >20.160877 50.27097 11018</gx:coord>
<gx:coord >20.168152 50.280579 11018</gx:coord>
<gx:coord >20.174536 50.290662 11018</gx:coord>
<gx:coord >20.180697 50.302253 11018</gx:coord>
<gx:coord >20.196063 50.332885 11018</gx:coord>
<gx:coord >20.201408 50.343033 11002</gx:coord>
<gx:coord >20.205809 50.351166 10980</gx:coord>
<gx:coord >20.210146 50.359039 10949</gx:coord>
<gx:coord >20.21618 50.369847 10903</gx:coord>
<gx:coord >20.225088 50.385675 10812</gx:coord>
<gx:coord >20.235371 50.403763 10683</gx:coord>
<gx:coord >20.245056 50.420636 10569</gx:coord>
<gx:coord >20.254187 50.436603 10447</gx:coord>
<gx:coord >20.263317 50.452524 10310</gx:coord>
<gx:coord >20.273028 50.469635 10196</gx:coord>
<gx:coord >20.282496 50.486389 10074</gx:coord>
<gx:coord >20.290158 50.499985 9944</gx:coord>
<gx:coord >20.297167 50.512623 9830</gx:coord>
<gx:coord >20.304252 50.525253 9708</gx:coord>
<gx:coord >20.310974 50.537521 9563</gx:coord>
<gx:coord >20.314018 50.543022 9525</gx:coord>
<gx:coord >20.317952 50.550144 9464</gx:coord>
<gx:coord >20.326153 50.564987 9357</gx:coord>
<gx:coord >20.337475 50.585244 9228</gx:coord>
<gx:coord >20.349352 50.606658 9114</gx:coord>
<gx:coord >20.361749 50.628957 8976</gx:coord>
<gx:coord >20.372661 50.648555 8855</gx:coord>
<gx:coord >20.384626 50.669815 8725</gx:coord>
<gx:coord >20.396271 50.690406 8604</gx:coord>
<gx:coord >20.407715 50.710749 8475</gx:coord>
<gx:coord >20.41861 50.730103 8353</gx:coord>
<gx:coord >20.430298 50.750924 8223</gx:coord>
<gx:coord >20.4414 50.770523 8101</gx:coord>
<gx:coord >20.45311 50.791145 7979</gx:coord>
<gx:coord >20.465525 50.813232 7850</gx:coord>
<gx:coord >20.4776 50.834625 7728</gx:coord>
<gx:coord >20.483017 50.844121 7674</gx:coord>
<gx:coord >20.485122 50.847977 7644</gx:coord>
<gx:coord >20.485716 50.848984 7644</gx:coord>
<gx:coord >20.487976 50.853013 7598</gx:coord>
<gx:coord >20.490096 50.85672 7560</gx:coord>
<gx:coord >20.495911 50.867025 7446</gx:coord>
<gx:coord >20.498734 50.871913 7385</gx:coord>
<gx:coord >20.501022 50.875963 7347</gx:coord>
<gx:coord >20.503159 50.879687 7316</gx:coord>
<gx:coord >20.512619 50.896446 7187</gx:coord>
<gx:coord >20.522016 50.913025 7065</gx:coord>
<gx:coord >20.532303 50.931081 6935</gx:coord>
<gx:coord >20.540796 50.945892 6813</gx:coord>
<gx:coord >20.548477 50.959338 6676</gx:coord>
<gx:coord >20.556162 50.972809 6563</gx:coord>
<gx:coord >20.56221 50.983499 6471</gx:coord>
<gx:coord >20.570374 50.99793 6380</gx:coord>
<gx:coord >20.581772 51.018036 6251</gx:coord>
<gx:coord >20.592759 51.037537 6121</gx:coord>
<gx:coord >20.603077 51.056946 6007</gx:coord>
<gx:coord >20.610504 51.071389 5915</gx:coord>
<gx:coord >20.619659 51.089591 5786</gx:coord>
<gx:coord >20.629349 51.10919 5656</gx:coord>
<gx:coord >20.636597 51.123993 5549</gx:coord>
<gx:coord >20.643463 51.137959 5420</gx:coord>
<gx:coord >20.648878 51.148819 5336</gx:coord>
<gx:coord >20.654602 51.160118 5252</gx:coord>
<gx:coord >20.660858 51.172501 5199</gx:coord>
<gx:coord >20.66751 51.185486 5130</gx:coord>
<gx:coord >20.672632 51.195511 5062</gx:coord>
<gx:coord >20.681688 51.212952 4932</gx:coord>
<gx:coord >20.691376 51.232041 4810</gx:coord>
<gx:coord >20.696312 51.241562 4742</gx:coord>
<gx:coord >20.703964 51.256341 4628</gx:coord>
<gx:coord >20.706787 51.261788 4575</gx:coord>
<gx:coord >20.712204 51.272076 4514</gx:coord>
<gx:coord >20.722516 51.292099 4400</gx:coord>
<gx:coord >20.731964 51.310063 4278</gx:coord>
<gx:coord >20.741577 51.328404 4164</gx:coord>
<gx:coord >20.750427 51.345337 4034</gx:coord>
<gx:coord >20.758519 51.361313 3912</gx:coord>
<gx:coord >20.766758 51.377609 3798</gx:coord>
<gx:coord >20.771866 51.387852 3745</gx:coord>
<gx:coord >20.775757 51.395486 3699</gx:coord>
<gx:coord >20.784225 51.412105 3645</gx:coord>
<gx:coord >20.792618 51.428259 3607</gx:coord>
<gx:coord >20.800682 51.443848 3562</gx:coord>
<gx:coord >20.809097 51.460007 3516</gx:coord>
<gx:coord >20.816716 51.474701 3471</gx:coord>
<gx:coord >20.821838 51.484354 3441</gx:coord>
<gx:coord >20.824808 51.489944 3410</gx:coord>
<gx:coord >20.82607 51.492371 3387</gx:coord>
<gx:coord >20.830375 51.500473 3342</gx:coord>
<gx:coord >20.83519 51.509632 3265</gx:coord>
<gx:coord >20.839506 51.517914 3212</gx:coord>
<gx:coord >20.844116 51.526763 3144</gx:coord>
<gx:coord >20.84877 51.535608 3083</gx:coord>
<gx:coord >20.853387 51.544556 3014</gx:coord>
<gx:coord >20.858002 51.553438 2961</gx:coord>
<gx:coord >20.862579 51.562283 2892</gx:coord>
<gx:coord >20.867767 51.572198 2831</gx:coord>
<gx:coord >20.873108 51.582626 2763</gx:coord>
<gx:coord >20.877228 51.59054 2709</gx:coord>
<gx:coord >20.881075 51.597931 2641</gx:coord>
<gx:coord >20.885239 51.605902 2587</gx:coord>
<gx:coord >20.890045 51.615073 2519</gx:coord>
<gx:coord >20.89414 51.623016 2458</gx:coord>
<gx:coord >20.89904 51.632263 2389</gx:coord>
<gx:coord >20.903854 51.641515 2328</gx:coord>
<gx:coord >20.908585 51.650546 2267</gx:coord>
<gx:coord >20.912624 51.658264 2214</gx:coord>
<gx:coord >20.914612 51.662137 2176</gx:coord>
<gx:coord >20.916748 51.66628 2153</gx:coord>
<gx:coord >20.918961 51.670517 2115</gx:coord>
<gx:coord >20.921326 51.675125 2084</gx:coord>
<gx:coord >20.923309 51.678943 2054</gx:coord>
<gx:coord >20.925986 51.684036 2017</gx:coord>
<gx:coord >20.928879 51.689603 1994</gx:coord>
<gx:coord >20.932073 51.695618 1963</gx:coord>
<gx:coord >20.936508 51.704034 1925</gx:coord>
<gx:coord >20.940857 51.712274 1910</gx:coord>
<gx:coord >20.943756 51.717674 1895</gx:coord>
<gx:coord >20.946655 51.723167 1887</gx:coord>
<gx:coord >20.949554 51.72866 1880</gx:coord>
<gx:coord >20.952709 51.734711 1872</gx:coord>
<gx:coord >20.955827 51.740662 1864</gx:coord>
<gx:coord >20.959093 51.746796 1849</gx:coord>
<gx:coord >20.961988 51.752243 1842</gx:coord>
<gx:coord >20.965652 51.759059 1834</gx:coord>
<gx:coord >20.969162 51.765669 1819</gx:coord>
<gx:coord >20.972455 51.771881 1811</gx:coord>
<gx:coord >20.976167 51.778839 1796</gx:coord>
<gx:coord >20.980988 51.787875 1758</gx:coord>
<gx:coord >20.984726 51.794858 1727</gx:coord>
<gx:coord >20.98877 51.802492 1697</gx:coord>
<gx:coord >20.992584 51.809708 1666</gx:coord>
<gx:coord >20.996358 51.817017 1636</gx:coord>
<gx:coord >21.00029 51.824512 1598</gx:coord>
<gx:coord >21.004078 51.831711 1567</gx:coord>
<gx:coord >21.007767 51.838663 1537</gx:coord>
<gx:coord >21.011427 51.845627 1506</gx:coord>
<gx:coord >21.015287 51.852951 1476</gx:coord>
<gx:coord >21.019073 51.860046 1445</gx:coord>
<gx:coord >21.022644 51.866781 1407</gx:coord>
<gx:coord >21.026422 51.874054 1377</gx:coord>
<gx:coord >21.029985 51.880783 1346</gx:coord>
<gx:coord >21.033474 51.887375 1317</gx:coord>
<gx:coord >21.03714 51.894287 1286</gx:coord>
<gx:coord >21.040726 51.901062 1256</gx:coord>
<gx:coord >21.044464 51.90802 1225</gx:coord>
<gx:coord >21.04805 51.914795 1195</gx:coord>
<gx:coord >21.051767 51.921806 1164</gx:coord>
<gx:coord >21.055374 51.928665 1126</gx:coord>
<gx:coord >21.058655 51.934891 1096</gx:coord>
<gx:coord >21.062125 51.941497 1065</gx:coord>
<gx:coord >21.065735 51.948387 1035</gx:coord>
<gx:coord >21.069266 51.955044 997</gx:coord>
<gx:coord >21.072484 51.961142 974</gx:coord>
<gx:coord >21.076431 51.968674 966</gx:coord>
<gx:coord >21.082764 51.980648 959</gx:coord>
<gx:coord >21.085039 51.984837 959</gx:coord>
<gx:coord >21.087265 51.989044 959</gx:coord>
<gx:coord >21.089554 51.993256 959</gx:coord>
<gx:coord >21.094535 52.002853 959</gx:coord>
<gx:coord >21.095734 52.00589 959</gx:coord>
<gx:coord >21.096104 52.008579 959</gx:coord>
<gx:coord >21.096026 52.011 959</gx:coord>
<gx:coord >21.095555 52.013467 959</gx:coord>
<gx:coord >21.094535 52.0164 959</gx:coord>
<gx:coord >21.093122 52.019286 959</gx:coord>
<gx:coord >21.09069 52.023103 959</gx:coord>
<gx:coord >21.087036 52.027817 959</gx:coord>
<gx:coord >21.080566 52.035626 943</gx:coord>
<gx:coord >21.078526 52.038 928</gx:coord>
<gx:coord >21.074905 52.042236 898</gx:coord>
<gx:coord >21.071699 52.045961 867</gx:coord>
<gx:coord >21.06781 52.050339 829</gx:coord>
<gx:coord >21.064224 52.054459 806</gx:coord>
<gx:coord >21.059771 52.059554 768</gx:coord>
<gx:coord >21.055832 52.064117 730</gx:coord>
<gx:coord >21.05217 52.068375 707</gx:coord>
<gx:coord >21.050119 52.070773 692</gx:coord>
<gx:coord >21.04698 52.074404 669</gx:coord>
<gx:coord >21.043762 52.078082 646</gx:coord>
<gx:coord >21.041957 52.080176 631</gx:coord>
<gx:coord >21.040344 52.081924 623</gx:coord>
<gx:coord >21.037798 52.084878 600</gx:coord>
<gx:coord >21.035767 52.087189 585</gx:coord>
<gx:coord >21.033639 52.08958 570</gx:coord>
<gx:coord >21.030884 52.092773 540</gx:coord>
<gx:coord >21.027832 52.096344 517</gx:coord>
<gx:coord >21.024094 52.100601 486</gx:coord>
<gx:coord >21.019749 52.105501 456</gx:coord>
<gx:coord >21.015549 52.110352 425</gx:coord>
<gx:coord >21.011902 52.114485 395</gx:coord>
<gx:coord >21.008214 52.118722 357</gx:coord>
<gx:coord >21.003898 52.123749 334</gx:coord>
<gx:coord >20.999756 52.128571 311</gx:coord>
<gx:coord >20.995893 52.13292 273</gx:coord>
<gx:coord >20.991898 52.137405 242</gx:coord>
<gx:coord >20.988203 52.141672 212</gx:coord>
<gx:coord >20.98373 52.146746 189</gx:coord>
<gx:coord >20.980512 52.15047 159</gx:coord>
<gx:coord >20.976868 52.154663 120</gx:coord>
<gx:coord >20.974426 52.157455 113</gx:coord>
<gx:coord >20.971174 52.161131 105</gx:coord>
<gx:coord >20.97023 52.16217 113</gx:coord>
<gx:coord >20.968898 52.163738 105</gx:coord>
<gx:coord >20.968898 52.163738 105</gx:coord>
</gx:Track>
</Placemark>
<Placemark ><name >9H-WAF</name>
<Style ><LineStyle ><color >ff1c1ae3</color>
<width >4</width>
</LineStyle>
<IconStyle ><Icon ><href >http://maps.google.com/mapfiles/kml/shapes/airports.png</href>
</Icon>
</IconStyle>
</Style>
<gx:Track ><extrude >0</extrude>
<when >2025-07-06T08:37:52.320Z</when>
<when >2025-07-06T08:37:52.990Z</when>
<when >2025-07-06T08:37:55.060Z</when>
<when >2025-07-06T08:37:56.070Z</when>
<when >2025-07-06T08:37:59.430Z</when>
<when >2025-07-06T08:38:00.870Z</when>
<when >2025-07-06T08:38:01.890Z</when>
<when >2025-07-06T08:38:02.890Z</when>
<when >2025-07-06T08:38:04.950Z</when>
<when >2025-07-06T08:38:05.910Z</when>
<when >2025-07-06T08:38:07.520Z</when>
<when >2025-07-06T08:38:08.940Z</when>
<when >2025-07-06T08:38:10.500Z</when>
<when >2025-07-06T08:38:11.580Z</when>
<when >2025-07-06T08:38:13.280Z</when>
<when >2025-07-06T08:38:14.850Z</when>
<when >2025-07-06T08:38:16.230Z</when>
<when >2025-07-06T08:38:17.150Z</when>
<when >2025-07-06T08:38:18.120Z</when>
<when >2025-07-06T08:38:20.200Z</when>
<when >2025-07-06T08:38:21.310Z</when>
<when >2025-07-06T08:38:23.120Z</when>
<when >2025-07-06T08:38:25.650Z</when>
<when >2025-07-06T08:38:26.950Z</when>
<when >2025-07-06T08:38:29.950Z</when>
<when >2025-07-06T08:38:32.390Z</when>
<when >2025-07-06T08:38:35.030Z</when>
<when >2025-07-06T08:38:38.120Z</when>
<when >2025-07-06T08:38:41.110Z</when>
<when >2025-07-06T08:38:46.330Z</when>
<when >2025-07-06T08:38:51.780Z</when>
<when >2025-07-06T08:38:53.380Z</when>
<when >2025-07-06T08:38:55.280Z</when>
<when >2025-07-06T08:38:56.840Z</when>
<when >2025-07-06T08:38:59.940Z</when>
<when >2025-07-06T08:39:06.120Z</when>
<when >2025-07-06T08:39:10.840Z</when>
<when >2025-07-06T08:39:13.280Z</when>
<when >2025-07-06T08:39:14.610Z</when>
<when >2025-07-06T08:39:16.310Z</when>
<when >2025-07-06T08:39:17.790Z</when>
<when >2025-07-06T08:39:19.860Z</when>
<when >2025-07-06T08:39:21.840Z</when>
<when >2025-07-06T08:39:26.100Z</when>
<when >2025-07-06T08:39:32.490Z</when>
<when >2025-07-06T08:39:36.360Z</when>
<when >2025-07-06T08:39:39.790Z</when>
<when >2025-07-06T08:39:46.210Z</when>
<when >2025-07-06T08:39:51.940Z</when>
<when >2025-07-06T08:39:58.570Z</when>
<when >2025-07-06T08:40:06.400Z</when>
<when >2025-07-06T08:40:08.160Z</when>
<when >2025-07-06T08:40:09.670Z</when>
<when >2025-07-06T08:40:10.790Z</when>
<when >2025-07-06T08:40:11.890Z</when>
<when >2025-07-06T08:40:13.010Z</when>
<when >2025-07-06T08:40:14.000Z</when>
<when >2025-07-06T08:40:15.370Z</when>
<when >2025-07-06T08:40:17.550Z</when>
<when >2025-07-06T08:40:23.970Z</when>
<when >2025-07-06T08:40:29.370Z</when>
<when >2025-07-06T08:40:32.290Z</when>
<when >2025-07-06T08:40:36.880Z</when>
<when >2025-07-06T08:40:39.000Z</when>
<when >2025-07-06T08:40:40.930Z</when>
<when >2025-07-06T08:40:41.910Z</when>
<when >2025-07-06T08:40:43.580Z</when>
<when >2025-07-06T08:40:45.140Z</when>
<when >2025-07-06T08:40:48.150Z</when>
<when >2025-07-06T08:40:51.190Z</when>
<when >2025-07-06T08:40:56.330Z</when>
<when >2025-07-06T08:41:01.770Z</when>
<when >2025-07-06T08:41:37.670Z</when>
<when >2025-07-06T08:41:37.670Z</when>
<gx:coord >20.968342 52.164356 0</gx:coord>
<gx:coord >20.968153 52.164587 0</gx:coord>
<gx:coord >20.967388 52.165432 0</gx:coord>
<gx:coord >20.967121 52.165741 0</gx:coord>
<gx:coord >20.966187 52.166805 0</gx:coord>
<gx:coord >20.965824 52.167206 0</gx:coord>
<gx:coord >20.965576 52.16748 0</gx:coord>
<gx:coord >20.965308 52.167788 0</gx:coord>
<gx:coord >20.964857 52.168311 0</gx:coord>
<gx:coord >20.964642 52.168579 0</gx:coord>
<gx:coord >20.964308 52.168975 0</gx:coord>
<gx:coord >20.963974 52.16937 0</gx:coord>
<gx:coord >20.96368 52.169696 0</gx:coord>
<gx:coord >20.963405 52.169999 0</gx:coord>
<gx:coord >20.963097 52.170341 0</gx:coord>
<gx:coord >20.962811 52.170685 0</gx:coord>
<gx:coord >20.962486 52.17104 0</gx:coord>
<gx:coord >20.962334 52.171223 0</gx:coord>
<gx:coord >20.962162 52.171429 0</gx:coord>
<gx:coord >20.961876 52.171761 0</gx:coord>
<gx:coord >20.961742 52.171909 0</gx:coord>
<gx:coord >20.961533 52.172161 0</gx:coord>
<gx:coord >20.961266 52.172482 0</gx:coord>
<gx:coord >20.961129 52.172664 0</gx:coord>
<gx:coord >20.960941 52.173065 0</gx:coord>
<gx:coord >20.960827 52.173409 0</gx:coord>
<gx:coord >20.960751 52.173729 0</gx:coord>
<gx:coord >20.960693 52.174107 0</gx:coord>
<gx:coord >20.960674 52.174427 0</gx:coord>
<gx:coord >20.960678 52.174899 0</gx:coord>
<gx:coord >20.960674 52.175331 0</gx:coord>
<gx:coord >20.960693 52.175434 0</gx:coord>
<gx:coord >20.960751 52.175549 0</gx:coord>
<gx:coord >20.960835 52.175643 0</gx:coord>
<gx:coord >20.960972 52.175818 0</gx:coord>
<gx:coord >20.961285 52.176212 0</gx:coord>
<gx:coord >20.961482 52.176493 0</gx:coord>
<gx:coord >20.961494 52.17659 0</gx:coord>
<gx:coord >20.961502 52.176668 0</gx:coord>
<gx:coord >20.961482 52.176749 0</gx:coord>
<gx:coord >20.961424 52.176819 0</gx:coord>
<gx:coord >20.96138 52.17691 0</gx:coord>
<gx:coord >20.961285 52.177013 0</gx:coord>
<gx:coord >20.961129 52.177215 0</gx:coord>
<gx:coord >20.960815 52.177552 0</gx:coord>
<gx:coord >20.960617 52.177757 0</gx:coord>
<gx:coord >20.960462 52.177959 0</gx:coord>
<gx:coord >20.960148 52.17832 0</gx:coord>
<gx:coord >20.959835 52.178693 0</gx:coord>
<gx:coord >20.959481 52.179077 0</gx:coord>
<gx:coord >20.959206 52.179382 0</gx:coord>
<gx:coord >20.959187 52.179472 0</gx:coord>
<gx:coord >20.959187 52.179531 0</gx:coord>
<gx:coord >20.959225 52.179588 0</gx:coord>
<gx:coord >20.959266 52.179624 0</gx:coord>
<gx:coord >20.959324 52.17967 0</gx:coord>
<gx:coord >20.959396 52.179691 0</gx:coord>
<gx:coord >20.959501 52.179728 0</gx:coord>
<gx:coord >20.959638 52.179763 0</gx:coord>
<gx:coord >20.959933 52.179868 0</gx:coord>
<gx:coord >20.960197 52.179955 0</gx:coord>
<gx:coord >20.960364 52.179996 0</gx:coord>
<gx:coord >20.96056 52.179984 0</gx:coord>
<gx:coord >20.960639 52.179938 0</gx:coord>
<gx:coord >20.960658 52.179868 0</gx:coord>
<gx:coord >20.960678 52.179845 0</gx:coord>
<gx:coord >20.960674 52.179806 0</gx:coord>
<gx:coord >20.960678 52.17974 0</gx:coord>
<gx:coord >20.960698 52.179693 0</gx:coord>
<gx:coord >20.960712 52.179623 0</gx:coord>
<gx:coord >20.960751 52.179531 0</gx:coord>
<gx:coord >20.960757 52.179472 0</gx:coord>
<gx:coord >20.960796 52.179402 0</gx:coord>
<gx:coord >20.960796 52.179402 0</gx:coord>
</gx:Track>
</Placemark>
</Folder>
</Folder>
</kml>
