<?xml version="1.0" encoding="UTF-8"?>
<kml xmlns="http://www.opengis.net/kml/2.2">
    <Document>
        <name>Edited Path</name>
        <description>Path edited with KML Path Editor</description>
        <Style id="pathStyle">
            <LineStyle>
                <color>ff0000ff</color>
                <width>3</width>
            </LineStyle>
        </Style>
        <Placemark>
            <name>Edited Path</name>
            <description>Total points: 474</description>
            <styleUrl>#pathStyle</styleUrl>
            <LineString>
                <tessellate>1</tessellate>
                <coordinates>20.968231,52.170045,0 20.968231,52.170045,0 20.968231,52.170057,0 20.968231,52.170057,0 20.968208,52.170055,0 20.968094,52.170055,0 20.967937,52.170045,0 20.967865,52.170033,0 20.967712,52.169975,0 20.967312,52.170078,0 20.967172,52.170278,0 20.966625,52.170914,0 20.966073,52.171547,0 20.965779,52.171873,0 20.9655,52.172207,0 20.965157,52.172585,0 20.964876,52.172908,0 20.964661,52.173157,0 20.964445,52.173421,0 20.964298,52.173592,0 20.964033,52.173874,0 20.963896,52.174049,0 20.963562,52.174445,0 20.96323,52.174805,0 20.962915,52.175166,0 20.962639,52.17548,0 20.962429,52.175686,0 20.962238,52.175777,0 20.961796,52.175853,0 20.9616,52.175841,0 20.961399,52.175823,0 20.961169,52.175806,0 20.960903,52.175743,0 20.960855,52.17569,0 20.960835,52.175643,0 20.960827,52.17564,0 20.960827,52.175652,0 20.960827,52.175652,0 20.960835,52.175643,0 20.960789,52.175617,0 20.960751,52.175583,0 20.960698,52.175504,0 20.9606,52.175387,0 20.960423,52.175166,0 20.960148,52.17484,0 20.959854,52.174496,0 20.959599,52.174224,0 20.959606,52.17421,0 20.959658,52.174165,0 20.959736,52.17413,0 20.959795,52.174119,0 20.959835,52.174107,0 20.959873,52.174072,0 20.959854,52.174061,0 20.95993,52.173992,0 20.960031,52.173886,0 20.960148,52.173746,0 20.960255,52.173626,0 20.960305,52.17356,0 20.960579,52.17326,0 20.960874,52.172908,0 20.961286,52.172408,0 20.962051,52.171547,0 20.962287,52.171256,0 20.96266,52.170837,0 20.962934,52.170523,0 20.962934,52.170523,0 20.963719,52.169603,0 20.964347,52.168905,0 20.964739,52.168439,0 20.965053,52.16816,0 20.966073,52.166996,0 20.967712,52.165146,0 20.969009,52.163635,0 20.970075,52.162388,0 20.97188,52.160339,0 20.972748,52.159424,0 20.973282,52.158737,0 20.973969,52.158005,0 20.975647,52.15615,0 20.976028,52.155762,0 20.976667,52.155032,0 20.978165,52.153427,0 20.979309,52.152054,0 20.980606,52.150635,0 20.981768,52.1494,0 20.98259,52.148438,0 20.983505,52.14743,0 20.984573,52.146286,0 20.98577,52.144884,0 20.986633,52.143951,0 20.98781,52.142603,0 20.988674,52.141625,0 20.989838,52.140335,0 20.991058,52.139008,0 20.99205,52.137817,0 20.993068,52.136644,0 20.994324,52.135294,0 20.995483,52.133926,0 20.99678,52.132416,0 20.998247,52.130732,0 20.999908,52.128754,0 21.001229,52.127241,0 21.003036,52.125092,0 21.004525,52.123284,0 21.006016,52.121189,0 21.006927,52.119232,0 21.007272,52.117465,0 21.007309,52.116028,0 21.007004,52.114105,0 21.006409,52.112716,0 21.005554,52.111267,0 21.004028,52.109299,0 21.002485,52.10727,0 21.000671,52.104492,0 20.999974,52.102754,0 20.999527,52.10083,0 20.999451,52.099319,0 20.99968,52.09726,0 21.00029,52.095245,0 21.001205,52.093231,0 21.002799,52.090604,0 21.004761,52.087811,0 21.006241,52.085815,0 21.007233,52.084579,0 21.008684,52.08269,0 21.010803,52.07999,0 21.012268,52.078217,0 21.014862,52.075012,0 21.016532,52.072961,0 21.019821,52.06897,0 21.021271,52.067139,0 21.023178,52.064896,0 21.025391,52.062057,0 21.027675,52.059274,0 21.030426,52.055878,0 21.032257,52.053543,0 21.033936,52.051437,0 21.035915,52.049033,0 21.038818,52.045349,0 21.041946,52.041595,0 21.045096,52.038093,0 21.047516,52.035828,0 21.051374,52.032647,0 21.054077,52.030701,0 21.056824,52.028824,0 21.060163,52.026688,0 21.06308,52.024887,0 21.065979,52.023193,0 21.068168,52.021893,0 21.070757,52.020403,0 21.073837,52.018661,0 21.076878,52.016958,0 21.079559,52.015411,0 21.082764,52.013672,0 21.088409,52.010513,0 21.094437,52.007172,0 21.100464,52.00383,0 21.105835,52.000851,0 21.111485,51.997686,0 21.117096,51.994537,0 21.12255,51.991448,0 21.128828,51.987863,0 21.135027,51.984372,0 21.140518,51.981171,0 21.145857,51.978134,0 21.15135,51.974968,0 21.155744,51.972455,0 21.160583,51.969635,0 21.166574,51.96617,0 21.171875,51.963089,0 21.177368,51.959976,0 21.181641,51.957558,0 21.187448,51.954206,0 21.199341,51.947342,0 21.212387,51.939835,0 21.225037,51.932513,0 21.238174,51.924683,0 21.245283,51.919618,0 21.250534,51.91507,0 21.254501,51.910721,0 21.257525,51.906816,0 21.259644,51.903418,0 21.262155,51.898343,0 21.263646,51.893921,0 21.265182,51.88759,0 21.267624,51.874229,0 21.269086,51.865952,0 21.269913,51.861381,0 21.270981,51.855096,0 21.272575,51.845993,0 21.274261,51.836708,0 21.275841,51.827957,0 21.277771,51.816971,0 21.279984,51.804634,0 21.282578,51.790621,0 21.285417,51.775635,0 21.288089,51.761261,0 21.290984,51.746338,0 21.29364,51.732617,0 21.296463,51.718605,0 21.298779,51.706879,0 21.300278,51.699333,0 21.304169,51.680432,0 21.308206,51.660645,0 21.311918,51.642517,0 21.31546,51.624942,0 21.319044,51.60759,0 21.322756,51.589005,0 21.325836,51.573548,0 21.328583,51.560048,0 21.331441,51.545471,0 21.333593,51.535034,0 21.337305,51.516449,0 21.340942,51.498273,0 21.344452,51.480956,0 21.348217,51.462204,0 21.352077,51.442612,0 21.356457,51.420685,0 21.360985,51.397476,0 21.36529,51.37587,0 21.36967,51.354172,0 21.373901,51.332873,0 21.378281,51.310593,0 21.382958,51.286652,0 21.387787,51.262347,0 21.392593,51.237814,0 21.39721,51.214005,0 21.402184,51.188873,0 21.406784,51.166077,0 21.411389,51.143692,0 21.415174,51.124878,0 21.420296,51.098694,0 21.425858,51.070412,0 21.431427,51.041689,0 21.436479,51.015839,0 21.44104,50.991925,0 21.4431,50.981078,0 21.448133,50.955048,0 21.450806,50.94136,0 21.452958,50.930466,0 21.459565,50.896133,0 21.464233,50.871634,0 21.467361,50.855713,0 21.474708,50.817719,0 21.4814,50.783417,0 21.488887,50.744476,0 21.494157,50.717972,0 21.494904,50.714148,0 21.500244,50.68721,0 21.507742,50.648043,0 21.51123,50.629532,0 21.516872,50.600001,0 21.52294,50.568237,0 21.529195,50.535713,0 21.535504,50.502521,0 21.539067,50.483761,0 21.544117,50.457596,0 21.547659,50.438873,0 21.549905,50.426827,0 21.557633,50.386597,0 21.560018,50.374191,0 21.566234,50.34169,0 21.573029,50.305756,0 21.58069,50.264923,0 21.587267,50.228439,0 21.589619,50.215108,0 21.597043,50.175073,0 21.604687,50.13533,0 21.612483,50.096213,0 21.620877,50.057327,0 21.628683,50.018967,0 21.635694,49.980011,0 21.642271,49.941238,0 21.649066,49.901871,0 21.656057,49.863266,0 21.663304,49.823822,0 21.670821,49.784134,0 21.677977,49.746277,0 21.684988,49.70787,0 21.692216,49.668869,0 21.69926,49.630086,0 21.706455,49.590454,0 21.713321,49.552597,0 21.72049,49.513752,0 21.727777,49.474228,0 21.734891,49.435544,0 21.742088,49.396673,0 21.749268,49.357681,0 21.756544,49.318325,0 21.763493,49.280273,0 21.770677,49.241135,0 21.777649,49.202637,0 21.784551,49.164368,0 21.791241,49.126785,0 21.798143,49.087784,0 21.805044,49.049332,0 21.811909,49.011034,0 21.818775,48.972675,0 21.825714,48.933571,0 21.832653,48.895398,0 21.839664,48.856294,0 21.846458,48.818308,0 21.852933,48.779938,0 21.859342,48.741714,0 21.866262,48.702905,0 21.873418,48.664499,0 21.88054,48.625763,0 21.887583,48.586578,0 21.894451,48.548305,0 21.89886,48.527775,0 21.903499,48.510956,0 21.908618,48.495049,0 21.914344,48.479782,0 21.922373,48.460876,0 21.930518,48.444028,0 21.939204,48.427734,0 21.950178,48.409207,0 21.961092,48.392541,0 21.974769,48.373398,0 21.987939,48.356598,0 22.001249,48.340805,0 22.017035,48.323644,0 22.032377,48.308167,0 22.047941,48.293655,0 22.067308,48.276718,0 22.085196,48.262344,0 22.102872,48.248978,0 22.125092,48.233379,0 22.14217,48.222198,0 22.18703,48.193359,0 22.230201,48.165207,0 22.273819,48.136642,0 22.316322,48.10881,0 22.359718,48.080475,0 22.403799,48.051965,0 22.447674,48.023801,0 22.491623,47.995239,0 22.535912,47.965942,0 22.57869,47.937378,0 22.621624,47.908723,0 22.665001,47.879745,0 22.708529,47.850719,0 22.743622,47.827606,0 22.763954,47.81534,0 22.784095,47.804074,0 22.80649,47.792529,0 22.828491,47.782059,0 22.848393,47.77321,0 22.873604,47.762833,0 22.899559,47.753082,0 22.920579,47.745744,0 22.949242,47.736573,0 22.972549,47.729782,0 22.998436,47.722916,0 23.025654,47.716463,0 23.053471,47.710551,0 23.079388,47.705709,0 23.104523,47.701675,0 23.132207,47.697888,0 23.156926,47.695142,0 23.185959,47.692612,0 23.224892,47.690002,0 23.286368,47.685692,0 23.348976,47.680757,0 23.408485,47.675823,0 23.46891,47.671121,0 23.530602,47.666698,0 23.592858,47.662369,0 23.653908,47.657959,0 23.716243,47.653384,0 23.776611,47.648849,0 23.838066,47.643997,0 23.881393,47.639832,0 23.944221,47.633102,0 24.006254,47.626338,0 24.067172,47.619867,0 24.127737,47.613629,0 24.190727,47.607147,0 24.252388,47.600784,0 24.312881,47.594513,0 24.375986,47.587979,0 24.437256,47.581554,0 24.497681,47.57513,0 24.561275,47.56838,0 24.620224,47.562103,0 24.682365,47.555466,0 24.743042,47.548875,0 24.805481,47.542053,0 24.86467,47.535507,0 24.924387,47.52895,0 24.986343,47.522186,0 25.047842,47.51545,0 25.10707,47.508933,0 25.168833,47.502043,0 25.228131,47.495433,0 25.287918,47.48877,0 25.348699,47.481839,0 25.37384,47.478348,0 25.396957,47.47435,0 25.418175,47.470047,0 25.437126,47.465927,0 25.565655,47.437445,0 25.609926,47.427379,0 25.659246,47.417823,0 25.71015,47.407196,0 25.76238,47.39533,0 26.595772,47.211685,0 26.626634,47.205226,0 26.657198,47.198662,0 26.68689,47.192459,0 26.716849,47.186233,0 26.749649,47.179413,0 26.779587,47.173187,0 26.811218,47.166774,0 26.842346,47.160645,0 26.858826,47.158127,0 26.886292,47.15467,0 26.914375,47.15126,0 26.941857,47.147874,0 26.969856,47.144394,0 26.99794,47.140823,0 27.028633,47.136795,0 27.059115,47.132884,0 27.087822,47.129196,0 27.118554,47.125203,0 27.149189,47.121292,0 27.178734,47.117477,0 27.207078,47.113797,0 27.238472,47.109741,0 27.256728,47.107327,0 27.262573,47.106583,0 27.268341,47.105804,0 27.289476,47.102997,0 27.311307,47.100065,0 27.331027,47.097411,0 27.35891,47.093674,0 27.390536,47.089497,0 27.419678,47.085617,0 27.452862,47.081257,0 27.486488,47.076874,0 27.511482,47.073669,0 27.514695,47.07325,0 27.539085,47.070053,0 27.559979,47.067338,0 27.581245,47.064423,0 27.595047,47.062546,0 27.623199,47.058609,0 27.661673,47.053466,0 27.669891,47.052429,0 27.701614,47.048264,0 27.729218,47.044647,0 27.744804,47.042587,0 27.759361,47.040619,0 27.776677,47.03829,0 27.796165,47.035675,0 27.815481,47.033076,0 27.82933,47.031189,0 27.841539,47.029491,0 27.853511,47.027862,0 27.862976,47.026566,0 27.87513,47.024918,0 27.900467,47.021439,0 27.916122,47.019241,0 27.940204,47.015945,0 27.960909,47.013152,0 27.980736,47.010406,0 27.994675,47.00853,0 28.008165,47.006681,0 28.02732,47.004027,0 28.65233867795786,46.92682076739938,0 28.737835173356373,46.923303661021414,0 28.839128480849283,46.925179479825836,0 28.92339704115427,46.927641392328056,0</coordinates>
            </LineString>
        </Placemark>
    </Document>
</kml>