<?xml version="1.0" encoding="UTF-8"?>
<kml xmlns="http://www.opengis.net/kml/2.2" xmlns:gx="http://www.google.com/kml/ext/2.2"><Folder ><Folder ><name >HA-LGM track</name>
<Placemark ><name >HA-LGM</name>
<Style ><LineStyle ><color >ff1c1ae3</color>
<width >4</width>
</LineStyle>
<IconStyle ><Icon ><href >http://maps.google.com/mapfiles/kml/shapes/airports.png</href>
</Icon>
</IconStyle>
</Style>
<gx:Track ><extrude >0</extrude>
<when >2025-07-13T14:42:44.650Z</when>
<when >2025-07-13T14:42:44.650Z</when>
<when >2025-07-13T14:43:37.250Z</when>
<when >2025-07-13T14:46:59.600Z</when>
<when >2025-07-13T14:48:00.320Z</when>
<when >2025-07-13T14:48:50.700Z</when>
<when >2025-07-13T14:48:56.830Z</when>
<when >2025-07-13T14:49:02.330Z</when>
<when >2025-07-13T14:49:07.210Z</when>
<when >2025-07-13T14:49:22.510Z</when>
<when >2025-07-13T14:49:27.440Z</when>
<when >2025-07-13T14:49:33.780Z</when>
<when >2025-07-13T14:49:39.670Z</when>
<when >2025-07-13T14:49:45.090Z</when>
<when >2025-07-13T14:49:47.890Z</when>
<when >2025-07-13T14:49:51.350Z</when>
<when >2025-07-13T14:49:55.420Z</when>
<when >2025-07-13T14:50:00.130Z</when>
<when >2025-07-13T14:50:04.770Z</when>
<when >2025-07-13T14:50:08.170Z</when>
<when >2025-07-13T14:50:12.690Z</when>
<when >2025-07-13T14:50:18.440Z</when>
<when >2025-07-13T14:50:21.660Z</when>
<when >2025-07-13T14:50:29.800Z</when>
<when >2025-07-13T14:50:37.890Z</when>
<when >2025-07-13T14:50:40.760Z</when>
<when >2025-07-13T14:50:42.260Z</when>
<when >2025-07-13T14:50:45.680Z</when>
<when >2025-07-13T14:50:48.220Z</when>
<when >2025-07-13T14:50:49.910Z</when>
<when >2025-07-13T14:50:51.430Z</when>
<when >2025-07-13T14:50:53.600Z</when>
<when >2025-07-13T14:50:56.490Z</when>
<when >2025-07-13T14:51:03.150Z</when>
<when >2025-07-13T14:51:09.840Z</when>
<when >2025-07-13T14:51:15.730Z</when>
<when >2025-07-13T14:51:21.570Z</when>
<when >2025-07-13T14:51:30.240Z</when>
<when >2025-07-13T14:51:39.790Z</when>
<when >2025-07-13T14:51:42.010Z</when>
<when >2025-07-13T14:51:45.470Z</when>
<when >2025-07-13T14:51:48.090Z</when>
<when >2025-07-13T14:51:55.420Z</when>
<when >2025-07-13T14:51:57.900Z</when>
<when >2025-07-13T14:52:04.000Z</when>
<when >2025-07-13T14:52:07.170Z</when>
<when >2025-07-13T14:52:14.740Z</when>
<when >2025-07-13T14:52:21.440Z</when>
<when >2025-07-13T14:52:24.280Z</when>
<when >2025-07-13T14:52:30.980Z</when>
<when >2025-07-13T14:52:33.100Z</when>
<when >2025-07-13T14:52:36.370Z</when>
<when >2025-07-13T14:52:40.970Z</when>
<when >2025-07-13T14:52:44.280Z</when>
<when >2025-07-13T14:52:50.300Z</when>
<when >2025-07-13T14:52:58.620Z</when>
<when >2025-07-13T14:53:02.040Z</when>
<when >2025-07-13T14:53:08.240Z</when>
<when >2025-07-13T14:53:17.410Z</when>
<when >2025-07-13T14:53:29.200Z</when>
<when >2025-07-13T14:53:36.070Z</when>
<when >2025-07-13T14:53:51.900Z</when>
<when >2025-07-13T14:53:55.060Z</when>
<when >2025-07-13T14:53:58.330Z</when>
<when >2025-07-13T14:54:01.960Z</when>
<when >2025-07-13T14:54:02.960Z</when>
<when >2025-07-13T14:54:19.340Z</when>
<when >2025-07-13T14:54:32.950Z</when>
<when >2025-07-13T14:54:48.180Z</when>
<when >2025-07-13T14:55:06.570Z</when>
<when >2025-07-13T14:55:20.730Z</when>
<when >2025-07-13T14:55:42.730Z</when>
<when >2025-07-13T14:56:31.760Z</when>
<when >2025-07-13T14:56:37.700Z</when>
<when >2025-07-13T14:56:42.150Z</when>
<when >2025-07-13T14:56:45.750Z</when>
<when >2025-07-13T14:56:50.160Z</when>
<when >2025-07-13T14:56:52.940Z</when>
<when >2025-07-13T14:57:05.190Z</when>
<when >2025-07-13T14:57:08.740Z</when>
<when >2025-07-13T14:57:10.820Z</when>
<when >2025-07-13T14:57:14.280Z</when>
<when >2025-07-13T14:57:19.380Z</when>
<when >2025-07-13T14:57:36.080Z</when>
<when >2025-07-13T14:57:39.800Z</when>
<when >2025-07-13T14:57:39.800Z</when>
<when >2025-07-13T14:57:45.620Z</when>
<when >2025-07-13T14:57:48.160Z</when>
<when >2025-07-13T14:57:48.160Z</when>
<when >2025-07-13T14:57:51.180Z</when>
<when >2025-07-13T14:57:52.350Z</when>
<when >2025-07-13T14:57:52.350Z</when>
<gx:coord >-0.37426 51.881992 0</gx:coord>
<gx:coord >-0.37426 51.881992 0</gx:coord>
<gx:coord >-0.374966 51.882085 0</gx:coord>
<gx:coord >-0.375038 51.882099 0</gx:coord>
<gx:coord >-0.375042 51.882097 0</gx:coord>
<gx:coord >-0.374508 51.882073 0</gx:coord>
<gx:coord >-0.374148 51.882133 0</gx:coord>
<gx:coord >-0.373764 51.882225 0</gx:coord>
<gx:coord >-0.373363 51.882306 0</gx:coord>
<gx:coord >-0.372273 51.882099 0</gx:coord>
<gx:coord >-0.372162 51.881876 0</gx:coord>
<gx:coord >-0.371971 51.881526 0</gx:coord>
<gx:coord >-0.371761 51.881142 0</gx:coord>
<gx:coord >-0.371587 51.880806 0</gx:coord>
<gx:coord >-0.371494 51.880611 0</gx:coord>
<gx:coord >-0.371345 51.880348 0</gx:coord>
<gx:coord >-0.371151 51.879979 0</gx:coord>
<gx:coord >-0.370941 51.87956 0</gx:coord>
<gx:coord >-0.37077 51.879222 0</gx:coord>
<gx:coord >-0.370579 51.878885 0</gx:coord>
<gx:coord >-0.370399 51.878551 0</gx:coord>
<gx:coord >-0.370176 51.878128 0</gx:coord>
<gx:coord >-0.370064 51.877907 0</gx:coord>
<gx:coord >-0.369701 51.877255 0</gx:coord>
<gx:coord >-0.36949 51.876846 0</gx:coord>
<gx:coord >-0.369415 51.876685 0</gx:coord>
<gx:coord >-0.369415 51.876549 0</gx:coord>
<gx:coord >-0.369473 51.876441 0</gx:coord>
<gx:coord >-0.369568 51.876359 0</gx:coord>
<gx:coord >-0.36972 51.876289 0</gx:coord>
<gx:coord >-0.369873 51.876266 0</gx:coord>
<gx:coord >-0.369991 51.876251 0</gx:coord>
<gx:coord >-0.370178 51.876219 0</gx:coord>
<gx:coord >-0.37051 51.876171 0</gx:coord>
<gx:coord >-0.370863 51.876114 0</gx:coord>
<gx:coord >-0.371197 51.876057 0</gx:coord>
<gx:coord >-0.371735 51.875954 0</gx:coord>
<gx:coord >-0.372347 51.875851 0</gx:coord>
<gx:coord >-0.372963 51.875777 0</gx:coord>
<gx:coord >-0.373039 51.875777 0</gx:coord>
<gx:coord >-0.373192 51.875777 0</gx:coord>
<gx:coord >-0.373424 51.875805 0</gx:coord>
<gx:coord >-0.373981 51.875874 0</gx:coord>
<gx:coord >-0.374107 51.875859 0</gx:coord>
<gx:coord >-0.374389 51.875748 0</gx:coord>
<gx:coord >-0.374482 51.875679 0</gx:coord>
<gx:coord >-0.374603 51.875509 0</gx:coord>
<gx:coord >-0.374718 51.875347 0</gx:coord>
<gx:coord >-0.374779 51.875278 0</gx:coord>
<gx:coord >-0.374889 51.875184 0</gx:coord>
<gx:coord >-0.374927 51.875153 0</gx:coord>
<gx:coord >-0.375004 51.875125 0</gx:coord>
<gx:coord >-0.375061 51.875114 0</gx:coord>
<gx:coord >-0.375118 51.875102 0</gx:coord>
<gx:coord >-0.375354 51.875061 0</gx:coord>
<gx:coord >-0.375729 51.874986 0</gx:coord>
<gx:coord >-0.375948 51.874947 0</gx:coord>
<gx:coord >-0.376393 51.874878 0</gx:coord>
<gx:coord >-0.377026 51.874765 0</gx:coord>
<gx:coord >-0.377941 51.874613 0</gx:coord>
<gx:coord >-0.378564 51.8745 0</gx:coord>
<gx:coord >-0.379993 51.874214 0</gx:coord>
<gx:coord >-0.380173 51.874125 0</gx:coord>
<gx:coord >-0.380325 51.87402 0</gx:coord>
<gx:coord >-0.380457 51.873894 0</gx:coord>
<gx:coord >-0.380478 51.873869 0</gx:coord>
<gx:coord >-0.380669 51.873636 0</gx:coord>
<gx:coord >-0.380669 51.873636 0</gx:coord>
<gx:coord >-0.380669 51.873636 0</gx:coord>
<gx:coord >-0.380669 51.873636 0</gx:coord>
<gx:coord >-0.380669 51.873636 0</gx:coord>
<gx:coord >-0.380669 51.873636 0</gx:coord>
<gx:coord >-0.380745 51.873543 0</gx:coord>
<gx:coord >-0.380866 51.87339 0</gx:coord>
<gx:coord >-0.380974 51.873252 0</gx:coord>
<gx:coord >-0.38107 51.87307 0</gx:coord>
<gx:coord >-0.381088 51.872844 0</gx:coord>
<gx:coord >-0.381088 51.872715 0</gx:coord>
<gx:coord >-0.380764 51.872425 0</gx:coord>
<gx:coord >-0.380661 51.872486 0</gx:coord>
<gx:coord >-0.380624 51.87252 0</gx:coord>
<gx:coord >-0.380624 51.872543 0</gx:coord>
<gx:coord >-0.380606 51.872543 0</gx:coord>
<gx:coord >-0.380513 51.872566 0</gx:coord>
<gx:coord >-0.380253 51.872612 0</gx:coord>
<gx:coord >-0.380077 51.872635 0</gx:coord>
<gx:coord >-0.378898 51.872841 0</gx:coord>
<gx:coord >-0.377803 51.873024 0</gx:coord>
<gx:coord >-0.377331 51.873112 0</gx:coord>
<gx:coord >-0.375966 51.873344 0</gx:coord>
<gx:coord >-0.375042 51.873508 0</gx:coord>
<gx:coord >-0.375042 51.873508 0</gx:coord>
</gx:Track>
</Placemark>
<Placemark ><name >HA-LGM</name>
<Style ><LineStyle ><color >ff1c1ae3</color>
<width >4</width>
</LineStyle>
<IconStyle ><Icon ><href >http://maps.google.com/mapfiles/kml/shapes/airports.png</href>
</Icon>
</IconStyle>
</Style>
<gx:Track ><altitudeMode >absolute</altitudeMode>
<extrude >1</extrude>
<when >2025-07-13T14:57:53.350Z</when>
<when >2025-07-13T14:57:56.330Z</when>
<when >2025-07-13T14:57:57.610Z</when>
<when >2025-07-13T14:58:01.750Z</when>
<when >2025-07-13T14:58:04.720Z</when>
<when >2025-07-13T14:58:08.130Z</when>
<when >2025-07-13T14:58:12.830Z</when>
<when >2025-07-13T14:58:14.160Z</when>
<when >2025-07-13T14:58:17.030Z</when>
<when >2025-07-13T14:58:19.490Z</when>
<when >2025-07-13T14:58:21.860Z</when>
<when >2025-07-13T14:58:24.310Z</when>
<when >2025-07-13T14:58:26.790Z</when>
<when >2025-07-13T14:58:29.300Z</when>
<when >2025-07-13T14:58:31.850Z</when>
<when >2025-07-13T14:58:34.330Z</when>
<when >2025-07-13T14:58:36.460Z</when>
<when >2025-07-13T14:58:39.260Z</when>
<when >2025-07-13T14:58:42.260Z</when>
<when >2025-07-13T14:58:42.670Z</when>
<when >2025-07-13T14:58:43.080Z</when>
<when >2025-07-13T14:58:47.450Z</when>
<when >2025-07-13T14:58:51.700Z</when>
<when >2025-07-13T14:58:54.440Z</when>
<when >2025-07-13T14:58:58.340Z</when>
<when >2025-07-13T14:59:01.210Z</when>
<when >2025-07-13T14:59:04.880Z</when>
<when >2025-07-13T14:59:08.180Z</when>
<when >2025-07-13T14:59:11.680Z</when>
<when >2025-07-13T14:59:15.210Z</when>
<when >2025-07-13T14:59:19.100Z</when>
<when >2025-07-13T14:59:22.370Z</when>
<when >2025-07-13T14:59:26.390Z</when>
<when >2025-07-13T14:59:30.670Z</when>
<when >2025-07-13T14:59:34.820Z</when>
<when >2025-07-13T14:59:38.590Z</when>
<when >2025-07-13T14:59:42.840Z</when>
<when >2025-07-13T14:59:45.770Z</when>
<when >2025-07-13T14:59:48.560Z</when>
<when >2025-07-13T14:59:50.480Z</when>
<when >2025-07-13T14:59:52.720Z</when>
<when >2025-07-13T14:59:55.510Z</when>
<when >2025-07-13T14:59:58.450Z</when>
<when >2025-07-13T15:00:01.070Z</when>
<when >2025-07-13T15:00:03.940Z</when>
<when >2025-07-13T15:00:06.920Z</when>
<when >2025-07-13T15:00:10.360Z</when>
<when >2025-07-13T15:00:14.630Z</when>
<when >2025-07-13T15:00:16.660Z</when>
<when >2025-07-13T15:00:19.140Z</when>
<when >2025-07-13T15:00:20.230Z</when>
<when >2025-07-13T15:00:22.360Z</when>
<when >2025-07-13T15:00:23.900Z</when>
<when >2025-07-13T15:00:26.490Z</when>
<when >2025-07-13T15:00:29.070Z</when>
<when >2025-07-13T15:00:30.490Z</when>
<when >2025-07-13T15:00:33.550Z</when>
<when >2025-07-13T15:00:37.240Z</when>
<when >2025-07-13T15:00:40.500Z</when>
<when >2025-07-13T15:00:43.980Z</when>
<when >2025-07-13T15:00:47.260Z</when>
<when >2025-07-13T15:00:49.660Z</when>
<when >2025-07-13T15:00:52.130Z</when>
<when >2025-07-13T15:00:54.400Z</when>
<when >2025-07-13T15:00:55.960Z</when>
<when >2025-07-13T15:00:58.200Z</when>
<when >2025-07-13T15:01:00.330Z</when>
<when >2025-07-13T15:01:03.200Z</when>
<when >2025-07-13T15:01:06.130Z</when>
<when >2025-07-13T15:01:09.340Z</when>
<when >2025-07-13T15:01:12.160Z</when>
<when >2025-07-13T15:01:15.110Z</when>
<when >2025-07-13T15:01:17.370Z</when>
<when >2025-07-13T15:01:19.860Z</when>
<when >2025-07-13T15:01:21.900Z</when>
<when >2025-07-13T15:01:23.980Z</when>
<when >2025-07-13T15:01:25.950Z</when>
<when >2025-07-13T15:01:27.880Z</when>
<when >2025-07-13T15:01:29.710Z</when>
<when >2025-07-13T15:01:32.250Z</when>
<when >2025-07-13T15:01:34.590Z</when>
<when >2025-07-13T15:01:37.170Z</when>
<when >2025-07-13T15:01:41.670Z</when>
<when >2025-07-13T15:01:46.100Z</when>
<when >2025-07-13T15:01:50.220Z</when>
<when >2025-07-13T15:01:52.850Z</when>
<when >2025-07-13T15:01:55.900Z</when>
<when >2025-07-13T15:01:58.500Z</when>
<when >2025-07-13T15:02:01.560Z</when>
<when >2025-07-13T15:02:04.940Z</when>
<when >2025-07-13T15:02:07.960Z</when>
<when >2025-07-13T15:02:11.560Z</when>
<when >2025-07-13T15:02:15.190Z</when>
<when >2025-07-13T15:02:17.840Z</when>
<when >2025-07-13T15:02:19.650Z</when>
<when >2025-07-13T15:02:23.470Z</when>
<when >2025-07-13T15:02:25.870Z</when>
<when >2025-07-13T15:02:29.700Z</when>
<when >2025-07-13T15:02:34.670Z</when>
<when >2025-07-13T15:02:40.420Z</when>
<when >2025-07-13T15:02:46.070Z</when>
<when >2025-07-13T15:02:52.150Z</when>
<when >2025-07-13T15:02:53.690Z</when>
<when >2025-07-13T15:02:54.060Z</when>
<when >2025-07-13T15:03:01.610Z</when>
<when >2025-07-13T15:03:10.340Z</when>
<when >2025-07-13T15:03:16.970Z</when>
<when >2025-07-13T15:03:20.550Z</when>
<when >2025-07-13T15:03:21.460Z</when>
<when >2025-07-13T15:03:22.800Z</when>
<when >2025-07-13T15:03:27.160Z</when>
<when >2025-07-13T15:03:31.390Z</when>
<when >2025-07-13T15:03:36.320Z</when>
<when >2025-07-13T15:03:42.030Z</when>
<when >2025-07-13T15:03:46.910Z</when>
<when >2025-07-13T15:03:52.030Z</when>
<when >2025-07-13T15:03:56.560Z</when>
<when >2025-07-13T15:04:05.810Z</when>
<when >2025-07-13T15:04:14.480Z</when>
<when >2025-07-13T15:04:19.930Z</when>
<when >2025-07-13T15:04:25.550Z</when>
<when >2025-07-13T15:04:33.710Z</when>
<when >2025-07-13T15:04:43.240Z</when>
<when >2025-07-13T15:04:50.980Z</when>
<when >2025-07-13T15:05:02.570Z</when>
<when >2025-07-13T15:05:14.200Z</when>
<when >2025-07-13T15:05:25.710Z</when>
<when >2025-07-13T15:05:37.320Z</when>
<when >2025-07-13T15:05:44.070Z</when>
<when >2025-07-13T15:05:52.750Z</when>
<when >2025-07-13T15:06:04.670Z</when>
<when >2025-07-13T15:06:14.850Z</when>
<when >2025-07-13T15:06:21.910Z</when>
<when >2025-07-13T15:06:31.730Z</when>
<when >2025-07-13T15:06:40.770Z</when>
<when >2025-07-13T15:06:45.600Z</when>
<when >2025-07-13T15:06:46.560Z</when>
<when >2025-07-13T15:06:53.260Z</when>
<when >2025-07-13T15:06:58.920Z</when>
<when >2025-07-13T15:07:00.920Z</when>
<when >2025-07-13T15:07:04.650Z</when>
<when >2025-07-13T15:07:08.570Z</when>
<when >2025-07-13T15:07:12.450Z</when>
<when >2025-07-13T15:07:23.490Z</when>
<when >2025-07-13T15:07:35.010Z</when>
<when >2025-07-13T15:07:46.700Z</when>
<when >2025-07-13T15:07:58.420Z</when>
<when >2025-07-13T15:08:08.640Z</when>
<when >2025-07-13T15:08:23.390Z</when>
<when >2025-07-13T15:08:28.120Z</when>
<when >2025-07-13T15:08:37.430Z</when>
<when >2025-07-13T15:08:48.890Z</when>
<when >2025-07-13T15:09:02.280Z</when>
<when >2025-07-13T15:09:15.630Z</when>
<when >2025-07-13T15:09:28.200Z</when>
<when >2025-07-13T15:09:40.700Z</when>
<when >2025-07-13T15:09:53.320Z</when>
<when >2025-07-13T15:10:06.080Z</when>
<when >2025-07-13T15:10:19.290Z</when>
<when >2025-07-13T15:10:32.900Z</when>
<when >2025-07-13T15:10:39.180Z</when>
<when >2025-07-13T15:10:53.940Z</when>
<when >2025-07-13T15:11:06.870Z</when>
<when >2025-07-13T15:11:20.500Z</when>
<when >2025-07-13T15:11:35.390Z</when>
<when >2025-07-13T15:11:52.640Z</when>
<when >2025-07-13T15:12:04.560Z</when>
<when >2025-07-13T15:12:16.110Z</when>
<when >2025-07-13T15:12:25.290Z</when>
<when >2025-07-13T15:12:29.850Z</when>
<when >2025-07-13T15:12:47.840Z</when>
<when >2025-07-13T15:13:02.520Z</when>
<when >2025-07-13T15:13:16.760Z</when>
<when >2025-07-13T15:13:30.690Z</when>
<when >2025-07-13T15:13:44.180Z</when>
<when >2025-07-13T15:13:58.060Z</when>
<when >2025-07-13T15:14:12.620Z</when>
<when >2025-07-13T15:14:27.890Z</when>
<when >2025-07-13T15:14:44.050Z</when>
<when >2025-07-13T15:14:50.590Z</when>
<when >2025-07-13T15:14:55.380Z</when>
<when >2025-07-13T15:15:02.600Z</when>
<when >2025-07-13T15:15:16.210Z</when>
<when >2025-07-13T15:15:28.930Z</when>
<when >2025-07-13T15:15:46.300Z</when>
<when >2025-07-13T15:16:04.090Z</when>
<when >2025-07-13T15:16:20.270Z</when>
<when >2025-07-13T15:16:37.920Z</when>
<when >2025-07-13T15:16:57.880Z</when>
<when >2025-07-13T15:17:15.780Z</when>
<when >2025-07-13T15:17:35.650Z</when>
<when >2025-07-13T15:17:52.680Z</when>
<when >2025-07-13T15:18:10.250Z</when>
<when >2025-07-13T15:18:25.050Z</when>
<when >2025-07-13T15:18:30.820Z</when>
<when >2025-07-13T15:18:38.540Z</when>
<when >2025-07-13T15:18:48.950Z</when>
<when >2025-07-13T15:19:08.870Z</when>
<when >2025-07-13T15:19:28.670Z</when>
<when >2025-07-13T15:19:48.490Z</when>
<when >2025-07-13T15:20:07.520Z</when>
<when >2025-07-13T15:20:14.570Z</when>
<when >2025-07-13T15:20:20.420Z</when>
<when >2025-07-13T15:20:40.170Z</when>
<when >2025-07-13T15:21:00.100Z</when>
<when >2025-07-13T15:21:20.070Z</when>
<when >2025-07-13T15:21:39.770Z</when>
<when >2025-07-13T15:21:59.620Z</when>
<when >2025-07-13T15:22:19.230Z</when>
<when >2025-07-13T15:22:39.220Z</when>
<when >2025-07-13T15:22:59.200Z</when>
<when >2025-07-13T15:23:19.130Z</when>
<when >2025-07-13T15:23:39.010Z</when>
<when >2025-07-13T15:23:58.780Z</when>
<when >2025-07-13T15:24:18.600Z</when>
<when >2025-07-13T15:24:38.170Z</when>
<when >2025-07-13T15:24:58.010Z</when>
<when >2025-07-13T15:25:17.790Z</when>
<when >2025-07-13T15:25:37.640Z</when>
<when >2025-07-13T15:25:57.160Z</when>
<when >2025-07-13T15:26:16.900Z</when>
<when >2025-07-13T15:26:36.720Z</when>
<when >2025-07-13T15:26:48.770Z</when>
<when >2025-07-13T15:27:06.720Z</when>
<when >2025-07-13T15:27:26.710Z</when>
<when >2025-07-13T15:27:44.860Z</when>
<when >2025-07-13T15:28:01.040Z</when>
<when >2025-07-13T15:28:17.470Z</when>
<when >2025-07-13T15:28:33.690Z</when>
<when >2025-07-13T15:28:49.850Z</when>
<when >2025-07-13T15:28:58.350Z</when>
<when >2025-07-13T15:29:12.780Z</when>
<when >2025-07-13T15:29:32.540Z</when>
<when >2025-07-13T15:29:52.280Z</when>
<when >2025-07-13T15:30:12.130Z</when>
<when >2025-07-13T15:30:31.890Z</when>
<when >2025-07-13T15:30:51.410Z</when>
<when >2025-07-13T15:31:11.170Z</when>
<when >2025-07-13T15:31:30.720Z</when>
<when >2025-07-13T15:31:50.360Z</when>
<when >2025-07-13T15:32:10.330Z</when>
<when >2025-07-13T15:32:30.100Z</when>
<when >2025-07-13T15:32:50.040Z</when>
<when >2025-07-13T15:33:09.470Z</when>
<when >2025-07-13T15:33:29.470Z</when>
<when >2025-07-13T15:33:49.080Z</when>
<when >2025-07-13T15:34:08.870Z</when>
<when >2025-07-13T15:34:28.790Z</when>
<when >2025-07-13T15:34:47.880Z</when>
<when >2025-07-13T15:35:07.600Z</when>
<when >2025-07-13T15:35:27.390Z</when>
<when >2025-07-13T15:35:46.730Z</when>
<when >2025-07-13T15:36:06.620Z</when>
<when >2025-07-13T15:36:26.020Z</when>
<when >2025-07-13T15:36:45.850Z</when>
<when >2025-07-13T15:37:05.480Z</when>
<when >2025-07-13T15:37:24.770Z</when>
<when >2025-07-13T15:37:44.210Z</when>
<when >2025-07-13T15:38:04.110Z</when>
<when >2025-07-13T15:38:24.000Z</when>
<when >2025-07-13T15:38:43.740Z</when>
<when >2025-07-13T15:39:03.610Z</when>
<when >2025-07-13T15:39:23.420Z</when>
<when >2025-07-13T15:39:42.760Z</when>
<when >2025-07-13T15:40:02.190Z</when>
<when >2025-07-13T15:40:22.060Z</when>
<when >2025-07-13T15:40:41.940Z</when>
<when >2025-07-13T15:41:01.480Z</when>
<when >2025-07-13T15:41:21.250Z</when>
<when >2025-07-13T15:41:40.710Z</when>
<when >2025-07-13T15:42:00.580Z</when>
<when >2025-07-13T15:42:20.200Z</when>
<when >2025-07-13T15:42:40.130Z</when>
<when >2025-07-13T15:42:55.900Z</when>
<when >2025-07-13T15:43:02.180Z</when>
<when >2025-07-13T15:43:12.680Z</when>
<when >2025-07-13T15:43:32.330Z</when>
<when >2025-07-13T15:43:51.710Z</when>
<when >2025-07-13T15:44:11.360Z</when>
<when >2025-07-13T15:44:31.250Z</when>
<when >2025-07-13T15:44:51.120Z</when>
<when >2025-07-13T15:45:10.830Z</when>
<when >2025-07-13T15:45:30.720Z</when>
<when >2025-07-13T15:45:48.230Z</when>
<when >2025-07-13T15:46:07.950Z</when>
<when >2025-07-13T15:46:27.610Z</when>
<when >2025-07-13T15:46:47.350Z</when>
<when >2025-07-13T15:47:07.340Z</when>
<when >2025-07-13T15:47:26.800Z</when>
<when >2025-07-13T15:47:46.430Z</when>
<when >2025-07-13T15:48:06.180Z</when>
<when >2025-07-13T15:48:25.660Z</when>
<when >2025-07-13T15:48:45.330Z</when>
<when >2025-07-13T15:49:05.300Z</when>
<when >2025-07-13T15:49:24.900Z</when>
<when >2025-07-13T15:49:44.530Z</when>
<when >2025-07-13T15:50:04.150Z</when>
<when >2025-07-13T15:50:24.000Z</when>
<when >2025-07-13T15:50:43.700Z</when>
<when >2025-07-13T15:51:03.350Z</when>
<when >2025-07-13T15:51:23.320Z</when>
<when >2025-07-13T15:51:43.130Z</when>
<when >2025-07-13T15:52:03.040Z</when>
<when >2025-07-13T15:52:22.830Z</when>
<when >2025-07-13T15:52:42.400Z</when>
<when >2025-07-13T15:53:02.230Z</when>
<when >2025-07-13T15:53:21.950Z</when>
<when >2025-07-13T15:53:41.650Z</when>
<when >2025-07-13T15:54:01.640Z</when>
<when >2025-07-13T15:54:21.410Z</when>
<when >2025-07-13T15:54:41.250Z</when>
<when >2025-07-13T15:55:01.010Z</when>
<when >2025-07-13T15:55:20.920Z</when>
<when >2025-07-13T15:55:40.750Z</when>
<when >2025-07-13T15:56:00.650Z</when>
<when >2025-07-13T15:56:20.250Z</when>
<when >2025-07-13T15:56:39.760Z</when>
<when >2025-07-13T15:56:59.240Z</when>
<when >2025-07-13T15:57:19.020Z</when>
<when >2025-07-13T15:57:38.580Z</when>
<when >2025-07-13T15:57:58.360Z</when>
<when >2025-07-13T15:58:17.890Z</when>
<when >2025-07-13T15:58:37.620Z</when>
<when >2025-07-13T15:58:57.410Z</when>
<when >2025-07-13T15:59:17.200Z</when>
<when >2025-07-13T15:59:36.890Z</when>
<when >2025-07-13T15:59:56.470Z</when>
<when >2025-07-13T16:00:16.240Z</when>
<when >2025-07-13T16:00:35.480Z</when>
<when >2025-07-13T16:00:55.380Z</when>
<when >2025-07-13T16:01:14.120Z</when>
<when >2025-07-13T16:01:33.910Z</when>
<when >2025-07-13T16:01:53.810Z</when>
<when >2025-07-13T16:02:13.150Z</when>
<when >2025-07-13T16:02:33.130Z</when>
<when >2025-07-13T16:02:52.250Z</when>
<when >2025-07-13T16:03:11.440Z</when>
<when >2025-07-13T16:03:31.350Z</when>
<when >2025-07-13T16:03:51.040Z</when>
<when >2025-07-13T16:04:10.320Z</when>
<when >2025-07-13T16:04:30.110Z</when>
<when >2025-07-13T16:04:50.040Z</when>
<when >2025-07-13T16:05:09.920Z</when>
<when >2025-07-13T16:05:29.760Z</when>
<when >2025-07-13T16:05:48.570Z</when>
<when >2025-07-13T16:06:07.860Z</when>
<when >2025-07-13T16:06:26.780Z</when>
<when >2025-07-13T16:06:46.170Z</when>
<when >2025-07-13T16:07:06.130Z</when>
<when >2025-07-13T16:07:24.970Z</when>
<when >2025-07-13T16:07:43.710Z</when>
<when >2025-07-13T16:08:03.550Z</when>
<when >2025-07-13T16:08:23.260Z</when>
<when >2025-07-13T16:08:42.490Z</when>
<when >2025-07-13T16:09:02.090Z</when>
<when >2025-07-13T16:09:21.620Z</when>
<when >2025-07-13T16:09:41.290Z</when>
<when >2025-07-13T16:10:00.780Z</when>
<when >2025-07-13T16:10:20.510Z</when>
<when >2025-07-13T16:10:40.130Z</when>
<when >2025-07-13T16:10:59.700Z</when>
<when >2025-07-13T16:11:19.670Z</when>
<when >2025-07-13T16:11:39.290Z</when>
<when >2025-07-13T16:11:58.880Z</when>
<when >2025-07-13T16:12:17.030Z</when>
<when >2025-07-13T16:12:36.980Z</when>
<when >2025-07-13T16:12:56.350Z</when>
<when >2025-07-13T16:13:15.410Z</when>
<when >2025-07-13T16:13:34.920Z</when>
<when >2025-07-13T16:13:54.740Z</when>
<when >2025-07-13T16:14:13.920Z</when>
<when >2025-07-13T16:14:33.790Z</when>
<when >2025-07-13T16:14:53.180Z</when>
<when >2025-07-13T16:15:13.170Z</when>
<when >2025-07-13T16:15:33.130Z</when>
<when >2025-07-13T16:15:52.960Z</when>
<when >2025-07-13T16:16:12.580Z</when>
<when >2025-07-13T16:16:32.210Z</when>
<when >2025-07-13T16:16:51.880Z</when>
<when >2025-07-13T16:17:11.880Z</when>
<when >2025-07-13T16:17:31.560Z</when>
<when >2025-07-13T16:17:51.400Z</when>
<when >2025-07-13T16:18:11.360Z</when>
<when >2025-07-13T16:18:31.250Z</when>
<when >2025-07-13T16:18:51.040Z</when>
<when >2025-07-13T16:19:10.640Z</when>
<when >2025-07-13T16:19:30.590Z</when>
<when >2025-07-13T16:19:50.080Z</when>
<when >2025-07-13T16:20:09.860Z</when>
<when >2025-07-13T16:20:29.580Z</when>
<when >2025-07-13T16:20:49.370Z</when>
<when >2025-07-13T16:21:09.090Z</when>
<when >2025-07-13T16:21:28.960Z</when>
<when >2025-07-13T16:21:48.710Z</when>
<when >2025-07-13T16:22:08.030Z</when>
<when >2025-07-13T16:22:27.790Z</when>
<when >2025-07-13T16:22:47.290Z</when>
<when >2025-07-13T16:23:07.250Z</when>
<when >2025-07-13T16:23:27.250Z</when>
<when >2025-07-13T16:23:47.070Z</when>
<when >2025-07-13T16:24:06.900Z</when>
<when >2025-07-13T16:24:26.390Z</when>
<when >2025-07-13T16:24:44.990Z</when>
<when >2025-07-13T16:25:04.960Z</when>
<when >2025-07-13T16:25:24.560Z</when>
<when >2025-07-13T16:25:44.050Z</when>
<when >2025-07-13T16:26:04.010Z</when>
<when >2025-07-13T16:26:23.920Z</when>
<when >2025-07-13T16:26:43.380Z</when>
<when >2025-07-13T16:26:52.810Z</when>
<when >2025-07-13T16:26:57.060Z</when>
<when >2025-07-13T16:27:02.000Z</when>
<when >2025-07-13T16:27:10.150Z</when>
<when >2025-07-13T16:27:16.500Z</when>
<when >2025-07-13T16:27:22.430Z</when>
<when >2025-07-13T16:27:29.930Z</when>
<when >2025-07-13T16:27:41.260Z</when>
<when >2025-07-13T16:27:52.710Z</when>
<when >2025-07-13T16:28:01.510Z</when>
<when >2025-07-13T16:28:04.670Z</when>
<when >2025-07-13T16:28:08.260Z</when>
<when >2025-07-13T16:28:11.750Z</when>
<when >2025-07-13T16:28:12.960Z</when>
<when >2025-07-13T16:28:17.780Z</when>
<when >2025-07-13T16:28:23.400Z</when>
<when >2025-07-13T16:28:30.190Z</when>
<when >2025-07-13T16:28:36.950Z</when>
<when >2025-07-13T16:28:44.590Z</when>
<when >2025-07-13T16:28:52.030Z</when>
<when >2025-07-13T16:28:56.870Z</when>
<when >2025-07-13T16:29:01.960Z</when>
<when >2025-07-13T16:29:08.980Z</when>
<when >2025-07-13T16:29:21.750Z</when>
<when >2025-07-13T16:29:35.100Z</when>
<when >2025-07-13T16:29:47.650Z</when>
<when >2025-07-13T16:30:00.410Z</when>
<when >2025-07-13T16:30:11.970Z</when>
<when >2025-07-13T16:30:17.040Z</when>
<when >2025-07-13T16:30:21.940Z</when>
<when >2025-07-13T16:30:26.570Z</when>
<when >2025-07-13T16:30:33.290Z</when>
<when >2025-07-13T16:30:47.000Z</when>
<when >2025-07-13T16:30:52.860Z</when>
<when >2025-07-13T16:31:03.830Z</when>
<when >2025-07-13T16:31:14.810Z</when>
<when >2025-07-13T16:31:21.960Z</when>
<when >2025-07-13T16:31:23.040Z</when>
<when >2025-07-13T16:31:37.960Z</when>
<when >2025-07-13T16:31:43.760Z</when>
<when >2025-07-13T16:31:48.320Z</when>
<when >2025-07-13T16:31:58.460Z</when>
<when >2025-07-13T16:32:07.860Z</when>
<when >2025-07-13T16:32:11.720Z</when>
<when >2025-07-13T16:32:22.570Z</when>
<when >2025-07-13T16:32:29.070Z</when>
<when >2025-07-13T16:32:29.620Z</when>
<when >2025-07-13T16:32:32.450Z</when>
<when >2025-07-13T16:32:41.700Z</when>
<when >2025-07-13T16:32:43.780Z</when>
<when >2025-07-13T16:32:54.700Z</when>
<when >2025-07-13T16:33:04.570Z</when>
<when >2025-07-13T16:33:16.110Z</when>
<when >2025-07-13T16:33:27.130Z</when>
<when >2025-07-13T16:33:37.340Z</when>
<when >2025-07-13T16:33:48.200Z</when>
<when >2025-07-13T16:33:59.760Z</when>
<when >2025-07-13T16:34:10.510Z</when>
<when >2025-07-13T16:34:21.040Z</when>
<when >2025-07-13T16:34:31.690Z</when>
<when >2025-07-13T16:34:35.310Z</when>
<when >2025-07-13T16:34:38.420Z</when>
<when >2025-07-13T16:34:52.150Z</when>
<when >2025-07-13T16:34:53.760Z</when>
<when >2025-07-13T16:34:55.520Z</when>
<when >2025-07-13T16:35:04.410Z</when>
<when >2025-07-13T16:35:13.890Z</when>
<when >2025-07-13T16:35:21.250Z</when>
<when >2025-07-13T16:35:33.050Z</when>
<when >2025-07-13T16:35:44.650Z</when>
<when >2025-07-13T16:35:54.780Z</when>
<when >2025-07-13T16:36:02.540Z</when>
<when >2025-07-13T16:36:15.030Z</when>
<when >2025-07-13T16:36:25.310Z</when>
<when >2025-07-13T16:36:36.690Z</when>
<when >2025-07-13T16:36:48.560Z</when>
<when >2025-07-13T16:37:00.570Z</when>
<when >2025-07-13T16:37:11.560Z</when>
<when >2025-07-13T16:37:23.210Z</when>
<when >2025-07-13T16:37:33.830Z</when>
<when >2025-07-13T16:37:46.150Z</when>
<when >2025-07-13T16:37:57.590Z</when>
<when >2025-07-13T16:38:08.760Z</when>
<when >2025-07-13T16:38:12.940Z</when>
<when >2025-07-13T16:38:15.100Z</when>
<when >2025-07-13T16:38:25.090Z</when>
<when >2025-07-13T16:38:32.330Z</when>
<when >2025-07-13T16:38:39.700Z</when>
<when >2025-07-13T16:38:43.700Z</when>
<when >2025-07-13T16:38:49.720Z</when>
<when >2025-07-13T16:38:55.250Z</when>
<when >2025-07-13T16:39:00.010Z</when>
<when >2025-07-13T16:39:07.500Z</when>
<when >2025-07-13T16:39:14.920Z</when>
<when >2025-07-13T16:39:22.210Z</when>
<when >2025-07-13T16:39:26.900Z</when>
<when >2025-07-13T16:39:28.320Z</when>
<when >2025-07-13T16:39:33.190Z</when>
<when >2025-07-13T16:39:37.440Z</when>
<when >2025-07-13T16:39:41.910Z</when>
<when >2025-07-13T16:39:47.170Z</when>
<when >2025-07-13T16:39:52.950Z</when>
<when >2025-07-13T16:39:59.580Z</when>
<when >2025-07-13T16:40:06.780Z</when>
<when >2025-07-13T16:40:14.350Z</when>
<when >2025-07-13T16:40:21.910Z</when>
<when >2025-07-13T16:40:29.200Z</when>
<when >2025-07-13T16:40:36.530Z</when>
<when >2025-07-13T16:40:42.620Z</when>
<when >2025-07-13T16:40:49.420Z</when>
<when >2025-07-13T16:40:56.650Z</when>
<when >2025-07-13T16:41:03.960Z</when>
<when >2025-07-13T16:41:11.320Z</when>
<when >2025-07-13T16:41:15.320Z</when>
<when >2025-07-13T16:41:21.390Z</when>
<when >2025-07-13T16:41:27.740Z</when>
<when >2025-07-13T16:41:34.190Z</when>
<when >2025-07-13T16:41:39.720Z</when>
<when >2025-07-13T16:41:46.370Z</when>
<when >2025-07-13T16:41:52.330Z</when>
<when >2025-07-13T16:41:58.240Z</when>
<when >2025-07-13T16:42:05.590Z</when>
<when >2025-07-13T16:42:14.080Z</when>
<when >2025-07-13T16:42:21.260Z</when>
<when >2025-07-13T16:42:26.380Z</when>
<when >2025-07-13T16:42:34.230Z</when>
<when >2025-07-13T16:42:41.920Z</when>
<when >2025-07-13T16:42:49.210Z</when>
<when >2025-07-13T16:42:54.430Z</when>
<when >2025-07-13T16:43:01.620Z</when>
<when >2025-07-13T16:43:07.850Z</when>
<when >2025-07-13T16:43:13.610Z</when>
<when >2025-07-13T16:43:18.910Z</when>
<when >2025-07-13T16:43:24.040Z</when>
<when >2025-07-13T16:43:29.160Z</when>
<when >2025-07-13T16:43:34.200Z</when>
<when >2025-07-13T16:43:39.180Z</when>
<when >2025-07-13T16:43:44.220Z</when>
<when >2025-07-13T16:43:50.160Z</when>
<when >2025-07-13T16:43:56.290Z</when>
<when >2025-07-13T16:44:03.500Z</when>
<when >2025-07-13T16:44:10.700Z</when>
<when >2025-07-13T16:44:17.520Z</when>
<when >2025-07-13T16:44:20.430Z</when>
<when >2025-07-13T16:44:24.210Z</when>
<when >2025-07-13T16:44:27.460Z</when>
<when >2025-07-13T16:44:31.800Z</when>
<when >2025-07-13T16:44:38.820Z</when>
<when >2025-07-13T16:44:46.230Z</when>
<when >2025-07-13T16:44:52.580Z</when>
<when >2025-07-13T16:44:58.980Z</when>
<when >2025-07-13T16:45:05.250Z</when>
<when >2025-07-13T16:45:13.610Z</when>
<when >2025-07-13T16:45:20.780Z</when>
<when >2025-07-13T16:45:26.710Z</when>
<when >2025-07-13T16:45:31.910Z</when>
<when >2025-07-13T16:45:38.300Z</when>
<when >2025-07-13T16:45:45.680Z</when>
<when >2025-07-13T16:45:53.920Z</when>
<when >2025-07-13T16:45:56.490Z</when>
<when >2025-07-13T16:45:59.530Z</when>
<when >2025-07-13T16:46:04.030Z</when>
<when >2025-07-13T16:46:10.830Z</when>
<when >2025-07-13T16:46:17.160Z</when>
<when >2025-07-13T16:46:22.500Z</when>
<when >2025-07-13T16:46:29.090Z</when>
<when >2025-07-13T16:46:34.800Z</when>
<when >2025-07-13T16:46:40.900Z</when>
<when >2025-07-13T16:46:47.520Z</when>
<when >2025-07-13T16:46:54.560Z</when>
<when >2025-07-13T16:47:01.560Z</when>
<when >2025-07-13T16:47:07.640Z</when>
<when >2025-07-13T16:47:13.990Z</when>
<when >2025-07-13T16:47:20.300Z</when>
<when >2025-07-13T16:47:27.690Z</when>
<when >2025-07-13T16:47:34.690Z</when>
<when >2025-07-13T16:47:42.420Z</when>
<when >2025-07-13T16:47:49.970Z</when>
<when >2025-07-13T16:47:53.250Z</when>
<when >2025-07-13T16:48:00.290Z</when>
<when >2025-07-13T16:48:07.910Z</when>
<when >2025-07-13T16:48:13.840Z</when>
<when >2025-07-13T16:48:18.970Z</when>
<when >2025-07-13T16:48:26.680Z</when>
<when >2025-07-13T16:48:35.500Z</when>
<when >2025-07-13T16:48:44.550Z</when>
<when >2025-07-13T16:48:52.890Z</when>
<when >2025-07-13T16:49:02.390Z</when>
<when >2025-07-13T16:49:09.490Z</when>
<when >2025-07-13T16:49:18.390Z</when>
<when >2025-07-13T16:49:27.190Z</when>
<when >2025-07-13T16:49:34.430Z</when>
<when >2025-07-13T16:49:43.390Z</when>
<when >2025-07-13T16:49:52.090Z</when>
<when >2025-07-13T16:50:00.850Z</when>
<when >2025-07-13T16:50:11.180Z</when>
<when >2025-07-13T16:50:14.180Z</when>
<when >2025-07-13T16:50:16.440Z</when>
<when >2025-07-13T16:50:16.440Z</when>
<gx:coord >-0.37384 51.873717 166</gx:coord>
<gx:coord >-0.372467 51.87395 166</gx:coord>
<gx:coord >-0.370937 51.874237 166</gx:coord>
<gx:coord >-0.367597 51.874786 166</gx:coord>
<gx:coord >-0.365143 51.875207 166</gx:coord>
<gx:coord >-0.360248 51.876068 182</gx:coord>
<gx:coord >-0.357742 51.87651 174</gx:coord>
<gx:coord >-0.353493 51.877258 220</gx:coord>
<gx:coord >-0.350647 51.877814 250</gx:coord>
<gx:coord >-0.347366 51.878419 281</gx:coord>
<gx:coord >-0.34462 51.878931 311</gx:coord>
<gx:coord >-0.34169 51.879501 349</gx:coord>
<gx:coord >-0.338821 51.880002 372</gx:coord>
<gx:coord >-0.3359 51.880554 403</gx:coord>
<gx:coord >-0.333023 51.881072 433</gx:coord>
<gx:coord >-0.330124 51.881631 464</gx:coord>
<gx:coord >-0.327586 51.882065 502</gx:coord>
<gx:coord >-0.324402 51.882655 540</gx:coord>
<gx:coord >-0.321045 51.88326 570</gx:coord>
<gx:coord >-0.320534 51.883347 570</gx:coord>
<gx:coord >-0.319865 51.883484 578</gx:coord>
<gx:coord >-0.314595 51.884445 608</gx:coord>
<gx:coord >-0.309621 51.885315 631</gx:coord>
<gx:coord >-0.305613 51.886002 662</gx:coord>
<gx:coord >-0.300788 51.88678 685</gx:coord>
<gx:coord >-0.296928 51.887421 700</gx:coord>
<gx:coord >-0.291672 51.888288 738</gx:coord>
<gx:coord >-0.287129 51.889023 768</gx:coord>
<gx:coord >-0.282081 51.889801 799</gx:coord>
<gx:coord >-0.2771 51.890616 829</gx:coord>
<gx:coord >-0.271378 51.8915 867</gx:coord>
<gx:coord >-0.266493 51.892319 898</gx:coord>
<gx:coord >-0.260544 51.893316 928</gx:coord>
<gx:coord >-0.254059 51.894379 959</gx:coord>
<gx:coord >-0.247899 51.895411 989</gx:coord>
<gx:coord >-0.242013 51.896342 1027</gx:coord>
<gx:coord >-0.235735 51.896993 1051</gx:coord>
<gx:coord >-0.231171 51.897125 1074</gx:coord>
<gx:coord >-0.226632 51.896947 1097</gx:coord>
<gx:coord >-0.223572 51.896667 1112</gx:coord>
<gx:coord >-0.220184 51.896164 1135</gx:coord>
<gx:coord >-0.216352 51.895364 1158</gx:coord>
<gx:coord >-0.211868 51.894058 1166</gx:coord>
<gx:coord >-0.208435 51.892757 1188</gx:coord>
<gx:coord >-0.204657 51.890945 1204</gx:coord>
<gx:coord >-0.201243 51.888977 1211</gx:coord>
<gx:coord >-0.197531 51.886414 1242</gx:coord>
<gx:coord >-0.193634 51.883121 1249</gx:coord>
<gx:coord >-0.191741 51.881287 1272</gx:coord>
<gx:coord >-0.189514 51.878952 1280</gx:coord>
<gx:coord >-0.188698 51.877991 1288</gx:coord>
<gx:coord >-0.18699 51.875931 1295</gx:coord>
<gx:coord >-0.185728 51.874329 1303</gx:coord>
<gx:coord >-0.183868 51.871762 1326</gx:coord>
<gx:coord >-0.182037 51.869015 1341</gx:coord>
<gx:coord >-0.181046 51.867526 1348</gx:coord>
<gx:coord >-0.179047 51.864258 1387</gx:coord>
<gx:coord >-0.176672 51.860229 1417</gx:coord>
<gx:coord >-0.174668 51.856476 1440</gx:coord>
<gx:coord >-0.172589 51.852631 1470</gx:coord>
<gx:coord >-0.170517 51.848719 1508</gx:coord>
<gx:coord >-0.169067 51.845879 1539</gx:coord>
<gx:coord >-0.167616 51.843018 1562</gx:coord>
<gx:coord >-0.166576 51.841003 1592</gx:coord>
<gx:coord >-0.165253 51.838524 1630</gx:coord>
<gx:coord >-0.163803 51.835824 1646</gx:coord>
<gx:coord >-0.162494 51.833221 1684</gx:coord>
<gx:coord >-0.160786 51.830109 1714</gx:coord>
<gx:coord >-0.158691 51.826374 1760</gx:coord>
<gx:coord >-0.156555 51.822601 1783</gx:coord>
<gx:coord >-0.154495 51.819158 1813</gx:coord>
<gx:coord >-0.152472 51.815735 1844</gx:coord>
<gx:coord >-0.150914 51.813263 1874</gx:coord>
<gx:coord >-0.149132 51.810287 1897</gx:coord>
<gx:coord >-0.147476 51.807799 1935</gx:coord>
<gx:coord >-0.14594 51.805252 1966</gx:coord>
<gx:coord >-0.144424 51.802911 1996</gx:coord>
<gx:coord >-0.142896 51.800583 2034</gx:coord>
<gx:coord >-0.141449 51.798442 2057</gx:coord>
<gx:coord >-0.139408 51.795319 2088</gx:coord>
<gx:coord >-0.137626 51.792618 2118</gx:coord>
<gx:coord >-0.135574 51.78969 2149</gx:coord>
<gx:coord >-0.131836 51.784149 2217</gx:coord>
<gx:coord >-0.127976 51.778839 2278</gx:coord>
<gx:coord >-0.123978 51.774142 2331</gx:coord>
<gx:coord >-0.120924 51.771149 2377</gx:coord>
<gx:coord >-0.117064 51.76799 2408</gx:coord>
<gx:coord >-0.113373 51.765437 2453</gx:coord>
<gx:coord >-0.10849 51.762597 2484</gx:coord>
<gx:coord >-0.102663 51.759888 2537</gx:coord>
<gx:coord >-0.097021 51.757828 2583</gx:coord>
<gx:coord >-0.089951 51.755847 2629</gx:coord>
<gx:coord >-0.082249 51.754211 2674</gx:coord>
<gx:coord >-0.07683 51.753433 2690</gx:coord>
<gx:coord >-0.072632 51.753007 2720</gx:coord>
<gx:coord >-0.064011 51.752635 2751</gx:coord>
<gx:coord >-0.058746 51.752728 2781</gx:coord>
<gx:coord >-0.049973 51.753287 2819</gx:coord>
<gx:coord >-0.038834 51.75445 2880</gx:coord>
<gx:coord >-0.025864 51.75594 2941</gx:coord>
<gx:coord >-0.012894 51.757383 3002</gx:coord>
<gx:coord >0.001373 51.758873 3071</gx:coord>
<gx:coord >0.004751 51.759201 3078</gx:coord>
<gx:coord >0.005798 51.759292 3078</gx:coord>
<gx:coord >0.023804 51.760968 3132</gx:coord>
<gx:coord >0.044688 51.762726 3177</gx:coord>
<gx:coord >0.060276 51.764008 3223</gx:coord>
<gx:coord >0.068961 51.764648 3276</gx:coord>
<gx:coord >0.071335 51.764832 3284</gx:coord>
<gx:coord >0.074615 51.765111 3307</gx:coord>
<gx:coord >0.084996 51.765884 3368</gx:coord>
<gx:coord >0.095062 51.766647 3429</gx:coord>
<gx:coord >0.107346 51.767578 3497</gx:coord>
<gx:coord >0.120468 51.768602 3551</gx:coord>
<gx:coord >0.133321 51.769592 3619</gx:coord>
<gx:coord >0.145792 51.770554 3688</gx:coord>
<gx:coord >0.157149 51.771469 3749</gx:coord>
<gx:coord >0.180283 51.773351 3878</gx:coord>
<gx:coord >0.20154 51.775269 3993</gx:coord>
<gx:coord >0.215347 51.776962 4076</gx:coord>
<gx:coord >0.229006 51.779022 4168</gx:coord>
<gx:coord >0.248825 51.782318 4290</gx:coord>
<gx:coord >0.27154 51.786072 4419</gx:coord>
<gx:coord >0.290618 51.789139 4511</gx:coord>
<gx:coord >0.319519 51.79374 4625</gx:coord>
<gx:coord >0.348663 51.798349 4732</gx:coord>
<gx:coord >0.378138 51.802917 4854</gx:coord>
<gx:coord >0.40802 51.807566 4960</gx:coord>
<gx:coord >0.426017 51.810379 5014</gx:coord>
<gx:coord >0.449178 51.813995 5067</gx:coord>
<gx:coord >0.481796 51.819158 5136</gx:coord>
<gx:coord >0.509973 51.823563 5212</gx:coord>
<gx:coord >0.529868 51.826675 5273</gx:coord>
<gx:coord >0.55763 51.831024 5410</gx:coord>
<gx:coord >0.582795 51.834961 5532</gx:coord>
<gx:coord >0.596313 51.837034 5616</gx:coord>
<gx:coord >0.59906 51.837453 5631</gx:coord>
<gx:coord >0.617294 51.840293 5776</gx:coord>
<gx:coord >0.632782 51.842667 5890</gx:coord>
<gx:coord >0.638395 51.843521 5913</gx:coord>
<gx:coord >0.64849 51.845078 5989</gx:coord>
<gx:coord >0.658883 51.846725 6042</gx:coord>
<gx:coord >0.66883 51.848236 6096</gx:coord>
<gx:coord >0.699042 51.852905 6211</gx:coord>
<gx:coord >0.730368 51.857712 6325</gx:coord>
<gx:coord >0.761795 51.862591 6432</gx:coord>
<gx:coord >0.793762 51.867526 6546</gx:coord>
<gx:coord >0.821822 51.871857 6615</gx:coord>
<gx:coord >0.863342 51.878279 6706</gx:coord>
<gx:coord >0.876694 51.880328 6737</gx:coord>
<gx:coord >0.902735 51.884308 6821</gx:coord>
<gx:coord >0.935287 51.889266 6943</gx:coord>
<gx:coord >0.97374 51.895157 7034</gx:coord>
<gx:coord >1.011527 51.900904 7133</gx:coord>
<gx:coord >1.048355 51.906418 7232</gx:coord>
<gx:coord >1.084743 51.91189 7331</gx:coord>
<gx:coord >1.121783 51.917476 7445</gx:coord>
<gx:coord >1.158981 51.923126 7552</gx:coord>
<gx:coord >1.197588 51.928928 7651</gx:coord>
<gx:coord >1.237946 51.934982 7743</gx:coord>
<gx:coord >1.256601 51.937773 7781</gx:coord>
<gx:coord >1.300735 51.944412 7857</gx:coord>
<gx:coord >1.339469 51.950156 7964</gx:coord>
<gx:coord >1.380589 51.956301 8063</gx:coord>
<gx:coord >1.426086 51.963043 8147</gx:coord>
<gx:coord >1.479466 51.970918 8230</gx:coord>
<gx:coord >1.516192 51.976272 8299</gx:coord>
<gx:coord >1.55174 51.981486 8406</gx:coord>
<gx:coord >1.580305 51.985675 8489</gx:coord>
<gx:coord >1.594467 51.987717 8520</gx:coord>
<gx:coord >1.650225 51.995917 8596</gx:coord>
<gx:coord >1.69676 52.002667 8688</gx:coord>
<gx:coord >1.74202 52.009232 8779</gx:coord>
<gx:coord >1.78622 52.015608 8878</gx:coord>
<gx:coord >1.828988 52.021753 8969</gx:coord>
<gx:coord >1.873627 52.028183 9061</gx:coord>
<gx:coord >1.919556 52.034775 9152</gx:coord>
<gx:coord >1.969299 52.041864 9236</gx:coord>
<gx:coord >2.021408 52.049103 9312</gx:coord>
<gx:coord >2.042829 52.051361 9343</gx:coord>
<gx:coord >2.058838 52.052617 9367</gx:coord>
<gx:coord >2.082977 52.053818 9405</gx:coord>
<gx:coord >2.129229 52.05583 9496</gx:coord>
<gx:coord >2.171997 52.057738 9572</gx:coord>
<gx:coord >2.231088 52.060531 9656</gx:coord>
<gx:coord >2.29187 52.063522 9725</gx:coord>
<gx:coord >2.3477 52.066211 9809</gx:coord>
<gx:coord >2.407261 52.06905 9885</gx:coord>
<gx:coord >2.477722 52.072357 9946</gx:coord>
<gx:coord >2.54097 52.075333 10014</gx:coord>
<gx:coord >2.611372 52.078594 10083</gx:coord>
<gx:coord >2.672195 52.081329 10167</gx:coord>
<gx:coord >2.733712 52.08404 10243</gx:coord>
<gx:coord >2.787545 52.086601 10312</gx:coord>
<gx:coord >2.808419 52.088183 10342</gx:coord>
<gx:coord >2.835388 52.09108 10350</gx:coord>
<gx:coord >2.871355 52.095632 10357</gx:coord>
<gx:coord >2.939529 52.104218 10357</gx:coord>
<gx:coord >3.007507 52.112274 10350</gx:coord>
<gx:coord >3.075027 52.120239 10350</gx:coord>
<gx:coord >3.140834 52.127706 10350</gx:coord>
<gx:coord >3.165207 52.129715 10350</gx:coord>
<gx:coord >3.186188 52.130768 10350</gx:coord>
<gx:coord >3.256073 52.133286 10350</gx:coord>
<gx:coord >3.326187 52.136032 10350</gx:coord>
<gx:coord >3.396225 52.138962 10342</gx:coord>
<gx:coord >3.466797 52.141846 10342</gx:coord>
<gx:coord >3.537292 52.144638 10342</gx:coord>
<gx:coord >3.606576 52.147398 10342</gx:coord>
<gx:coord >3.677368 52.150131 10342</gx:coord>
<gx:coord >3.748016 52.152924 10342</gx:coord>
<gx:coord >3.819475 52.155638 10342</gx:coord>
<gx:coord >3.890228 52.158325 10335</gx:coord>
<gx:coord >3.961042 52.160945 10335</gx:coord>
<gx:coord >4.031677 52.163544 10335</gx:coord>
<gx:coord >4.101334 52.16597 10335</gx:coord>
<gx:coord >4.172058 52.168396 10328</gx:coord>
<gx:coord >4.242214 52.170907 10328</gx:coord>
<gx:coord >4.312439 52.17334 10328</gx:coord>
<gx:coord >4.381975 52.175608 10328</gx:coord>
<gx:coord >4.452362 52.177872 10328</gx:coord>
<gx:coord >4.522836 52.180078 10343</gx:coord>
<gx:coord >4.56665 52.181442 10381</gx:coord>
<gx:coord >4.631119 52.183365 10457</gx:coord>
<gx:coord >4.703639 52.185617 10503</gx:coord>
<gx:coord >4.769793 52.187572 10579</gx:coord>
<gx:coord >4.828805 52.189248 10663</gx:coord>
<gx:coord >4.888759 52.190831 10732</gx:coord>
<gx:coord >4.948085 52.19246 10808</gx:coord>
<gx:coord >5.007095 52.194168 10892</gx:coord>
<gx:coord >5.038487 52.195114 10922</gx:coord>
<gx:coord >5.090866 52.196548 10930</gx:coord>
<gx:coord >5.163193 52.198471 10937</gx:coord>
<gx:coord >5.235367 52.200394 10937</gx:coord>
<gx:coord >5.307922 52.202133 10937</gx:coord>
<gx:coord >5.380402 52.203964 10930</gx:coord>
<gx:coord >5.452347 52.205795 10937</gx:coord>
<gx:coord >5.524902 52.207443 10930</gx:coord>
<gx:coord >5.596749 52.208986 10930</gx:coord>
<gx:coord >5.669098 52.210602 10930</gx:coord>
<gx:coord >5.742554 52.212245 10930</gx:coord>
<gx:coord >5.81577 52.213828 10930</gx:coord>
<gx:coord >5.8893 52.215364 10930</gx:coord>
<gx:coord >5.961025 52.216714 10922</gx:coord>
<gx:coord >6.034088 52.218018 10922</gx:coord>
<gx:coord >6.106567 52.219299 10922</gx:coord>
<gx:coord >6.179496 52.220625 10922</gx:coord>
<gx:coord >6.253026 52.221881 10922</gx:coord>
<gx:coord >6.32326 52.223092 10922</gx:coord>
<gx:coord >6.395645 52.224243 10922</gx:coord>
<gx:coord >6.468964 52.225388 10921</gx:coord>
<gx:coord >6.540833 52.226349 10914</gx:coord>
<gx:coord >6.613998 52.227264 10914</gx:coord>
<gx:coord >6.685573 52.228213 10914</gx:coord>
<gx:coord >6.758397 52.22919 10914</gx:coord>
<gx:coord >6.831589 52.230148 10914</gx:coord>
<gx:coord >6.903024 52.231052 10914</gx:coord>
<gx:coord >6.975141 52.23189 10914</gx:coord>
<gx:coord >7.049142 52.232682 10914</gx:coord>
<gx:coord >7.122421 52.233398 10914</gx:coord>
<gx:coord >7.195282 52.234131 10906</gx:coord>
<gx:coord >7.268633 52.234776 10906</gx:coord>
<gx:coord >7.341614 52.235275 10906</gx:coord>
<gx:coord >7.41326 52.235801 10906</gx:coord>
<gx:coord >7.485657 52.236237 10906</gx:coord>
<gx:coord >7.558441 52.236694 10906</gx:coord>
<gx:coord >7.632908 52.237197 10906</gx:coord>
<gx:coord >7.705612 52.237518 10906</gx:coord>
<gx:coord >7.778854 52.237747 10906</gx:coord>
<gx:coord >7.851334 52.237976 10898</gx:coord>
<gx:coord >7.925262 52.238205 10898</gx:coord>
<gx:coord >7.998199 52.238434 10898</gx:coord>
<gx:coord >8.072128 52.238571 10898</gx:coord>
<gx:coord >8.130798 52.238983 10898</gx:coord>
<gx:coord >8.153739 52.239851 10898</gx:coord>
<gx:coord >8.191986 52.242371 10898</gx:coord>
<gx:coord >8.264542 52.247223 10898</gx:coord>
<gx:coord >8.336033 52.251489 10898</gx:coord>
<gx:coord >8.407669 52.255554 10898</gx:coord>
<gx:coord >8.479843 52.259674 10898</gx:coord>
<gx:coord >8.552386 52.263872 10891</gx:coord>
<gx:coord >8.624344 52.268005 10898</gx:coord>
<gx:coord >8.697433 52.272171 10891</gx:coord>
<gx:coord >8.762131 52.275787 10891</gx:coord>
<gx:coord >8.833557 52.279746 10891</gx:coord>
<gx:coord >8.905675 52.283749 10891</gx:coord>
<gx:coord >8.977713 52.287799 10891</gx:coord>
<gx:coord >9.050773 52.29171 10891</gx:coord>
<gx:coord >9.12178 52.29538 10891</gx:coord>
<gx:coord >9.193359 52.299018 10891</gx:coord>
<gx:coord >9.266129 52.30275 10891</gx:coord>
<gx:coord >9.337311 52.306412 10892</gx:coord>
<gx:coord >9.410104 52.310098 10892</gx:coord>
<gx:coord >9.483261 52.313736 10892</gx:coord>
<gx:coord >9.555893 52.317352 10892</gx:coord>
<gx:coord >9.627712 52.320805 10892</gx:coord>
<gx:coord >9.699936 52.32431 10892</gx:coord>
<gx:coord >9.772967 52.327695 10892</gx:coord>
<gx:coord >9.845047 52.330948 10884</gx:coord>
<gx:coord >9.917068 52.334244 10884</gx:coord>
<gx:coord >9.990082 52.337585 10884</gx:coord>
<gx:coord >10.061646 52.340927 10884</gx:coord>
<gx:coord >10.134181 52.344174 10884</gx:coord>
<gx:coord >10.205671 52.347386 10884</gx:coord>
<gx:coord >10.276219 52.350505 10884</gx:coord>
<gx:coord >10.347709 52.353578 10884</gx:coord>
<gx:coord >10.419312 52.356583 10884</gx:coord>
<gx:coord >10.491562 52.359421 10884</gx:coord>
<gx:coord >10.56366 52.362305 10884</gx:coord>
<gx:coord >10.635786 52.365169 10884</gx:coord>
<gx:coord >10.708084 52.367935 10884</gx:coord>
<gx:coord >10.779114 52.370728 10884</gx:coord>
<gx:coord >10.851039 52.373502 10884</gx:coord>
<gx:coord >10.92186 52.376221 10884</gx:coord>
<gx:coord >10.993469 52.378995 10884</gx:coord>
<gx:coord >11.063461 52.381622 10884</gx:coord>
<gx:coord >11.133702 52.384116 10884</gx:coord>
<gx:coord >11.204093 52.386537 10884</gx:coord>
<gx:coord >11.275711 52.388992 10876</gx:coord>
<gx:coord >11.345581 52.391332 10885</gx:coord>
<gx:coord >11.412354 52.393478 10877</gx:coord>
<gx:coord >11.484166 52.395801 10877</gx:coord>
<gx:coord >11.555185 52.398128 10877</gx:coord>
<gx:coord >11.625419 52.400502 10877</gx:coord>
<gx:coord >11.696167 52.402679 10877</gx:coord>
<gx:coord >11.767044 52.404877 10877</gx:coord>
<gx:coord >11.83769 52.407113 10877</gx:coord>
<gx:coord >11.906967 52.409134 10877</gx:coord>
<gx:coord >11.976981 52.411116 10877</gx:coord>
<gx:coord >12.047686 52.413071 10878</gx:coord>
<gx:coord >12.111053 52.414856 10878</gx:coord>
<gx:coord >12.185407 52.416796 10878</gx:coord>
<gx:coord >12.256348 52.418518 10878</gx:coord>
<gx:coord >12.325797 52.420194 10878</gx:coord>
<gx:coord >12.396816 52.422009 10878</gx:coord>
<gx:coord >12.465057 52.423737 10871</gx:coord>
<gx:coord >12.533282 52.425408 10871</gx:coord>
<gx:coord >12.605164 52.427084 10871</gx:coord>
<gx:coord >12.675476 52.42862 10871</gx:coord>
<gx:coord >12.745082 52.43011 10871</gx:coord>
<gx:coord >12.814767 52.431599 10872</gx:coord>
<gx:coord >12.887198 52.433135 10872</gx:coord>
<gx:coord >12.958069 52.434586 10872</gx:coord>
<gx:coord >13.029236 52.436022 10872</gx:coord>
<gx:coord >13.096237 52.437378 10872</gx:coord>
<gx:coord >13.164902 52.43866 10872</gx:coord>
<gx:coord >13.231888 52.43985 10872</gx:coord>
<gx:coord >13.297424 52.440903 10872</gx:coord>
<gx:coord >13.371811 52.442184 10872</gx:coord>
<gx:coord >13.439418 52.443284 10872</gx:coord>
<gx:coord >13.506165 52.44429 10872</gx:coord>
<gx:coord >13.576983 52.445286 10872</gx:coord>
<gx:coord >13.648629 52.44631 10873</gx:coord>
<gx:coord >13.717728 52.447357 10873</gx:coord>
<gx:coord >13.787606 52.448405 10873</gx:coord>
<gx:coord >13.858154 52.449429 10873</gx:coord>
<gx:coord >13.928074 52.45036 10873</gx:coord>
<gx:coord >13.998184 52.451157 10873</gx:coord>
<gx:coord >14.069138 52.451889 10865</gx:coord>
<gx:coord >14.139557 52.452576 10865</gx:coord>
<gx:coord >14.210281 52.453262 10865</gx:coord>
<gx:coord >14.282619 52.453851 10865</gx:coord>
<gx:coord >14.35318 52.454361 10866</gx:coord>
<gx:coord >14.424133 52.454819 10866</gx:coord>
<gx:coord >14.489441 52.455276 10866</gx:coord>
<gx:coord >14.561515 52.455806 10866</gx:coord>
<gx:coord >14.631984 52.456365 10866</gx:coord>
<gx:coord >14.69955 52.456691 10866</gx:coord>
<gx:coord >14.770804 52.456784 10866</gx:coord>
<gx:coord >14.841588 52.456924 10866</gx:coord>
<gx:coord >14.910049 52.457336 10866</gx:coord>
<gx:coord >14.982681 52.457748 10866</gx:coord>
<gx:coord >15.053545 52.457948 10866</gx:coord>
<gx:coord >15.125898 52.458134 10866</gx:coord>
<gx:coord >15.197678 52.458344 10874</gx:coord>
<gx:coord >15.269775 52.458389 10874</gx:coord>
<gx:coord >15.340288 52.458506 10875</gx:coord>
<gx:coord >15.411072 52.458527 10875</gx:coord>
<gx:coord >15.481873 52.458481 10867</gx:coord>
<gx:coord >15.553665 52.458435 10867</gx:coord>
<gx:coord >15.624363 52.458134 10875</gx:coord>
<gx:coord >15.69519 52.45784 10875</gx:coord>
<gx:coord >15.767899 52.457565 10875</gx:coord>
<gx:coord >15.839539 52.45725 10875</gx:coord>
<gx:coord >15.910243 52.456877 10876</gx:coord>
<gx:coord >15.980759 52.456421 10876</gx:coord>
<gx:coord >16.052438 52.455993 10876</gx:coord>
<gx:coord >16.12228 52.455574 10876</gx:coord>
<gx:coord >16.192906 52.455015 10876</gx:coord>
<gx:coord >16.263454 52.454456 10876</gx:coord>
<gx:coord >16.333374 52.453944 10876</gx:coord>
<gx:coord >16.404393 52.453339 10876</gx:coord>
<gx:coord >16.475176 52.452687 10877</gx:coord>
<gx:coord >16.545944 52.451981 10877</gx:coord>
<gx:coord >16.615219 52.451202 10877</gx:coord>
<gx:coord >16.685257 52.450424 10877</gx:coord>
<gx:coord >16.755484 52.449662 10877</gx:coord>
<gx:coord >16.82579 52.448776 10877</gx:coord>
<gx:coord >16.896659 52.447846 10877</gx:coord>
<gx:coord >16.966934 52.446899 10877</gx:coord>
<gx:coord >17.038382 52.445844 10877</gx:coord>
<gx:coord >17.107832 52.444774 10877</gx:coord>
<gx:coord >17.173593 52.443842 10878</gx:coord>
<gx:coord >17.245239 52.442632 10878</gx:coord>
<gx:coord >17.31514 52.441498 10878</gx:coord>
<gx:coord >17.384216 52.440351 10878</gx:coord>
<gx:coord >17.455139 52.439026 10878</gx:coord>
<gx:coord >17.524057 52.437744 10878</gx:coord>
<gx:coord >17.594369 52.436441 10878</gx:coord>
<gx:coord >17.628584 52.435789 10870</gx:coord>
<gx:coord >17.643023 52.43551 10855</gx:coord>
<gx:coord >17.660828 52.435181 10826</gx:coord>
<gx:coord >17.689438 52.435181 10772</gx:coord>
<gx:coord >17.711716 52.435867 10719</gx:coord>
<gx:coord >17.732875 52.437046 10658</gx:coord>
<gx:coord >17.759478 52.43928 10589</gx:coord>
<gx:coord >17.798309 52.442963 10467</gx:coord>
<gx:coord >17.837372 52.446579 10361</gx:coord>
<gx:coord >17.867966 52.449188 10246</gx:coord>
<gx:coord >17.878993 52.450127 10193</gx:coord>
<gx:coord >17.890701 52.451065 10124</gx:coord>
<gx:coord >17.902679 52.452026 10056</gx:coord>
<gx:coord >17.906145 52.452315 10041</gx:coord>
<gx:coord >17.924042 52.453812 9926</gx:coord>
<gx:coord >17.943954 52.45546 9797</gx:coord>
<gx:coord >17.966649 52.457203 9675</gx:coord>
<gx:coord >17.991211 52.459065 9561</gx:coord>
<gx:coord >18.017421 52.46102 9423</gx:coord>
<gx:coord >18.044102 52.463022 9309</gx:coord>
<gx:coord >18.060817 52.464279 9233</gx:coord>
<gx:coord >18.079605 52.465668 9173</gx:coord>
<gx:coord >18.104292 52.467491 9120</gx:coord>
<gx:coord >18.150406 52.470886 9021</gx:coord>
<gx:coord >18.197597 52.474474 8922</gx:coord>
<gx:coord >18.240814 52.477707 8822</gx:coord>
<gx:coord >18.285723 52.481038 8716</gx:coord>
<gx:coord >18.324568 52.483505 8640</gx:coord>
<gx:coord >18.342773 52.483971 8601</gx:coord>
<gx:coord >18.358547 52.483877 8563</gx:coord>
<gx:coord >18.37471 52.483337 8525</gx:coord>
<gx:coord >18.397827 52.481735 8472</gx:coord>
<gx:coord >18.443534 52.478012 8380</gx:coord>
<gx:coord >18.46276 52.476522 8327</gx:coord>
<gx:coord >18.499329 52.473729 8205</gx:coord>
<gx:coord >18.535505 52.470936 8091</gx:coord>
<gx:coord >18.559189 52.468964 7992</gx:coord>
<gx:coord >18.562343 52.468655 7992</gx:coord>
<gx:coord >18.610077 52.464386 7900</gx:coord>
<gx:coord >18.628967 52.46265 7862</gx:coord>
<gx:coord >18.642807 52.461411 7817</gx:coord>
<gx:coord >18.674927 52.458481 7695</gx:coord>
<gx:coord >18.704694 52.455853 7580</gx:coord>
<gx:coord >18.716466 52.454829 7535</gx:coord>
<gx:coord >18.749974 52.451943 7413</gx:coord>
<gx:coord >18.770218 52.450195 7352</gx:coord>
<gx:coord >18.771362 52.450104 7352</gx:coord>
<gx:coord >18.779951 52.449382 7337</gx:coord>
<gx:coord >18.807831 52.446991 7260</gx:coord>
<gx:coord >18.814165 52.446449 7245</gx:coord>
<gx:coord >18.847275 52.443604 7123</gx:coord>
<gx:coord >18.876944 52.441003 7009</gx:coord>
<gx:coord >18.911209 52.438019 6887</gx:coord>
<gx:coord >18.943939 52.435135 6780</gx:coord>
<gx:coord >18.974409 52.432437 6658</gx:coord>
<gx:coord >19.00572 52.429691 6529</gx:coord>
<gx:coord >19.039542 52.426711 6415</gx:coord>
<gx:coord >19.070206 52.424011 6300</gx:coord>
<gx:coord >19.100516 52.421358 6171</gx:coord>
<gx:coord >19.131199 52.418658 6049</gx:coord>
<gx:coord >19.141693 52.417694 6011</gx:coord>
<gx:coord >19.150739 52.416889 5988</gx:coord>
<gx:coord >19.188878 52.41349 5896</gx:coord>
<gx:coord >19.194292 52.413025 5881</gx:coord>
<gx:coord >19.198685 52.412613 5866</gx:coord>
<gx:coord >19.223642 52.410371 5744</gx:coord>
<gx:coord >19.250166 52.407951 5622</gx:coord>
<gx:coord >19.27124 52.406067 5553</gx:coord>
<gx:coord >19.304077 52.403016 5439</gx:coord>
<gx:coord >19.335545 52.40013 5332</gx:coord>
<gx:coord >19.364395 52.397552 5203</gx:coord>
<gx:coord >19.385071 52.395676 5134</gx:coord>
<gx:coord >19.418488 52.392654 5035</gx:coord>
<gx:coord >19.446978 52.390075 4929</gx:coord>
<gx:coord >19.477426 52.387235 4799</gx:coord>
<gx:coord >19.508815 52.384302 4685</gx:coord>
<gx:coord >19.541702 52.38121 4578</gx:coord>
<gx:coord >19.570999 52.378418 4464</gx:coord>
<gx:coord >19.601135 52.37558 4342</gx:coord>
<gx:coord >19.629194 52.37299 4220</gx:coord>
<gx:coord >19.660873 52.369995 4113</gx:coord>
<gx:coord >19.691086 52.367157 3999</gx:coord>
<gx:coord >19.720616 52.364424 3892</gx:coord>
<gx:coord >19.730377 52.363541 3847</gx:coord>
<gx:coord >19.737167 52.3629 3831</gx:coord>
<gx:coord >19.762192 52.360565 3763</gx:coord>
<gx:coord >19.780579 52.35878 3717</gx:coord>
<gx:coord >19.799639 52.356976 3656</gx:coord>
<gx:coord >19.808731 52.356079 3618</gx:coord>
<gx:coord >19.824358 52.354602 3557</gx:coord>
<gx:coord >19.838013 52.353252 3496</gx:coord>
<gx:coord >19.85049 52.352041 3450</gx:coord>
<gx:coord >19.869167 52.350179 3397</gx:coord>
<gx:coord >19.88739 52.348389 3344</gx:coord>
<gx:coord >19.905971 52.346595 3290</gx:coord>
<gx:coord >19.916879 52.345524 3252</gx:coord>
<gx:coord >19.921038 52.345105 3237</gx:coord>
<gx:coord >19.932938 52.343948 3176</gx:coord>
<gx:coord >19.943619 52.342896 3107</gx:coord>
<gx:coord >19.954681 52.341797 3062</gx:coord>
<gx:coord >19.967494 52.340543 3001</gx:coord>
<gx:coord >19.9823 52.339096 2932</gx:coord>
<gx:coord >19.998932 52.337494 2871</gx:coord>
<gx:coord >20.016854 52.335795 2826</gx:coord>
<gx:coord >20.035324 52.334015 2765</gx:coord>
<gx:coord >20.053423 52.332257 2711</gx:coord>
<gx:coord >20.071158 52.330488 2650</gx:coord>
<gx:coord >20.088736 52.328765 2589</gx:coord>
<gx:coord >20.103989 52.32724 2528</gx:coord>
<gx:coord >20.120518 52.3256 2467</gx:coord>
<gx:coord >20.137469 52.323924 2414</gx:coord>
<gx:coord >20.154654 52.322248 2345</gx:coord>
<gx:coord >20.172468 52.320526 2292</gx:coord>
<gx:coord >20.18212 52.319595 2254</gx:coord>
<gx:coord >20.19601 52.318198 2231</gx:coord>
<gx:coord >20.210419 52.316757 2208</gx:coord>
<gx:coord >20.224075 52.315384 2178</gx:coord>
<gx:coord >20.237274 52.314056 2155</gx:coord>
<gx:coord >20.252354 52.312565 2132</gx:coord>
<gx:coord >20.264893 52.311356 2109</gx:coord>
<gx:coord >20.277557 52.31012 2086</gx:coord>
<gx:coord >20.293082 52.308562 2056</gx:coord>
<gx:coord >20.310669 52.306824 2025</gx:coord>
<gx:coord >20.325806 52.305303 2003</gx:coord>
<gx:coord >20.335379 52.304325 1987</gx:coord>
<gx:coord >20.351257 52.302704 1964</gx:coord>
<gx:coord >20.366287 52.301193 1942</gx:coord>
<gx:coord >20.380188 52.29981 1919</gx:coord>
<gx:coord >20.390076 52.298786 1903</gx:coord>
<gx:coord >20.40329 52.29744 1873</gx:coord>
<gx:coord >20.41481 52.296295 1843</gx:coord>
<gx:coord >20.425186 52.295242 1812</gx:coord>
<gx:coord >20.435041 52.29427 1789</gx:coord>
<gx:coord >20.444412 52.293274 1751</gx:coord>
<gx:coord >20.453561 52.292362 1721</gx:coord>
<gx:coord >20.462723 52.291397 1690</gx:coord>
<gx:coord >20.471725 52.290482 1652</gx:coord>
<gx:coord >20.481105 52.289522 1629</gx:coord>
<gx:coord >20.49118 52.288467 1591</gx:coord>
<gx:coord >20.502842 52.287287 1561</gx:coord>
<gx:coord >20.515518 52.285995 1530</gx:coord>
<gx:coord >20.52866 52.284634 1507</gx:coord>
<gx:coord >20.541077 52.283295 1469</gx:coord>
<gx:coord >20.546265 52.282562 1454</gx:coord>
<gx:coord >20.552987 52.281282 1439</gx:coord>
<gx:coord >20.558245 52.280072 1423</gx:coord>
<gx:coord >20.565262 52.278076 1401</gx:coord>
<gx:coord >20.576401 52.274734 1370</gx:coord>
<gx:coord >20.587463 52.271393 1332</gx:coord>
<gx:coord >20.598345 52.268341 1302</gx:coord>
<gx:coord >20.608625 52.265547 1271</gx:coord>
<gx:coord >20.618591 52.262894 1241</gx:coord>
<gx:coord >20.631461 52.259356 1218</gx:coord>
<gx:coord >20.642212 52.256377 1195</gx:coord>
<gx:coord >20.651474 52.253815 1180</gx:coord>
<gx:coord >20.659027 52.251709 1172</gx:coord>
<gx:coord >20.668106 52.249191 1157</gx:coord>
<gx:coord >20.678635 52.246262 1134</gx:coord>
<gx:coord >20.68985 52.243149 1119</gx:coord>
<gx:coord >20.693141 52.242225 1111</gx:coord>
<gx:coord >20.697222 52.241107 1103</gx:coord>
<gx:coord >20.702972 52.239487 1103</gx:coord>
<gx:coord >20.711426 52.237104 1081</gx:coord>
<gx:coord >20.719299 52.234909 1042</gx:coord>
<gx:coord >20.726089 52.232986 1020</gx:coord>
<gx:coord >20.734183 52.230773 974</gx:coord>
<gx:coord >20.741196 52.228821 943</gx:coord>
<gx:coord >20.748901 52.226669 921</gx:coord>
<gx:coord >20.756607 52.224564 890</gx:coord>
<gx:coord >20.764847 52.222275 860</gx:coord>
<gx:coord >20.772934 52.220032 829</gx:coord>
<gx:coord >20.78064 52.21788 783</gx:coord>
<gx:coord >20.787624 52.215969 760</gx:coord>
<gx:coord >20.795236 52.213828 730</gx:coord>
<gx:coord >20.803299 52.211563 692</gx:coord>
<gx:coord >20.810931 52.209452 661</gx:coord>
<gx:coord >20.819406 52.207031 631</gx:coord>
<gx:coord >20.827567 52.204797 600</gx:coord>
<gx:coord >20.830688 52.203918 593</gx:coord>
<gx:coord >20.83786 52.201904 562</gx:coord>
<gx:coord >20.845616 52.199723 532</gx:coord>
<gx:coord >20.85083 52.198288 517</gx:coord>
<gx:coord >20.855942 52.196869 486</gx:coord>
<gx:coord >20.862959 52.194928 456</gx:coord>
<gx:coord >20.8701 52.192926 425</gx:coord>
<gx:coord >20.878525 52.190552 402</gx:coord>
<gx:coord >20.886108 52.18841 379</gx:coord>
<gx:coord >20.89372 52.186269 341</gx:coord>
<gx:coord >20.900879 52.18428 319</gx:coord>
<gx:coord >20.908316 52.182219 280</gx:coord>
<gx:coord >20.916061 52.180023 250</gx:coord>
<gx:coord >20.922756 52.178169 227</gx:coord>
<gx:coord >20.930838 52.175934 189</gx:coord>
<gx:coord >20.938058 52.173933 159</gx:coord>
<gx:coord >20.946533 52.171558 128</gx:coord>
<gx:coord >20.954742 52.169266 113</gx:coord>
<gx:coord >20.957049 52.168579 113</gx:coord>
<gx:coord >20.959795 52.167834 113</gx:coord>
<gx:coord >20.959795 52.167834 113</gx:coord>
</gx:Track>
</Placemark>
<Placemark ><name >HA-LGM</name>
<Style ><LineStyle ><color >ff1c1ae3</color>
<width >4</width>
</LineStyle>
<IconStyle ><Icon ><href >http://maps.google.com/mapfiles/kml/shapes/airports.png</href>
</Icon>
</IconStyle>
</Style>
<gx:Track ><extrude >0</extrude>
<when >2025-07-13T16:50:18.360Z</when>
<when >2025-07-13T16:50:23.900Z</when>
<when >2025-07-13T16:50:25.260Z</when>
<when >2025-07-13T16:50:26.540Z</when>
<when >2025-07-13T16:50:27.780Z</when>
<when >2025-07-13T16:50:30.130Z</when>
<when >2025-07-13T16:50:31.330Z</when>
<when >2025-07-13T16:50:32.520Z</when>
<when >2025-07-13T16:50:34.450Z</when>
<when >2025-07-13T16:50:35.040Z</when>
<when >2025-07-13T16:50:37.510Z</when>
<when >2025-07-13T16:50:39.160Z</when>
<when >2025-07-13T16:50:41.580Z</when>
<when >2025-07-13T16:50:44.220Z</when>
<when >2025-07-13T16:50:45.820Z</when>
<when >2025-07-13T16:50:51.040Z</when>
<when >2025-07-13T16:50:53.860Z</when>
<when >2025-07-13T16:50:56.460Z</when>
<when >2025-07-13T16:50:58.960Z</when>
<when >2025-07-13T16:51:01.570Z</when>
<when >2025-07-13T16:51:06.650Z</when>
<when >2025-07-13T16:51:09.000Z</when>
<when >2025-07-13T16:51:10.990Z</when>
<when >2025-07-13T16:51:13.990Z</when>
<when >2025-07-13T16:51:14.430Z</when>
<when >2025-07-13T16:51:19.580Z</when>
<when >2025-07-13T16:51:22.800Z</when>
<when >2025-07-13T16:51:24.470Z</when>
<when >2025-07-13T16:51:31.260Z</when>
<when >2025-07-13T16:51:38.010Z</when>
<when >2025-07-13T16:51:41.630Z</when>
<when >2025-07-13T16:51:47.940Z</when>
<when >2025-07-13T16:51:51.800Z</when>
<when >2025-07-13T16:51:54.790Z</when>
<when >2025-07-13T16:52:00.300Z</when>
<when >2025-07-13T16:52:03.880Z</when>
<when >2025-07-13T16:52:08.300Z</when>
<when >2025-07-13T16:52:15.320Z</when>
<when >2025-07-13T16:52:20.180Z</when>
<when >2025-07-13T16:52:23.760Z</when>
<when >2025-07-13T16:52:27.180Z</when>
<when >2025-07-13T16:52:30.060Z</when>
<when >2025-07-13T16:52:33.050Z</when>
<when >2025-07-13T16:52:34.170Z</when>
<when >2025-07-13T16:52:37.130Z</when>
<when >2025-07-13T16:52:42.640Z</when>
<when >2025-07-13T16:52:46.580Z</when>
<when >2025-07-13T16:52:51.240Z</when>
<when >2025-07-13T16:52:54.910Z</when>
<when >2025-07-13T16:52:57.790Z</when>
<when >2025-07-13T16:53:02.770Z</when>
<when >2025-07-13T16:53:06.700Z</when>
<when >2025-07-13T16:53:12.180Z</when>
<when >2025-07-13T16:53:15.640Z</when>
<when >2025-07-13T16:53:19.100Z</when>
<when >2025-07-13T16:53:20.910Z</when>
<when >2025-07-13T16:53:25.900Z</when>
<when >2025-07-13T16:53:28.460Z</when>
<when >2025-07-13T16:53:29.890Z</when>
<when >2025-07-13T16:53:32.190Z</when>
<when >2025-07-13T16:53:33.750Z</when>
<when >2025-07-13T16:53:34.590Z</when>
<when >2025-07-13T16:53:37.360Z</when>
<when >2025-07-13T16:53:38.890Z</when>
<when >2025-07-13T16:53:45.280Z</when>
<when >2025-07-13T16:53:49.210Z</when>
<when >2025-07-13T16:53:53.320Z</when>
<when >2025-07-13T16:53:57.290Z</when>
<when >2025-07-13T16:53:58.630Z</when>
<when >2025-07-13T16:53:59.640Z</when>
<when >2025-07-13T16:54:00.900Z</when>
<when >2025-07-13T16:54:03.790Z</when>
<when >2025-07-13T16:54:06.300Z</when>
<when >2025-07-13T16:54:10.980Z</when>
<when >2025-07-13T16:54:17.890Z</when>
<when >2025-07-13T16:54:20.990Z</when>
<when >2025-07-13T16:54:23.320Z</when>
<when >2025-07-13T16:54:24.510Z</when>
<when >2025-07-13T16:54:26.770Z</when>
<when >2025-07-13T16:54:31.240Z</when>
<when >2025-07-13T16:54:41.470Z</when>
<when >2025-07-13T16:54:47.860Z</when>
<when >2025-07-13T16:54:54.030Z</when>
<when >2025-07-13T16:55:18.110Z</when>
<when >2025-07-13T16:55:18.110Z</when>
<gx:coord >20.960933 52.167508 0</gx:coord>
<gx:coord >20.964127 52.166611 0</gx:coord>
<gx:coord >20.965328 52.166275 0</gx:coord>
<gx:coord >20.9659 52.166107 0</gx:coord>
<gx:coord >20.966485 52.165949 0</gx:coord>
<gx:coord >20.9678 52.165576 0</gx:coord>
<gx:coord >20.968361 52.165421 0</gx:coord>
<gx:coord >20.968604 52.165344 0</gx:coord>
<gx:coord >20.969715 52.165043 0</gx:coord>
<gx:coord >20.970287 52.164883 0</gx:coord>
<gx:coord >20.970631 52.16478 0</gx:coord>
<gx:coord >20.971279 52.164597 0</gx:coord>
<gx:coord >20.971737 52.164471 0</gx:coord>
<gx:coord >20.972567 52.16425 0</gx:coord>
<gx:coord >20.972685 52.164215 0</gx:coord>
<gx:coord >20.974627 52.163901 0</gx:coord>
<gx:coord >20.975117 52.163866 0</gx:coord>
<gx:coord >20.975627 52.163854 0</gx:coord>
<gx:coord >20.976067 52.163853 0</gx:coord>
<gx:coord >20.976696 52.163887 0</gx:coord>
<gx:coord >20.977345 52.16391 0</gx:coord>
<gx:coord >20.977628 52.163936 0</gx:coord>
<gx:coord >20.977727 52.163947 0</gx:coord>
<gx:coord >20.977883 52.164005 0</gx:coord>
<gx:coord >20.977982 52.164064 0</gx:coord>
<gx:coord >20.978127 52.164299 0</gx:coord>
<gx:coord >20.977993 52.164505 0</gx:coord>
<gx:coord >20.977859 52.164574 0</gx:coord>
<gx:coord >20.977393 52.164715 0</gx:coord>
<gx:coord >20.976863 52.164867 0</gx:coord>
<gx:coord >20.97641 52.164997 0</gx:coord>
<gx:coord >20.975922 52.165134 0</gx:coord>
<gx:coord >20.975323 52.165295 0</gx:coord>
<gx:coord >20.974901 52.165414 0</gx:coord>
<gx:coord >20.974293 52.165592 0</gx:coord>
<gx:coord >20.973816 52.16573 0</gx:coord>
<gx:coord >20.973301 52.165878 0</gx:coord>
<gx:coord >20.972404 52.166119 0</gx:coord>
<gx:coord >20.971449 52.16638 0</gx:coord>
<gx:coord >20.970821 52.166565 0</gx:coord>
<gx:coord >20.970535 52.166656 0</gx:coord>
<gx:coord >20.970249 52.166817 0</gx:coord>
<gx:coord >20.970135 52.166908 0</gx:coord>
<gx:coord >20.970001 52.167034 0</gx:coord>
<gx:coord >20.969879 52.167183 0</gx:coord>
<gx:coord >20.969639 52.167446 0</gx:coord>
<gx:coord >20.969391 52.167732 0</gx:coord>
<gx:coord >20.969067 52.168121 0</gx:coord>
<gx:coord >20.9688 52.168428 0</gx:coord>
<gx:coord >20.968486 52.168777 0</gx:coord>
<gx:coord >20.968212 52.169103 0</gx:coord>
<gx:coord >20.967884 52.169472 0</gx:coord>
<gx:coord >20.967545 52.169859 0</gx:coord>
<gx:coord >20.967211 52.170232 0</gx:coord>
<gx:coord >20.967064 52.170399 0</gx:coord>
<gx:coord >20.966838 52.170662 0</gx:coord>
<gx:coord >20.966701 52.170895 0</gx:coord>
<gx:coord >20.966701 52.171023 0</gx:coord>
<gx:coord >20.966721 52.171093 0</gx:coord>
<gx:coord >20.966778 52.171165 0</gx:coord>
<gx:coord >20.966854 52.171234 0</gx:coord>
<gx:coord >20.966976 52.171314 0</gx:coord>
<gx:coord >20.967054 52.171337 0</gx:coord>
<gx:coord >20.96725 52.171396 0</gx:coord>
<gx:coord >20.967603 52.171512 0</gx:coord>
<gx:coord >20.967884 52.171612 0</gx:coord>
<gx:coord >20.968094 52.171646 0</gx:coord>
<gx:coord >20.968437 52.171555 0</gx:coord>
<gx:coord >20.968494 52.171497 0</gx:coord>
<gx:coord >20.968525 52.171477 0</gx:coord>
<gx:coord >20.968552 52.17144 0</gx:coord>
<gx:coord >20.968628 52.17136 0</gx:coord>
<gx:coord >20.968741 52.171244 0</gx:coord>
<gx:coord >20.968898 52.171058 0</gx:coord>
<gx:coord >20.969143 52.170776 0</gx:coord>
<gx:coord >20.969212 52.170686 0</gx:coord>
<gx:coord >20.969219 52.170593 0</gx:coord>
<gx:coord >20.969086 52.170479 0</gx:coord>
<gx:coord >20.969016 52.170453 0</gx:coord>
<gx:coord >20.9688 52.170422 0</gx:coord>
<gx:coord >20.968266 52.170433 0</gx:coord>
<gx:coord >20.968113 52.170444 0</gx:coord>
<gx:coord >20.967878 52.170464 0</gx:coord>
<gx:coord >20.967878 52.170464 0</gx:coord>
<gx:coord >20.967878 52.170464 0</gx:coord>
</gx:Track>
</Placemark>
</Folder>
</Folder>
</kml>
