<?xml version="1.0" encoding="UTF-8"?>
<kml xmlns="http://www.opengis.net/kml/2.2" xmlns:gx="http://www.google.com/kml/ext/2.2"><Folder ><Folder ><name >9H-WBU track</name>
<Placemark ><name >9H-WBU</name>
<Style ><LineStyle ><color >ff1c1ae3</color>
<width >4</width>
</LineStyle>
<IconStyle ><Icon ><href >http://maps.google.com/mapfiles/kml/shapes/airports.png</href>
</Icon>
</IconStyle>
</Style>
<gx:Track ><extrude >0</extrude>
<when >2025-07-07T04:02:16.580Z</when>
<when >2025-07-07T04:02:16.580Z</when>
<when >2025-07-07T04:02:41.480Z</when>
<when >2025-07-07T04:02:46.290Z</when>
<when >2025-07-07T04:03:29.540Z</when>
<when >2025-07-07T04:03:41.060Z</when>
<when >2025-07-07T04:04:10.580Z</when>
<when >2025-07-07T04:05:01.130Z</when>
<when >2025-07-07T04:05:06.270Z</when>
<when >2025-07-07T04:05:26.560Z</when>
<when >2025-07-07T04:05:31.460Z</when>
<when >2025-07-07T04:05:51.790Z</when>
<when >2025-07-07T04:06:06.910Z</when>
<when >2025-07-07T04:06:31.500Z</when>
<when >2025-07-07T04:06:47.890Z</when>
<when >2025-07-07T04:07:17.940Z</when>
<when >2025-07-07T04:08:21.230Z</when>
<when >2025-07-07T04:08:36.510Z</when>
<when >2025-07-07T04:09:50.630Z</when>
<when >2025-07-07T04:10:00.980Z</when>
<when >2025-07-07T04:10:06.430Z</when>
<when >2025-07-07T04:10:08.770Z</when>
<when >2025-07-07T04:10:11.530Z</when>
<when >2025-07-07T04:10:14.800Z</when>
<when >2025-07-07T04:10:17.000Z</when>
<when >2025-07-07T04:10:18.470Z</when>
<when >2025-07-07T04:10:20.030Z</when>
<when >2025-07-07T04:10:21.580Z</when>
<when >2025-07-07T04:10:22.650Z</when>
<when >2025-07-07T04:10:25.220Z</when>
<when >2025-07-07T04:10:26.920Z</when>
<when >2025-07-07T04:10:28.280Z</when>
<when >2025-07-07T04:10:30.040Z</when>
<when >2025-07-07T04:10:33.530Z</when>
<when >2025-07-07T04:10:40.390Z</when>
<when >2025-07-07T04:10:50.380Z</when>
<when >2025-07-07T04:10:59.100Z</when>
<when >2025-07-07T04:11:07.800Z</when>
<when >2025-07-07T04:11:16.390Z</when>
<when >2025-07-07T04:11:23.860Z</when>
<when >2025-07-07T04:11:30.690Z</when>
<when >2025-07-07T04:11:36.770Z</when>
<when >2025-07-07T04:11:42.520Z</when>
<when >2025-07-07T04:11:47.650Z</when>
<when >2025-07-07T04:11:53.440Z</when>
<when >2025-07-07T04:11:58.570Z</when>
<when >2025-07-07T04:12:00.330Z</when>
<when >2025-07-07T04:12:02.000Z</when>
<when >2025-07-07T04:12:05.220Z</when>
<when >2025-07-07T04:12:07.950Z</when>
<when >2025-07-07T04:12:14.590Z</when>
<when >2025-07-07T04:12:21.860Z</when>
<when >2025-07-07T04:12:30.550Z</when>
<when >2025-07-07T04:12:37.330Z</when>
<when >2025-07-07T04:12:39.460Z</when>
<when >2025-07-07T04:12:41.350Z</when>
<when >2025-07-07T04:12:43.050Z</when>
<when >2025-07-07T04:12:44.930Z</when>
<when >2025-07-07T04:12:46.950Z</when>
<when >2025-07-07T04:12:48.990Z</when>
<when >2025-07-07T04:12:51.350Z</when>
<when >2025-07-07T04:12:54.760Z</when>
<when >2025-07-07T04:13:00.420Z</when>
<when >2025-07-07T04:13:07.470Z</when>
<when >2025-07-07T04:13:14.380Z</when>
<when >2025-07-07T04:13:19.500Z</when>
<when >2025-07-07T04:13:21.200Z</when>
<when >2025-07-07T04:13:22.550Z</when>
<when >2025-07-07T04:13:24.510Z</when>
<when >2025-07-07T04:13:25.510Z</when>
<when >2025-07-07T04:13:27.040Z</when>
<when >2025-07-07T04:13:28.570Z</when>
<when >2025-07-07T04:13:30.300Z</when>
<when >2025-07-07T04:13:36.700Z</when>
<when >2025-07-07T04:14:17.110Z</when>
<when >2025-07-07T04:14:32.180Z</when>
<when >2025-07-07T04:14:57.530Z</when>
<when >2025-07-07T04:15:17.830Z</when>
<when >2025-07-07T04:15:27.770Z</when>
<when >2025-07-07T04:15:29.020Z</when>
<when >2025-07-07T04:15:31.160Z</when>
<when >2025-07-07T04:15:33.120Z</when>
<when >2025-07-07T04:15:34.720Z</when>
<when >2025-07-07T04:15:35.930Z</when>
<when >2025-07-07T04:15:38.880Z</when>
<when >2025-07-07T04:15:39.930Z</when>
<when >2025-07-07T04:15:42.170Z</when>
<when >2025-07-07T04:15:43.370Z</when>
<when >2025-07-07T04:15:44.870Z</when>
<when >2025-07-07T04:15:45.150Z</when>
<when >2025-07-07T04:15:46.410Z</when>
<when >2025-07-07T04:15:48.770Z</when>
<when >2025-07-07T04:15:50.230Z</when>
<when >2025-07-07T04:15:50.230Z</when>
<gx:coord >20.965367 52.173316 0</gx:coord>
<gx:coord >20.965367 52.173316 0</gx:coord>
<gx:coord >20.965367 52.173304 0</gx:coord>
<gx:coord >20.965366 52.173306 0</gx:coord>
<gx:coord >20.965385 52.173294 0</gx:coord>
<gx:coord >20.965387 52.173304 0</gx:coord>
<gx:coord >20.965387 52.173304 0</gx:coord>
<gx:coord >20.965385 52.173294 0</gx:coord>
<gx:coord >20.965385 52.173294 0</gx:coord>
<gx:coord >20.965385 52.173294 0</gx:coord>
<gx:coord >20.965385 52.173294 0</gx:coord>
<gx:coord >20.965385 52.173294 0</gx:coord>
<gx:coord >20.965385 52.173294 0</gx:coord>
<gx:coord >20.965387 52.173293 0</gx:coord>
<gx:coord >20.965385 52.173294 0</gx:coord>
<gx:coord >20.965387 52.173294 0</gx:coord>
<gx:coord >20.965387 52.173293 0</gx:coord>
<gx:coord >20.965387 52.173293 0</gx:coord>
<gx:coord >20.965367 52.173281 0</gx:coord>
<gx:coord >20.965308 52.173199 0</gx:coord>
<gx:coord >20.965233 52.173157 0</gx:coord>
<gx:coord >20.96519 52.17313 0</gx:coord>
<gx:coord >20.965137 52.173111 0</gx:coord>
<gx:coord >20.965042 52.173077 0</gx:coord>
<gx:coord >20.964966 52.173065 0</gx:coord>
<gx:coord >20.964896 52.17306 0</gx:coord>
<gx:coord >20.964818 52.173071 0</gx:coord>
<gx:coord >20.964739 52.173095 0</gx:coord>
<gx:coord >20.96468 52.173122 0</gx:coord>
<gx:coord >20.964582 52.173199 0</gx:coord>
<gx:coord >20.964546 52.17326 0</gx:coord>
<gx:coord >20.964508 52.173306 0</gx:coord>
<gx:coord >20.964464 52.173362 0</gx:coord>
<gx:coord >20.964366 52.173479 0</gx:coord>
<gx:coord >20.964151 52.173711 0</gx:coord>
<gx:coord >20.963821 52.174107 0</gx:coord>
<gx:coord >20.963484 52.17448 0</gx:coord>
<gx:coord >20.963135 52.174873 0</gx:coord>
<gx:coord >20.962797 52.175271 0</gx:coord>
<gx:coord >20.962448 52.175663 0</gx:coord>
<gx:coord >20.962124 52.176052 0</gx:coord>
<gx:coord >20.961777 52.176435 0</gx:coord>
<gx:coord >20.961463 52.176807 0</gx:coord>
<gx:coord >20.961149 52.17718 0</gx:coord>
<gx:coord >20.960815 52.177552 0</gx:coord>
<gx:coord >20.96056 52.17782 0</gx:coord>
<gx:coord >20.960464 52.177906 0</gx:coord>
<gx:coord >20.96035 52.177963 0</gx:coord>
<gx:coord >20.960121 52.178078 0</gx:coord>
<gx:coord >20.959893 52.178157 0</gx:coord>
<gx:coord >20.959364 52.178367 0</gx:coord>
<gx:coord >20.958775 52.178611 0</gx:coord>
<gx:coord >20.958176 52.178844 0</gx:coord>
<gx:coord >20.957813 52.17897 0</gx:coord>
<gx:coord >20.957699 52.178993 0</gx:coord>
<gx:coord >20.957603 52.179005 0</gx:coord>
<gx:coord >20.957527 52.178993 0</gx:coord>
<gx:coord >20.957432 52.178982 0</gx:coord>
<gx:coord >20.957336 52.178959 0</gx:coord>
<gx:coord >20.957264 52.178937 0</gx:coord>
<gx:coord >20.957165 52.178902 0</gx:coord>
<gx:coord >20.957029 52.178856 0</gx:coord>
<gx:coord >20.956821 52.178776 0</gx:coord>
<gx:coord >20.956539 52.178681 0</gx:coord>
<gx:coord >20.956264 52.178588 0</gx:coord>
<gx:coord >20.956068 52.178506 0</gx:coord>
<gx:coord >20.956029 52.17846 0</gx:coord>
<gx:coord >20.956029 52.178413 0</gx:coord>
<gx:coord >20.956059 52.178352 0</gx:coord>
<gx:coord >20.956078 52.178318 0</gx:coord>
<gx:coord >20.956135 52.178272 0</gx:coord>
<gx:coord >20.956205 52.178239 0</gx:coord>
<gx:coord >20.956264 52.178204 0</gx:coord>
<gx:coord >20.956401 52.178041 0</gx:coord>
<gx:coord >20.956421 52.178018 0</gx:coord>
<gx:coord >20.956421 52.17802 0</gx:coord>
<gx:coord >20.956421 52.17802 0</gx:coord>
<gx:coord >20.956421 52.17802 0</gx:coord>
<gx:coord >20.956459 52.177975 0</gx:coord>
<gx:coord >20.95648 52.177948 0</gx:coord>
<gx:coord >20.956535 52.177872 0</gx:coord>
<gx:coord >20.956617 52.177785 0</gx:coord>
<gx:coord >20.956707 52.177677 0</gx:coord>
<gx:coord >20.956783 52.177586 0</gx:coord>
<gx:coord >20.957165 52.177151 0</gx:coord>
<gx:coord >20.957317 52.176979 0</gx:coord>
<gx:coord >20.957696 52.17654 0</gx:coord>
<gx:coord >20.957928 52.176281 0</gx:coord>
<gx:coord >20.958271 52.17588 0</gx:coord>
<gx:coord >20.958402 52.175737 0</gx:coord>
<gx:coord >20.958677 52.175434 0</gx:coord>
<gx:coord >20.959396 52.17461 0</gx:coord>
<gx:coord >20.959873 52.174049 0</gx:coord>
<gx:coord >20.959873 52.174049 0</gx:coord>
</gx:Track>
</Placemark>
<Placemark ><name >9H-WBU</name>
<Style ><LineStyle ><color >ff1c1ae3</color>
<width >4</width>
</LineStyle>
<IconStyle ><Icon ><href >http://maps.google.com/mapfiles/kml/shapes/airports.png</href>
</Icon>
</IconStyle>
</Style>
<gx:Track ><altitudeMode >absolute</altitudeMode>
<extrude >1</extrude>
<when >2025-07-07T04:15:51.930Z</when>
<when >2025-07-07T04:15:55.510Z</when>
<when >2025-07-07T04:15:58.170Z</when>
<when >2025-07-07T04:15:59.600Z</when>
<when >2025-07-07T04:16:00.210Z</when>
<when >2025-07-07T04:16:02.240Z</when>
<when >2025-07-07T04:16:05.490Z</when>
<when >2025-07-07T04:16:06.450Z</when>
<when >2025-07-07T04:16:07.680Z</when>
<when >2025-07-07T04:16:09.060Z</when>
<when >2025-07-07T04:16:10.070Z</when>
<when >2025-07-07T04:16:13.750Z</when>
<when >2025-07-07T04:16:14.610Z</when>
<when >2025-07-07T04:16:15.520Z</when>
<when >2025-07-07T04:16:16.810Z</when>
<when >2025-07-07T04:16:18.550Z</when>
<when >2025-07-07T04:16:21.090Z</when>
<when >2025-07-07T04:16:23.870Z</when>
<when >2025-07-07T04:16:26.210Z</when>
<when >2025-07-07T04:16:28.700Z</when>
<when >2025-07-07T04:16:31.450Z</when>
<when >2025-07-07T04:16:34.500Z</when>
<when >2025-07-07T04:16:37.490Z</when>
<when >2025-07-07T04:16:40.810Z</when>
<when >2025-07-07T04:16:43.920Z</when>
<when >2025-07-07T04:16:46.900Z</when>
<when >2025-07-07T04:16:50.110Z</when>
<when >2025-07-07T04:16:53.510Z</when>
<when >2025-07-07T04:16:56.550Z</when>
<when >2025-07-07T04:16:58.990Z</when>
<when >2025-07-07T04:17:02.290Z</when>
<when >2025-07-07T04:17:04.780Z</when>
<when >2025-07-07T04:17:07.120Z</when>
<when >2025-07-07T04:17:09.670Z</when>
<when >2025-07-07T04:17:12.260Z</when>
<when >2025-07-07T04:17:14.750Z</when>
<when >2025-07-07T04:17:16.660Z</when>
<when >2025-07-07T04:17:18.960Z</when>
<when >2025-07-07T04:17:21.420Z</when>
<when >2025-07-07T04:17:23.310Z</when>
<when >2025-07-07T04:17:25.260Z</when>
<when >2025-07-07T04:17:27.310Z</when>
<when >2025-07-07T04:17:29.430Z</when>
<when >2025-07-07T04:17:30.950Z</when>
<when >2025-07-07T04:17:32.920Z</when>
<when >2025-07-07T04:17:35.250Z</when>
<when >2025-07-07T04:17:36.690Z</when>
<when >2025-07-07T04:17:38.820Z</when>
<when >2025-07-07T04:17:40.690Z</when>
<when >2025-07-07T04:17:42.620Z</when>
<when >2025-07-07T04:17:45.500Z</when>
<when >2025-07-07T04:17:48.550Z</when>
<when >2025-07-07T04:17:52.410Z</when>
<when >2025-07-07T04:17:56.660Z</when>
<when >2025-07-07T04:17:59.870Z</when>
<when >2025-07-07T04:18:03.350Z</when>
<when >2025-07-07T04:18:06.420Z</when>
<when >2025-07-07T04:18:09.640Z</when>
<when >2025-07-07T04:18:13.750Z</when>
<when >2025-07-07T04:18:16.850Z</when>
<when >2025-07-07T04:18:19.990Z</when>
<when >2025-07-07T04:18:22.800Z</when>
<when >2025-07-07T04:18:25.860Z</when>
<when >2025-07-07T04:18:28.620Z</when>
<when >2025-07-07T04:18:32.600Z</when>
<when >2025-07-07T04:18:35.670Z</when>
<when >2025-07-07T04:18:38.780Z</when>
<when >2025-07-07T04:18:41.740Z</when>
<when >2025-07-07T04:18:44.780Z</when>
<when >2025-07-07T04:18:47.850Z</when>
<when >2025-07-07T04:18:52.430Z</when>
<when >2025-07-07T04:18:56.510Z</when>
<when >2025-07-07T04:18:59.220Z</when>
<when >2025-07-07T04:19:02.270Z</when>
<when >2025-07-07T04:19:05.110Z</when>
<when >2025-07-07T04:19:08.240Z</when>
<when >2025-07-07T04:19:11.940Z</when>
<when >2025-07-07T04:19:17.250Z</when>
<when >2025-07-07T04:19:22.090Z</when>
<when >2025-07-07T04:19:27.600Z</when>
<when >2025-07-07T04:19:33.660Z</when>
<when >2025-07-07T04:19:40.340Z</when>
<when >2025-07-07T04:19:52.570Z</when>
<when >2025-07-07T04:20:12.330Z</when>
<when >2025-07-07T04:20:20.740Z</when>
<when >2025-07-07T04:20:23.590Z</when>
<when >2025-07-07T04:20:26.090Z</when>
<when >2025-07-07T04:20:29.310Z</when>
<when >2025-07-07T04:20:32.120Z</when>
<when >2025-07-07T04:20:34.830Z</when>
<when >2025-07-07T04:20:36.710Z</when>
<when >2025-07-07T04:20:38.980Z</when>
<when >2025-07-07T04:20:41.020Z</when>
<when >2025-07-07T04:20:45.150Z</when>
<when >2025-07-07T04:20:49.330Z</when>
<when >2025-07-07T04:20:53.390Z</when>
<when >2025-07-07T04:20:57.980Z</when>
<when >2025-07-07T04:21:03.010Z</when>
<when >2025-07-07T04:21:07.560Z</when>
<when >2025-07-07T04:21:10.990Z</when>
<when >2025-07-07T04:21:13.630Z</when>
<when >2025-07-07T04:21:16.960Z</when>
<when >2025-07-07T04:21:19.180Z</when>
<when >2025-07-07T04:21:22.300Z</when>
<when >2025-07-07T04:21:25.670Z</when>
<when >2025-07-07T04:21:28.540Z</when>
<when >2025-07-07T04:21:32.110Z</when>
<when >2025-07-07T04:21:36.400Z</when>
<when >2025-07-07T04:21:40.910Z</when>
<when >2025-07-07T04:21:45.820Z</when>
<when >2025-07-07T04:21:50.860Z</when>
<when >2025-07-07T04:21:56.480Z</when>
<when >2025-07-07T04:22:00.620Z</when>
<when >2025-07-07T04:22:02.310Z</when>
<when >2025-07-07T04:22:08.800Z</when>
<when >2025-07-07T04:22:11.080Z</when>
<when >2025-07-07T04:22:12.600Z</when>
<when >2025-07-07T04:22:14.120Z</when>
<when >2025-07-07T04:22:18.000Z</when>
<when >2025-07-07T04:22:21.000Z</when>
<when >2025-07-07T04:22:23.940Z</when>
<when >2025-07-07T04:22:26.400Z</when>
<when >2025-07-07T04:22:29.120Z</when>
<when >2025-07-07T04:22:32.150Z</when>
<when >2025-07-07T04:22:37.450Z</when>
<when >2025-07-07T04:22:44.040Z</when>
<when >2025-07-07T04:22:50.460Z</when>
<when >2025-07-07T04:22:57.280Z</when>
<when >2025-07-07T04:23:08.150Z</when>
<when >2025-07-07T04:23:20.200Z</when>
<when >2025-07-07T04:23:30.910Z</when>
<when >2025-07-07T04:23:41.810Z</when>
<when >2025-07-07T04:23:54.110Z</when>
<when >2025-07-07T04:24:06.730Z</when>
<when >2025-07-07T04:24:18.680Z</when>
<when >2025-07-07T04:24:29.650Z</when>
<when >2025-07-07T04:24:41.550Z</when>
<when >2025-07-07T04:24:53.250Z</when>
<when >2025-07-07T04:24:56.110Z</when>
<when >2025-07-07T04:25:08.830Z</when>
<when >2025-07-07T04:25:19.690Z</when>
<when >2025-07-07T04:25:31.750Z</when>
<when >2025-07-07T04:25:42.600Z</when>
<when >2025-07-07T04:25:55.790Z</when>
<when >2025-07-07T04:26:06.820Z</when>
<when >2025-07-07T04:26:19.160Z</when>
<when >2025-07-07T04:26:32.420Z</when>
<when >2025-07-07T04:26:44.830Z</when>
<when >2025-07-07T04:26:56.610Z</when>
<when >2025-07-07T04:27:08.330Z</when>
<when >2025-07-07T04:27:20.160Z</when>
<when >2025-07-07T04:27:32.030Z</when>
<when >2025-07-07T04:27:43.550Z</when>
<when >2025-07-07T04:27:55.800Z</when>
<when >2025-07-07T04:28:05.220Z</when>
<when >2025-07-07T04:28:10.590Z</when>
<when >2025-07-07T04:28:18.760Z</when>
<when >2025-07-07T04:28:26.600Z</when>
<when >2025-07-07T04:28:31.330Z</when>
<when >2025-07-07T04:28:37.330Z</when>
<when >2025-07-07T04:28:42.220Z</when>
<when >2025-07-07T04:28:46.190Z</when>
<when >2025-07-07T04:28:50.650Z</when>
<when >2025-07-07T04:28:55.960Z</when>
<when >2025-07-07T04:29:03.010Z</when>
<when >2025-07-07T04:29:17.250Z</when>
<when >2025-07-07T04:29:32.120Z</when>
<when >2025-07-07T04:29:45.820Z</when>
<when >2025-07-07T04:29:59.690Z</when>
<when >2025-07-07T04:30:13.330Z</when>
<when >2025-07-07T04:30:27.420Z</when>
<when >2025-07-07T04:30:42.380Z</when>
<when >2025-07-07T04:30:56.340Z</when>
<when >2025-07-07T04:31:10.970Z</when>
<when >2025-07-07T04:31:25.020Z</when>
<when >2025-07-07T04:31:40.000Z</when>
<when >2025-07-07T04:31:56.170Z</when>
<when >2025-07-07T04:32:04.870Z</when>
<when >2025-07-07T04:32:16.200Z</when>
<when >2025-07-07T04:32:27.890Z</when>
<when >2025-07-07T04:32:37.410Z</when>
<when >2025-07-07T04:32:55.410Z</when>
<when >2025-07-07T04:33:06.340Z</when>
<when >2025-07-07T04:33:20.400Z</when>
<when >2025-07-07T04:33:37.500Z</when>
<when >2025-07-07T04:33:51.880Z</when>
<when >2025-07-07T04:34:07.390Z</when>
<when >2025-07-07T04:34:22.570Z</when>
<when >2025-07-07T04:34:37.320Z</when>
<when >2025-07-07T04:34:52.100Z</when>
<when >2025-07-07T04:35:07.220Z</when>
<when >2025-07-07T04:35:24.490Z</when>
<when >2025-07-07T04:35:42.420Z</when>
<when >2025-07-07T04:35:58.560Z</when>
<when >2025-07-07T04:36:14.780Z</when>
<when >2025-07-07T04:36:32.450Z</when>
<when >2025-07-07T04:36:48.370Z</when>
<when >2025-07-07T04:37:04.710Z</when>
<when >2025-07-07T04:37:20.810Z</when>
<when >2025-07-07T04:37:36.940Z</when>
<when >2025-07-07T04:37:51.780Z</when>
<when >2025-07-07T04:38:05.230Z</when>
<when >2025-07-07T04:38:19.410Z</when>
<when >2025-07-07T04:38:35.210Z</when>
<when >2025-07-07T04:38:51.310Z</when>
<when >2025-07-07T04:39:01.240Z</when>
<when >2025-07-07T04:39:10.650Z</when>
<when >2025-07-07T04:39:30.290Z</when>
<when >2025-07-07T04:39:50.280Z</when>
<when >2025-07-07T04:40:10.210Z</when>
<when >2025-07-07T04:40:29.680Z</when>
<when >2025-07-07T04:40:49.310Z</when>
<when >2025-07-07T04:41:08.830Z</when>
<when >2025-07-07T04:41:28.530Z</when>
<when >2025-07-07T04:41:48.260Z</when>
<when >2025-07-07T04:42:08.240Z</when>
<when >2025-07-07T04:42:27.890Z</when>
<when >2025-07-07T04:42:47.550Z</when>
<when >2025-07-07T04:43:07.310Z</when>
<when >2025-07-07T04:43:27.040Z</when>
<when >2025-07-07T04:43:46.920Z</when>
<when >2025-07-07T04:44:06.880Z</when>
<when >2025-07-07T04:44:14.600Z</when>
<when >2025-07-07T04:44:20.460Z</when>
<when >2025-07-07T04:44:33.130Z</when>
<when >2025-07-07T04:44:53.010Z</when>
<when >2025-07-07T04:45:12.670Z</when>
<when >2025-07-07T04:45:32.370Z</when>
<when >2025-07-07T04:45:52.210Z</when>
<when >2025-07-07T04:46:12.160Z</when>
<when >2025-07-07T04:46:31.950Z</when>
<when >2025-07-07T04:46:51.500Z</when>
<when >2025-07-07T04:47:11.420Z</when>
<when >2025-07-07T04:47:30.980Z</when>
<when >2025-07-07T04:47:50.740Z</when>
<when >2025-07-07T04:48:10.420Z</when>
<when >2025-07-07T04:48:30.250Z</when>
<when >2025-07-07T04:48:50.160Z</when>
<when >2025-07-07T04:49:09.740Z</when>
<when >2025-07-07T04:49:29.640Z</when>
<when >2025-07-07T04:49:49.140Z</when>
<when >2025-07-07T04:50:08.750Z</when>
<when >2025-07-07T04:50:28.380Z</when>
<when >2025-07-07T04:50:48.070Z</when>
<when >2025-07-07T04:51:07.610Z</when>
<when >2025-07-07T04:51:27.510Z</when>
<when >2025-07-07T04:51:47.480Z</when>
<when >2025-07-07T04:52:07.390Z</when>
<when >2025-07-07T04:52:26.900Z</when>
<when >2025-07-07T04:52:46.820Z</when>
<when >2025-07-07T04:53:06.440Z</when>
<when >2025-07-07T04:53:26.240Z</when>
<when >2025-07-07T04:53:45.800Z</when>
<when >2025-07-07T04:54:05.660Z</when>
<when >2025-07-07T04:54:25.550Z</when>
<when >2025-07-07T04:54:45.550Z</when>
<when >2025-07-07T04:55:05.420Z</when>
<when >2025-07-07T04:55:25.120Z</when>
<when >2025-07-07T04:55:44.780Z</when>
<when >2025-07-07T04:56:04.540Z</when>
<when >2025-07-07T04:56:24.340Z</when>
<when >2025-07-07T04:56:44.010Z</when>
<when >2025-07-07T04:57:03.500Z</when>
<when >2025-07-07T04:57:23.180Z</when>
<when >2025-07-07T04:57:43.040Z</when>
<when >2025-07-07T04:58:02.740Z</when>
<when >2025-07-07T04:58:22.690Z</when>
<when >2025-07-07T04:58:42.420Z</when>
<when >2025-07-07T04:59:02.350Z</when>
<when >2025-07-07T04:59:21.970Z</when>
<when >2025-07-07T04:59:41.510Z</when>
<when >2025-07-07T05:00:01.110Z</when>
<when >2025-07-07T05:00:20.850Z</when>
<when >2025-07-07T05:00:40.820Z</when>
<when >2025-07-07T05:01:00.650Z</when>
<when >2025-07-07T05:01:20.220Z</when>
<when >2025-07-07T05:01:39.870Z</when>
<when >2025-07-07T05:01:59.490Z</when>
<when >2025-07-07T05:02:19.260Z</when>
<when >2025-07-07T05:02:39.260Z</when>
<when >2025-07-07T05:02:58.830Z</when>
<when >2025-07-07T05:03:18.460Z</when>
<when >2025-07-07T05:03:38.080Z</when>
<when >2025-07-07T05:03:57.960Z</when>
<when >2025-07-07T05:04:17.430Z</when>
<when >2025-07-07T05:04:37.190Z</when>
<when >2025-07-07T05:04:56.750Z</when>
<when >2025-07-07T05:05:16.590Z</when>
<when >2025-07-07T05:05:36.350Z</when>
<when >2025-07-07T05:05:56.290Z</when>
<when >2025-07-07T05:06:15.740Z</when>
<when >2025-07-07T05:06:35.440Z</when>
<when >2025-07-07T05:06:55.120Z</when>
<when >2025-07-07T05:07:14.790Z</when>
<when >2025-07-07T05:07:34.520Z</when>
<when >2025-07-07T05:07:54.320Z</when>
<when >2025-07-07T05:08:14.190Z</when>
<when >2025-07-07T05:08:34.150Z</when>
<when >2025-07-07T05:08:54.050Z</when>
<when >2025-07-07T05:09:13.670Z</when>
<when >2025-07-07T05:09:33.240Z</when>
<when >2025-07-07T05:09:52.970Z</when>
<when >2025-07-07T05:10:12.640Z</when>
<when >2025-07-07T05:10:32.210Z</when>
<when >2025-07-07T05:10:51.920Z</when>
<when >2025-07-07T05:11:04.720Z</when>
<when >2025-07-07T05:11:10.990Z</when>
<when >2025-07-07T05:11:16.520Z</when>
<when >2025-07-07T05:11:22.910Z</when>
<when >2025-07-07T05:11:42.860Z</when>
<when >2025-07-07T05:12:02.770Z</when>
<when >2025-07-07T05:12:22.640Z</when>
<when >2025-07-07T05:12:42.190Z</when>
<when >2025-07-07T05:13:01.920Z</when>
<when >2025-07-07T05:13:21.510Z</when>
<when >2025-07-07T05:13:41.290Z</when>
<when >2025-07-07T05:14:01.160Z</when>
<when >2025-07-07T05:14:20.920Z</when>
<when >2025-07-07T05:14:40.860Z</when>
<when >2025-07-07T05:15:00.490Z</when>
<when >2025-07-07T05:15:20.440Z</when>
<when >2025-07-07T05:15:40.170Z</when>
<when >2025-07-07T05:16:00.040Z</when>
<when >2025-07-07T05:16:19.730Z</when>
<when >2025-07-07T05:16:39.510Z</when>
<when >2025-07-07T05:16:59.030Z</when>
<when >2025-07-07T05:17:18.810Z</when>
<when >2025-07-07T05:17:38.470Z</when>
<when >2025-07-07T05:17:58.020Z</when>
<when >2025-07-07T05:18:17.800Z</when>
<when >2025-07-07T05:18:37.380Z</when>
<when >2025-07-07T05:18:56.980Z</when>
<when >2025-07-07T05:19:16.950Z</when>
<when >2025-07-07T05:19:36.760Z</when>
<when >2025-07-07T05:19:56.630Z</when>
<when >2025-07-07T05:20:16.590Z</when>
<when >2025-07-07T05:20:36.080Z</when>
<when >2025-07-07T05:20:55.990Z</when>
<when >2025-07-07T05:21:15.940Z</when>
<when >2025-07-07T05:21:35.820Z</when>
<when >2025-07-07T05:21:55.530Z</when>
<when >2025-07-07T05:22:15.420Z</when>
<when >2025-07-07T05:22:35.170Z</when>
<when >2025-07-07T05:22:54.630Z</when>
<when >2025-07-07T05:23:14.350Z</when>
<when >2025-07-07T05:23:33.990Z</when>
<when >2025-07-07T05:23:53.740Z</when>
<when >2025-07-07T05:24:13.360Z</when>
<when >2025-07-07T05:24:33.150Z</when>
<when >2025-07-07T05:24:52.810Z</when>
<when >2025-07-07T05:25:12.530Z</when>
<when >2025-07-07T05:25:32.370Z</when>
<when >2025-07-07T05:25:52.240Z</when>
<when >2025-07-07T05:26:11.770Z</when>
<when >2025-07-07T05:26:31.380Z</when>
<when >2025-07-07T05:26:50.790Z</when>
<when >2025-07-07T05:27:10.720Z</when>
<when >2025-07-07T05:27:30.390Z</when>
<when >2025-07-07T05:27:50.170Z</when>
<when >2025-07-07T05:28:09.780Z</when>
<when >2025-07-07T05:28:29.600Z</when>
<when >2025-07-07T05:28:49.480Z</when>
<when >2025-07-07T05:29:09.320Z</when>
<when >2025-07-07T05:29:28.760Z</when>
<when >2025-07-07T05:29:48.390Z</when>
<when >2025-07-07T05:30:07.900Z</when>
<when >2025-07-07T05:30:27.690Z</when>
<when >2025-07-07T05:30:47.580Z</when>
<when >2025-07-07T05:31:07.490Z</when>
<when >2025-07-07T05:31:27.380Z</when>
<when >2025-07-07T05:31:47.110Z</when>
<when >2025-07-07T05:32:07.110Z</when>
<when >2025-07-07T05:32:19.080Z</when>
<when >2025-07-07T05:32:23.140Z</when>
<when >2025-07-07T05:32:26.760Z</when>
<when >2025-07-07T05:32:40.400Z</when>
<when >2025-07-07T05:32:46.960Z</when>
<when >2025-07-07T05:33:06.810Z</when>
<when >2025-07-07T05:33:26.650Z</when>
<when >2025-07-07T05:33:46.540Z</when>
<when >2025-07-07T05:34:06.350Z</when>
<when >2025-07-07T05:34:26.080Z</when>
<when >2025-07-07T05:34:45.810Z</when>
<when >2025-07-07T05:35:05.670Z</when>
<when >2025-07-07T05:35:25.540Z</when>
<when >2025-07-07T05:35:45.150Z</when>
<when >2025-07-07T05:36:04.770Z</when>
<when >2025-07-07T05:36:24.560Z</when>
<when >2025-07-07T05:36:44.420Z</when>
<when >2025-07-07T05:37:04.030Z</when>
<when >2025-07-07T05:37:23.760Z</when>
<when >2025-07-07T05:37:43.370Z</when>
<when >2025-07-07T05:38:02.910Z</when>
<when >2025-07-07T05:38:22.540Z</when>
<when >2025-07-07T05:38:42.340Z</when>
<when >2025-07-07T05:39:02.080Z</when>
<when >2025-07-07T05:39:22.060Z</when>
<when >2025-07-07T05:39:41.640Z</when>
<when >2025-07-07T05:40:01.210Z</when>
<when >2025-07-07T05:40:21.080Z</when>
<when >2025-07-07T05:40:40.450Z</when>
<when >2025-07-07T05:40:59.950Z</when>
<when >2025-07-07T05:41:19.600Z</when>
<when >2025-07-07T05:41:39.460Z</when>
<when >2025-07-07T05:41:59.250Z</when>
<when >2025-07-07T05:42:18.860Z</when>
<when >2025-07-07T05:42:38.810Z</when>
<when >2025-07-07T05:42:58.740Z</when>
<when >2025-07-07T05:43:18.420Z</when>
<when >2025-07-07T05:43:38.370Z</when>
<when >2025-07-07T05:43:58.190Z</when>
<when >2025-07-07T05:44:17.620Z</when>
<when >2025-07-07T05:44:37.430Z</when>
<when >2025-07-07T05:44:57.140Z</when>
<when >2025-07-07T05:45:17.130Z</when>
<when >2025-07-07T05:45:36.890Z</when>
<when >2025-07-07T05:45:56.750Z</when>
<when >2025-07-07T05:46:16.570Z</when>
<when >2025-07-07T05:46:36.440Z</when>
<when >2025-07-07T05:46:56.090Z</when>
<when >2025-07-07T05:47:15.840Z</when>
<when >2025-07-07T05:47:35.530Z</when>
<when >2025-07-07T05:47:55.140Z</when>
<when >2025-07-07T05:48:14.840Z</when>
<when >2025-07-07T05:48:34.790Z</when>
<when >2025-07-07T05:48:54.560Z</when>
<when >2025-07-07T05:49:14.110Z</when>
<when >2025-07-07T05:49:33.670Z</when>
<when >2025-07-07T05:49:53.340Z</when>
<when >2025-07-07T05:50:12.810Z</when>
<when >2025-07-07T05:50:32.790Z</when>
<when >2025-07-07T05:50:52.720Z</when>
<when >2025-07-07T05:51:12.630Z</when>
<when >2025-07-07T05:51:32.580Z</when>
<when >2025-07-07T05:51:52.430Z</when>
<when >2025-07-07T05:52:11.750Z</when>
<when >2025-07-07T05:52:31.450Z</when>
<when >2025-07-07T05:52:51.350Z</when>
<when >2025-07-07T05:53:11.060Z</when>
<when >2025-07-07T05:53:31.010Z</when>
<when >2025-07-07T05:53:50.960Z</when>
<when >2025-07-07T05:54:10.740Z</when>
<when >2025-07-07T05:54:30.370Z</when>
<when >2025-07-07T05:54:49.870Z</when>
<when >2025-07-07T05:55:09.440Z</when>
<when >2025-07-07T05:55:29.220Z</when>
<when >2025-07-07T05:55:49.110Z</when>
<when >2025-07-07T05:56:08.770Z</when>
<when >2025-07-07T05:56:28.340Z</when>
<when >2025-07-07T05:56:48.180Z</when>
<when >2025-07-07T05:57:07.600Z</when>
<when >2025-07-07T05:57:27.130Z</when>
<when >2025-07-07T05:57:46.830Z</when>
<when >2025-07-07T05:58:06.830Z</when>
<when >2025-07-07T05:58:26.560Z</when>
<when >2025-07-07T05:58:46.370Z</when>
<when >2025-07-07T05:59:06.040Z</when>
<when >2025-07-07T05:59:25.930Z</when>
<when >2025-07-07T05:59:45.910Z</when>
<when >2025-07-07T06:00:05.360Z</when>
<when >2025-07-07T06:00:24.750Z</when>
<when >2025-07-07T06:00:44.400Z</when>
<when >2025-07-07T06:01:04.150Z</when>
<when >2025-07-07T06:01:23.960Z</when>
<when >2025-07-07T06:01:43.550Z</when>
<when >2025-07-07T06:02:03.240Z</when>
<when >2025-07-07T06:02:22.720Z</when>
<when >2025-07-07T06:02:42.240Z</when>
<when >2025-07-07T06:03:01.770Z</when>
<when >2025-07-07T06:03:21.330Z</when>
<when >2025-07-07T06:03:40.760Z</when>
<when >2025-07-07T06:04:00.720Z</when>
<when >2025-07-07T06:04:20.350Z</when>
<when >2025-07-07T06:04:39.830Z</when>
<when >2025-07-07T06:04:59.780Z</when>
<when >2025-07-07T06:05:19.690Z</when>
<when >2025-07-07T06:05:39.380Z</when>
<when >2025-07-07T06:05:59.300Z</when>
<when >2025-07-07T06:06:19.300Z</when>
<when >2025-07-07T06:06:38.870Z</when>
<when >2025-07-07T06:06:58.730Z</when>
<when >2025-07-07T06:07:18.380Z</when>
<when >2025-07-07T06:07:37.840Z</when>
<when >2025-07-07T06:07:57.800Z</when>
<when >2025-07-07T06:08:17.610Z</when>
<when >2025-07-07T06:08:37.320Z</when>
<when >2025-07-07T06:08:57.110Z</when>
<when >2025-07-07T06:09:09.420Z</when>
<when >2025-07-07T06:09:15.240Z</when>
<when >2025-07-07T06:09:20.710Z</when>
<when >2025-07-07T06:09:25.260Z</when>
<when >2025-07-07T06:09:31.420Z</when>
<when >2025-07-07T06:09:51.170Z</when>
<when >2025-07-07T06:10:10.820Z</when>
<when >2025-07-07T06:10:30.530Z</when>
<when >2025-07-07T06:10:50.380Z</when>
<when >2025-07-07T06:11:10.280Z</when>
<when >2025-07-07T06:11:29.980Z</when>
<when >2025-07-07T06:11:49.720Z</when>
<when >2025-07-07T06:12:09.330Z</when>
<when >2025-07-07T06:12:28.920Z</when>
<when >2025-07-07T06:12:48.690Z</when>
<when >2025-07-07T06:13:08.400Z</when>
<when >2025-07-07T06:13:28.340Z</when>
<when >2025-07-07T06:13:48.120Z</when>
<when >2025-07-07T06:14:07.850Z</when>
<when >2025-07-07T06:14:27.800Z</when>
<when >2025-07-07T06:14:47.720Z</when>
<when >2025-07-07T06:15:07.620Z</when>
<when >2025-07-07T06:15:27.600Z</when>
<when >2025-07-07T06:15:47.410Z</when>
<when >2025-07-07T06:16:06.810Z</when>
<when >2025-07-07T06:16:26.760Z</when>
<when >2025-07-07T06:16:46.730Z</when>
<when >2025-07-07T06:17:06.650Z</when>
<when >2025-07-07T06:17:26.090Z</when>
<when >2025-07-07T06:17:45.900Z</when>
<when >2025-07-07T06:18:05.550Z</when>
<when >2025-07-07T06:18:25.210Z</when>
<when >2025-07-07T06:18:44.910Z</when>
<when >2025-07-07T06:19:04.710Z</when>
<when >2025-07-07T06:19:24.530Z</when>
<when >2025-07-07T06:19:44.410Z</when>
<when >2025-07-07T06:20:04.290Z</when>
<when >2025-07-07T06:20:24.200Z</when>
<when >2025-07-07T06:20:43.840Z</when>
<when >2025-07-07T06:21:03.560Z</when>
<when >2025-07-07T06:21:23.310Z</when>
<when >2025-07-07T06:21:43.080Z</when>
<when >2025-07-07T06:22:02.740Z</when>
<when >2025-07-07T06:22:22.080Z</when>
<when >2025-07-07T06:22:41.750Z</when>
<when >2025-07-07T06:23:01.590Z</when>
<when >2025-07-07T06:23:21.150Z</when>
<when >2025-07-07T06:23:40.610Z</when>
<when >2025-07-07T06:24:00.580Z</when>
<when >2025-07-07T06:24:20.400Z</when>
<when >2025-07-07T06:24:39.990Z</when>
<when >2025-07-07T06:24:59.830Z</when>
<when >2025-07-07T06:25:19.750Z</when>
<when >2025-07-07T06:25:31.250Z</when>
<when >2025-07-07T06:25:40.170Z</when>
<when >2025-07-07T06:25:48.900Z</when>
<when >2025-07-07T06:25:58.100Z</when>
<when >2025-07-07T06:26:07.410Z</when>
<when >2025-07-07T06:26:19.160Z</when>
<when >2025-07-07T06:26:38.450Z</when>
<when >2025-07-07T06:26:58.040Z</when>
<when >2025-07-07T06:27:17.960Z</when>
<when >2025-07-07T06:27:37.790Z</when>
<when >2025-07-07T06:27:57.670Z</when>
<when >2025-07-07T06:28:17.260Z</when>
<when >2025-07-07T06:28:36.960Z</when>
<when >2025-07-07T06:28:56.920Z</when>
<when >2025-07-07T06:29:16.700Z</when>
<when >2025-07-07T06:29:36.590Z</when>
<when >2025-07-07T06:29:56.280Z</when>
<when >2025-07-07T06:30:16.230Z</when>
<when >2025-07-07T06:30:36.010Z</when>
<when >2025-07-07T06:30:55.850Z</when>
<when >2025-07-07T06:31:15.760Z</when>
<when >2025-07-07T06:31:35.640Z</when>
<when >2025-07-07T06:31:55.210Z</when>
<when >2025-07-07T06:32:15.100Z</when>
<when >2025-07-07T06:32:34.890Z</when>
<when >2025-07-07T06:32:54.880Z</when>
<when >2025-07-07T06:33:14.730Z</when>
<when >2025-07-07T06:33:34.530Z</when>
<when >2025-07-07T06:33:54.000Z</when>
<when >2025-07-07T06:34:13.810Z</when>
<when >2025-07-07T06:34:33.500Z</when>
<when >2025-07-07T06:34:53.220Z</when>
<when >2025-07-07T06:35:13.160Z</when>
<when >2025-07-07T06:35:33.160Z</when>
<when >2025-07-07T06:35:52.990Z</when>
<when >2025-07-07T06:36:12.360Z</when>
<when >2025-07-07T06:36:32.310Z</when>
<when >2025-07-07T06:36:52.290Z</when>
<when >2025-07-07T06:37:12.220Z</when>
<when >2025-07-07T06:37:31.670Z</when>
<when >2025-07-07T06:37:51.170Z</when>
<when >2025-07-07T06:38:01.780Z</when>
<when >2025-07-07T06:38:10.490Z</when>
<when >2025-07-07T06:38:18.630Z</when>
<when >2025-07-07T06:38:31.250Z</when>
<when >2025-07-07T06:38:50.820Z</when>
<when >2025-07-07T06:39:10.650Z</when>
<when >2025-07-07T06:39:30.360Z</when>
<when >2025-07-07T06:39:50.120Z</when>
<when >2025-07-07T06:40:10.080Z</when>
<when >2025-07-07T06:40:29.970Z</when>
<when >2025-07-07T06:40:49.690Z</when>
<when >2025-07-07T06:41:09.600Z</when>
<when >2025-07-07T06:41:29.180Z</when>
<when >2025-07-07T06:41:49.110Z</when>
<when >2025-07-07T06:42:08.780Z</when>
<when >2025-07-07T06:42:28.440Z</when>
<when >2025-07-07T06:42:48.210Z</when>
<when >2025-07-07T06:43:08.010Z</when>
<when >2025-07-07T06:43:27.580Z</when>
<when >2025-07-07T06:43:47.180Z</when>
<when >2025-07-07T06:44:07.020Z</when>
<when >2025-07-07T06:44:26.660Z</when>
<when >2025-07-07T06:44:46.280Z</when>
<when >2025-07-07T06:45:06.140Z</when>
<when >2025-07-07T06:45:25.980Z</when>
<when >2025-07-07T06:45:45.600Z</when>
<when >2025-07-07T06:46:05.390Z</when>
<when >2025-07-07T06:46:24.950Z</when>
<when >2025-07-07T06:46:41.170Z</when>
<when >2025-07-07T06:46:57.090Z</when>
<when >2025-07-07T06:47:16.980Z</when>
<when >2025-07-07T06:47:36.720Z</when>
<when >2025-07-07T06:47:56.180Z</when>
<when >2025-07-07T06:48:16.050Z</when>
<when >2025-07-07T06:48:35.920Z</when>
<when >2025-07-07T06:48:55.370Z</when>
<when >2025-07-07T06:49:15.360Z</when>
<when >2025-07-07T06:49:35.030Z</when>
<when >2025-07-07T06:49:54.630Z</when>
<when >2025-07-07T06:50:14.480Z</when>
<when >2025-07-07T06:50:34.270Z</when>
<when >2025-07-07T06:50:54.260Z</when>
<when >2025-07-07T06:51:14.090Z</when>
<when >2025-07-07T06:51:31.330Z</when>
<when >2025-07-07T06:51:40.570Z</when>
<when >2025-07-07T06:51:59.600Z</when>
<when >2025-07-07T06:52:19.150Z</when>
<when >2025-07-07T06:52:38.850Z</when>
<when >2025-07-07T06:52:58.760Z</when>
<when >2025-07-07T06:53:18.010Z</when>
<when >2025-07-07T06:53:37.520Z</when>
<when >2025-07-07T06:53:57.370Z</when>
<when >2025-07-07T06:54:17.330Z</when>
<when >2025-07-07T06:54:36.940Z</when>
<when >2025-07-07T06:54:56.350Z</when>
<when >2025-07-07T06:55:15.940Z</when>
<when >2025-07-07T06:55:35.860Z</when>
<when >2025-07-07T06:55:43.150Z</when>
<when >2025-07-07T06:55:50.940Z</when>
<when >2025-07-07T06:56:06.500Z</when>
<when >2025-07-07T06:56:22.970Z</when>
<when >2025-07-07T06:56:39.800Z</when>
<when >2025-07-07T06:56:56.280Z</when>
<when >2025-07-07T06:57:12.310Z</when>
<when >2025-07-07T06:57:28.460Z</when>
<when >2025-07-07T06:57:44.720Z</when>
<when >2025-07-07T06:58:01.070Z</when>
<when >2025-07-07T06:58:17.010Z</when>
<when >2025-07-07T06:58:33.180Z</when>
<when >2025-07-07T06:58:48.620Z</when>
<when >2025-07-07T06:59:05.140Z</when>
<when >2025-07-07T06:59:21.760Z</when>
<when >2025-07-07T06:59:38.040Z</when>
<when >2025-07-07T06:59:54.320Z</when>
<when >2025-07-07T07:00:10.150Z</when>
<when >2025-07-07T07:00:26.670Z</when>
<when >2025-07-07T07:00:42.720Z</when>
<when >2025-07-07T07:00:58.990Z</when>
<when >2025-07-07T07:01:14.630Z</when>
<when >2025-07-07T07:01:30.910Z</when>
<when >2025-07-07T07:01:47.170Z</when>
<when >2025-07-07T07:02:03.760Z</when>
<when >2025-07-07T07:02:19.050Z</when>
<when >2025-07-07T07:02:35.150Z</when>
<when >2025-07-07T07:02:51.940Z</when>
<when >2025-07-07T07:03:07.960Z</when>
<when >2025-07-07T07:03:24.010Z</when>
<when >2025-07-07T07:03:38.680Z</when>
<when >2025-07-07T07:03:52.990Z</when>
<when >2025-07-07T07:04:06.090Z</when>
<when >2025-07-07T07:04:20.710Z</when>
<when >2025-07-07T07:04:35.540Z</when>
<when >2025-07-07T07:04:48.590Z</when>
<when >2025-07-07T07:05:02.060Z</when>
<when >2025-07-07T07:05:09.880Z</when>
<when >2025-07-07T07:05:21.370Z</when>
<when >2025-07-07T07:05:30.830Z</when>
<when >2025-07-07T07:05:46.270Z</when>
<when >2025-07-07T07:06:00.870Z</when>
<when >2025-07-07T07:06:13.360Z</when>
<when >2025-07-07T07:06:24.980Z</when>
<when >2025-07-07T07:06:36.560Z</when>
<when >2025-07-07T07:06:48.820Z</when>
<when >2025-07-07T07:07:01.020Z</when>
<when >2025-07-07T07:07:12.770Z</when>
<when >2025-07-07T07:07:24.090Z</when>
<when >2025-07-07T07:07:35.040Z</when>
<when >2025-07-07T07:07:46.170Z</when>
<when >2025-07-07T07:07:55.860Z</when>
<when >2025-07-07T07:08:05.990Z</when>
<when >2025-07-07T07:08:16.020Z</when>
<when >2025-07-07T07:08:25.130Z</when>
<when >2025-07-07T07:08:33.810Z</when>
<when >2025-07-07T07:08:42.450Z</when>
<when >2025-07-07T07:08:52.340Z</when>
<when >2025-07-07T07:09:02.980Z</when>
<when >2025-07-07T07:09:08.620Z</when>
<when >2025-07-07T07:09:21.340Z</when>
<when >2025-07-07T07:09:26.640Z</when>
<when >2025-07-07T07:09:35.830Z</when>
<when >2025-07-07T07:09:44.470Z</when>
<when >2025-07-07T07:09:52.750Z</when>
<when >2025-07-07T07:09:57.670Z</when>
<when >2025-07-07T07:10:09.120Z</when>
<when >2025-07-07T07:10:20.060Z</when>
<when >2025-07-07T07:10:29.170Z</when>
<when >2025-07-07T07:10:38.250Z</when>
<when >2025-07-07T07:10:46.750Z</when>
<when >2025-07-07T07:10:52.410Z</when>
<when >2025-07-07T07:10:56.170Z</when>
<when >2025-07-07T07:10:59.700Z</when>
<when >2025-07-07T07:11:02.960Z</when>
<when >2025-07-07T07:11:05.500Z</when>
<when >2025-07-07T07:11:08.650Z</when>
<when >2025-07-07T07:11:13.560Z</when>
<when >2025-07-07T07:11:23.780Z</when>
<when >2025-07-07T07:11:31.480Z</when>
<when >2025-07-07T07:11:36.950Z</when>
<when >2025-07-07T07:11:49.530Z</when>
<when >2025-07-07T07:12:02.300Z</when>
<when >2025-07-07T07:12:10.220Z</when>
<when >2025-07-07T07:12:17.630Z</when>
<when >2025-07-07T07:12:25.440Z</when>
<when >2025-07-07T07:12:33.740Z</when>
<when >2025-07-07T07:12:43.800Z</when>
<when >2025-07-07T07:12:47.940Z</when>
<when >2025-07-07T07:12:50.260Z</when>
<when >2025-07-07T07:12:53.360Z</when>
<when >2025-07-07T07:12:55.920Z</when>
<when >2025-07-07T07:12:59.130Z</when>
<when >2025-07-07T07:13:02.600Z</when>
<when >2025-07-07T07:13:05.510Z</when>
<when >2025-07-07T07:13:08.060Z</when>
<when >2025-07-07T07:13:11.140Z</when>
<when >2025-07-07T07:13:15.070Z</when>
<when >2025-07-07T07:13:19.800Z</when>
<when >2025-07-07T07:13:29.120Z</when>
<when >2025-07-07T07:13:37.630Z</when>
<when >2025-07-07T07:13:45.560Z</when>
<when >2025-07-07T07:13:53.190Z</when>
<when >2025-07-07T07:14:01.050Z</when>
<when >2025-07-07T07:14:08.890Z</when>
<when >2025-07-07T07:14:17.410Z</when>
<when >2025-07-07T07:14:25.810Z</when>
<when >2025-07-07T07:14:35.850Z</when>
<when >2025-07-07T07:14:44.960Z</when>
<when >2025-07-07T07:14:54.250Z</when>
<when >2025-07-07T07:14:59.330Z</when>
<when >2025-07-07T07:15:05.650Z</when>
<when >2025-07-07T07:15:25.100Z</when>
<when >2025-07-07T07:15:35.180Z</when>
<when >2025-07-07T07:15:38.110Z</when>
<when >2025-07-07T07:15:40.840Z</when>
<when >2025-07-07T07:15:44.380Z</when>
<when >2025-07-07T07:15:46.900Z</when>
<when >2025-07-07T07:15:49.800Z</when>
<when >2025-07-07T07:15:53.210Z</when>
<when >2025-07-07T07:15:57.620Z</when>
<when >2025-07-07T07:16:06.560Z</when>
<when >2025-07-07T07:16:15.050Z</when>
<when >2025-07-07T07:16:23.150Z</when>
<when >2025-07-07T07:16:31.730Z</when>
<when >2025-07-07T07:16:42.470Z</when>
<when >2025-07-07T07:16:51.000Z</when>
<when >2025-07-07T07:17:00.150Z</when>
<when >2025-07-07T07:17:06.340Z</when>
<when >2025-07-07T07:17:09.650Z</when>
<when >2025-07-07T07:17:12.310Z</when>
<when >2025-07-07T07:17:15.360Z</when>
<when >2025-07-07T07:17:17.410Z</when>
<when >2025-07-07T07:17:20.380Z</when>
<when >2025-07-07T07:17:23.350Z</when>
<when >2025-07-07T07:17:26.380Z</when>
<when >2025-07-07T07:17:29.470Z</when>
<when >2025-07-07T07:17:33.180Z</when>
<when >2025-07-07T07:17:35.700Z</when>
<when >2025-07-07T07:17:39.230Z</when>
<when >2025-07-07T07:17:42.170Z</when>
<when >2025-07-07T07:17:44.780Z</when>
<when >2025-07-07T07:17:47.350Z</when>
<when >2025-07-07T07:17:49.950Z</when>
<when >2025-07-07T07:17:53.230Z</when>
<when >2025-07-07T07:17:56.000Z</when>
<when >2025-07-07T07:18:01.060Z</when>
<when >2025-07-07T07:18:06.280Z</when>
<when >2025-07-07T07:18:11.270Z</when>
<when >2025-07-07T07:18:16.500Z</when>
<when >2025-07-07T07:18:21.010Z</when>
<when >2025-07-07T07:18:25.070Z</when>
<when >2025-07-07T07:18:29.480Z</when>
<when >2025-07-07T07:18:34.220Z</when>
<when >2025-07-07T07:18:38.500Z</when>
<when >2025-07-07T07:18:43.260Z</when>
<when >2025-07-07T07:18:48.050Z</when>
<when >2025-07-07T07:18:53.240Z</when>
<when >2025-07-07T07:18:58.880Z</when>
<when >2025-07-07T07:19:03.920Z</when>
<when >2025-07-07T07:19:09.340Z</when>
<when >2025-07-07T07:19:13.890Z</when>
<when >2025-07-07T07:19:17.130Z</when>
<when >2025-07-07T07:19:20.670Z</when>
<when >2025-07-07T07:19:24.380Z</when>
<when >2025-07-07T07:19:26.770Z</when>
<when >2025-07-07T07:19:29.670Z</when>
<when >2025-07-07T07:19:32.690Z</when>
<when >2025-07-07T07:19:36.030Z</when>
<when >2025-07-07T07:19:39.500Z</when>
<when >2025-07-07T07:19:45.190Z</when>
<when >2025-07-07T07:19:50.950Z</when>
<when >2025-07-07T07:19:56.640Z</when>
<when >2025-07-07T07:20:02.510Z</when>
<when >2025-07-07T07:20:08.470Z</when>
<when >2025-07-07T07:20:14.430Z</when>
<when >2025-07-07T07:20:19.720Z</when>
<when >2025-07-07T07:20:26.130Z</when>
<when >2025-07-07T07:20:31.570Z</when>
<when >2025-07-07T07:20:37.870Z</when>
<when >2025-07-07T07:20:44.020Z</when>
<when >2025-07-07T07:20:48.470Z</when>
<when >2025-07-07T07:21:01.260Z</when>
<when >2025-07-07T07:21:21.070Z</when>
<when >2025-07-07T07:21:40.750Z</when>
<when >2025-07-07T07:22:00.410Z</when>
<when >2025-07-07T07:22:10.460Z</when>
<when >2025-07-07T07:22:15.410Z</when>
<when >2025-07-07T07:22:19.650Z</when>
<when >2025-07-07T07:22:25.330Z</when>
<when >2025-07-07T07:22:32.250Z</when>
<when >2025-07-07T07:22:37.170Z</when>
<when >2025-07-07T07:22:39.590Z</when>
<when >2025-07-07T07:22:41.940Z</when>
<when >2025-07-07T07:22:44.760Z</when>
<when >2025-07-07T07:22:48.940Z</when>
<when >2025-07-07T07:22:55.460Z</when>
<when >2025-07-07T07:23:01.510Z</when>
<when >2025-07-07T07:23:07.460Z</when>
<when >2025-07-07T07:23:13.350Z</when>
<when >2025-07-07T07:23:19.490Z</when>
<when >2025-07-07T07:23:25.150Z</when>
<when >2025-07-07T07:23:31.900Z</when>
<when >2025-07-07T07:23:38.150Z</when>
<when >2025-07-07T07:23:44.830Z</when>
<when >2025-07-07T07:23:51.220Z</when>
<when >2025-07-07T07:23:58.150Z</when>
<when >2025-07-07T07:24:04.010Z</when>
<when >2025-07-07T07:24:12.240Z</when>
<when >2025-07-07T07:24:19.360Z</when>
<when >2025-07-07T07:24:23.890Z</when>
<when >2025-07-07T07:24:28.950Z</when>
<when >2025-07-07T07:24:33.780Z</when>
<when >2025-07-07T07:24:41.860Z</when>
<when >2025-07-07T07:24:49.710Z</when>
<when >2025-07-07T07:25:00.230Z</when>
<when >2025-07-07T07:25:07.850Z</when>
<when >2025-07-07T07:25:15.490Z</when>
<when >2025-07-07T07:25:24.010Z</when>
<when >2025-07-07T07:25:30.170Z</when>
<when >2025-07-07T07:25:38.650Z</when>
<when >2025-07-07T07:25:47.160Z</when>
<when >2025-07-07T07:25:56.780Z</when>
<when >2025-07-07T07:26:03.820Z</when>
<when >2025-07-07T07:26:10.550Z</when>
<when >2025-07-07T07:26:18.220Z</when>
<when >2025-07-07T07:26:22.350Z</when>
<when >2025-07-07T07:26:25.170Z</when>
<when >2025-07-07T07:26:27.220Z</when>
<when >2025-07-07T07:26:29.130Z</when>
<when >2025-07-07T07:26:31.140Z</when>
<when >2025-07-07T07:26:31.910Z</when>
<when >2025-07-07T07:26:33.660Z</when>
<when >2025-07-07T07:26:33.660Z</when>
<gx:coord >20.960423 52.173421 113</gx:coord>
<gx:coord >20.961836 52.171791 113</gx:coord>
<gx:coord >20.962906 52.170593 113</gx:coord>
<gx:coord >20.96364 52.169743 113</gx:coord>
<gx:coord >20.963821 52.169495 113</gx:coord>
<gx:coord >20.964896 52.168253 113</gx:coord>
<gx:coord >20.966568 52.166382 113</gx:coord>
<gx:coord >20.967172 52.165739 113</gx:coord>
<gx:coord >20.967712 52.1651 113</gx:coord>
<gx:coord >20.968584 52.16411 113</gx:coord>
<gx:coord >20.969134 52.163505 113</gx:coord>
<gx:coord >20.971375 52.16098 113</gx:coord>
<gx:coord >20.971832 52.160339 120</gx:coord>
<gx:coord >20.972519 52.159607 120</gx:coord>
<gx:coord >20.973528 52.15857 136</gx:coord>
<gx:coord >20.974503 52.15741 143</gx:coord>
<gx:coord >20.976181 52.155533 181</gx:coord>
<gx:coord >20.977936 52.153656 204</gx:coord>
<gx:coord >20.979492 52.151913 242</gx:coord>
<gx:coord >20.981064 52.150177 273</gx:coord>
<gx:coord >20.982742 52.148254 311</gx:coord>
<gx:coord >20.98465 52.146103 341</gx:coord>
<gx:coord >20.986476 52.143953 372</gx:coord>
<gx:coord >20.988517 52.141532 402</gx:coord>
<gx:coord >20.9904 52.139298 433</gx:coord>
<gx:coord >20.992362 52.137063 471</gx:coord>
<gx:coord >20.994402 52.134689 501</gx:coord>
<gx:coord >20.996704 52.132141 532</gx:coord>
<gx:coord >20.99864 52.129848 555</gx:coord>
<gx:coord >21.000214 52.128021 593</gx:coord>
<gx:coord >21.00235 52.125504 616</gx:coord>
<gx:coord >21.003876 52.123627 646</gx:coord>
<gx:coord >21.005325 52.121887 692</gx:coord>
<gx:coord >21.006801 52.119932 715</gx:coord>
<gx:coord >21.008057 52.117884 753</gx:coord>
<gx:coord >21.008911 52.115891 776</gx:coord>
<gx:coord >21.009369 52.114288 806</gx:coord>
<gx:coord >21.009598 52.112411 837</gx:coord>
<gx:coord >21.009521 52.110352 860</gx:coord>
<gx:coord >21.009216 52.108841 905</gx:coord>
<gx:coord >21.008606 52.107363 936</gx:coord>
<gx:coord >21.007767 52.105774 966</gx:coord>
<gx:coord >21.006775 52.104309 1004</gx:coord>
<gx:coord >21.005783 52.103256 1027</gx:coord>
<gx:coord >21.00441 52.101974 1058</gx:coord>
<gx:coord >21.002579 52.100555 1088</gx:coord>
<gx:coord >21.001465 52.099728 1103</gx:coord>
<gx:coord >20.999756 52.098541 1149</gx:coord>
<gx:coord >20.998247 52.097494 1187</gx:coord>
<gx:coord >20.996704 52.096436 1210</gx:coord>
<gx:coord >20.994324 52.094747 1241</gx:coord>
<gx:coord >20.991891 52.092978 1271</gx:coord>
<gx:coord >20.988752 52.090651 1309</gx:coord>
<gx:coord >20.985336 52.088013 1340</gx:coord>
<gx:coord >20.982819 52.085999 1355</gx:coord>
<gx:coord >20.979919 52.08371 1378</gx:coord>
<gx:coord >20.977402 52.08165 1393</gx:coord>
<gx:coord >20.974705 52.079385 1408</gx:coord>
<gx:coord >20.971331 52.076499 1431</gx:coord>
<gx:coord >20.968584 52.074078 1446</gx:coord>
<gx:coord >20.965881 52.071762 1469</gx:coord>
<gx:coord >20.96344 52.069611 1477</gx:coord>
<gx:coord >20.960693 52.067139 1492</gx:coord>
<gx:coord >20.958226 52.064907 1515</gx:coord>
<gx:coord >20.954616 52.061602 1538</gx:coord>
<gx:coord >20.951843 52.059036 1545</gx:coord>
<gx:coord >20.948944 52.05629 1561</gx:coord>
<gx:coord >20.946062 52.053642 1583</gx:coord>
<gx:coord >20.943159 52.050942 1599</gx:coord>
<gx:coord >20.940018 52.048141 1614</gx:coord>
<gx:coord >20.935364 52.04393 1637</gx:coord>
<gx:coord >20.930838 52.040281 1652</gx:coord>
<gx:coord >20.927386 52.037907 1667</gx:coord>
<gx:coord >20.923148 52.035486 1683</gx:coord>
<gx:coord >20.91891 52.033531 1690</gx:coord>
<gx:coord >20.91362 52.03157 1705</gx:coord>
<gx:coord >20.907061 52.029667 1728</gx:coord>
<gx:coord >20.897522 52.027222 1759</gx:coord>
<gx:coord >20.888463 52.025059 1789</gx:coord>
<gx:coord >20.87822 52.02269 1820</gx:coord>
<gx:coord >20.867118 52.020171 1850</gx:coord>
<gx:coord >20.854568 52.017242 1888</gx:coord>
<gx:coord >20.83168 52.011932 1903</gx:coord>
<gx:coord >20.795079 52.003272 1903</gx:coord>
<gx:coord >20.779149 51.999501 1911</gx:coord>
<gx:coord >20.773849 51.998199 1919</gx:coord>
<gx:coord >20.769104 51.997034 1934</gx:coord>
<gx:coord >20.763218 51.995591 1964</gx:coord>
<gx:coord >20.757675 51.994263 1995</gx:coord>
<gx:coord >20.752703 51.993031 2025</gx:coord>
<gx:coord >20.749054 51.992111 2048</gx:coord>
<gx:coord >20.744705 51.991058 2079</gx:coord>
<gx:coord >20.740814 51.990097 2117</gx:coord>
<gx:coord >20.733006 51.988189 2185</gx:coord>
<gx:coord >20.72525 51.986298 2246</gx:coord>
<gx:coord >20.71739 51.984372 2307</gx:coord>
<gx:coord >20.708601 51.98223 2368</gx:coord>
<gx:coord >20.698929 51.979843 2429</gx:coord>
<gx:coord >20.690473 51.977389 2483</gx:coord>
<gx:coord >20.684509 51.97522 2521</gx:coord>
<gx:coord >20.680237 51.973343 2559</gx:coord>
<gx:coord >20.675092 51.970499 2589</gx:coord>
<gx:coord >20.671875 51.968404 2627</gx:coord>
<gx:coord >20.668108 51.965425 2658</gx:coord>
<gx:coord >20.66452 51.961899 2696</gx:coord>
<gx:coord >20.661987 51.958768 2734</gx:coord>
<gx:coord >20.659561 51.954712 2795</gx:coord>
<gx:coord >20.657043 51.949737 2848</gx:coord>
<gx:coord >20.654689 51.944477 2916</gx:coord>
<gx:coord >20.652008 51.938644 2969</gx:coord>
<gx:coord >20.649261 51.932693 3038</gx:coord>
<gx:coord >20.645979 51.926088 3099</gx:coord>
<gx:coord >20.643463 51.921204 3152</gx:coord>
<gx:coord >20.642395 51.919144 3175</gx:coord>
<gx:coord >20.638275 51.911362 3228</gx:coord>
<gx:coord >20.636826 51.908798 3244</gx:coord>
<gx:coord >20.635856 51.907002 3274</gx:coord>
<gx:coord >20.634842 51.90509 3297</gx:coord>
<gx:coord >20.632167 51.900345 3350</gx:coord>
<gx:coord >20.630205 51.896761 3426</gx:coord>
<gx:coord >20.628357 51.893316 3480</gx:coord>
<gx:coord >20.626755 51.890429 3526</gx:coord>
<gx:coord >20.624975 51.887283 3587</gx:coord>
<gx:coord >20.623119 51.883896 3647</gx:coord>
<gx:coord >20.619736 51.877814 3747</gx:coord>
<gx:coord >20.615622 51.870529 3853</gx:coord>
<gx:coord >20.611649 51.863336 3968</gx:coord>
<gx:coord >20.607457 51.855743 4044</gx:coord>
<gx:coord >20.600701 51.843475 4166</gx:coord>
<gx:coord >20.593278 51.829742 4280</gx:coord>
<gx:coord >20.586548 51.817296 4394</gx:coord>
<gx:coord >20.57962 51.80452 4509</gx:coord>
<gx:coord >20.571677 51.789917 4623</gx:coord>
<gx:coord >20.563437 51.774628 4730</gx:coord>
<gx:coord >20.555643 51.759796 4851</gx:coord>
<gx:coord >20.548442 51.746246 4973</gx:coord>
<gx:coord >20.540619 51.731314 5088</gx:coord>
<gx:coord >20.532913 51.716557 5209</gx:coord>
<gx:coord >20.531006 51.712926 5231</gx:coord>
<gx:coord >20.522308 51.6964 5292</gx:coord>
<gx:coord >20.514667 51.681976 5338</gx:coord>
<gx:coord >20.505829 51.665163 5391</gx:coord>
<gx:coord >20.497742 51.649801 5437</gx:coord>
<gx:coord >20.487595 51.630528 5491</gx:coord>
<gx:coord >20.478961 51.614044 5567</gx:coord>
<gx:coord >20.469208 51.595381 5666</gx:coord>
<gx:coord >20.458473 51.574997 5772</gx:coord>
<gx:coord >20.448227 51.555765 5879</gx:coord>
<gx:coord >20.438505 51.537369 6001</gx:coord>
<gx:coord >20.428848 51.518989 6115</gx:coord>
<gx:coord >20.419235 51.500601 6221</gx:coord>
<gx:coord >20.409554 51.481979 6335</gx:coord>
<gx:coord >20.400085 51.463778 6450</gx:coord>
<gx:coord >20.389957 51.444351 6556</gx:coord>
<gx:coord >20.381569 51.429428 6617</gx:coord>
<gx:coord >20.376298 51.421051 6678</gx:coord>
<gx:coord >20.367584 51.408521 6770</gx:coord>
<gx:coord >20.358505 51.396743 6861</gx:coord>
<gx:coord >20.352767 51.389832 6899</gx:coord>
<gx:coord >20.344972 51.381134 6945</gx:coord>
<gx:coord >20.337846 51.374496 6991</gx:coord>
<gx:coord >20.331314 51.369232 7029</gx:coord>
<gx:coord >20.323486 51.363737 7074</gx:coord>
<gx:coord >20.31335 51.357513 7135</gx:coord>
<gx:coord >20.299914 51.349548 7189</gx:coord>
<gx:coord >20.272751 51.333106 7295</gx:coord>
<gx:coord >20.244462 51.315445 7372</gx:coord>
<gx:coord >20.218506 51.299076 7478</gx:coord>
<gx:coord >20.192108 51.282504 7576</gx:coord>
<gx:coord >20.166073 51.266281 7683</gx:coord>
<gx:coord >20.13855 51.249219 7775</gx:coord>
<gx:coord >20.109657 51.231445 7874</gx:coord>
<gx:coord >20.082321 51.214444 7965</gx:coord>
<gx:coord >20.053787 51.196755 8056</gx:coord>
<gx:coord >20.026321 51.179716 8156</gx:coord>
<gx:coord >19.996796 51.161375 8239</gx:coord>
<gx:coord >19.964905 51.141449 8323</gx:coord>
<gx:coord >19.947609 51.130692 8361</gx:coord>
<gx:coord >19.925116 51.116684 8468</gx:coord>
<gx:coord >19.90203 51.102402 8567</gx:coord>
<gx:coord >19.883175 51.090775 8636</gx:coord>
<gx:coord >19.84726 51.06855 8703</gx:coord>
<gx:coord >19.825497 51.055023 8772</gx:coord>
<gx:coord >19.79744 51.037546 8871</gx:coord>
<gx:coord >19.763184 51.015946 8947</gx:coord>
<gx:coord >19.735083 50.997437 9008</gx:coord>
<gx:coord >19.704742 50.976935 9099</gx:coord>
<gx:coord >19.675177 50.956879 9183</gx:coord>
<gx:coord >19.646454 50.937459 9267</gx:coord>
<gx:coord >19.617351 50.917877 9366</gx:coord>
<gx:coord >19.587631 50.897936 9449</gx:coord>
<gx:coord >19.553375 50.875032 9525</gx:coord>
<gx:coord >19.517954 50.851273 9609</gx:coord>
<gx:coord >19.48555 50.829504 9685</gx:coord>
<gx:coord >19.453076 50.807693 9769</gx:coord>
<gx:coord >19.417496 50.783743 9845</gx:coord>
<gx:coord >19.385376 50.76205 9928</gx:coord>
<gx:coord >19.352646 50.739844 10004</gx:coord>
<gx:coord >19.320126 50.71788 10096</gx:coord>
<gx:coord >19.287643 50.695899 10172</gx:coord>
<gx:coord >19.257845 50.675674 10256</gx:coord>
<gx:coord >19.230974 50.657493 10355</gx:coord>
<gx:coord >19.202656 50.638229 10446</gx:coord>
<gx:coord >19.171432 50.616852 10529</gx:coord>
<gx:coord >19.139629 50.595245 10605</gx:coord>
<gx:coord >19.119897 50.581833 10643</gx:coord>
<gx:coord >19.101177 50.569061 10651</gx:coord>
<gx:coord >19.062615 50.542649 10658</gx:coord>
<gx:coord >19.023189 50.515686 10658</gx:coord>
<gx:coord >18.984014 50.488861 10658</gx:coord>
<gx:coord >18.945181 50.462253 10657</gx:coord>
<gx:coord >18.906387 50.435532 10657</gx:coord>
<gx:coord >18.868007 50.408981 10657</gx:coord>
<gx:coord >18.829555 50.382294 10657</gx:coord>
<gx:coord >18.791247 50.355789 10657</gx:coord>
<gx:coord >18.752103 50.328742 10650</gx:coord>
<gx:coord >18.713874 50.302253 10642</gx:coord>
<gx:coord >18.675674 50.275772 10642</gx:coord>
<gx:coord >18.637192 50.249044 10642</gx:coord>
<gx:coord >18.598814 50.22237 10649</gx:coord>
<gx:coord >18.560317 50.195435 10656</gx:coord>
<gx:coord >18.521613 50.168323 10664</gx:coord>
<gx:coord >18.506325 50.158127 10664</gx:coord>
<gx:coord >18.494038 50.150757 10664</gx:coord>
<gx:coord >18.466427 50.135468 10672</gx:coord>
<gx:coord >18.423033 50.111343 10664</gx:coord>
<gx:coord >18.380777 50.087448 10664</gx:coord>
<gx:coord >18.338061 50.063232 10656</gx:coord>
<gx:coord >18.295127 50.038925 10656</gx:coord>
<gx:coord >18.252194 50.014572 10649</gx:coord>
<gx:coord >18.209116 49.990173 10656</gx:coord>
<gx:coord >18.166616 49.966049 10655</gx:coord>
<gx:coord >18.123359 49.94152 10655</gx:coord>
<gx:coord >18.081121 49.917359 10655</gx:coord>
<gx:coord >18.038215 49.89278 10663</gx:coord>
<gx:coord >17.99575 49.868408 10663</gx:coord>
<gx:coord >17.952848 49.843853 10671</gx:coord>
<gx:coord >17.909942 49.81932 10671</gx:coord>
<gx:coord >17.867481 49.79488 10671</gx:coord>
<gx:coord >17.824811 49.770309 10655</gx:coord>
<gx:coord >17.783034 49.746185 10648</gx:coord>
<gx:coord >17.741185 49.72197 10647</gx:coord>
<gx:coord >17.699568 49.697912 10654</gx:coord>
<gx:coord >17.657848 49.67363 10647</gx:coord>
<gx:coord >17.616649 49.649689 10647</gx:coord>
<gx:coord >17.57471 49.625244 10639</gx:coord>
<gx:coord >17.532621 49.600804 10632</gx:coord>
<gx:coord >17.490828 49.576457 10632</gx:coord>
<gx:coord >17.449852 49.55253 10632</gx:coord>
<gx:coord >17.408126 49.528015 10639</gx:coord>
<gx:coord >17.367072 49.503937 10639</gx:coord>
<gx:coord >17.325512 49.479584 10647</gx:coord>
<gx:coord >17.284674 49.455643 10654</gx:coord>
<gx:coord >17.243187 49.431198 10654</gx:coord>
<gx:coord >17.201771 49.406821 10654</gx:coord>
<gx:coord >17.160355 49.382288 10654</gx:coord>
<gx:coord >17.119516 49.357864 10647</gx:coord>
<gx:coord >17.079163 49.333649 10647</gx:coord>
<gx:coord >17.038668 49.309708 10639</gx:coord>
<gx:coord >16.997729 49.285413 10632</gx:coord>
<gx:coord >16.957108 49.261299 10632</gx:coord>
<gx:coord >16.916705 49.237464 10639</gx:coord>
<gx:coord >16.87659 49.213536 10647</gx:coord>
<gx:coord >16.836548 49.189407 10647</gx:coord>
<gx:coord >16.796546 49.165512 10647</gx:coord>
<gx:coord >16.756334 49.141388 10647</gx:coord>
<gx:coord >16.716204 49.117173 10639</gx:coord>
<gx:coord >16.676612 49.093369 10632</gx:coord>
<gx:coord >16.636336 49.069085 10624</gx:coord>
<gx:coord >16.597032 49.045166 10623</gx:coord>
<gx:coord >16.55777 49.021462 10623</gx:coord>
<gx:coord >16.518296 48.997513 10615</gx:coord>
<gx:coord >16.478336 48.97328 10638</gx:coord>
<gx:coord >16.437571 48.948421 10631</gx:coord>
<gx:coord >16.397165 48.923813 10631</gx:coord>
<gx:coord >16.357445 48.899643 10631</gx:coord>
<gx:coord >16.317726 48.875381 10638</gx:coord>
<gx:coord >16.278147 48.851212 10631</gx:coord>
<gx:coord >16.238516 48.82692 10631</gx:coord>
<gx:coord >16.198566 48.802368 10623</gx:coord>
<gx:coord >16.159443 48.778319 10623</gx:coord>
<gx:coord >16.120268 48.754298 10623</gx:coord>
<gx:coord >16.081238 48.730184 10623</gx:coord>
<gx:coord >16.041701 48.705744 10614</gx:coord>
<gx:coord >16.00296 48.68177 10622</gx:coord>
<gx:coord >15.963557 48.657349 10622</gx:coord>
<gx:coord >15.924683 48.633216 10630</gx:coord>
<gx:coord >15.885385 48.608871 10645</gx:coord>
<gx:coord >15.846116 48.584383 10645</gx:coord>
<gx:coord >15.806509 48.559708 10645</gx:coord>
<gx:coord >15.768055 48.535736 10637</gx:coord>
<gx:coord >15.728971 48.511414 10637</gx:coord>
<gx:coord >15.690308 48.487061 10652</gx:coord>
<gx:coord >15.651904 48.462974 10652</gx:coord>
<gx:coord >15.613615 48.439178 10637</gx:coord>
<gx:coord >15.575794 48.415538 10637</gx:coord>
<gx:coord >15.538612 48.392075 10637</gx:coord>
<gx:coord >15.501005 48.368225 10636</gx:coord>
<gx:coord >15.463474 48.344546 10636</gx:coord>
<gx:coord >15.426684 48.321223 10636</gx:coord>
<gx:coord >15.389733 48.297821 10636</gx:coord>
<gx:coord >15.352815 48.274438 10644</gx:coord>
<gx:coord >15.316026 48.251069 10636</gx:coord>
<gx:coord >15.279588 48.227875 10629</gx:coord>
<gx:coord >15.243037 48.204529 10629</gx:coord>
<gx:coord >15.219172 48.189527 10621</gx:coord>
<gx:coord >15.206957 48.18259 10621</gx:coord>
<gx:coord >15.1955 48.176834 10621</gx:coord>
<gx:coord >15.181556 48.170563 10621</gx:coord>
<gx:coord >15.138385 48.151866 10621</gx:coord>
<gx:coord >15.095627 48.13266 10621</gx:coord>
<gx:coord >15.052986 48.113251 10622</gx:coord>
<gx:coord >15.011409 48.094374 10630</gx:coord>
<gx:coord >14.969013 48.075241 10637</gx:coord>
<gx:coord >14.927193 48.056442 10630</gx:coord>
<gx:coord >14.884827 48.037399 10630</gx:coord>
<gx:coord >14.842323 48.018494 10622</gx:coord>
<gx:coord >14.800232 47.999451 10622</gx:coord>
<gx:coord >14.757935 47.980042 10622</gx:coord>
<gx:coord >14.716187 47.960953 10607</gx:coord>
<gx:coord >14.67365 47.941589 10614</gx:coord>
<gx:coord >14.63118 47.92218 10614</gx:coord>
<gx:coord >14.588717 47.902718 10614</gx:coord>
<gx:coord >14.545969 47.883166 10622</gx:coord>
<gx:coord >14.50312 47.863632 10622</gx:coord>
<gx:coord >14.460617 47.844086 10630</gx:coord>
<gx:coord >14.417839 47.824265 10630</gx:coord>
<gx:coord >14.374786 47.804352 10637</gx:coord>
<gx:coord >14.332228 47.784801 10637</gx:coord>
<gx:coord >14.289024 47.764801 10637</gx:coord>
<gx:coord >14.246384 47.745071 10637</gx:coord>
<gx:coord >14.203674 47.725296 10630</gx:coord>
<gx:coord >14.160004 47.705154 10630</gx:coord>
<gx:coord >14.116539 47.685104 10629</gx:coord>
<gx:coord >14.072937 47.664963 10621</gx:coord>
<gx:coord >14.029259 47.644586 10621</gx:coord>
<gx:coord >13.98642 47.624588 10621</gx:coord>
<gx:coord >13.942886 47.604263 10621</gx:coord>
<gx:coord >13.899078 47.58371 10613</gx:coord>
<gx:coord >13.855476 47.563065 10621</gx:coord>
<gx:coord >13.812355 47.542694 10621</gx:coord>
<gx:coord >13.768968 47.522154 10629</gx:coord>
<gx:coord >13.725769 47.501724 10629</gx:coord>
<gx:coord >13.682908 47.481607 10621</gx:coord>
<gx:coord >13.639664 47.461304 10621</gx:coord>
<gx:coord >13.596919 47.441106 10613</gx:coord>
<gx:coord >13.553627 47.420563 10613</gx:coord>
<gx:coord >13.510226 47.399908 10606</gx:coord>
<gx:coord >13.466492 47.379099 10606</gx:coord>
<gx:coord >13.423039 47.35829 10612</gx:coord>
<gx:coord >13.379494 47.337479 10620</gx:coord>
<gx:coord >13.335149 47.316393 10635</gx:coord>
<gx:coord >13.291133 47.295305 10635</gx:coord>
<gx:coord >13.247726 47.27449 10635</gx:coord>
<gx:coord >13.204468 47.253662 10635</gx:coord>
<gx:coord >13.161903 47.233204 10620</gx:coord>
<gx:coord >13.118591 47.212395 10612</gx:coord>
<gx:coord >13.075562 47.191633 10612</gx:coord>
<gx:coord >13.03218 47.170498 10612</gx:coord>
<gx:coord >12.98941 47.14975 10612</gx:coord>
<gx:coord >12.945275 47.128275 10612</gx:coord>
<gx:coord >12.901039 47.10672 10620</gx:coord>
<gx:coord >12.856201 47.085068 10627</gx:coord>
<gx:coord >12.812383 47.0638 10627</gx:coord>
<gx:coord >12.768789 47.042526 10619</gx:coord>
<gx:coord >12.725945 47.02153 10611</gx:coord>
<gx:coord >12.682755 47.000381 10611</gx:coord>
<gx:coord >12.639489 46.979261 10611</gx:coord>
<gx:coord >12.596237 46.958084 10604</gx:coord>
<gx:coord >12.553077 46.936666 10604</gx:coord>
<gx:coord >12.511033 46.915206 10603</gx:coord>
<gx:coord >12.467972 46.892807 10603</gx:coord>
<gx:coord >12.44258 46.87964 10610</gx:coord>
<gx:coord >12.433914 46.875137 10626</gx:coord>
<gx:coord >12.426171 46.871167 10641</gx:coord>
<gx:coord >12.397401 46.856323 10732</gx:coord>
<gx:coord >12.383133 46.848999 10763</gx:coord>
<gx:coord >12.340599 46.827129 10809</gx:coord>
<gx:coord >12.298122 46.805237 10847</gx:coord>
<gx:coord >12.254646 46.782944 10908</gx:coord>
<gx:coord >12.211371 46.760559 10915</gx:coord>
<gx:coord >12.168698 46.738174 10915</gx:coord>
<gx:coord >12.12616 46.715729 10915</gx:coord>
<gx:coord >12.083018 46.69313 10915</gx:coord>
<gx:coord >12.039574 46.670574 10915</gx:coord>
<gx:coord >11.996333 46.648224 10915</gx:coord>
<gx:coord >11.95279 46.625473 10915</gx:coord>
<gx:coord >11.90918 46.602493 10915</gx:coord>
<gx:coord >11.865097 46.579331 10915</gx:coord>
<gx:coord >11.821088 46.556213 10915</gx:coord>
<gx:coord >11.777143 46.533096 10908</gx:coord>
<gx:coord >11.732796 46.509842 10923</gx:coord>
<gx:coord >11.688917 46.486725 10930</gx:coord>
<gx:coord >11.64489 46.463416 10930</gx:coord>
<gx:coord >11.600464 46.439768 10930</gx:coord>
<gx:coord >11.556313 46.416398 10923</gx:coord>
<gx:coord >11.511193 46.392792 10923</gx:coord>
<gx:coord >11.467516 46.369675 10915</gx:coord>
<gx:coord >11.424133 46.346384 10915</gx:coord>
<gx:coord >11.379982 46.322689 10909</gx:coord>
<gx:coord >11.336723 46.299599 10909</gx:coord>
<gx:coord >11.293409 46.276245 10909</gx:coord>
<gx:coord >11.249933 46.252762 10909</gx:coord>
<gx:coord >11.206055 46.229095 10909</gx:coord>
<gx:coord >11.162444 46.205704 10901</gx:coord>
<gx:coord >11.118968 46.18222 10893</gx:coord>
<gx:coord >11.074755 46.158325 10893</gx:coord>
<gx:coord >11.030273 46.13443 10893</gx:coord>
<gx:coord >10.986529 46.110855 10893</gx:coord>
<gx:coord >10.942115 46.086777 10909</gx:coord>
<gx:coord >10.897768 46.062653 10909</gx:coord>
<gx:coord >10.854492 46.039169 10909</gx:coord>
<gx:coord >10.810204 46.014653 10916</gx:coord>
<gx:coord >10.766401 45.990097 10924</gx:coord>
<gx:coord >10.721852 45.965286 10924</gx:coord>
<gx:coord >10.677681 45.940681 10931</gx:coord>
<gx:coord >10.633392 45.915962 10931</gx:coord>
<gx:coord >10.589213 45.891357 10931</gx:coord>
<gx:coord >10.54453 45.866409 10931</gx:coord>
<gx:coord >10.50092 45.841965 10932</gx:coord>
<gx:coord >10.457176 45.817337 10932</gx:coord>
<gx:coord >10.413431 45.792618 10925</gx:coord>
<gx:coord >10.369821 45.768127 10917</gx:coord>
<gx:coord >10.326144 45.743637 10918</gx:coord>
<gx:coord >10.282265 45.718964 10933</gx:coord>
<gx:coord >10.238789 45.694565 10942</gx:coord>
<gx:coord >10.196317 45.670532 10927</gx:coord>
<gx:coord >10.154045 45.646378 10927</gx:coord>
<gx:coord >10.111473 45.621984 10920</gx:coord>
<gx:coord >10.069439 45.597931 10913</gx:coord>
<gx:coord >10.02623 45.573257 10921</gx:coord>
<gx:coord >9.98307 45.548711 10936</gx:coord>
<gx:coord >9.939684 45.524231 10937</gx:coord>
<gx:coord >9.895216 45.499008 10937</gx:coord>
<gx:coord >9.85114 45.47374 10945</gx:coord>
<gx:coord >9.808848 45.449462 10946</gx:coord>
<gx:coord >9.766042 45.42465 10946</gx:coord>
<gx:coord >9.722565 45.399604 10946</gx:coord>
<gx:coord >9.679625 45.374652 10954</gx:coord>
<gx:coord >9.636417 45.349561 10962</gx:coord>
<gx:coord >9.593275 45.324562 10962</gx:coord>
<gx:coord >9.550847 45.300018 10955</gx:coord>
<gx:coord >9.508935 45.275915 10955</gx:coord>
<gx:coord >9.467272 45.251907 10955</gx:coord>
<gx:coord >9.425533 45.227687 10955</gx:coord>
<gx:coord >9.383174 45.202881 10962</gx:coord>
<gx:coord >9.341192 45.178202 10962</gx:coord>
<gx:coord >9.299391 45.153762 10962</gx:coord>
<gx:coord >9.257812 45.129593 10978</gx:coord>
<gx:coord >9.215654 45.104882 10985</gx:coord>
<gx:coord >9.174254 45.080535 10978</gx:coord>
<gx:coord >9.132647 45.056122 10970</gx:coord>
<gx:coord >9.09086 45.03154 10978</gx:coord>
<gx:coord >9.047961 45.006363 10978</gx:coord>
<gx:coord >9.005909 44.981426 10977</gx:coord>
<gx:coord >8.963667 44.956375 10977</gx:coord>
<gx:coord >8.921367 44.931289 10984</gx:coord>
<gx:coord >8.878561 44.906011 10992</gx:coord>
<gx:coord >8.835951 44.880707 10992</gx:coord>
<gx:coord >8.794087 44.855595 10999</gx:coord>
<gx:coord >8.752703 44.830811 10992</gx:coord>
<gx:coord >8.710885 44.805877 10998</gx:coord>
<gx:coord >8.668548 44.780506 10991</gx:coord>
<gx:coord >8.626295 44.755188 10991</gx:coord>
<gx:coord >8.584835 44.730423 10991</gx:coord>
<gx:coord >8.542674 44.705324 10991</gx:coord>
<gx:coord >8.50114 44.680465 10990</gx:coord>
<gx:coord >8.459669 44.655533 10997</gx:coord>
<gx:coord >8.417947 44.63031 10997</gx:coord>
<gx:coord >8.376338 44.605051 10996</gx:coord>
<gx:coord >8.335207 44.580285 11004</gx:coord>
<gx:coord >8.293108 44.554825 11019</gx:coord>
<gx:coord >8.25167 44.529543 11011</gx:coord>
<gx:coord >8.210645 44.504562 11003</gx:coord>
<gx:coord >8.168204 44.478745 10995</gx:coord>
<gx:coord >8.126198 44.453151 11002</gx:coord>
<gx:coord >8.084665 44.427826 11010</gx:coord>
<gx:coord >8.042973 44.402435 11024</gx:coord>
<gx:coord >8.001382 44.376755 11016</gx:coord>
<gx:coord >7.960801 44.35176 11016</gx:coord>
<gx:coord >7.919803 44.326575 11008</gx:coord>
<gx:coord >7.878604 44.301391 11000</gx:coord>
<gx:coord >7.838026 44.276688 11008</gx:coord>
<gx:coord >7.796304 44.251099 11014</gx:coord>
<gx:coord >7.755276 44.225883 11014</gx:coord>
<gx:coord >7.714233 44.20047 11022</gx:coord>
<gx:coord >7.672904 44.174675 11022</gx:coord>
<gx:coord >7.647008 44.158615 11022</gx:coord>
<gx:coord >7.634732 44.15181 11022</gx:coord>
<gx:coord >7.62255 44.14586 11022</gx:coord>
<gx:coord >7.611433 44.141111 11022</gx:coord>
<gx:coord >7.59685 44.135618 11036</gx:coord>
<gx:coord >7.549588 44.118256 11036</gx:coord>
<gx:coord >7.503215 44.100449 11036</gx:coord>
<gx:coord >7.456587 44.082321 11036</gx:coord>
<gx:coord >7.409831 44.064194 11028</gx:coord>
<gx:coord >7.362736 44.046005 11028</gx:coord>
<gx:coord >7.316128 44.027893 11028</gx:coord>
<gx:coord >7.269614 44.009927 11028</gx:coord>
<gx:coord >7.223576 43.992097 11036</gx:coord>
<gx:coord >7.177996 43.974408 11036</gx:coord>
<gx:coord >7.13249 43.956619 11036</gx:coord>
<gx:coord >7.087032 43.938795 11028</gx:coord>
<gx:coord >7.041386 43.920966 11021</gx:coord>
<gx:coord >6.996503 43.903336 11028</gx:coord>
<gx:coord >6.951665 43.885726 11021</gx:coord>
<gx:coord >6.906376 43.86795 11021</gx:coord>
<gx:coord >6.861485 43.850299 11028</gx:coord>
<gx:coord >6.816101 43.83247 11028</gx:coord>
<gx:coord >6.770586 43.814594 11044</gx:coord>
<gx:coord >6.724875 43.796532 11044</gx:coord>
<gx:coord >6.680198 43.778778 11051</gx:coord>
<gx:coord >6.634081 43.760422 11051</gx:coord>
<gx:coord >6.58739 43.741745 11051</gx:coord>
<gx:coord >6.540527 43.722979 11059</gx:coord>
<gx:coord >6.495028 43.704803 11059</gx:coord>
<gx:coord >6.449102 43.686493 11052</gx:coord>
<gx:coord >6.403394 43.668234 11045</gx:coord>
<gx:coord >6.35801 43.649985 11045</gx:coord>
<gx:coord >6.312626 43.631783 11045</gx:coord>
<gx:coord >6.266806 43.61348 11045</gx:coord>
<gx:coord >6.220943 43.594914 11068</gx:coord>
<gx:coord >6.173869 43.575806 11068</gx:coord>
<gx:coord >6.127177 43.5569 11075</gx:coord>
<gx:coord >6.080102 43.537857 11075</gx:coord>
<gx:coord >6.03411 43.51922 11075</gx:coord>
<gx:coord >5.987166 43.500183 11075</gx:coord>
<gx:coord >5.940595 43.481233 11075</gx:coord>
<gx:coord >5.894688 43.462566 11075</gx:coord>
<gx:coord >5.848751 43.443832 11068</gx:coord>
<gx:coord >5.803528 43.425339 11068</gx:coord>
<gx:coord >5.75805 43.406708 11075</gx:coord>
<gx:coord >5.712498 43.388036 11060</gx:coord>
<gx:coord >5.667572 43.369508 11060</gx:coord>
<gx:coord >5.623038 43.351259 11060</gx:coord>
<gx:coord >5.577589 43.332452 11068</gx:coord>
<gx:coord >5.532074 43.313599 11084</gx:coord>
<gx:coord >5.486841 43.294968 11084</gx:coord>
<gx:coord >5.440851 43.276016 11084</gx:coord>
<gx:coord >5.394159 43.256744 11091</gx:coord>
<gx:coord >5.367524 43.2453 11091</gx:coord>
<gx:coord >5.347334 43.23581 11091</gx:coord>
<gx:coord >5.328108 43.225987 11091</gx:coord>
<gx:coord >5.308249 43.215042 11099</gx:coord>
<gx:coord >5.288413 43.203177 11099</gx:coord>
<gx:coord >5.264367 43.187714 11099</gx:coord>
<gx:coord >5.224957 43.162537 11099</gx:coord>
<gx:coord >5.184566 43.137259 11099</gx:coord>
<gx:coord >5.143709 43.111725 11091</gx:coord>
<gx:coord >5.102958 43.085999 11091</gx:coord>
<gx:coord >5.062462 43.060272 11091</gx:coord>
<gx:coord >5.022387 43.034797 11091</gx:coord>
<gx:coord >4.982428 43.009323 11091</gx:coord>
<gx:coord >4.941624 42.983311 11099</gx:coord>
<gx:coord >4.901244 42.957642 11107</gx:coord>
<gx:coord >4.8606 42.931731 11107</gx:coord>
<gx:coord >4.820186 42.905894 11107</gx:coord>
<gx:coord >4.779641 42.879778 11099</gx:coord>
<gx:coord >4.739423 42.853849 11107</gx:coord>
<gx:coord >4.698955 42.82782 11107</gx:coord>
<gx:coord >4.658703 42.802002 11107</gx:coord>
<gx:coord >4.618315 42.776093 11107</gx:coord>
<gx:coord >4.578488 42.750317 11107</gx:coord>
<gx:coord >4.538184 42.724294 11107</gx:coord>
<gx:coord >4.497752 42.698178 11107</gx:coord>
<gx:coord >4.457192 42.671876 11107</gx:coord>
<gx:coord >4.416951 42.645853 11107</gx:coord>
<gx:coord >4.376678 42.619675 11114</gx:coord>
<gx:coord >4.336915 42.593765 11123</gx:coord>
<gx:coord >4.29706 42.567692 11138</gx:coord>
<gx:coord >4.256563 42.541157 11138</gx:coord>
<gx:coord >4.216752 42.515121 11138</gx:coord>
<gx:coord >4.176615 42.488892 11138</gx:coord>
<gx:coord >4.136161 42.462344 11131</gx:coord>
<gx:coord >4.096048 42.436089 11123</gx:coord>
<gx:coord >4.057014 42.410568 11123</gx:coord>
<gx:coord >4.016502 42.384018 11115</gx:coord>
<gx:coord >3.976348 42.357509 11123</gx:coord>
<gx:coord >3.936044 42.331021 11123</gx:coord>
<gx:coord >3.896588 42.305099 11123</gx:coord>
<gx:coord >3.857287 42.279068 11123</gx:coord>
<gx:coord >3.835789 42.265137 11123</gx:coord>
<gx:coord >3.817936 42.254517 11123</gx:coord>
<gx:coord >3.800084 42.244675 11131</gx:coord>
<gx:coord >3.772271 42.230375 11138</gx:coord>
<gx:coord >3.729603 42.208309 11138</gx:coord>
<gx:coord >3.686232 42.185312 11138</gx:coord>
<gx:coord >3.643466 42.16246 11146</gx:coord>
<gx:coord >3.600961 42.139924 11146</gx:coord>
<gx:coord >3.557271 42.116741 11145</gx:coord>
<gx:coord >3.51394 42.093613 11145</gx:coord>
<gx:coord >3.471492 42.070908 11145</gx:coord>
<gx:coord >3.428483 42.047836 11137</gx:coord>
<gx:coord >3.386099 42.025085 11145</gx:coord>
<gx:coord >3.342778 42.002151 11145</gx:coord>
<gx:coord >3.300081 41.979721 11145</gx:coord>
<gx:coord >3.257446 41.957113 11145</gx:coord>
<gx:coord >3.214749 41.934311 11145</gx:coord>
<gx:coord >3.172047 41.911445 11152</gx:coord>
<gx:coord >3.129793 41.888718 11152</gx:coord>
<gx:coord >3.087595 41.866058 11152</gx:coord>
<gx:coord >3.045023 41.84317 11151</gx:coord>
<gx:coord >3.002826 41.820419 11151</gx:coord>
<gx:coord >2.96056 41.797578 11151</gx:coord>
<gx:coord >2.917994 41.774139 11151</gx:coord>
<gx:coord >2.87548 41.75084 11151</gx:coord>
<gx:coord >2.833474 41.728088 11151</gx:coord>
<gx:coord >2.790847 41.705126 11159</gx:coord>
<gx:coord >2.748829 41.682541 11159</gx:coord>
<gx:coord >2.71407 41.663461 11159</gx:coord>
<gx:coord >2.680539 41.644089 11159</gx:coord>
<gx:coord >2.639146 41.619563 11159</gx:coord>
<gx:coord >2.597705 41.595291 11159</gx:coord>
<gx:coord >2.556818 41.571304 11159</gx:coord>
<gx:coord >2.51537 41.546997 11167</gx:coord>
<gx:coord >2.473968 41.522548 11174</gx:coord>
<gx:coord >2.433409 41.498566 11167</gx:coord>
<gx:coord >2.39189 41.47404 11167</gx:coord>
<gx:coord >2.350883 41.449926 11168</gx:coord>
<gx:coord >2.309751 41.425781 11168</gx:coord>
<gx:coord >2.268614 41.401611 11168</gx:coord>
<gx:coord >2.227353 41.377305 11168</gx:coord>
<gx:coord >2.185593 41.352679 11168</gx:coord>
<gx:coord >2.144893 41.328565 11168</gx:coord>
<gx:coord >2.108751 41.306964 11175</gx:coord>
<gx:coord >2.09021 41.294998 11175</gx:coord>
<gx:coord >2.052368 41.269226 11175</gx:coord>
<gx:coord >2.013494 41.242909 11175</gx:coord>
<gx:coord >1.974356 41.216607 11175</gx:coord>
<gx:coord >1.934842 41.189886 11183</gx:coord>
<gx:coord >1.89664 41.164049 11183</gx:coord>
<gx:coord >1.857422 41.137527 11183</gx:coord>
<gx:coord >1.818237 41.111023 11183</gx:coord>
<gx:coord >1.77832 41.083923 11183</gx:coord>
<gx:coord >1.739273 41.057351 11198</gx:coord>
<gx:coord >1.700684 41.03096 11198</gx:coord>
<gx:coord >1.662119 41.004468 11198</gx:coord>
<gx:coord >1.622606 40.977421 11198</gx:coord>
<gx:coord >1.608032 40.967422 11183</gx:coord>
<gx:coord >1.592581 40.956798 11152</gx:coord>
<gx:coord >1.561829 40.935608 11069</gx:coord>
<gx:coord >1.529358 40.913315 10992</gx:coord>
<gx:coord >1.495826 40.890322 10916</gx:coord>
<gx:coord >1.463117 40.86793 10840</gx:coord>
<gx:coord >1.431763 40.846436 10756</gx:coord>
<gx:coord >1.399009 40.823845 10672</gx:coord>
<gx:coord >1.366425 40.801267 10596</gx:coord>
<gx:coord >1.33384 40.778783 10520</gx:coord>
<gx:coord >1.301817 40.75667 10429</gx:coord>
<gx:coord >1.269165 40.734146 10351</gx:coord>
<gx:coord >1.238147 40.712818 10267</gx:coord>
<gx:coord >1.205078 40.68988 10191</gx:coord>
<gx:coord >1.171292 40.666545 10107</gx:coord>
<gx:coord >1.138708 40.643874 10031</gx:coord>
<gx:coord >1.10614 40.62117 9940</gx:coord>
<gx:coord >1.074413 40.599045 9856</gx:coord>
<gx:coord >1.041641 40.57628 9780</gx:coord>
<gx:coord >1.009949 40.554199 9688</gx:coord>
<gx:coord >0.977783 40.531823 9612</gx:coord>
<gx:coord >0.947259 40.510502 9521</gx:coord>
<gx:coord >0.91571 40.488327 9437</gx:coord>
<gx:coord >0.884094 40.46608 9361</gx:coord>
<gx:coord >0.852252 40.443653 9277</gx:coord>
<gx:coord >0.822789 40.422891 9193</gx:coord>
<gx:coord >0.792175 40.401352 9102</gx:coord>
<gx:coord >0.760179 40.378759 9025</gx:coord>
<gx:coord >0.729779 40.357252 8949</gx:coord>
<gx:coord >0.69928 40.3358 8865</gx:coord>
<gx:coord >0.671692 40.316437 8774</gx:coord>
<gx:coord >0.645322 40.297852 8698</gx:coord>
<gx:coord >0.622226 40.281465 8644</gx:coord>
<gx:coord >0.596882 40.263356 8576</gx:coord>
<gx:coord >0.571539 40.245387 8477</gx:coord>
<gx:coord >0.549744 40.230011 8370</gx:coord>
<gx:coord >0.527344 40.214197 8263</gx:coord>
<gx:coord >0.514422 40.205026 8202</gx:coord>
<gx:coord >0.495633 40.191712 8096</gx:coord>
<gx:coord >0.480465 40.181005 8012</gx:coord>
<gx:coord >0.455808 40.163502 7928</gx:coord>
<gx:coord >0.432774 40.147115 7829</gx:coord>
<gx:coord >0.413798 40.133569 7730</gx:coord>
<gx:coord >0.395752 40.120605 7616</gx:coord>
<gx:coord >0.378174 40.108017 7509</gx:coord>
<gx:coord >0.35974 40.094837 7387</gx:coord>
<gx:coord >0.341248 40.08165 7280</gx:coord>
<gx:coord >0.323722 40.06914 7174</gx:coord>
<gx:coord >0.30658 40.056931 7044</gx:coord>
<gx:coord >0.290201 40.045213 6921</gx:coord>
<gx:coord >0.27356 40.033264 6799</gx:coord>
<gx:coord >0.25924 40.023054 6670</gx:coord>
<gx:coord >0.24408 40.012299 6540</gx:coord>
<gx:coord >0.229277 40.001733 6403</gx:coord>
<gx:coord >0.215515 39.991882 6281</gx:coord>
<gx:coord >0.203003 39.982864 6144</gx:coord>
<gx:coord >0.189701 39.973336 6030</gx:coord>
<gx:coord >0.17511 39.962906 5893</gx:coord>
<gx:coord >0.159052 39.95141 5755</gx:coord>
<gx:coord >0.150635 39.945374 5702</gx:coord>
<gx:coord >0.132141 39.932007 5588</gx:coord>
<gx:coord >0.124595 39.926551 5534</gx:coord>
<gx:coord >0.111774 39.917175 5420</gx:coord>
<gx:coord >0.099487 39.908302 5298</gx:coord>
<gx:coord >0.087532 39.899734 5169</gx:coord>
<gx:coord >0.080606 39.894791 5115</gx:coord>
<gx:coord >0.064724 39.883301 4986</gx:coord>
<gx:coord >0.049866 39.872411 4856</gx:coord>
<gx:coord >0.037476 39.863333 4734</gx:coord>
<gx:coord >0.025513 39.854628 4612</gx:coord>
<gx:coord >0.013794 39.846202 4475</gx:coord>
<gx:coord >0.006409 39.840522 4399</gx:coord>
<gx:coord >0.001892 39.836472 4346</gx:coord>
<gx:coord >-0.001911 39.832306 4308</gx:coord>
<gx:coord >-0.005015 39.828232 4270</gx:coord>
<gx:coord >-0.00708 39.824881 4247</gx:coord>
<gx:coord >-0.009277 39.820598 4209</gx:coord>
<gx:coord >-0.012001 39.813812 4193</gx:coord>
<gx:coord >-0.016838 39.799393 4148</gx:coord>
<gx:coord >-0.020569 39.788803 4110</gx:coord>
<gx:coord >-0.023315 39.781308 4071</gx:coord>
<gx:coord >-0.030033 39.764374 3965</gx:coord>
<gx:coord >-0.037109 39.747464 3866</gx:coord>
<gx:coord >-0.041382 39.737316 3797</gx:coord>
<gx:coord >-0.045617 39.727112 3736</gx:coord>
<gx:coord >-0.049805 39.716833 3683</gx:coord>
<gx:coord >-0.054199 39.705986 3645</gx:coord>
<gx:coord >-0.059326 39.692952 3614</gx:coord>
<gx:coord >-0.060669 39.687784 3591</gx:coord>
<gx:coord >-0.061141 39.684494 3576</gx:coord>
<gx:coord >-0.061401 39.680429 3561</gx:coord>
<gx:coord >-0.061218 39.677217 3553</gx:coord>
<gx:coord >-0.060486 39.672795 3538</gx:coord>
<gx:coord >-0.059082 39.668186 3523</gx:coord>
<gx:coord >-0.057495 39.664462 3508</gx:coord>
<gx:coord >-0.055725 39.661343 3500</gx:coord>
<gx:coord >-0.053162 39.657619 3477</gx:coord>
<gx:coord >-0.049498 39.653229 3477</gx:coord>
<gx:coord >-0.044483 39.648102 3454</gx:coord>
<gx:coord >-0.034302 39.638439 3431</gx:coord>
<gx:coord >-0.025257 39.629929 3387</gx:coord>
<gx:coord >-0.016663 39.621773 3326</gx:coord>
<gx:coord >-0.008667 39.614185 3272</gx:coord>
<gx:coord >-0.000488 39.606272 3211</gx:coord>
<gx:coord >0.007881 39.598114 3158</gx:coord>
<gx:coord >0.016663 39.589513 3112</gx:coord>
<gx:coord >0.025269 39.58104 3067</gx:coord>
<gx:coord >0.035522 39.570892 3013</gx:coord>
<gx:coord >0.044722 39.561676 2968</gx:coord>
<gx:coord >0.054036 39.552292 2914</gx:coord>
<gx:coord >0.059143 39.547104 2899</gx:coord>
<gx:coord >0.065261 39.540985 2891</gx:coord>
<gx:coord >0.084229 39.522105 2884</gx:coord>
<gx:coord >0.093994 39.512283 2884</gx:coord>
<gx:coord >0.096608 39.509171 2876</gx:coord>
<gx:coord >0.098694 39.50637 2868</gx:coord>
<gx:coord >0.101026 39.502396 2846</gx:coord>
<gx:coord >0.1024 39.49942 2823</gx:coord>
<gx:coord >0.103516 39.496036 2808</gx:coord>
<gx:coord >0.104431 39.492032 2792</gx:coord>
<gx:coord >0.105103 39.486679 2762</gx:coord>
<gx:coord >0.105923 39.476212 2724</gx:coord>
<gx:coord >0.106628 39.466429 2678</gx:coord>
<gx:coord >0.107356 39.45694 2617</gx:coord>
<gx:coord >0.108154 39.446923 2571</gx:coord>
<gx:coord >0.109192 39.435006 2533</gx:coord>
<gx:coord >0.110102 39.425354 2503</gx:coord>
<gx:coord >0.111057 39.415283 2465</gx:coord>
<gx:coord >0.11145 39.408657 2442</gx:coord>
<gx:coord >0.111237 39.405121 2427</gx:coord>
<gx:coord >0.110699 39.402466 2411</gx:coord>
<gx:coord >0.109741 39.39944 2396</gx:coord>
<gx:coord >0.108765 39.397392 2381</gx:coord>
<gx:coord >0.107239 39.394738 2366</gx:coord>
<gx:coord >0.105266 39.392166 2350</gx:coord>
<gx:coord >0.102997 39.38974 2327</gx:coord>
<gx:coord >0.100525 39.387569 2320</gx:coord>
<gx:coord >0.097046 39.385009 2289</gx:coord>
<gx:coord >0.094638 39.383514 2266</gx:coord>
<gx:coord >0.090995 39.381683 2251</gx:coord>
<gx:coord >0.087831 39.380447 2236</gx:coord>
<gx:coord >0.084778 39.379562 2206</gx:coord>
<gx:coord >0.08186 39.378983 2190</gx:coord>
<gx:coord >0.078735 39.378585 2167</gx:coord>
<gx:coord >0.074646 39.378398 2137</gx:coord>
<gx:coord >0.071351 39.378525 2122</gx:coord>
<gx:coord >0.065022 39.379074 2091</gx:coord>
<gx:coord >0.058594 39.379702 2053</gx:coord>
<gx:coord >0.052543 39.380264 2023</gx:coord>
<gx:coord >0.046143 39.380819 1992</gx:coord>
<gx:coord >0.040955 39.381285 1954</gx:coord>
<gx:coord >0.036064 39.381683 1924</gx:coord>
<gx:coord >0.030451 39.382141 1893</gx:coord>
<gx:coord >0.0246 39.382645 1863</gx:coord>
<gx:coord >0.019405 39.383057 1832</gx:coord>
<gx:coord >0.013855 39.383473 1794</gx:coord>
<gx:coord >0.007751 39.383985 1764</gx:coord>
<gx:coord >0.001493 39.384476 1733</gx:coord>
<gx:coord >-0.005254 39.385025 1703</gx:coord>
<gx:coord >-0.011475 39.385521 1665</gx:coord>
<gx:coord >-0.017853 39.386032 1634</gx:coord>
<gx:coord >-0.023227 39.38649 1596</gx:coord>
<gx:coord >-0.027344 39.386824 1565</gx:coord>
<gx:coord >-0.031705 39.387222 1543</gx:coord>
<gx:coord >-0.036183 39.387634 1504</gx:coord>
<gx:coord >-0.039228 39.387909 1482</gx:coord>
<gx:coord >-0.042786 39.388221 1451</gx:coord>
<gx:coord >-0.046692 39.388596 1413</gx:coord>
<gx:coord >-0.050812 39.388962 1383</gx:coord>
<gx:coord >-0.05535 39.389374 1352</gx:coord>
<gx:coord >-0.062622 39.38999 1329</gx:coord>
<gx:coord >-0.06968 39.39061 1284</gx:coord>
<gx:coord >-0.077024 39.391251 1253</gx:coord>
<gx:coord >-0.084595 39.391852 1223</gx:coord>
<gx:coord >-0.09219 39.392532 1192</gx:coord>
<gx:coord >-0.099731 39.393155 1162</gx:coord>
<gx:coord >-0.106758 39.393723 1123</gx:coord>
<gx:coord >-0.114868 39.394412 1093</gx:coord>
<gx:coord >-0.122009 39.395017 1063</gx:coord>
<gx:coord >-0.130164 39.395691 1032</gx:coord>
<gx:coord >-0.138105 39.396378 1002</gx:coord>
<gx:coord >-0.143738 39.396833 979</gx:coord>
<gx:coord >-0.160461 39.398276 963</gx:coord>
<gx:coord >-0.185974 39.400418 963</gx:coord>
<gx:coord >-0.211182 39.402605 963</gx:coord>
<gx:coord >-0.236206 39.404747 963</gx:coord>
<gx:coord >-0.249043 39.405945 962</gx:coord>
<gx:coord >-0.255074 39.406815 962</gx:coord>
<gx:coord >-0.260627 39.407913 962</gx:coord>
<gx:coord >-0.267553 39.409561 962</gx:coord>
<gx:coord >-0.276001 39.411869 955</gx:coord>
<gx:coord >-0.281677 39.413638 962</gx:coord>
<gx:coord >-0.284485 39.414523 962</gx:coord>
<gx:coord >-0.287257 39.415466 970</gx:coord>
<gx:coord >-0.290344 39.416525 978</gx:coord>
<gx:coord >-0.29466 39.41803 970</gx:coord>
<gx:coord >-0.301527 39.420456 932</gx:coord>
<gx:coord >-0.307434 39.422716 902</gx:coord>
<gx:coord >-0.313477 39.424997 871</gx:coord>
<gx:coord >-0.319141 39.427185 841</gx:coord>
<gx:coord >-0.32541 39.429611 810</gx:coord>
<gx:coord >-0.330903 39.431763 780</gx:coord>
<gx:coord >-0.337352 39.434235 749</gx:coord>
<gx:coord >-0.343445 39.436589 726</gx:coord>
<gx:coord >-0.349771 39.438995 681</gx:coord>
<gx:coord >-0.355713 39.441244 650</gx:coord>
<gx:coord >-0.362191 39.443756 612</gx:coord>
<gx:coord >-0.367249 39.445666 589</gx:coord>
<gx:coord >-0.374371 39.44838 559</gx:coord>
<gx:coord >-0.380581 39.45076 528</gx:coord>
<gx:coord >-0.384342 39.452179 513</gx:coord>
<gx:coord >-0.388522 39.453781 475</gx:coord>
<gx:coord >-0.392517 39.455256 460</gx:coord>
<gx:coord >-0.398621 39.45763 429</gx:coord>
<gx:coord >-0.404541 39.459958 399</gx:coord>
<gx:coord >-0.412476 39.462984 368</gx:coord>
<gx:coord >-0.418335 39.465218 330</gx:coord>
<gx:coord >-0.424108 39.467377 300</gx:coord>
<gx:coord >-0.430481 39.46978 269</gx:coord>
<gx:coord >-0.435154 39.471542 239</gx:coord>
<gx:coord >-0.441467 39.474017 216</gx:coord>
<gx:coord >-0.447693 39.476395 178</gx:coord>
<gx:coord >-0.4552 39.47923 147</gx:coord>
<gx:coord >-0.46059 39.481247 124</gx:coord>
<gx:coord >-0.465637 39.483234 86</gx:coord>
<gx:coord >-0.471576 39.485504 63</gx:coord>
<gx:coord >-0.474681 39.486694 63</gx:coord>
<gx:coord >-0.476807 39.487517 63</gx:coord>
<gx:coord >-0.478264 39.488068 63</gx:coord>
<gx:coord >-0.479492 39.488541 56</gx:coord>
<gx:coord >-0.480713 39.489006 71</gx:coord>
<gx:coord >-0.481249 39.489212 63</gx:coord>
<gx:coord >-0.482239 39.489565 63</gx:coord>
<gx:coord >-0.482239 39.489565 63</gx:coord>
</gx:Track>
</Placemark>
<Placemark ><name >9H-WBU</name>
<Style ><LineStyle ><color >ff1c1ae3</color>
<width >4</width>
</LineStyle>
<IconStyle ><Icon ><href >http://maps.google.com/mapfiles/kml/shapes/airports.png</href>
</Icon>
</IconStyle>
</Style>
<gx:Track ><extrude >0</extrude>
<when >2025-07-07T07:26:35.350Z</when>
<when >2025-07-07T07:26:35.940Z</when>
<when >2025-07-07T07:26:36.750Z</when>
<when >2025-07-07T07:26:37.760Z</when>
<when >2025-07-07T07:26:38.850Z</when>
<when >2025-07-07T07:26:39.660Z</when>
<when >2025-07-07T07:26:40.940Z</when>
<when >2025-07-07T07:26:44.530Z</when>
<when >2025-07-07T07:26:45.470Z</when>
<when >2025-07-07T07:26:47.080Z</when>
<when >2025-07-07T07:26:48.070Z</when>
<when >2025-07-07T07:26:49.230Z</when>
<when >2025-07-07T07:26:51.060Z</when>
<when >2025-07-07T07:26:52.510Z</when>
<when >2025-07-07T07:26:54.010Z</when>
<when >2025-07-07T07:26:55.000Z</when>
<when >2025-07-07T07:26:56.110Z</when>
<when >2025-07-07T07:26:56.980Z</when>
<when >2025-07-07T07:26:57.940Z</when>
<when >2025-07-07T07:26:59.930Z</when>
<when >2025-07-07T07:27:01.850Z</when>
<when >2025-07-07T07:27:03.160Z</when>
<when >2025-07-07T07:27:04.790Z</when>
<when >2025-07-07T07:27:06.210Z</when>
<when >2025-07-07T07:27:08.460Z</when>
<when >2025-07-07T07:27:11.340Z</when>
<when >2025-07-07T07:27:13.780Z</when>
<when >2025-07-07T07:27:15.670Z</when>
<when >2025-07-07T07:27:18.740Z</when>
<when >2025-07-07T07:27:22.100Z</when>
<when >2025-07-07T07:27:31.610Z</when>
<when >2025-07-07T07:27:36.380Z</when>
<when >2025-07-07T07:27:38.300Z</when>
<when >2025-07-07T07:27:39.830Z</when>
<when >2025-07-07T07:27:41.180Z</when>
<when >2025-07-07T07:27:42.380Z</when>
<when >2025-07-07T07:27:43.880Z</when>
<when >2025-07-07T07:27:45.190Z</when>
<when >2025-07-07T07:27:46.670Z</when>
<when >2025-07-07T07:27:48.300Z</when>
<when >2025-07-07T07:27:49.320Z</when>
<when >2025-07-07T07:27:50.500Z</when>
<when >2025-07-07T07:27:51.960Z</when>
<when >2025-07-07T07:27:53.520Z</when>
<when >2025-07-07T07:27:54.850Z</when>
<when >2025-07-07T07:27:56.260Z</when>
<when >2025-07-07T07:27:59.000Z</when>
<when >2025-07-07T07:28:04.550Z</when>
<when >2025-07-07T07:28:09.430Z</when>
<when >2025-07-07T07:28:14.350Z</when>
<when >2025-07-07T07:28:18.960Z</when>
<when >2025-07-07T07:28:22.760Z</when>
<when >2025-07-07T07:28:26.570Z</when>
<when >2025-07-07T07:28:30.580Z</when>
<when >2025-07-07T07:28:34.120Z</when>
<when >2025-07-07T07:28:37.530Z</when>
<when >2025-07-07T07:28:41.340Z</when>
<when >2025-07-07T07:28:44.970Z</when>
<when >2025-07-07T07:28:49.010Z</when>
<when >2025-07-07T07:28:53.720Z</when>
<when >2025-07-07T07:28:59.520Z</when>
<when >2025-07-07T07:29:05.630Z</when>
<when >2025-07-07T07:29:11.690Z</when>
<when >2025-07-07T07:29:17.760Z</when>
<when >2025-07-07T07:29:23.220Z</when>
<when >2025-07-07T07:29:28.460Z</when>
<when >2025-07-07T07:29:33.520Z</when>
<when >2025-07-07T07:29:38.010Z</when>
<when >2025-07-07T07:29:42.480Z</when>
<when >2025-07-07T07:29:46.740Z</when>
<when >2025-07-07T07:29:50.600Z</when>
<when >2025-07-07T07:29:54.210Z</when>
<when >2025-07-07T07:29:58.290Z</when>
<when >2025-07-07T07:30:02.760Z</when>
<when >2025-07-07T07:30:06.540Z</when>
<when >2025-07-07T07:30:08.350Z</when>
<when >2025-07-07T07:30:09.860Z</when>
<when >2025-07-07T07:30:11.390Z</when>
<when >2025-07-07T07:30:14.300Z</when>
<when >2025-07-07T07:30:19.110Z</when>
<when >2025-07-07T07:30:24.360Z</when>
<when >2025-07-07T07:30:30.060Z</when>
<when >2025-07-07T07:30:33.090Z</when>
<when >2025-07-07T07:30:35.090Z</when>
<when >2025-07-07T07:30:36.620Z</when>
<when >2025-07-07T07:30:38.630Z</when>
<when >2025-07-07T07:30:41.830Z</when>
<when >2025-07-07T07:30:48.280Z</when>
<when >2025-07-07T07:30:54.580Z</when>
<when >2025-07-07T07:31:02.030Z</when>
<when >2025-07-07T07:31:10.240Z</when>
<when >2025-07-07T07:31:16.540Z</when>
<when >2025-07-07T07:31:24.130Z</when>
<when >2025-07-07T07:31:26.570Z</when>
<when >2025-07-07T07:31:30.520Z</when>
<when >2025-07-07T07:31:31.750Z</when>
<when >2025-07-07T07:31:32.540Z</when>
<when >2025-07-07T07:31:34.530Z</when>
<when >2025-07-07T07:31:36.280Z</when>
<when >2025-07-07T07:31:38.390Z</when>
<when >2025-07-07T07:31:43.570Z</when>
<when >2025-07-07T07:31:49.920Z</when>
<when >2025-07-07T07:32:06.500Z</when>
<when >2025-07-07T07:32:32.740Z</when>
<when >2025-07-07T07:33:19.380Z</when>
<when >2025-07-07T07:33:19.380Z</when>
<gx:coord >-0.483139 39.489903 0</gx:coord>
<gx:coord >-0.483413 39.490002 0</gx:coord>
<gx:coord >-0.48381 39.490147 0</gx:coord>
<gx:coord >-0.484384 39.490368 0</gx:coord>
<gx:coord >-0.484848 39.490554 0</gx:coord>
<gx:coord >-0.48519 39.4907 0</gx:coord>
<gx:coord >-0.485657 39.49088 0</gx:coord>
<gx:coord >-0.487015 39.491381 0</gx:coord>
<gx:coord >-0.487369 39.491524 0</gx:coord>
<gx:coord >-0.487808 39.491695 0</gx:coord>
<gx:coord >-0.48813 39.491833 0</gx:coord>
<gx:coord >-0.488464 39.491951 0</gx:coord>
<gx:coord >-0.488936 39.49213 0</gx:coord>
<gx:coord >-0.489369 39.492279 0</gx:coord>
<gx:coord >-0.489713 39.492393 0</gx:coord>
<gx:coord >-0.489951 39.492485 0</gx:coord>
<gx:coord >-0.49016 39.492565 0</gx:coord>
<gx:coord >-0.490311 39.492626 0</gx:coord>
<gx:coord >-0.490494 39.492707 0</gx:coord>
<gx:coord >-0.490784 39.492847 0</gx:coord>
<gx:coord >-0.491058 39.492987 0</gx:coord>
<gx:coord >-0.491257 39.493103 0</gx:coord>
<gx:coord >-0.491429 39.493217 0</gx:coord>
<gx:coord >-0.491577 39.493324 0</gx:coord>
<gx:coord >-0.491821 39.493522 0</gx:coord>
<gx:coord >-0.492096 39.493778 0</gx:coord>
<gx:coord >-0.49231 39.493976 0</gx:coord>
<gx:coord >-0.492462 39.494139 0</gx:coord>
<gx:coord >-0.492623 39.494339 0</gx:coord>
<gx:coord >-0.492767 39.494511 0</gx:coord>
<gx:coord >-0.493056 39.494843 0</gx:coord>
<gx:coord >-0.493179 39.495 0</gx:coord>
<gx:coord >-0.49321 39.495093 0</gx:coord>
<gx:coord >-0.49321 39.495163 0</gx:coord>
<gx:coord >-0.493191 39.495232 0</gx:coord>
<gx:coord >-0.493176 39.495277 0</gx:coord>
<gx:coord >-0.493118 39.495338 0</gx:coord>
<gx:coord >-0.493057 39.495407 0</gx:coord>
<gx:coord >-0.492966 39.495454 0</gx:coord>
<gx:coord >-0.492874 39.495489 0</gx:coord>
<gx:coord >-0.492783 39.4955 0</gx:coord>
<gx:coord >-0.492706 39.495512 0</gx:coord>
<gx:coord >-0.492584 39.4955 0</gx:coord>
<gx:coord >-0.492474 39.495483 0</gx:coord>
<gx:coord >-0.492371 39.495454 0</gx:coord>
<gx:coord >-0.492265 39.495403 0</gx:coord>
<gx:coord >-0.492056 39.495323 0</gx:coord>
<gx:coord >-0.491577 39.49514 0</gx:coord>
<gx:coord >-0.491101 39.494957 0</gx:coord>
<gx:coord >-0.490616 39.494779 0</gx:coord>
<gx:coord >-0.490101 39.494579 0</gx:coord>
<gx:coord >-0.489623 39.494396 0</gx:coord>
<gx:coord >-0.48916 39.494225 0</gx:coord>
<gx:coord >-0.488653 39.49403 0</gx:coord>
<gx:coord >-0.488159 39.493836 0</gx:coord>
<gx:coord >-0.487686 39.493662 0</gx:coord>
<gx:coord >-0.487167 39.493464 0</gx:coord>
<gx:coord >-0.486697 39.493286 0</gx:coord>
<gx:coord >-0.486221 39.493103 0</gx:coord>
<gx:coord >-0.485764 39.492928 0</gx:coord>
<gx:coord >-0.485324 39.49276 0</gx:coord>
<gx:coord >-0.484921 39.492599 0</gx:coord>
<gx:coord >-0.484458 39.492428 0</gx:coord>
<gx:coord >-0.483963 39.492242 0</gx:coord>
<gx:coord >-0.483459 39.492044 0</gx:coord>
<gx:coord >-0.482951 39.491844 0</gx:coord>
<gx:coord >-0.482428 39.49165 0</gx:coord>
<gx:coord >-0.481936 39.491467 0</gx:coord>
<gx:coord >-0.481415 39.491276 0</gx:coord>
<gx:coord >-0.480911 39.491078 0</gx:coord>
<gx:coord >-0.480443 39.490894 0</gx:coord>
<gx:coord >-0.479965 39.490711 0</gx:coord>
<gx:coord >-0.479462 39.490519 0</gx:coord>
<gx:coord >-0.47901 39.490356 0</gx:coord>
<gx:coord >-0.478726 39.490265 0</gx:coord>
<gx:coord >-0.478607 39.490252 0</gx:coord>
<gx:coord >-0.478485 39.490263 0</gx:coord>
<gx:coord >-0.478348 39.490298 0</gx:coord>
<gx:coord >-0.478134 39.490333 0</gx:coord>
<gx:coord >-0.477661 39.490426 0</gx:coord>
<gx:coord >-0.477129 39.490517 0</gx:coord>
<gx:coord >-0.476636 39.490608 0</gx:coord>
<gx:coord >-0.476457 39.49062 0</gx:coord>
<gx:coord >-0.476353 39.490608 0</gx:coord>
<gx:coord >-0.476278 39.490574 0</gx:coord>
<gx:coord >-0.476166 39.490543 0</gx:coord>
<gx:coord >-0.475998 39.490473 0</gx:coord>
<gx:coord >-0.475621 39.490322 0</gx:coord>
<gx:coord >-0.475159 39.490147 0</gx:coord>
<gx:coord >-0.47464 39.489949 0</gx:coord>
<gx:coord >-0.474182 39.489775 0</gx:coord>
<gx:coord >-0.473755 39.489612 0</gx:coord>
<gx:coord >-0.473328 39.489449 0</gx:coord>
<gx:coord >-0.473218 39.489429 0</gx:coord>
<gx:coord >-0.473053 39.489507 0</gx:coord>
<gx:coord >-0.473024 39.489555 0</gx:coord>
<gx:coord >-0.473024 39.48959 0</gx:coord>
<gx:coord >-0.473022 39.48967 0</gx:coord>
<gx:coord >-0.473024 39.489727 0</gx:coord>
<gx:coord >-0.473009 39.489784 0</gx:coord>
<gx:coord >-0.472964 39.489922 0</gx:coord>
<gx:coord >-0.472916 39.4901 0</gx:coord>
<gx:coord >-0.472839 39.490368 0</gx:coord>
<gx:coord >-0.472824 39.490391 0</gx:coord>
<gx:coord >-0.472824 39.490391 0</gx:coord>
<gx:coord >-0.472824 39.490391 0</gx:coord>
</gx:Track>
</Placemark>
</Folder>
</Folder>
</kml>
