<?xml version="1.0" encoding="UTF-8"?>
<kml xmlns="http://www.opengis.net/kml/2.2" xmlns:gx="http://www.google.com/kml/ext/2.2"><Folder ><Folder ><name >9H-WNC track</name>
<Placemark ><name >9H-WNC</name>
<Style ><LineStyle ><color >ff1c1ae3</color>
<width >4</width>
</LineStyle>
<IconStyle ><Icon ><href >http://maps.google.com/mapfiles/kml/shapes/airports.png</href>
</Icon>
</IconStyle>
</Style>
<gx:Track ><extrude >0</extrude>
<when >2025-07-08T07:39:04.690Z</when>
<when >2025-07-08T07:39:04.690Z</when>
<when >2025-07-08T07:39:11.320Z</when>
<when >2025-07-08T07:39:17.040Z</when>
<when >2025-07-08T07:39:29.220Z</when>
<when >2025-07-08T07:39:43.180Z</when>
<when >2025-07-08T07:39:49.850Z</when>
<when >2025-07-08T07:39:59.190Z</when>
<when >2025-07-08T07:40:06.040Z</when>
<when >2025-07-08T07:40:11.700Z</when>
<when >2025-07-08T07:40:15.050Z</when>
<when >2025-07-08T07:40:18.640Z</when>
<when >2025-07-08T07:40:21.460Z</when>
<when >2025-07-08T07:40:30.450Z</when>
<when >2025-07-08T07:40:35.350Z</when>
<when >2025-07-08T07:40:40.760Z</when>
<when >2025-07-08T07:40:46.150Z</when>
<when >2025-07-08T07:40:49.600Z</when>
<when >2025-07-08T07:40:55.830Z</when>
<when >2025-07-08T07:40:59.230Z</when>
<when >2025-07-08T07:41:06.350Z</when>
<when >2025-07-08T07:41:13.080Z</when>
<when >2025-07-08T07:41:18.330Z</when>
<when >2025-07-08T07:41:24.670Z</when>
<when >2025-07-08T07:41:28.870Z</when>
<when >2025-07-08T07:41:35.210Z</when>
<when >2025-07-08T07:42:25.140Z</when>
<when >2025-07-08T07:42:45.190Z</when>
<when >2025-07-08T07:42:50.280Z</when>
<when >2025-07-08T07:43:10.470Z</when>
<when >2025-07-08T07:43:20.620Z</when>
<when >2025-07-08T07:44:01.080Z</when>
<when >2025-07-08T07:44:06.110Z</when>
<when >2025-07-08T07:44:41.370Z</when>
<when >2025-07-08T07:45:20.900Z</when>
<when >2025-07-08T07:45:40.920Z</when>
<when >2025-07-08T07:45:56.320Z</when>
<when >2025-07-08T07:46:06.230Z</when>
<when >2025-07-08T07:46:26.590Z</when>
<when >2025-07-08T07:47:06.660Z</when>
<when >2025-07-08T07:47:21.760Z</when>
<when >2025-07-08T07:47:31.660Z</when>
<when >2025-07-08T07:47:46.860Z</when>
<when >2025-07-08T07:47:52.150Z</when>
<when >2025-07-08T07:48:14.110Z</when>
<when >2025-07-08T07:48:23.300Z</when>
<when >2025-07-08T07:48:31.130Z</when>
<when >2025-07-08T07:48:37.900Z</when>
<when >2025-07-08T07:48:42.810Z</when>
<when >2025-07-08T07:48:47.700Z</when>
<when >2025-07-08T07:48:54.080Z</when>
<when >2025-07-08T07:48:59.560Z</when>
<when >2025-07-08T07:49:05.510Z</when>
<when >2025-07-08T07:49:11.670Z</when>
<when >2025-07-08T07:49:17.520Z</when>
<when >2025-07-08T07:49:20.530Z</when>
<when >2025-07-08T07:49:30.040Z</when>
<when >2025-07-08T07:49:38.830Z</when>
<when >2025-07-08T07:49:41.600Z</when>
<when >2025-07-08T07:49:52.630Z</when>
<when >2025-07-08T07:49:54.160Z</when>
<when >2025-07-08T07:49:55.670Z</when>
<when >2025-07-08T07:50:00.970Z</when>
<when >2025-07-08T07:50:09.850Z</when>
<when >2025-07-08T07:50:13.650Z</when>
<when >2025-07-08T07:50:13.900Z</when>
<when >2025-07-08T07:50:18.690Z</when>
<when >2025-07-08T07:50:22.040Z</when>
<when >2025-07-08T07:50:25.090Z</when>
<when >2025-07-08T07:50:28.880Z</when>
<when >2025-07-08T07:50:32.780Z</when>
<when >2025-07-08T07:50:36.210Z</when>
<when >2025-07-08T07:50:39.710Z</when>
<when >2025-07-08T07:50:43.750Z</when>
<when >2025-07-08T07:50:46.920Z</when>
<when >2025-07-08T07:50:50.100Z</when>
<when >2025-07-08T07:50:52.670Z</when>
<when >2025-07-08T07:50:54.560Z</when>
<when >2025-07-08T07:50:56.260Z</when>
<when >2025-07-08T07:50:57.730Z</when>
<when >2025-07-08T07:50:59.670Z</when>
<when >2025-07-08T07:51:01.620Z</when>
<when >2025-07-08T07:51:05.050Z</when>
<when >2025-07-08T07:51:07.190Z</when>
<when >2025-07-08T07:51:09.150Z</when>
<when >2025-07-08T07:51:11.090Z</when>
<when >2025-07-08T07:51:13.800Z</when>
<when >2025-07-08T07:51:17.150Z</when>
<when >2025-07-08T07:51:26.800Z</when>
<when >2025-07-08T07:51:31.160Z</when>
<when >2025-07-08T07:51:33.230Z</when>
<when >2025-07-08T07:51:38.530Z</when>
<when >2025-07-08T07:51:42.120Z</when>
<when >2025-07-08T07:51:43.810Z</when>
<when >2025-07-08T07:51:45.040Z</when>
<when >2025-07-08T07:51:48.310Z</when>
<when >2025-07-08T07:51:49.990Z</when>
<when >2025-07-08T07:51:52.080Z</when>
<when >2025-07-08T07:51:53.800Z</when>
<when >2025-07-08T07:51:55.970Z</when>
<when >2025-07-08T07:52:03.010Z</when>
<when >2025-07-08T07:52:38.180Z</when>
<when >2025-07-08T07:52:44.100Z</when>
<when >2025-07-08T07:52:46.770Z</when>
<when >2025-07-08T07:52:47.830Z</when>
<when >2025-07-08T07:52:48.270Z</when>
<when >2025-07-08T07:52:49.360Z</when>
<when >2025-07-08T07:52:50.870Z</when>
<when >2025-07-08T07:52:51.290Z</when>
<when >2025-07-08T07:52:52.160Z</when>
<when >2025-07-08T07:52:53.190Z</when>
<when >2025-07-08T07:52:54.280Z</when>
<when >2025-07-08T07:52:55.150Z</when>
<when >2025-07-08T07:52:56.480Z</when>
<when >2025-07-08T07:52:58.170Z</when>
<when >2025-07-08T07:52:59.090Z</when>
<when >2025-07-08T07:53:02.120Z</when>
<when >2025-07-08T07:53:02.800Z</when>
<when >2025-07-08T07:53:02.800Z</when>
<gx:coord >-0.37309 51.880199 0</gx:coord>
<gx:coord >-0.37309 51.880199 0</gx:coord>
<gx:coord >-0.373001 51.880235 0</gx:coord>
<gx:coord >-0.372925 51.880258 0</gx:coord>
<gx:coord >-0.372753 51.880293 0</gx:coord>
<gx:coord >-0.372533 51.880348 0</gx:coord>
<gx:coord >-0.372429 51.880363 0</gx:coord>
<gx:coord >-0.372295 51.880386 0</gx:coord>
<gx:coord >-0.372181 51.880397 0</gx:coord>
<gx:coord >-0.372086 51.880409 0</gx:coord>
<gx:coord >-0.372047 51.880421 0</gx:coord>
<gx:coord >-0.37199 51.880444 0</gx:coord>
<gx:coord >-0.371939 51.880451 0</gx:coord>
<gx:coord >-0.371809 51.880474 0</gx:coord>
<gx:coord >-0.371754 51.880486 0</gx:coord>
<gx:coord >-0.371685 51.880525 0</gx:coord>
<gx:coord >-0.371642 51.880566 0</gx:coord>
<gx:coord >-0.371624 51.880589 0</gx:coord>
<gx:coord >-0.371624 51.880634 0</gx:coord>
<gx:coord >-0.371624 51.880669 0</gx:coord>
<gx:coord >-0.371624 51.880726 0</gx:coord>
<gx:coord >-0.371628 51.880793 0</gx:coord>
<gx:coord >-0.371661 51.88084 0</gx:coord>
<gx:coord >-0.371704 51.880886 0</gx:coord>
<gx:coord >-0.371704 51.880921 0</gx:coord>
<gx:coord >-0.371704 51.880968 0</gx:coord>
<gx:coord >-0.371735 51.881023 0</gx:coord>
<gx:coord >-0.371723 51.881026 0</gx:coord>
<gx:coord >-0.371735 51.881023 0</gx:coord>
<gx:coord >-0.371735 51.881023 0</gx:coord>
<gx:coord >-0.371735 51.881023 0</gx:coord>
<gx:coord >-0.371723 51.881026 0</gx:coord>
<gx:coord >-0.371723 51.881026 0</gx:coord>
<gx:coord >-0.371723 51.881026 0</gx:coord>
<gx:coord >-0.371735 51.881023 0</gx:coord>
<gx:coord >-0.371723 51.881026 0</gx:coord>
<gx:coord >-0.371735 51.881023 0</gx:coord>
<gx:coord >-0.371735 51.881023 0</gx:coord>
<gx:coord >-0.371723 51.881026 0</gx:coord>
<gx:coord >-0.371723 51.881026 0</gx:coord>
<gx:coord >-0.371735 51.881023 0</gx:coord>
<gx:coord >-0.371735 51.881023 0</gx:coord>
<gx:coord >-0.371735 51.881023 0</gx:coord>
<gx:coord >-0.371735 51.881023 0</gx:coord>
<gx:coord >-0.371679 51.880932 0</gx:coord>
<gx:coord >-0.371531 51.88068 0</gx:coord>
<gx:coord >-0.371361 51.880363 0</gx:coord>
<gx:coord >-0.371197 51.880039 0</gx:coord>
<gx:coord >-0.371056 51.879781 0</gx:coord>
<gx:coord >-0.370903 51.879501 0</gx:coord>
<gx:coord >-0.370712 51.879117 0</gx:coord>
<gx:coord >-0.370541 51.878803 0</gx:coord>
<gx:coord >-0.370362 51.87846 0</gx:coord>
<gx:coord >-0.370176 51.878128 0</gx:coord>
<gx:coord >-0.370026 51.877825 0</gx:coord>
<gx:coord >-0.369935 51.87767 0</gx:coord>
<gx:coord >-0.369694 51.877224 0</gx:coord>
<gx:coord >-0.36949 51.876812 0</gx:coord>
<gx:coord >-0.369397 51.876675 0</gx:coord>
<gx:coord >-0.368617 51.87648 0</gx:coord>
<gx:coord >-0.3685 51.876499 0</gx:coord>
<gx:coord >-0.368376 51.876526 0</gx:coord>
<gx:coord >-0.367875 51.876617 0</gx:coord>
<gx:coord >-0.366821 51.876801 0</gx:coord>
<gx:coord >-0.366335 51.876881 0</gx:coord>
<gx:coord >-0.366268 51.876894 0</gx:coord>
<gx:coord >-0.365601 51.877011 0</gx:coord>
<gx:coord >-0.365067 51.877104 0</gx:coord>
<gx:coord >-0.364571 51.877197 0</gx:coord>
<gx:coord >-0.363922 51.877302 0</gx:coord>
<gx:coord >-0.363255 51.877418 0</gx:coord>
<gx:coord >-0.362697 51.87751 0</gx:coord>
<gx:coord >-0.362066 51.877613 0</gx:coord>
<gx:coord >-0.361443 51.877732 0</gx:coord>
<gx:coord >-0.360966 51.877814 0</gx:coord>
<gx:coord >-0.360656 51.877865 0</gx:coord>
<gx:coord >-0.360396 51.877865 0</gx:coord>
<gx:coord >-0.360211 51.877842 0</gx:coord>
<gx:coord >-0.360062 51.877808 0</gx:coord>
<gx:coord >-0.359932 51.877773 0</gx:coord>
<gx:coord >-0.359821 51.877721 0</gx:coord>
<gx:coord >-0.359728 51.877682 0</gx:coord>
<gx:coord >-0.359598 51.877567 0</gx:coord>
<gx:coord >-0.359524 51.877499 0</gx:coord>
<gx:coord >-0.359478 51.87743 0</gx:coord>
<gx:coord >-0.35944 51.87736 0</gx:coord>
<gx:coord >-0.359402 51.877267 0</gx:coord>
<gx:coord >-0.359338 51.877144 0</gx:coord>
<gx:coord >-0.359173 51.876766 0</gx:coord>
<gx:coord >-0.359078 51.876595 0</gx:coord>
<gx:coord >-0.359001 51.876522 0</gx:coord>
<gx:coord >-0.358856 51.876331 0</gx:coord>
<gx:coord >-0.35893 51.876251 0</gx:coord>
<gx:coord >-0.358982 51.876231 0</gx:coord>
<gx:coord >-0.359041 51.876217 0</gx:coord>
<gx:coord >-0.359153 51.876205 0</gx:coord>
<gx:coord >-0.359192 51.876196 0</gx:coord>
<gx:coord >-0.359268 51.876196 0</gx:coord>
<gx:coord >-0.359301 51.876205 0</gx:coord>
<gx:coord >-0.359364 51.876208 0</gx:coord>
<gx:coord >-0.359413 51.876205 0</gx:coord>
<gx:coord >-0.359421 51.876208 0</gx:coord>
<gx:coord >-0.359505 51.876183 0</gx:coord>
<gx:coord >-0.359669 51.87615 0</gx:coord>
<gx:coord >-0.359783 51.876138 0</gx:coord>
<gx:coord >-0.359859 51.876115 0</gx:coord>
<gx:coord >-0.360031 51.876091 0</gx:coord>
<gx:coord >-0.360355 51.876033 0</gx:coord>
<gx:coord >-0.360489 51.876011 0</gx:coord>
<gx:coord >-0.36073 51.875965 0</gx:coord>
<gx:coord >-0.361042 51.875917 0</gx:coord>
<gx:coord >-0.361454 51.875851 0</gx:coord>
<gx:coord >-0.361824 51.875777 0</gx:coord>
<gx:coord >-0.362437 51.875679 0</gx:coord>
<gx:coord >-0.363217 51.875542 0</gx:coord>
<gx:coord >-0.363718 51.87545 0</gx:coord>
<gx:coord >-0.365658 51.875114 0</gx:coord>
<gx:coord >-0.366192 51.875021 0</gx:coord>
<gx:coord >-0.366192 51.875021 0</gx:coord>
</gx:Track>
</Placemark>
<Placemark ><name >9H-WNC</name>
<Style ><LineStyle ><color >ff1c1ae3</color>
<width >4</width>
</LineStyle>
<IconStyle ><Icon ><href >http://maps.google.com/mapfiles/kml/shapes/airports.png</href>
</Icon>
</IconStyle>
</Style>
<gx:Track ><altitudeMode >absolute</altitudeMode>
<extrude >1</extrude>
<when >2025-07-08T07:53:03.480Z</when>
<when >2025-07-08T07:53:06.330Z</when>
<when >2025-07-08T07:53:08.480Z</when>
<when >2025-07-08T07:53:09.100Z</when>
<when >2025-07-08T07:53:10.550Z</when>
<when >2025-07-08T07:53:17.790Z</when>
<when >2025-07-08T07:53:19.850Z</when>
<when >2025-07-08T07:53:20.730Z</when>
<when >2025-07-08T07:53:22.850Z</when>
<when >2025-07-08T07:53:25.120Z</when>
<when >2025-07-08T07:53:27.300Z</when>
<when >2025-07-08T07:53:29.150Z</when>
<when >2025-07-08T07:53:31.240Z</when>
<when >2025-07-08T07:53:33.340Z</when>
<when >2025-07-08T07:53:35.280Z</when>
<when >2025-07-08T07:53:37.460Z</when>
<when >2025-07-08T07:53:40.050Z</when>
<when >2025-07-08T07:53:42.470Z</when>
<when >2025-07-08T07:53:44.830Z</when>
<when >2025-07-08T07:53:47.750Z</when>
<when >2025-07-08T07:53:51.390Z</when>
<when >2025-07-08T07:53:55.390Z</when>
<when >2025-07-08T07:53:58.960Z</when>
<when >2025-07-08T07:54:01.970Z</when>
<when >2025-07-08T07:54:04.040Z</when>
<when >2025-07-08T07:54:06.550Z</when>
<when >2025-07-08T07:54:09.040Z</when>
<when >2025-07-08T07:54:12.280Z</when>
<when >2025-07-08T07:54:15.600Z</when>
<when >2025-07-08T07:54:18.090Z</when>
<when >2025-07-08T07:54:20.070Z</when>
<when >2025-07-08T07:54:21.700Z</when>
<when >2025-07-08T07:54:24.210Z</when>
<when >2025-07-08T07:54:26.780Z</when>
<when >2025-07-08T07:54:28.800Z</when>
<when >2025-07-08T07:54:31.430Z</when>
<when >2025-07-08T07:54:34.530Z</when>
<when >2025-07-08T07:54:37.560Z</when>
<when >2025-07-08T07:54:40.760Z</when>
<when >2025-07-08T07:54:44.020Z</when>
<when >2025-07-08T07:54:47.390Z</when>
<when >2025-07-08T07:54:49.990Z</when>
<when >2025-07-08T07:54:52.400Z</when>
<when >2025-07-08T07:54:55.100Z</when>
<when >2025-07-08T07:54:57.740Z</when>
<when >2025-07-08T07:54:59.970Z</when>
<when >2025-07-08T07:55:02.650Z</when>
<when >2025-07-08T07:55:06.070Z</when>
<when >2025-07-08T07:55:07.920Z</when>
<when >2025-07-08T07:55:10.720Z</when>
<when >2025-07-08T07:55:13.730Z</when>
<when >2025-07-08T07:55:16.070Z</when>
<when >2025-07-08T07:55:18.780Z</when>
<when >2025-07-08T07:55:21.790Z</when>
<when >2025-07-08T07:55:24.950Z</when>
<when >2025-07-08T07:55:27.740Z</when>
<when >2025-07-08T07:55:31.140Z</when>
<when >2025-07-08T07:55:33.770Z</when>
<when >2025-07-08T07:55:37.220Z</when>
<when >2025-07-08T07:55:42.820Z</when>
<when >2025-07-08T07:55:49.230Z</when>
<when >2025-07-08T07:55:55.550Z</when>
<when >2025-07-08T07:56:02.190Z</when>
<when >2025-07-08T07:56:08.140Z</when>
<when >2025-07-08T07:56:14.540Z</when>
<when >2025-07-08T07:56:21.070Z</when>
<when >2025-07-08T07:56:26.890Z</when>
<when >2025-07-08T07:56:30.610Z</when>
<when >2025-07-08T07:56:33.010Z</when>
<when >2025-07-08T07:56:34.900Z</when>
<when >2025-07-08T07:56:36.670Z</when>
<when >2025-07-08T07:56:38.780Z</when>
<when >2025-07-08T07:56:41.190Z</when>
<when >2025-07-08T07:56:43.140Z</when>
<when >2025-07-08T07:56:44.570Z</when>
<when >2025-07-08T07:56:48.230Z</when>
<when >2025-07-08T07:56:51.390Z</when>
<when >2025-07-08T07:56:54.900Z</when>
<when >2025-07-08T07:56:58.940Z</when>
<when >2025-07-08T07:57:01.970Z</when>
<when >2025-07-08T07:57:04.740Z</when>
<when >2025-07-08T07:57:08.170Z</when>
<when >2025-07-08T07:57:10.750Z</when>
<when >2025-07-08T07:57:13.870Z</when>
<when >2025-07-08T07:57:17.380Z</when>
<when >2025-07-08T07:57:20.270Z</when>
<when >2025-07-08T07:57:23.090Z</when>
<when >2025-07-08T07:57:25.720Z</when>
<when >2025-07-08T07:57:28.470Z</when>
<when >2025-07-08T07:57:31.030Z</when>
<when >2025-07-08T07:57:32.960Z</when>
<when >2025-07-08T07:57:35.410Z</when>
<when >2025-07-08T07:57:40.420Z</when>
<when >2025-07-08T07:57:44.740Z</when>
<when >2025-07-08T07:57:48.970Z</when>
<when >2025-07-08T07:57:52.990Z</when>
<when >2025-07-08T07:57:57.500Z</when>
<when >2025-07-08T07:58:01.150Z</when>
<when >2025-07-08T07:58:04.810Z</when>
<when >2025-07-08T07:58:08.960Z</when>
<when >2025-07-08T07:58:12.630Z</when>
<when >2025-07-08T07:58:16.920Z</when>
<when >2025-07-08T07:58:20.860Z</when>
<when >2025-07-08T07:58:24.530Z</when>
<when >2025-07-08T07:58:28.590Z</when>
<when >2025-07-08T07:58:32.300Z</when>
<when >2025-07-08T07:58:36.300Z</when>
<when >2025-07-08T07:58:39.720Z</when>
<when >2025-07-08T07:58:43.460Z</when>
<when >2025-07-08T07:58:44.990Z</when>
<when >2025-07-08T07:58:46.740Z</when>
<when >2025-07-08T07:58:49.730Z</when>
<when >2025-07-08T07:58:56.620Z</when>
<when >2025-07-08T07:59:03.330Z</when>
<when >2025-07-08T07:59:08.540Z</when>
<when >2025-07-08T07:59:14.090Z</when>
<when >2025-07-08T07:59:19.760Z</when>
<when >2025-07-08T07:59:25.560Z</when>
<when >2025-07-08T07:59:30.690Z</when>
<when >2025-07-08T07:59:41.040Z</when>
<when >2025-07-08T07:59:46.130Z</when>
<when >2025-07-08T07:59:54.560Z</when>
<when >2025-07-08T08:00:03.060Z</when>
<when >2025-07-08T08:00:11.420Z</when>
<when >2025-07-08T08:00:20.940Z</when>
<when >2025-07-08T08:00:30.720Z</when>
<when >2025-07-08T08:00:41.530Z</when>
<when >2025-07-08T08:00:52.010Z</when>
<when >2025-07-08T08:01:02.030Z</when>
<when >2025-07-08T08:01:10.900Z</when>
<when >2025-07-08T08:01:20.680Z</when>
<when >2025-07-08T08:01:31.090Z</when>
<when >2025-07-08T08:01:41.420Z</when>
<when >2025-07-08T08:01:52.260Z</when>
<when >2025-07-08T08:02:03.850Z</when>
<when >2025-07-08T08:02:14.820Z</when>
<when >2025-07-08T08:02:25.560Z</when>
<when >2025-07-08T08:02:35.770Z</when>
<when >2025-07-08T08:02:46.990Z</when>
<when >2025-07-08T08:02:58.150Z</when>
<when >2025-07-08T08:03:10.060Z</when>
<when >2025-07-08T08:03:21.920Z</when>
<when >2025-07-08T08:03:34.130Z</when>
<when >2025-07-08T08:03:45.370Z</when>
<when >2025-07-08T08:03:56.620Z</when>
<when >2025-07-08T08:04:09.330Z</when>
<when >2025-07-08T08:04:22.470Z</when>
<when >2025-07-08T08:04:37.290Z</when>
<when >2025-07-08T08:04:53.730Z</when>
<when >2025-07-08T08:05:06.320Z</when>
<when >2025-07-08T08:05:18.670Z</when>
<when >2025-07-08T08:05:31.550Z</when>
<when >2025-07-08T08:05:45.260Z</when>
<when >2025-07-08T08:05:57.850Z</when>
<when >2025-07-08T08:06:11.540Z</when>
<when >2025-07-08T08:06:23.560Z</when>
<when >2025-07-08T08:06:33.680Z</when>
<when >2025-07-08T08:06:44.750Z</when>
<when >2025-07-08T08:06:50.540Z</when>
<when >2025-07-08T08:07:04.680Z</when>
<when >2025-07-08T08:07:18.030Z</when>
<when >2025-07-08T08:07:24.470Z</when>
<when >2025-07-08T08:07:36.060Z</when>
<when >2025-07-08T08:07:47.490Z</when>
<when >2025-07-08T08:08:01.820Z</when>
<when >2025-07-08T08:08:15.500Z</when>
<when >2025-07-08T08:08:31.670Z</when>
<when >2025-07-08T08:08:46.350Z</when>
<when >2025-07-08T08:09:01.260Z</when>
<when >2025-07-08T08:09:14.950Z</when>
<when >2025-07-08T08:09:28.360Z</when>
<when >2025-07-08T08:09:39.980Z</when>
<when >2025-07-08T08:09:56.770Z</when>
<when >2025-07-08T08:10:08.820Z</when>
<when >2025-07-08T08:10:21.280Z</when>
<when >2025-07-08T08:10:34.740Z</when>
<when >2025-07-08T08:10:45.430Z</when>
<when >2025-07-08T08:11:05.240Z</when>
<when >2025-07-08T08:11:12.180Z</when>
<when >2025-07-08T08:11:26.940Z</when>
<when >2025-07-08T08:11:43.040Z</when>
<when >2025-07-08T08:11:57.760Z</when>
<when >2025-07-08T08:12:11.090Z</when>
<when >2025-07-08T08:12:16.950Z</when>
<when >2025-07-08T08:12:36.690Z</when>
<when >2025-07-08T08:12:52.270Z</when>
<when >2025-07-08T08:12:58.380Z</when>
<when >2025-07-08T08:13:10.700Z</when>
<when >2025-07-08T08:13:16.350Z</when>
<when >2025-07-08T08:13:33.600Z</when>
<when >2025-07-08T08:13:48.200Z</when>
<when >2025-07-08T08:13:57.870Z</when>
<when >2025-07-08T08:14:07.040Z</when>
<when >2025-07-08T08:14:16.510Z</when>
<when >2025-07-08T08:14:25.100Z</when>
<when >2025-07-08T08:14:38.530Z</when>
<when >2025-07-08T08:14:43.080Z</when>
<when >2025-07-08T08:14:51.830Z</when>
<when >2025-07-08T08:14:56.940Z</when>
<when >2025-07-08T08:15:02.000Z</when>
<when >2025-07-08T08:15:06.850Z</when>
<when >2025-07-08T08:15:11.620Z</when>
<when >2025-07-08T08:15:18.470Z</when>
<when >2025-07-08T08:15:33.290Z</when>
<when >2025-07-08T08:15:50.500Z</when>
<when >2025-07-08T08:16:08.580Z</when>
<when >2025-07-08T08:16:24.390Z</when>
<when >2025-07-08T08:16:39.600Z</when>
<when >2025-07-08T08:16:55.940Z</when>
<when >2025-07-08T08:17:13.950Z</when>
<when >2025-07-08T08:17:33.700Z</when>
<when >2025-07-08T08:17:53.660Z</when>
<when >2025-07-08T08:18:10.300Z</when>
<when >2025-07-08T08:18:24.990Z</when>
<when >2025-07-08T08:18:44.870Z</when>
<when >2025-07-08T08:19:04.850Z</when>
<when >2025-07-08T08:19:24.570Z</when>
<when >2025-07-08T08:19:44.410Z</when>
<when >2025-07-08T08:20:04.080Z</when>
<when >2025-07-08T08:20:23.750Z</when>
<when >2025-07-08T08:20:43.240Z</when>
<when >2025-07-08T08:21:02.720Z</when>
<when >2025-07-08T08:21:22.710Z</when>
<when >2025-07-08T08:21:42.420Z</when>
<when >2025-07-08T08:22:02.020Z</when>
<when >2025-07-08T08:22:21.640Z</when>
<when >2025-07-08T08:22:41.630Z</when>
<when >2025-07-08T08:23:01.590Z</when>
<when >2025-07-08T08:23:21.190Z</when>
<when >2025-07-08T08:23:40.650Z</when>
<when >2025-07-08T08:24:00.440Z</when>
<when >2025-07-08T08:24:20.050Z</when>
<when >2025-07-08T08:24:39.960Z</when>
<when >2025-07-08T08:24:59.790Z</when>
<when >2025-07-08T08:25:19.730Z</when>
<when >2025-07-08T08:25:39.330Z</when>
<when >2025-07-08T08:25:59.240Z</when>
<when >2025-07-08T08:26:19.210Z</when>
<when >2025-07-08T08:26:38.710Z</when>
<when >2025-07-08T08:26:58.590Z</when>
<when >2025-07-08T08:27:18.300Z</when>
<when >2025-07-08T08:27:38.300Z</when>
<when >2025-07-08T08:27:58.040Z</when>
<when >2025-07-08T08:28:17.790Z</when>
<when >2025-07-08T08:28:37.530Z</when>
<when >2025-07-08T08:28:57.290Z</when>
<when >2025-07-08T08:29:16.890Z</when>
<when >2025-07-08T08:29:36.340Z</when>
<when >2025-07-08T08:29:56.020Z</when>
<when >2025-07-08T08:30:15.880Z</when>
<when >2025-07-08T08:30:35.540Z</when>
<when >2025-07-08T08:30:55.360Z</when>
<when >2025-07-08T08:31:14.950Z</when>
<when >2025-07-08T08:31:34.590Z</when>
<when >2025-07-08T08:31:54.160Z</when>
<when >2025-07-08T08:32:13.840Z</when>
<when >2025-07-08T08:32:33.680Z</when>
<when >2025-07-08T08:32:53.340Z</when>
<when >2025-07-08T08:33:13.010Z</when>
<when >2025-07-08T08:33:32.650Z</when>
<when >2025-07-08T08:33:52.240Z</when>
<when >2025-07-08T08:34:12.210Z</when>
<when >2025-07-08T08:34:32.150Z</when>
<when >2025-07-08T08:34:51.620Z</when>
<when >2025-07-08T08:35:11.170Z</when>
<when >2025-07-08T08:35:30.800Z</when>
<when >2025-07-08T08:35:50.490Z</when>
<when >2025-07-08T08:36:09.990Z</when>
<when >2025-07-08T08:36:29.970Z</when>
<when >2025-07-08T08:36:49.760Z</when>
<when >2025-07-08T08:37:09.590Z</when>
<when >2025-07-08T08:37:29.060Z</when>
<when >2025-07-08T08:37:48.970Z</when>
<when >2025-07-08T08:38:08.600Z</when>
<when >2025-07-08T08:38:28.130Z</when>
<when >2025-07-08T08:38:48.010Z</when>
<when >2025-07-08T08:39:07.600Z</when>
<when >2025-07-08T08:39:27.430Z</when>
<when >2025-07-08T08:39:47.430Z</when>
<when >2025-07-08T08:40:07.290Z</when>
<when >2025-07-08T08:40:27.060Z</when>
<when >2025-07-08T08:40:46.950Z</when>
<when >2025-07-08T08:41:06.520Z</when>
<when >2025-07-08T08:41:26.000Z</when>
<when >2025-07-08T08:41:45.960Z</when>
<when >2025-07-08T08:42:05.710Z</when>
<when >2025-07-08T08:42:25.290Z</when>
<when >2025-07-08T08:42:44.950Z</when>
<when >2025-07-08T08:43:04.640Z</when>
<when >2025-07-08T08:43:24.400Z</when>
<when >2025-07-08T08:43:44.100Z</when>
<when >2025-07-08T08:44:03.820Z</when>
<when >2025-07-08T08:44:23.580Z</when>
<when >2025-07-08T08:44:43.450Z</when>
<when >2025-07-08T08:45:03.200Z</when>
<when >2025-07-08T08:45:22.870Z</when>
<when >2025-07-08T08:45:42.770Z</when>
<when >2025-07-08T08:46:02.690Z</when>
<when >2025-07-08T08:46:22.430Z</when>
<when >2025-07-08T08:46:42.300Z</when>
<when >2025-07-08T08:47:02.240Z</when>
<when >2025-07-08T08:47:21.940Z</when>
<when >2025-07-08T08:47:41.570Z</when>
<when >2025-07-08T08:48:01.480Z</when>
<when >2025-07-08T08:48:21.290Z</when>
<when >2025-07-08T08:48:40.810Z</when>
<when >2025-07-08T08:49:00.790Z</when>
<when >2025-07-08T08:49:20.380Z</when>
<when >2025-07-08T08:49:40.350Z</when>
<when >2025-07-08T08:50:00.290Z</when>
<when >2025-07-08T08:50:19.970Z</when>
<when >2025-07-08T08:50:39.810Z</when>
<when >2025-07-08T08:50:59.760Z</when>
<when >2025-07-08T08:51:19.520Z</when>
<when >2025-07-08T08:51:39.170Z</when>
<when >2025-07-08T08:51:58.900Z</when>
<when >2025-07-08T08:52:18.560Z</when>
<when >2025-07-08T08:52:38.390Z</when>
<when >2025-07-08T08:52:58.330Z</when>
<when >2025-07-08T08:53:18.050Z</when>
<when >2025-07-08T08:53:37.650Z</when>
<when >2025-07-08T08:53:57.610Z</when>
<when >2025-07-08T08:54:17.570Z</when>
<when >2025-07-08T08:54:37.490Z</when>
<when >2025-07-08T08:54:57.450Z</when>
<when >2025-07-08T08:55:17.250Z</when>
<when >2025-07-08T08:55:36.840Z</when>
<when >2025-07-08T08:55:56.320Z</when>
<when >2025-07-08T08:56:16.210Z</when>
<when >2025-07-08T08:56:35.960Z</when>
<when >2025-07-08T08:56:55.950Z</when>
<when >2025-07-08T08:57:15.660Z</when>
<when >2025-07-08T08:57:35.380Z</when>
<when >2025-07-08T08:57:55.030Z</when>
<when >2025-07-08T08:58:14.720Z</when>
<when >2025-07-08T08:58:34.660Z</when>
<when >2025-07-08T08:58:54.320Z</when>
<when >2025-07-08T08:59:14.150Z</when>
<when >2025-07-08T08:59:34.000Z</when>
<when >2025-07-08T08:59:53.560Z</when>
<when >2025-07-08T09:00:13.400Z</when>
<when >2025-07-08T09:00:33.170Z</when>
<when >2025-07-08T09:00:52.850Z</when>
<when >2025-07-08T09:01:12.510Z</when>
<when >2025-07-08T09:01:32.080Z</when>
<when >2025-07-08T09:01:51.870Z</when>
<when >2025-07-08T09:02:11.520Z</when>
<when >2025-07-08T09:02:30.990Z</when>
<when >2025-07-08T09:02:50.780Z</when>
<when >2025-07-08T09:03:10.590Z</when>
<when >2025-07-08T09:03:30.400Z</when>
<when >2025-07-08T09:03:50.350Z</when>
<when >2025-07-08T09:04:09.830Z</when>
<when >2025-07-08T09:04:29.560Z</when>
<when >2025-07-08T09:04:49.420Z</when>
<when >2025-07-08T09:05:09.230Z</when>
<when >2025-07-08T09:05:29.120Z</when>
<when >2025-07-08T09:05:48.990Z</when>
<when >2025-07-08T09:06:08.970Z</when>
<when >2025-07-08T09:06:28.390Z</when>
<when >2025-07-08T09:06:48.300Z</when>
<when >2025-07-08T09:07:08.000Z</when>
<when >2025-07-08T09:07:27.890Z</when>
<when >2025-07-08T09:07:47.810Z</when>
<when >2025-07-08T09:08:07.640Z</when>
<when >2025-07-08T09:08:27.600Z</when>
<when >2025-07-08T09:08:47.530Z</when>
<when >2025-07-08T09:09:07.230Z</when>
<when >2025-07-08T09:09:27.020Z</when>
<when >2025-07-08T09:09:46.870Z</when>
<when >2025-07-08T09:10:06.810Z</when>
<when >2025-07-08T09:10:26.290Z</when>
<when >2025-07-08T09:10:46.210Z</when>
<when >2025-07-08T09:11:05.700Z</when>
<when >2025-07-08T09:11:25.280Z</when>
<when >2025-07-08T09:11:44.760Z</when>
<when >2025-07-08T09:12:04.640Z</when>
<when >2025-07-08T09:12:24.600Z</when>
<when >2025-07-08T09:12:44.450Z</when>
<when >2025-07-08T09:13:04.070Z</when>
<when >2025-07-08T09:13:23.870Z</when>
<when >2025-07-08T09:13:43.310Z</when>
<when >2025-07-08T09:14:02.810Z</when>
<when >2025-07-08T09:14:12.950Z</when>
<when >2025-07-08T09:14:22.180Z</when>
<when >2025-07-08T09:14:30.990Z</when>
<when >2025-07-08T09:14:40.340Z</when>
<when >2025-07-08T09:14:49.420Z</when>
<when >2025-07-08T09:14:59.480Z</when>
<when >2025-07-08T09:15:19.380Z</when>
<when >2025-07-08T09:15:39.130Z</when>
<when >2025-07-08T09:15:58.930Z</when>
<when >2025-07-08T09:16:18.540Z</when>
<when >2025-07-08T09:16:38.230Z</when>
<when >2025-07-08T09:16:57.970Z</when>
<when >2025-07-08T09:17:17.820Z</when>
<when >2025-07-08T09:17:37.410Z</when>
<when >2025-07-08T09:17:57.100Z</when>
<when >2025-07-08T09:18:16.600Z</when>
<when >2025-07-08T09:18:36.070Z</when>
<when >2025-07-08T09:18:55.860Z</when>
<when >2025-07-08T09:19:15.710Z</when>
<when >2025-07-08T09:19:35.310Z</when>
<when >2025-07-08T09:19:55.290Z</when>
<when >2025-07-08T09:20:15.220Z</when>
<when >2025-07-08T09:20:35.150Z</when>
<when >2025-07-08T09:20:54.850Z</when>
<when >2025-07-08T09:21:14.700Z</when>
<when >2025-07-08T09:21:34.300Z</when>
<when >2025-07-08T09:21:49.670Z</when>
<when >2025-07-08T09:21:53.930Z</when>
<when >2025-07-08T09:21:57.480Z</when>
<when >2025-07-08T09:21:59.410Z</when>
<when >2025-07-08T09:22:02.280Z</when>
<when >2025-07-08T09:22:05.830Z</when>
<when >2025-07-08T09:22:15.100Z</when>
<when >2025-07-08T09:22:23.470Z</when>
<when >2025-07-08T09:22:30.350Z</when>
<when >2025-07-08T09:22:32.690Z</when>
<when >2025-07-08T09:22:41.710Z</when>
<when >2025-07-08T09:22:46.510Z</when>
<when >2025-07-08T09:22:59.930Z</when>
<when >2025-07-08T09:23:13.490Z</when>
<when >2025-07-08T09:23:14.520Z</when>
<when >2025-07-08T09:23:16.450Z</when>
<when >2025-07-08T09:23:19.480Z</when>
<when >2025-07-08T09:23:27.940Z</when>
<when >2025-07-08T09:23:30.490Z</when>
<when >2025-07-08T09:23:32.000Z</when>
<when >2025-07-08T09:23:43.510Z</when>
<when >2025-07-08T09:23:54.210Z</when>
<when >2025-07-08T09:24:03.970Z</when>
<when >2025-07-08T09:24:14.990Z</when>
<when >2025-07-08T09:24:26.480Z</when>
<when >2025-07-08T09:24:39.320Z</when>
<when >2025-07-08T09:24:50.690Z</when>
<when >2025-07-08T09:24:57.150Z</when>
<when >2025-07-08T09:25:05.010Z</when>
<when >2025-07-08T09:25:13.200Z</when>
<when >2025-07-08T09:25:21.300Z</when>
<when >2025-07-08T09:25:30.790Z</when>
<when >2025-07-08T09:25:40.130Z</when>
<when >2025-07-08T09:25:50.610Z</when>
<when >2025-07-08T09:25:59.660Z</when>
<when >2025-07-08T09:26:08.900Z</when>
<when >2025-07-08T09:26:19.670Z</when>
<when >2025-07-08T09:26:29.930Z</when>
<when >2025-07-08T09:26:39.250Z</when>
<when >2025-07-08T09:26:48.930Z</when>
<when >2025-07-08T09:26:51.310Z</when>
<when >2025-07-08T09:26:53.440Z</when>
<when >2025-07-08T09:26:56.930Z</when>
<when >2025-07-08T09:27:00.040Z</when>
<when >2025-07-08T09:27:05.700Z</when>
<when >2025-07-08T09:27:10.570Z</when>
<when >2025-07-08T09:27:15.820Z</when>
<when >2025-07-08T09:27:18.380Z</when>
<when >2025-07-08T09:27:20.670Z</when>
<when >2025-07-08T09:27:24.780Z</when>
<when >2025-07-08T09:27:26.670Z</when>
<when >2025-07-08T09:27:28.640Z</when>
<when >2025-07-08T09:27:31.480Z</when>
<when >2025-07-08T09:27:42.480Z</when>
<when >2025-07-08T09:27:51.580Z</when>
<when >2025-07-08T09:28:00.830Z</when>
<when >2025-07-08T09:28:09.170Z</when>
<when >2025-07-08T09:28:15.110Z</when>
<when >2025-07-08T09:28:21.910Z</when>
<when >2025-07-08T09:28:28.710Z</when>
<when >2025-07-08T09:28:35.910Z</when>
<when >2025-07-08T09:28:43.150Z</when>
<when >2025-07-08T09:28:51.320Z</when>
<when >2025-07-08T09:28:55.250Z</when>
<when >2025-07-08T09:28:57.270Z</when>
<when >2025-07-08T09:28:58.870Z</when>
<when >2025-07-08T09:29:03.050Z</when>
<when >2025-07-08T09:29:14.950Z</when>
<when >2025-07-08T09:29:26.950Z</when>
<when >2025-07-08T09:29:34.840Z</when>
<when >2025-07-08T09:29:40.930Z</when>
<when >2025-07-08T09:29:46.990Z</when>
<when >2025-07-08T09:29:54.030Z</when>
<when >2025-07-08T09:30:04.450Z</when>
<when >2025-07-08T09:30:16.210Z</when>
<when >2025-07-08T09:30:27.710Z</when>
<when >2025-07-08T09:30:40.140Z</when>
<when >2025-07-08T09:30:51.940Z</when>
<when >2025-07-08T09:31:03.800Z</when>
<when >2025-07-08T09:31:10.100Z</when>
<when >2025-07-08T09:31:21.050Z</when>
<when >2025-07-08T09:31:32.760Z</when>
<when >2025-07-08T09:31:43.860Z</when>
<when >2025-07-08T09:31:54.970Z</when>
<when >2025-07-08T09:32:06.010Z</when>
<when >2025-07-08T09:32:16.940Z</when>
<when >2025-07-08T09:32:28.810Z</when>
<when >2025-07-08T09:32:39.960Z</when>
<when >2025-07-08T09:32:49.800Z</when>
<when >2025-07-08T09:33:02.110Z</when>
<when >2025-07-08T09:33:17.840Z</when>
<when >2025-07-08T09:33:28.950Z</when>
<when >2025-07-08T09:33:41.480Z</when>
<when >2025-07-08T09:33:49.880Z</when>
<when >2025-07-08T09:33:58.750Z</when>
<when >2025-07-08T09:34:09.010Z</when>
<when >2025-07-08T09:34:17.340Z</when>
<when >2025-07-08T09:34:20.410Z</when>
<when >2025-07-08T09:34:24.230Z</when>
<when >2025-07-08T09:34:29.700Z</when>
<when >2025-07-08T09:34:36.290Z</when>
<when >2025-07-08T09:34:44.120Z</when>
<when >2025-07-08T09:34:50.240Z</when>
<when >2025-07-08T09:34:57.460Z</when>
<when >2025-07-08T09:35:04.950Z</when>
<when >2025-07-08T09:35:12.360Z</when>
<when >2025-07-08T09:35:19.930Z</when>
<when >2025-07-08T09:35:27.310Z</when>
<when >2025-07-08T09:35:34.910Z</when>
<when >2025-07-08T09:35:41.680Z</when>
<when >2025-07-08T09:35:48.780Z</when>
<when >2025-07-08T09:35:56.370Z</when>
<when >2025-07-08T09:36:03.620Z</when>
<when >2025-07-08T09:36:10.250Z</when>
<when >2025-07-08T09:36:16.590Z</when>
<when >2025-07-08T09:36:21.700Z</when>
<when >2025-07-08T09:36:27.120Z</when>
<when >2025-07-08T09:36:34.250Z</when>
<when >2025-07-08T09:36:41.710Z</when>
<when >2025-07-08T09:36:48.950Z</when>
<when >2025-07-08T09:36:54.800Z</when>
<when >2025-07-08T09:36:59.140Z</when>
<when >2025-07-08T09:37:03.330Z</when>
<when >2025-07-08T09:37:08.150Z</when>
<when >2025-07-08T09:37:13.720Z</when>
<when >2025-07-08T09:37:19.700Z</when>
<when >2025-07-08T09:37:28.250Z</when>
<when >2025-07-08T09:37:35.070Z</when>
<when >2025-07-08T09:37:43.240Z</when>
<when >2025-07-08T09:37:51.910Z</when>
<when >2025-07-08T09:37:59.820Z</when>
<when >2025-07-08T09:38:06.880Z</when>
<when >2025-07-08T09:38:13.110Z</when>
<when >2025-07-08T09:38:19.960Z</when>
<when >2025-07-08T09:38:28.120Z</when>
<when >2025-07-08T09:38:35.420Z</when>
<when >2025-07-08T09:38:42.880Z</when>
<when >2025-07-08T09:38:50.580Z</when>
<when >2025-07-08T09:38:57.880Z</when>
<when >2025-07-08T09:39:05.540Z</when>
<when >2025-07-08T09:39:13.190Z</when>
<when >2025-07-08T09:39:20.930Z</when>
<when >2025-07-08T09:39:27.970Z</when>
<when >2025-07-08T09:39:35.760Z</when>
<when >2025-07-08T09:39:43.440Z</when>
<when >2025-07-08T09:39:49.380Z</when>
<when >2025-07-08T09:39:56.010Z</when>
<when >2025-07-08T09:39:57.520Z</when>
<when >2025-07-08T09:40:02.200Z</when>
<when >2025-07-08T09:40:06.630Z</when>
<when >2025-07-08T09:40:11.480Z</when>
<when >2025-07-08T09:40:16.000Z</when>
<when >2025-07-08T09:40:20.840Z</when>
<when >2025-07-08T09:40:26.360Z</when>
<when >2025-07-08T09:40:31.520Z</when>
<when >2025-07-08T09:40:37.020Z</when>
<when >2025-07-08T09:40:42.720Z</when>
<when >2025-07-08T09:40:48.220Z</when>
<when >2025-07-08T09:40:54.390Z</when>
<when >2025-07-08T09:40:59.720Z</when>
<when >2025-07-08T09:41:06.070Z</when>
<when >2025-07-08T09:41:12.380Z</when>
<when >2025-07-08T09:41:18.180Z</when>
<when >2025-07-08T09:41:24.630Z</when>
<when >2025-07-08T09:41:30.380Z</when>
<when >2025-07-08T09:41:36.940Z</when>
<when >2025-07-08T09:41:43.730Z</when>
<when >2025-07-08T09:41:49.320Z</when>
<when >2025-07-08T09:41:54.330Z</when>
<when >2025-07-08T09:41:56.810Z</when>
<when >2025-07-08T09:42:01.630Z</when>
<when >2025-07-08T09:42:06.050Z</when>
<when >2025-07-08T09:42:12.220Z</when>
<when >2025-07-08T09:42:20.630Z</when>
<when >2025-07-08T09:42:28.410Z</when>
<when >2025-07-08T09:42:36.360Z</when>
<when >2025-07-08T09:42:44.700Z</when>
<when >2025-07-08T09:42:52.400Z</when>
<when >2025-07-08T09:42:58.820Z</when>
<when >2025-07-08T09:43:07.220Z</when>
<when >2025-07-08T09:43:14.760Z</when>
<when >2025-07-08T09:43:22.650Z</when>
<when >2025-07-08T09:43:30.260Z</when>
<when >2025-07-08T09:43:38.430Z</when>
<when >2025-07-08T09:43:46.630Z</when>
<when >2025-07-08T09:43:49.960Z</when>
<when >2025-07-08T09:43:55.750Z</when>
<when >2025-07-08T09:43:57.680Z</when>
<when >2025-07-08T09:43:58.160Z</when>
<when >2025-07-08T09:44:00.550Z</when>
<when >2025-07-08T09:44:03.800Z</when>
<when >2025-07-08T09:44:03.800Z</when>
<gx:coord >-0.366669 51.874928 166</gx:coord>
<gx:coord >-0.368958 51.874555 166</gx:coord>
<gx:coord >-0.370863 51.874237 166</gx:coord>
<gx:coord >-0.371308 51.874146 166</gx:coord>
<gx:coord >-0.372793 51.873871 159</gx:coord>
<gx:coord >-0.38029 51.872589 189</gx:coord>
<gx:coord >-0.382462 51.872228 212</gx:coord>
<gx:coord >-0.383631 51.87204 220</gx:coord>
<gx:coord >-0.385858 51.871628 243</gx:coord>
<gx:coord >-0.388159 51.871216 273</gx:coord>
<gx:coord >-0.390609 51.870758 319</gx:coord>
<gx:coord >-0.392613 51.870438 342</gx:coord>
<gx:coord >-0.394765 51.870026 380</gx:coord>
<gx:coord >-0.397034 51.869621 410</gx:coord>
<gx:coord >-0.399094 51.869202 441</gx:coord>
<gx:coord >-0.401459 51.86869 456</gx:coord>
<gx:coord >-0.404044 51.867874 494</gx:coord>
<gx:coord >-0.406418 51.866967 525</gx:coord>
<gx:coord >-0.408554 51.86585 547</gx:coord>
<gx:coord >-0.410948 51.864349 570</gx:coord>
<gx:coord >-0.413895 51.862265 608</gx:coord>
<gx:coord >-0.417035 51.859863 631</gx:coord>
<gx:coord >-0.419846 51.857703 654</gx:coord>
<gx:coord >-0.422211 51.855795 685</gx:coord>
<gx:coord >-0.423737 51.854398 700</gx:coord>
<gx:coord >-0.425644 51.852583 715</gx:coord>
<gx:coord >-0.427551 51.850767 723</gx:coord>
<gx:coord >-0.42984 51.848439 761</gx:coord>
<gx:coord >-0.432327 51.845856 791</gx:coord>
<gx:coord >-0.434189 51.843877 799</gx:coord>
<gx:coord >-0.435742 51.842239 814</gx:coord>
<gx:coord >-0.436929 51.840912 822</gx:coord>
<gx:coord >-0.438934 51.838806 837</gx:coord>
<gx:coord >-0.440938 51.836609 852</gx:coord>
<gx:coord >-0.442657 51.834846 860</gx:coord>
<gx:coord >-0.444724 51.832626 867</gx:coord>
<gx:coord >-0.447173 51.829926 898</gx:coord>
<gx:coord >-0.449623 51.827225 928</gx:coord>
<gx:coord >-0.451965 51.824232 951</gx:coord>
<gx:coord >-0.453854 51.821045 974</gx:coord>
<gx:coord >-0.455265 51.817566 1012</gx:coord>
<gx:coord >-0.455933 51.815002 1027</gx:coord>
<gx:coord >-0.456161 51.812315 1050</gx:coord>
<gx:coord >-0.455933 51.809464 1073</gx:coord>
<gx:coord >-0.455339 51.806625 1096</gx:coord>
<gx:coord >-0.454483 51.804308 1111</gx:coord>
<gx:coord >-0.453033 51.801561 1119</gx:coord>
<gx:coord >-0.450588 51.798386 1142</gx:coord>
<gx:coord >-0.448914 51.796627 1142</gx:coord>
<gx:coord >-0.446167 51.794253 1157</gx:coord>
<gx:coord >-0.442886 51.792018 1180</gx:coord>
<gx:coord >-0.439911 51.790342 1180</gx:coord>
<gx:coord >-0.436249 51.78862 1203</gx:coord>
<gx:coord >-0.431976 51.787037 1218</gx:coord>
<gx:coord >-0.427279 51.78566 1241</gx:coord>
<gx:coord >-0.422974 51.784744 1241</gx:coord>
<gx:coord >-0.417777 51.783966 1256</gx:coord>
<gx:coord >-0.413472 51.783554 1271</gx:coord>
<gx:coord >-0.407756 51.783371 1302</gx:coord>
<gx:coord >-0.398788 51.783313 1332</gx:coord>
<gx:coord >-0.388233 51.783371 1355</gx:coord>
<gx:coord >-0.377766 51.783417 1386</gx:coord>
<gx:coord >-0.366745 51.783406 1424</gx:coord>
<gx:coord >-0.35675 51.783359 1447</gx:coord>
<gx:coord >-0.346069 51.783266 1477</gx:coord>
<gx:coord >-0.335009 51.783051 1507</gx:coord>
<gx:coord >-0.325012 51.782428 1515</gx:coord>
<gx:coord >-0.318604 51.781683 1523</gx:coord>
<gx:coord >-0.31456 51.781125 1538</gx:coord>
<gx:coord >-0.311477 51.780624 1554</gx:coord>
<gx:coord >-0.308533 51.780147 1569</gx:coord>
<gx:coord >-0.305093 51.779572 1592</gx:coord>
<gx:coord >-0.301233 51.779022 1615</gx:coord>
<gx:coord >-0.29808 51.778611 1630</gx:coord>
<gx:coord >-0.295563 51.778378 1653</gx:coord>
<gx:coord >-0.289307 51.778052 1676</gx:coord>
<gx:coord >-0.283863 51.778198 1699</gx:coord>
<gx:coord >-0.277634 51.778611 1722</gx:coord>
<gx:coord >-0.270615 51.779309 1752</gx:coord>
<gx:coord >-0.265198 51.779961 1783</gx:coord>
<gx:coord >-0.260257 51.780579 1806</gx:coord>
<gx:coord >-0.254059 51.781404 1836</gx:coord>
<gx:coord >-0.249345 51.782043 1874</gx:coord>
<gx:coord >-0.243607 51.782847 1905</gx:coord>
<gx:coord >-0.237097 51.783783 1928</gx:coord>
<gx:coord >-0.231604 51.784561 1966</gx:coord>
<gx:coord >-0.226212 51.785361 1996</gx:coord>
<gx:coord >-0.221063 51.786072 2019</gx:coord>
<gx:coord >-0.215792 51.78685 2057</gx:coord>
<gx:coord >-0.210967 51.787582 2080</gx:coord>
<gx:coord >-0.207062 51.788154 2110</gx:coord>
<gx:coord >-0.202179 51.788852 2149</gx:coord>
<gx:coord >-0.192261 51.790329 2217</gx:coord>
<gx:coord >-0.183501 51.791656 2278</gx:coord>
<gx:coord >-0.174965 51.792892 2324</gx:coord>
<gx:coord >-0.166931 51.79402 2392</gx:coord>
<gx:coord >-0.157743 51.795319 2461</gx:coord>
<gx:coord >-0.15032 51.796326 2507</gx:coord>
<gx:coord >-0.142746 51.797372 2568</gx:coord>
<gx:coord >-0.134201 51.798535 2629</gx:coord>
<gx:coord >-0.126714 51.79953 2705</gx:coord>
<gx:coord >-0.117658 51.80072 2766</gx:coord>
<gx:coord >-0.109492 51.801819 2819</gx:coord>
<gx:coord >-0.10192 51.80278 2880</gx:coord>
<gx:coord >-0.093536 51.803889 2941</gx:coord>
<gx:coord >-0.085754 51.804913 3010</gx:coord>
<gx:coord >-0.077591 51.805984 3055</gx:coord>
<gx:coord >-0.070343 51.806915 3116</gx:coord>
<gx:coord >-0.062726 51.807907 3177</gx:coord>
<gx:coord >-0.05946 51.808365 3200</gx:coord>
<gx:coord >-0.055847 51.808823 3223</gx:coord>
<gx:coord >-0.049587 51.809647 3253</gx:coord>
<gx:coord >-0.03479 51.811617 3314</gx:coord>
<gx:coord >-0.020218 51.813525 3383</gx:coord>
<gx:coord >-0.008698 51.815015 3436</gx:coord>
<gx:coord >0.003489 51.816605 3505</gx:coord>
<gx:coord >0.016251 51.818274 3558</gx:coord>
<gx:coord >0.029373 51.819996 3619</gx:coord>
<gx:coord >0.041124 51.821548 3680</gx:coord>
<gx:coord >0.06473 51.824661 3810</gx:coord>
<gx:coord >0.076675 51.826187 3878</gx:coord>
<gx:coord >0.096436 51.828748 4000</gx:coord>
<gx:coord >0.116173 51.831299 4130</gx:coord>
<gx:coord >0.135696 51.833817 4252</gx:coord>
<gx:coord >0.158081 51.836708 4381</gx:coord>
<gx:coord >0.180977 51.839722 4503</gx:coord>
<gx:coord >0.20668 51.843086 4625</gx:coord>
<gx:coord >0.231975 51.846405 4747</gx:coord>
<gx:coord >0.256195 51.849557 4869</gx:coord>
<gx:coord >0.277776 51.852356 4998</gx:coord>
<gx:coord >0.301679 51.855377 5128</gx:coord>
<gx:coord >0.326992 51.858627 5250</gx:coord>
<gx:coord >0.352402 51.861846 5379</gx:coord>
<gx:coord >0.379399 51.865265 5486</gx:coord>
<gx:coord >0.408249 51.868969 5600</gx:coord>
<gx:coord >0.436261 51.872498 5715</gx:coord>
<gx:coord >0.463562 51.875998 5837</gx:coord>
<gx:coord >0.489634 51.879318 5959</gx:coord>
<gx:coord >0.518362 51.882935 6073</gx:coord>
<gx:coord >0.547312 51.886642 6195</gx:coord>
<gx:coord >0.578118 51.890533 6301</gx:coord>
<gx:coord >0.609207 51.89447 6408</gx:coord>
<gx:coord >0.641209 51.89853 6522</gx:coord>
<gx:coord >0.671234 51.902252 6637</gx:coord>
<gx:coord >0.701085 51.905978 6759</gx:coord>
<gx:coord >0.735168 51.910217 6858</gx:coord>
<gx:coord >0.770377 51.91459 6958</gx:coord>
<gx:coord >0.810399 51.919571 7042</gx:coord>
<gx:coord >0.854645 51.925049 7118</gx:coord>
<gx:coord >0.889108 51.929301 7194</gx:coord>
<gx:coord >0.923009 51.933444 7293</gx:coord>
<gx:coord >0.958165 51.937727 7392</gx:coord>
<gx:coord >0.996303 51.942428 7491</gx:coord>
<gx:coord >1.031145 51.946665 7590</gx:coord>
<gx:coord >1.069362 51.95132 7689</gx:coord>
<gx:coord >1.103058 51.955444 7788</gx:coord>
<gx:coord >1.131356 51.958861 7887</gx:coord>
<gx:coord >1.162275 51.962585 8002</gx:coord>
<gx:coord >1.178589 51.964554 8055</gx:coord>
<gx:coord >1.217957 51.969269 8154</gx:coord>
<gx:coord >1.255659 51.973805 8238</gx:coord>
<gx:coord >1.273708 51.975992 8291</gx:coord>
<gx:coord >1.306305 51.979843 8406</gx:coord>
<gx:coord >1.338527 51.983674 8505</gx:coord>
<gx:coord >1.378555 51.988403 8596</gx:coord>
<gx:coord >1.417472 51.992984 8680</gx:coord>
<gx:coord >1.463318 51.998428 8764</gx:coord>
<gx:coord >1.505508 52.003418 8855</gx:coord>
<gx:coord >1.548366 52.008486 8939</gx:coord>
<gx:coord >1.588364 52.013168 9030</gx:coord>
<gx:coord >1.627197 52.017654 9122</gx:coord>
<gx:coord >1.661133 52.021567 9206</gx:coord>
<gx:coord >1.710052 52.027222 9282</gx:coord>
<gx:coord >1.745571 52.031343 9350</gx:coord>
<gx:coord >1.781982 52.035486 9442</gx:coord>
<gx:coord >1.821823 52.040039 9549</gx:coord>
<gx:coord >1.85308 52.043633 9602</gx:coord>
<gx:coord >1.912003 52.05043 9671</gx:coord>
<gx:coord >1.932755 52.052811 9693</gx:coord>
<gx:coord >1.977234 52.057892 9777</gx:coord>
<gx:coord >2.025833 52.063339 9853</gx:coord>
<gx:coord >2.070844 52.068352 9938</gx:coord>
<gx:coord >2.111588 52.072861 10007</gx:coord>
<gx:coord >2.12944 52.074875 10014</gx:coord>
<gx:coord >2.190517 52.081759 10045</gx:coord>
<gx:coord >2.240034 52.087345 10083</gx:coord>
<gx:coord >2.259338 52.089533 10106</gx:coord>
<gx:coord >2.298497 52.093863 10190</gx:coord>
<gx:coord >2.31631 52.095818 10205</gx:coord>
<gx:coord >2.37175 52.101974 10228</gx:coord>
<gx:coord >2.419111 52.107223 10304</gx:coord>
<gx:coord >2.4505 52.110668 10334</gx:coord>
<gx:coord >2.48024 52.114471 10350</gx:coord>
<gx:coord >2.510452 52.119049 10380</gx:coord>
<gx:coord >2.537763 52.123889 10426</gx:coord>
<gx:coord >2.579433 52.132082 10517</gx:coord>
<gx:coord >2.593401 52.134782 10540</gx:coord>
<gx:coord >2.620946 52.139856 10571</gx:coord>
<gx:coord >2.637405 52.142212 10578</gx:coord>
<gx:coord >2.654297 52.143953 10586</gx:coord>
<gx:coord >2.670746 52.144958 10594</gx:coord>
<gx:coord >2.687099 52.145256 10624</gx:coord>
<gx:coord >2.711112 52.144837 10662</gx:coord>
<gx:coord >2.762604 52.143494 10746</gx:coord>
<gx:coord >2.822342 52.142578 10822</gx:coord>
<gx:coord >2.885056 52.14212 10898</gx:coord>
<gx:coord >2.939682 52.141846 10990</gx:coord>
<gx:coord >2.992362 52.141486 11074</gx:coord>
<gx:coord >3.048549 52.14102 11150</gx:coord>
<gx:coord >3.110543 52.140415 11218</gx:coord>
<gx:coord >3.17894 52.139648 11264</gx:coord>
<gx:coord >3.248444 52.138824 11333</gx:coord>
<gx:coord >3.305865 52.138134 11401</gx:coord>
<gx:coord >3.357186 52.137529 11416</gx:coord>
<gx:coord >3.426243 52.136598 11424</gx:coord>
<gx:coord >3.495457 52.135574 11424</gx:coord>
<gx:coord >3.563614 52.134521 11424</gx:coord>
<gx:coord >3.632237 52.133525 11416</gx:coord>
<gx:coord >3.699881 52.132548 11416</gx:coord>
<gx:coord >3.768082 52.1315 11416</gx:coord>
<gx:coord >3.836288 52.13031 11416</gx:coord>
<gx:coord >3.905182 52.12912 11424</gx:coord>
<gx:coord >3.976059 52.127975 11433</gx:coord>
<gx:coord >4.045872 52.126775 11433</gx:coord>
<gx:coord >4.115601 52.12532 11433</gx:coord>
<gx:coord >4.184692 52.123842 11410</gx:coord>
<gx:coord >4.254142 52.122399 11410</gx:coord>
<gx:coord >4.32373 52.121017 11410</gx:coord>
<gx:coord >4.392256 52.119606 11410</gx:coord>
<gx:coord >4.460214 52.118116 11410</gx:coord>
<gx:coord >4.52919 52.116348 11402</gx:coord>
<gx:coord >4.597778 52.114765 11410</gx:coord>
<gx:coord >4.667463 52.113182 11410</gx:coord>
<gx:coord >4.736862 52.11145 11417</gx:coord>
<gx:coord >4.806519 52.109619 11417</gx:coord>
<gx:coord >4.875183 52.107834 11417</gx:coord>
<gx:coord >4.944839 52.106003 11417</gx:coord>
<gx:coord >5.014631 52.104151 11410</gx:coord>
<gx:coord >5.082746 52.102382 11402</gx:coord>
<gx:coord >5.152054 52.100464 11402</gx:coord>
<gx:coord >5.220703 52.098425 11395</gx:coord>
<gx:coord >5.289764 52.096436 11395</gx:coord>
<gx:coord >5.3582 52.094421 11387</gx:coord>
<gx:coord >5.426559 52.092453 11387</gx:coord>
<gx:coord >5.494614 52.090347 11387</gx:coord>
<gx:coord >5.562456 52.088044 11387</gx:coord>
<gx:coord >5.629395 52.085902 11379</gx:coord>
<gx:coord >5.696106 52.083847 11379</gx:coord>
<gx:coord >5.763245 52.081696 11363</gx:coord>
<gx:coord >5.830917 52.079407 11378</gx:coord>
<gx:coord >5.898743 52.077026 11386</gx:coord>
<gx:coord >5.967616 52.074637 11378</gx:coord>
<gx:coord >6.035538 52.072174 11378</gx:coord>
<gx:coord >6.103847 52.069609 11378</gx:coord>
<gx:coord >6.172028 52.067093 11378</gx:coord>
<gx:coord >6.240234 52.064628 11378</gx:coord>
<gx:coord >6.309448 52.062068 11378</gx:coord>
<gx:coord >6.378191 52.059414 11378</gx:coord>
<gx:coord >6.446699 52.056714 11386</gx:coord>
<gx:coord >6.515442 52.053828 11386</gx:coord>
<gx:coord >6.584028 52.051081 11386</gx:coord>
<gx:coord >6.6539 52.048233 11386</gx:coord>
<gx:coord >6.723785 52.045395 11386</gx:coord>
<gx:coord >6.792297 52.042603 11378</gx:coord>
<gx:coord >6.860962 52.039862 11386</gx:coord>
<gx:coord >6.92955 52.036972 11386</gx:coord>
<gx:coord >6.998448 52.03381 11386</gx:coord>
<gx:coord >7.066563 52.030645 11378</gx:coord>
<gx:coord >7.136248 52.027479 11378</gx:coord>
<gx:coord >7.205048 52.024384 11378</gx:coord>
<gx:coord >7.273865 52.021271 11371</gx:coord>
<gx:coord >7.341537 52.018158 11371</gx:coord>
<gx:coord >7.410355 52.014862 11363</gx:coord>
<gx:coord >7.478315 52.011465 11363</gx:coord>
<gx:coord >7.545803 52.008114 11363</gx:coord>
<gx:coord >7.614365 52.004745 11363</gx:coord>
<gx:coord >7.681798 52.001503 11363</gx:coord>
<gx:coord >7.750397 51.998199 11356</gx:coord>
<gx:coord >7.819138 51.99472 11356</gx:coord>
<gx:coord >7.887791 51.991075 11363</gx:coord>
<gx:coord >7.955985 51.987537 11362</gx:coord>
<gx:coord >8.02475 51.983963 11362</gx:coord>
<gx:coord >8.092294 51.980368 11362</gx:coord>
<gx:coord >8.159781 51.976691 11370</gx:coord>
<gx:coord >8.22876 51.972967 11370</gx:coord>
<gx:coord >8.297348 51.969223 11370</gx:coord>
<gx:coord >8.365069 51.965425 11377</gx:coord>
<gx:coord >8.433262 51.961608 11377</gx:coord>
<gx:coord >8.501587 51.957733 11377</gx:coord>
<gx:coord >8.570175 51.953888 11377</gx:coord>
<gx:coord >8.63855 51.949923 11377</gx:coord>
<gx:coord >8.706665 51.945923 11385</gx:coord>
<gx:coord >8.775482 51.941895 11377</gx:coord>
<gx:coord >8.84423 51.937866 11370</gx:coord>
<gx:coord >8.912888 51.933701 11370</gx:coord>
<gx:coord >8.980789 51.929535 11370</gx:coord>
<gx:coord >9.049149 51.925278 11370</gx:coord>
<gx:coord >9.1185 51.920975 11362</gx:coord>
<gx:coord >9.186935 51.916626 11362</gx:coord>
<gx:coord >9.255275 51.912402 11362</gx:coord>
<gx:coord >9.324875 51.90802 11362</gx:coord>
<gx:coord >9.393234 51.90358 11370</gx:coord>
<gx:coord >9.461269 51.899135 11370</gx:coord>
<gx:coord >9.530106 51.894608 11370</gx:coord>
<gx:coord >9.599075 51.890104 11362</gx:coord>
<gx:coord >9.666672 51.885588 11370</gx:coord>
<gx:coord >9.736099 51.88084 11377</gx:coord>
<gx:coord >9.803739 51.876114 11377</gx:coord>
<gx:coord >9.8727 51.871399 11377</gx:coord>
<gx:coord >9.941711 51.866641 11370</gx:coord>
<gx:coord >10.009918 51.86194 11370</gx:coord>
<gx:coord >10.078659 51.857191 11370</gx:coord>
<gx:coord >10.14773 51.85231 11370</gx:coord>
<gx:coord >10.215759 51.847369 11370</gx:coord>
<gx:coord >10.283574 51.842422 11370</gx:coord>
<gx:coord >10.351571 51.837479 11362</gx:coord>
<gx:coord >10.419345 51.832535 11355</gx:coord>
<gx:coord >10.487712 51.827499 11370</gx:coord>
<gx:coord >10.556335 51.822463 11385</gx:coord>
<gx:coord >10.624084 51.817342 11385</gx:coord>
<gx:coord >10.691376 51.812268 11393</gx:coord>
<gx:coord >10.759846 51.806992 11393</gx:coord>
<gx:coord >10.82814 51.801773 11385</gx:coord>
<gx:coord >10.896149 51.796487 11377</gx:coord>
<gx:coord >10.964281 51.791153 11377</gx:coord>
<gx:coord >11.03161 51.785934 11377</gx:coord>
<gx:coord >11.098251 51.780659 11370</gx:coord>
<gx:coord >11.164336 51.775406 11362</gx:coord>
<gx:coord >11.231461 51.770045 11362</gx:coord>
<gx:coord >11.298845 51.764511 11370</gx:coord>
<gx:coord >11.366693 51.758881 11370</gx:coord>
<gx:coord >11.433353 51.753387 11370</gx:coord>
<gx:coord >11.500384 51.747849 11370</gx:coord>
<gx:coord >11.567193 51.742401 11370</gx:coord>
<gx:coord >11.634064 51.736807 11370</gx:coord>
<gx:coord >11.702518 51.730957 11371</gx:coord>
<gx:coord >11.769624 51.725235 11371</gx:coord>
<gx:coord >11.837546 51.719513 11371</gx:coord>
<gx:coord >11.905691 51.713654 11378</gx:coord>
<gx:coord >11.973093 51.70784 11378</gx:coord>
<gx:coord >12.041535 51.701706 11378</gx:coord>
<gx:coord >12.110138 51.695608 11378</gx:coord>
<gx:coord >12.178268 51.68951 11378</gx:coord>
<gx:coord >12.24649 51.68335 11394</gx:coord>
<gx:coord >12.314453 51.677081 11401</gx:coord>
<gx:coord >12.383151 51.670807 11401</gx:coord>
<gx:coord >12.45137 51.664673 11402</gx:coord>
<gx:coord >12.518539 51.658646 11395</gx:coord>
<gx:coord >12.586899 51.652454 11387</gx:coord>
<gx:coord >12.655433 51.646133 11387</gx:coord>
<gx:coord >12.723236 51.639699 11387</gx:coord>
<gx:coord >12.791204 51.633179 11387</gx:coord>
<gx:coord >12.858124 51.626851 11387</gx:coord>
<gx:coord >12.925192 51.620544 11379</gx:coord>
<gx:coord >12.993011 51.614049 11372</gx:coord>
<gx:coord >13.060303 51.607485 11379</gx:coord>
<gx:coord >13.128204 51.600875 11379</gx:coord>
<gx:coord >13.195801 51.594264 11395</gx:coord>
<gx:coord >13.263702 51.587607 11402</gx:coord>
<gx:coord >13.329697 51.58109 11402</gx:coord>
<gx:coord >13.397369 51.574247 11402</gx:coord>
<gx:coord >13.464191 51.56749 11402</gx:coord>
<gx:coord >13.531519 51.56076 11417</gx:coord>
<gx:coord >13.598862 51.55381 11410</gx:coord>
<gx:coord >13.665656 51.547119 11402</gx:coord>
<gx:coord >13.73291 51.540344 11395</gx:coord>
<gx:coord >13.800125 51.53342 11387</gx:coord>
<gx:coord >13.866425 51.526438 11387</gx:coord>
<gx:coord >13.933114 51.51947 11387</gx:coord>
<gx:coord >14.000294 51.512421 11387</gx:coord>
<gx:coord >14.067688 51.505256 11396</gx:coord>
<gx:coord >14.133614 51.49823 11396</gx:coord>
<gx:coord >14.20124 51.490952 11403</gx:coord>
<gx:coord >14.267883 51.483749 11411</gx:coord>
<gx:coord >14.334857 51.476486 11411</gx:coord>
<gx:coord >14.401093 51.469271 11418</gx:coord>
<gx:coord >14.468846 51.461929 11426</gx:coord>
<gx:coord >14.537584 51.454422 11434</gx:coord>
<gx:coord >14.605103 51.44688 11434</gx:coord>
<gx:coord >14.672318 51.439292 11434</gx:coord>
<gx:coord >14.739838 51.431797 11426</gx:coord>
<gx:coord >14.806527 51.424301 11426</gx:coord>
<gx:coord >14.872894 51.41676 11426</gx:coord>
<gx:coord >14.90715 51.412338 11426</gx:coord>
<gx:coord >14.938354 51.40759 11426</gx:coord>
<gx:coord >14.967422 51.402422 11426</gx:coord>
<gx:coord >14.997864 51.396324 11426</gx:coord>
<gx:coord >15.027144 51.38974 11426</gx:coord>
<gx:coord >15.058841 51.381821 11434</gx:coord>
<gx:coord >15.121196 51.365387 11434</gx:coord>
<gx:coord >15.183328 51.349365 11426</gx:coord>
<gx:coord >15.24546 51.333389 11426</gx:coord>
<gx:coord >15.306778 51.317511 11418</gx:coord>
<gx:coord >15.36824 51.301483 11426</gx:coord>
<gx:coord >15.429688 51.285204 11434</gx:coord>
<gx:coord >15.491317 51.268936 11426</gx:coord>
<gx:coord >15.552063 51.252943 11434</gx:coord>
<gx:coord >15.613098 51.236836 11426</gx:coord>
<gx:coord >15.673065 51.221008 11434</gx:coord>
<gx:coord >15.733643 51.204948 11434</gx:coord>
<gx:coord >15.794702 51.188782 11434</gx:coord>
<gx:coord >15.855721 51.172531 11434</gx:coord>
<gx:coord >15.916146 51.156372 11441</gx:coord>
<gx:coord >15.977707 51.14038 11441</gx:coord>
<gx:coord >16.039223 51.124695 11434</gx:coord>
<gx:coord >16.100983 51.108948 11434</gx:coord>
<gx:coord >16.161928 51.093292 11434</gx:coord>
<gx:coord >16.222872 51.077591 11434</gx:coord>
<gx:coord >16.283371 51.061798 11441</gx:coord>
<gx:coord >16.330414 51.049417 11441</gx:coord>
<gx:coord >16.343079 51.046065 11426</gx:coord>
<gx:coord >16.354114 51.043167 11403</gx:coord>
<gx:coord >16.360053 51.041611 11380</gx:coord>
<gx:coord >16.368561 51.039408 11358</gx:coord>
<gx:coord >16.379502 51.03653 11327</gx:coord>
<gx:coord >16.407561 51.029205 11213</gx:coord>
<gx:coord >16.433171 51.02243 11068</gx:coord>
<gx:coord >16.454239 51.016923 10984</gx:coord>
<gx:coord >16.461454 51.015015 10946</gx:coord>
<gx:coord >16.4888 51.007939 10870</gx:coord>
<gx:coord >16.503321 51.00412 10824</gx:coord>
<gx:coord >16.543554 50.993591 10748</gx:coord>
<gx:coord >16.583023 50.983173 10656</gx:coord>
<gx:coord >16.586075 50.982335 10649</gx:coord>
<gx:coord >16.591657 50.98082 10634</gx:coord>
<gx:coord >16.600571 50.978471 10596</gx:coord>
<gx:coord >16.62468 50.971907 10481</gx:coord>
<gx:coord >16.632004 50.969952 10443</gx:coord>
<gx:coord >16.636353 50.968788 10428</gx:coord>
<gx:coord >16.669006 50.960083 10321</gx:coord>
<gx:coord >16.699516 50.951935 10207</gx:coord>
<gx:coord >16.727066 50.944721 10086</gx:coord>
<gx:coord >16.757889 50.936667 9964</gx:coord>
<gx:coord >16.790009 50.928241 9850</gx:coord>
<gx:coord >16.825256 50.918838 9743</gx:coord>
<gx:coord >16.855774 50.910551 9636</gx:coord>
<gx:coord >16.872787 50.905896 9568</gx:coord>
<gx:coord >16.893921 50.900124 9454</gx:coord>
<gx:coord >16.915436 50.894212 9339</gx:coord>
<gx:coord >16.937561 50.888113 9210</gx:coord>
<gx:coord >16.962816 50.881256 9095</gx:coord>
<gx:coord >16.987907 50.874435 8973</gx:coord>
<gx:coord >17.016115 50.866882 8844</gx:coord>
<gx:coord >17.040463 50.860382 8730</gx:coord>
<gx:coord >17.065048 50.853758 8600</gx:coord>
<gx:coord >17.09391 50.845963 8486</gx:coord>
<gx:coord >17.121201 50.838628 8364</gx:coord>
<gx:coord >17.145872 50.832001 8227</gx:coord>
<gx:coord >17.171478 50.825082 8112</gx:coord>
<gx:coord >17.177718 50.823441 8074</gx:coord>
<gx:coord >17.183434 50.821976 8051</gx:coord>
<gx:coord >17.192612 50.819542 7990</gx:coord>
<gx:coord >17.200928 50.8174 7922</gx:coord>
<gx:coord >17.216415 50.813443 7800</gx:coord>
<gx:coord >17.22968 50.81012 7678</gx:coord>
<gx:coord >17.24411 50.806461 7556</gx:coord>
<gx:coord >17.251053 50.804692 7503</gx:coord>
<gx:coord >17.257814 50.802979 7449</gx:coord>
<gx:coord >17.269023 50.80014 7389</gx:coord>
<gx:coord >17.274475 50.79878 7358</gx:coord>
<gx:coord >17.280084 50.797394 7320</gx:coord>
<gx:coord >17.288132 50.795381 7289</gx:coord>
<gx:coord >17.318239 50.787918 7175</gx:coord>
<gx:coord >17.343923 50.781555 7061</gx:coord>
<gx:coord >17.369311 50.775238 6931</gx:coord>
<gx:coord >17.392044 50.769452 6802</gx:coord>
<gx:coord >17.40799 50.765355 6726</gx:coord>
<gx:coord >17.42684 50.760544 6596</gx:coord>
<gx:coord >17.445602 50.755672 6466</gx:coord>
<gx:coord >17.465367 50.75061 6337</gx:coord>
<gx:coord >17.485352 50.745477 6223</gx:coord>
<gx:coord >17.508011 50.739612 6093</gx:coord>
<gx:coord >17.518962 50.73674 6040</gx:coord>
<gx:coord >17.52453 50.735321 6009</gx:coord>
<gx:coord >17.528915 50.734165 5986</gx:coord>
<gx:coord >17.540436 50.731186 5956</gx:coord>
<gx:coord >17.57278 50.72287 5887</gx:coord>
<gx:coord >17.604923 50.714676 5834</gx:coord>
<gx:coord >17.625351 50.709492 5788</gx:coord>
<gx:coord >17.640703 50.705566 5758</gx:coord>
<gx:coord >17.65564 50.701718 5735</gx:coord>
<gx:coord >17.672325 50.697418 5704</gx:coord>
<gx:coord >17.696762 50.691104 5636</gx:coord>
<gx:coord >17.723923 50.684168 5529</gx:coord>
<gx:coord >17.750195 50.677368 5423</gx:coord>
<gx:coord >17.778264 50.670135 5316</gx:coord>
<gx:coord >17.804607 50.663266 5202</gx:coord>
<gx:coord >17.830449 50.656494 5087</gx:coord>
<gx:coord >17.844182 50.652924 5026</gx:coord>
<gx:coord >17.867889 50.64679 4904</gx:coord>
<gx:coord >17.892825 50.640381 4790</gx:coord>
<gx:coord >17.916548 50.634217 4676</gx:coord>
<gx:coord >17.94024 50.628113 4554</gx:coord>
<gx:coord >17.963611 50.621974 4424</gx:coord>
<gx:coord >17.986426 50.615891 4310</gx:coord>
<gx:coord >18.011362 50.609344 4188</gx:coord>
<gx:coord >18.034503 50.603214 4066</gx:coord>
<gx:coord >18.054991 50.597813 3975</gx:coord>
<gx:coord >18.08046 50.591171 3876</gx:coord>
<gx:coord >18.112697 50.582657 3792</gx:coord>
<gx:coord >18.134716 50.576865 3739</gx:coord>
<gx:coord >18.158738 50.570526 3693</gx:coord>
<gx:coord >18.174495 50.566406 3639</gx:coord>
<gx:coord >18.19083 50.562149 3594</gx:coord>
<gx:coord >18.209468 50.55722 3556</gx:coord>
<gx:coord >18.224314 50.553216 3510</gx:coord>
<gx:coord >18.229585 50.55182 3487</gx:coord>
<gx:coord >18.236654 50.549927 3457</gx:coord>
<gx:coord >18.246361 50.547304 3396</gx:coord>
<gx:coord >18.25809 50.544185 3335</gx:coord>
<gx:coord >18.271526 50.540601 3266</gx:coord>
<gx:coord >18.28284 50.537567 3213</gx:coord>
<gx:coord >18.295633 50.534134 3144</gx:coord>
<gx:coord >18.308644 50.530655 3091</gx:coord>
<gx:coord >18.321558 50.527194 3030</gx:coord>
<gx:coord >18.334845 50.523609 2977</gx:coord>
<gx:coord >18.347688 50.520164 2908</gx:coord>
<gx:coord >18.360604 50.516673 2847</gx:coord>
<gx:coord >18.372333 50.5136 2786</gx:coord>
<gx:coord >18.384536 50.510376 2725</gx:coord>
<gx:coord >18.397423 50.50699 2672</gx:coord>
<gx:coord >18.409472 50.503784 2603</gx:coord>
<gx:coord >18.420732 50.500845 2550</gx:coord>
<gx:coord >18.431445 50.497971 2481</gx:coord>
<gx:coord >18.440181 50.495678 2420</gx:coord>
<gx:coord >18.449514 50.493118 2367</gx:coord>
<gx:coord >18.461337 50.489905 2291</gx:coord>
<gx:coord >18.474017 50.486481 2237</gx:coord>
<gx:coord >18.486232 50.483185 2192</gx:coord>
<gx:coord >18.496062 50.480804 2154</gx:coord>
<gx:coord >18.503795 50.47934 2138</gx:coord>
<gx:coord >18.511096 50.478287 2115</gx:coord>
<gx:coord >18.519683 50.477429 2093</gx:coord>
<gx:coord >18.529482 50.476824 2070</gx:coord>
<gx:coord >18.540079 50.476456 2039</gx:coord>
<gx:coord >18.554896 50.476227 2009</gx:coord>
<gx:coord >18.566461 50.476089 1986</gx:coord>
<gx:coord >18.580194 50.476044 1955</gx:coord>
<gx:coord >18.59436 50.475998 1933</gx:coord>
<gx:coord >18.607202 50.475986 1902</gx:coord>
<gx:coord >18.61814 50.475998 1872</gx:coord>
<gx:coord >18.627392 50.476044 1841</gx:coord>
<gx:coord >18.638522 50.476089 1803</gx:coord>
<gx:coord >18.651244 50.476135 1773</gx:coord>
<gx:coord >18.662654 50.476172 1742</gx:coord>
<gx:coord >18.674228 50.476135 1712</gx:coord>
<gx:coord >18.686299 50.476135 1681</gx:coord>
<gx:coord >18.697791 50.476135 1651</gx:coord>
<gx:coord >18.70942 50.476172 1620</gx:coord>
<gx:coord >18.721074 50.476172 1590</gx:coord>
<gx:coord >18.732846 50.476181 1559</gx:coord>
<gx:coord >18.74376 50.476181 1529</gx:coord>
<gx:coord >18.755444 50.476219 1498</gx:coord>
<gx:coord >18.766875 50.476219 1468</gx:coord>
<gx:coord >18.775707 50.476227 1430</gx:coord>
<gx:coord >18.785433 50.476266 1414</gx:coord>
<gx:coord >18.78766 50.476266 1407</gx:coord>
<gx:coord >18.794283 50.476227 1384</gx:coord>
<gx:coord >18.800643 50.476227 1346</gx:coord>
<gx:coord >18.807582 50.476181 1315</gx:coord>
<gx:coord >18.814013 50.476172 1293</gx:coord>
<gx:coord >18.820953 50.476181 1254</gx:coord>
<gx:coord >18.828687 50.476227 1224</gx:coord>
<gx:coord >18.835911 50.476266 1193</gx:coord>
<gx:coord >18.843721 50.476273 1163</gx:coord>
<gx:coord >18.851426 50.476266 1132</gx:coord>
<gx:coord >18.85922 50.476266 1102</gx:coord>
<gx:coord >18.86746 50.476219 1064</gx:coord>
<gx:coord >18.874729 50.476181 1033</gx:coord>
<gx:coord >18.882974 50.476219 1011</gx:coord>
<gx:coord >18.891214 50.476219 972</gx:coord>
<gx:coord >18.899082 50.476219 942</gx:coord>
<gx:coord >18.907326 50.476227 912</gx:coord>
<gx:coord >18.914626 50.476181 881</gx:coord>
<gx:coord >18.923059 50.476172 851</gx:coord>
<gx:coord >18.931395 50.476181 812</gx:coord>
<gx:coord >18.938203 50.476172 782</gx:coord>
<gx:coord >18.944116 50.476135 767</gx:coord>
<gx:coord >18.947079 50.476135 751</gx:coord>
<gx:coord >18.952233 50.476172 729</gx:coord>
<gx:coord >18.957054 50.476181 713</gx:coord>
<gx:coord >18.963442 50.476172 683</gx:coord>
<gx:coord >18.972127 50.476126 646</gx:coord>
<gx:coord >18.98007 50.476126 615</gx:coord>
<gx:coord >18.988087 50.476079 585</gx:coord>
<gx:coord >18.996549 50.476033 562</gx:coord>
<gx:coord >19.004566 50.476079 532</gx:coord>
<gx:coord >19.011118 50.476135 501</gx:coord>
<gx:coord >19.019635 50.476126 471</gx:coord>
<gx:coord >19.027281 50.476033 440</gx:coord>
<gx:coord >19.035595 50.476079 410</gx:coord>
<gx:coord >19.043571 50.476089 379</gx:coord>
<gx:coord >19.051852 50.476079 341</gx:coord>
<gx:coord >19.060267 50.476044 311</gx:coord>
<gx:coord >19.06358 50.476033 303</gx:coord>
<gx:coord >19.069374 50.476044 295</gx:coord>
<gx:coord >19.071152 50.476033 303</gx:coord>
<gx:coord >19.071523 50.476033 303</gx:coord>
<gx:coord >19.073528 50.476033 311</gx:coord>
<gx:coord >19.075977 50.476033 303</gx:coord>
<gx:coord >19.075977 50.476033 303</gx:coord>
</gx:Track>
</Placemark>
<Placemark ><name >9H-WNC</name>
<Style ><LineStyle ><color >ff1c1ae3</color>
<width >4</width>
</LineStyle>
<IconStyle ><Icon ><href >http://maps.google.com/mapfiles/kml/shapes/airports.png</href>
</Icon>
</IconStyle>
</Style>
<gx:Track ><extrude >0</extrude>
<when >2025-07-08T09:44:06.110Z</when>
<when >2025-07-08T09:44:08.180Z</when>
<when >2025-07-08T09:44:09.020Z</when>
<when >2025-07-08T09:44:10.080Z</when>
<when >2025-07-08T09:44:13.160Z</when>
<when >2025-07-08T09:44:14.760Z</when>
<when >2025-07-08T09:44:16.260Z</when>
<when >2025-07-08T09:44:17.260Z</when>
<when >2025-07-08T09:44:18.850Z</when>
<when >2025-07-08T09:44:21.190Z</when>
<when >2025-07-08T09:44:22.200Z</when>
<when >2025-07-08T09:44:23.060Z</when>
<when >2025-07-08T09:44:24.410Z</when>
<when >2025-07-08T09:44:25.860Z</when>
<when >2025-07-08T09:44:26.890Z</when>
<when >2025-07-08T09:44:27.860Z</when>
<when >2025-07-08T09:44:31.590Z</when>
<when >2025-07-08T09:44:35.280Z</when>
<when >2025-07-08T09:44:43.050Z</when>
<when >2025-07-08T09:44:49.540Z</when>
<when >2025-07-08T09:44:54.450Z</when>
<when >2025-07-08T09:44:57.610Z</when>
<when >2025-07-08T09:45:01.630Z</when>
<when >2025-07-08T09:45:02.810Z</when>
<when >2025-07-08T09:45:21.310Z</when>
<when >2025-07-08T09:45:51.390Z</when>
<when >2025-07-08T09:46:06.240Z</when>
<when >2025-07-08T09:46:15.780Z</when>
<when >2025-07-08T09:46:18.510Z</when>
<when >2025-07-08T09:46:21.960Z</when>
<when >2025-07-08T09:46:25.420Z</when>
<when >2025-07-08T09:46:29.100Z</when>
<when >2025-07-08T09:46:31.970Z</when>
<when >2025-07-08T09:46:34.910Z</when>
<when >2025-07-08T09:46:37.110Z</when>
<when >2025-07-08T09:47:07.100Z</when>
<when >2025-07-08T09:47:13.130Z</when>
<when >2025-07-08T09:47:17.670Z</when>
<when >2025-07-08T09:47:23.880Z</when>
<when >2025-07-08T09:47:27.280Z</when>
<when >2025-07-08T09:47:28.620Z</when>
<when >2025-07-08T09:47:30.260Z</when>
<when >2025-07-08T09:47:32.220Z</when>
<when >2025-07-08T09:47:34.010Z</when>
<when >2025-07-08T09:47:36.200Z</when>
<when >2025-07-08T09:47:38.920Z</when>
<when >2025-07-08T09:47:43.550Z</when>
<when >2025-07-08T09:47:46.720Z</when>
<when >2025-07-08T09:47:50.440Z</when>
<when >2025-07-08T09:48:35.730Z</when>
<when >2025-07-08T09:48:41.700Z</when>
<when >2025-07-08T09:48:43.700Z</when>
<when >2025-07-08T09:48:51.590Z</when>
<when >2025-07-08T09:48:53.490Z</when>
<when >2025-07-08T09:49:01.630Z</when>
<when >2025-07-08T09:49:16.740Z</when>
<when >2025-07-08T09:49:26.440Z</when>
<when >2025-07-08T09:50:32.030Z</when>
<when >2025-07-08T09:50:32.030Z</when>
<gx:coord >19.077777 50.476009 0</gx:coord>
<gx:coord >19.07915 50.476009 0</gx:coord>
<gx:coord >19.079744 50.47601 0</gx:coord>
<gx:coord >19.080469 50.476009 0</gx:coord>
<gx:coord >19.08215 50.475998 0</gx:coord>
<gx:coord >19.083397 50.475998 0</gx:coord>
<gx:coord >19.084236 50.475998 0</gx:coord>
<gx:coord >19.084842 50.475998 0</gx:coord>
<gx:coord >19.08572 50.475998 0</gx:coord>
<gx:coord >19.086908 50.475986 0</gx:coord>
<gx:coord >19.087336 50.475986 0</gx:coord>
<gx:coord >19.087836 50.475986 0</gx:coord>
<gx:coord >19.088384 50.475986 0</gx:coord>
<gx:coord >19.089023 50.475986 0</gx:coord>
<gx:coord >19.08945 50.475975 0</gx:coord>
<gx:coord >19.089821 50.475986 0</gx:coord>
<gx:coord >19.091022 50.475975 0</gx:coord>
<gx:coord >19.092016 50.475975 0</gx:coord>
<gx:coord >19.09319 50.475975 0</gx:coord>
<gx:coord >19.093663 50.47587 0</gx:coord>
<gx:coord >19.093877 50.475666 0</gx:coord>
<gx:coord >19.093923 50.475497 0</gx:coord>
<gx:coord >19.093931 50.475266 0</gx:coord>
<gx:coord >19.093941 50.475207 0</gx:coord>
<gx:coord >19.093941 50.475208 0</gx:coord>
<gx:coord >19.089992 50.474236 0</gx:coord>
<gx:coord >19.087697 50.474236 0</gx:coord>
<gx:coord >19.086071 50.474236 0</gx:coord>
<gx:coord >19.085601 50.474236 0</gx:coord>
<gx:coord >19.084987 50.474247 0</gx:coord>
<gx:coord >19.08431 50.474241 0</gx:coord>
<gx:coord >19.083595 50.474247 0</gx:coord>
<gx:coord >19.083089 50.474247 0</gx:coord>
<gx:coord >19.082475 50.474247 0</gx:coord>
<gx:coord >19.082046 50.474252 0</gx:coord>
<gx:coord >19.076905 50.474264 0</gx:coord>
<gx:coord >19.076187 50.474258 0</gx:coord>
<gx:coord >19.075532 50.474264 0</gx:coord>
<gx:coord >19.074901 50.474252 0</gx:coord>
<gx:coord >19.074669 50.474167 0</gx:coord>
<gx:coord >19.074604 50.474113 0</gx:coord>
<gx:coord >19.074542 50.47403 0</gx:coord>
<gx:coord >19.074493 50.47395 0</gx:coord>
<gx:coord >19.074474 50.473845 0</gx:coord>
<gx:coord >19.074455 50.473729 0</gx:coord>
<gx:coord >19.074437 50.473589 0</gx:coord>
<gx:coord >19.074434 50.473354 0</gx:coord>
<gx:coord >19.074434 50.473148 0</gx:coord>
<gx:coord >19.074437 50.472937 0</gx:coord>
<gx:coord >19.071431 50.472367 0</gx:coord>
<gx:coord >19.070985 50.472367 0</gx:coord>
<gx:coord >19.070892 50.472336 0</gx:coord>
<gx:coord >19.070781 50.472076 0</gx:coord>
<gx:coord >19.070784 50.472027 0</gx:coord>
<gx:coord >19.0708 50.47182 0</gx:coord>
<gx:coord >19.0708 50.471552 0</gx:coord>
<gx:coord >19.0708 50.471541 0</gx:coord>
<gx:coord >19.070803 50.471546 0</gx:coord>
<gx:coord >19.070803 50.471546 0</gx:coord>
</gx:Track>
</Placemark>
</Folder>
</Folder>
</kml>
