<?xml version="1.0" encoding="UTF-8"?>
<kml xmlns="http://www.opengis.net/kml/2.2" xmlns:gx="http://www.google.com/kml/ext/2.2"><Folder ><Folder ><name >HA-LGM track</name>
<Placemark ><name >HA-LGM</name>
<Style ><LineStyle ><color >ff1c1ae3</color>
<width >4</width>
</LineStyle>
<IconStyle ><Icon ><href >http://maps.google.com/mapfiles/kml/shapes/airports.png</href>
</Icon>
</IconStyle>
</Style>
<gx:Track ><altitudeMode >absolute</altitudeMode>
<extrude >1</extrude>
<when >2025-09-05T17:57:20.730Z</when>
<when >2025-09-05T17:57:22.790Z</when>
<when >2025-09-05T17:57:25.060Z</when>
<when >2025-09-05T17:57:30.300Z</when>
<when >2025-09-05T17:57:32.990Z</when>
<when >2025-09-05T17:57:35.760Z</when>
<when >2025-09-05T17:57:38.330Z</when>
<when >2025-09-05T17:57:42.990Z</when>
<when >2025-09-05T17:57:49.440Z</when>
<when >2025-09-05T17:57:51.490Z</when>
<when >2025-09-05T17:57:55.640Z</when>
<when >2025-09-05T17:57:57.940Z</when>
<when >2025-09-05T17:58:03.570Z</when>
<when >2025-09-05T17:58:06.340Z</when>
<when >2025-09-05T17:58:08.820Z</when>
<when >2025-09-05T17:58:17.640Z</when>
<when >2025-09-05T17:58:21.280Z</when>
<when >2025-09-05T17:58:27.110Z</when>
<when >2025-09-05T17:58:32.360Z</when>
<when >2025-09-05T17:58:35.410Z</when>
<when >2025-09-05T17:58:40.260Z</when>
<when >2025-09-05T17:58:44.760Z</when>
<when >2025-09-05T17:58:45.990Z</when>
<when >2025-09-05T17:58:48.820Z</when>
<when >2025-09-05T17:58:50.620Z</when>
<when >2025-09-05T17:58:54.560Z</when>
<when >2025-09-05T17:58:56.610Z</when>
<when >2025-09-05T17:58:58.980Z</when>
<when >2025-09-05T17:59:00.480Z</when>
<when >2025-09-05T17:59:01.870Z</when>
<when >2025-09-05T17:59:05.080Z</when>
<when >2025-09-05T17:59:07.670Z</when>
<when >2025-09-05T17:59:10.140Z</when>
<when >2025-09-05T17:59:12.510Z</when>
<when >2025-09-05T17:59:14.740Z</when>
<when >2025-09-05T17:59:16.860Z</when>
<when >2025-09-05T17:59:18.790Z</when>
<when >2025-09-05T17:59:20.640Z</when>
<when >2025-09-05T17:59:22.520Z</when>
<when >2025-09-05T17:59:24.480Z</when>
<when >2025-09-05T17:59:28.870Z</when>
<when >2025-09-05T17:59:30.510Z</when>
<when >2025-09-05T17:59:34.990Z</when>
<when >2025-09-05T17:59:36.480Z</when>
<when >2025-09-05T17:59:40.060Z</when>
<when >2025-09-05T17:59:42.420Z</when>
<when >2025-09-05T17:59:44.600Z</when>
<when >2025-09-05T17:59:46.720Z</when>
<when >2025-09-05T17:59:48.630Z</when>
<when >2025-09-05T17:59:52.410Z</when>
<when >2025-09-05T17:59:54.450Z</when>
<when >2025-09-05T17:59:56.580Z</when>
<when >2025-09-05T17:59:59.200Z</when>
<when >2025-09-05T18:00:02.360Z</when>
<when >2025-09-05T18:00:05.410Z</when>
<when >2025-09-05T18:00:07.990Z</when>
<when >2025-09-05T18:00:10.500Z</when>
<when >2025-09-05T18:00:12.690Z</when>
<when >2025-09-05T18:00:14.780Z</when>
<when >2025-09-05T18:00:16.790Z</when>
<when >2025-09-05T18:00:18.400Z</when>
<when >2025-09-05T18:00:21.820Z</when>
<when >2025-09-05T18:00:25.450Z</when>
<when >2025-09-05T18:00:30.900Z</when>
<when >2025-09-05T18:00:34.080Z</when>
<when >2025-09-05T18:00:36.690Z</when>
<when >2025-09-05T18:00:39.150Z</when>
<when >2025-09-05T18:00:41.580Z</when>
<when >2025-09-05T18:00:44.310Z</when>
<when >2025-09-05T18:00:46.910Z</when>
<when >2025-09-05T18:00:51.030Z</when>
<when >2025-09-05T18:00:53.010Z</when>
<when >2025-09-05T18:00:56.740Z</when>
<when >2025-09-05T18:01:00.240Z</when>
<when >2025-09-05T18:01:05.140Z</when>
<when >2025-09-05T18:01:10.860Z</when>
<when >2025-09-05T18:01:13.560Z</when>
<when >2025-09-05T18:01:18.380Z</when>
<when >2025-09-05T18:01:26.050Z</when>
<when >2025-09-05T18:01:31.630Z</when>
<when >2025-09-05T18:01:37.520Z</when>
<when >2025-09-05T18:01:41.860Z</when>
<when >2025-09-05T18:01:47.980Z</when>
<when >2025-09-05T18:01:54.850Z</when>
<when >2025-09-05T18:01:59.550Z</when>
<when >2025-09-05T18:02:04.760Z</when>
<when >2025-09-05T18:02:10.580Z</when>
<when >2025-09-05T18:02:15.750Z</when>
<when >2025-09-05T18:02:20.130Z</when>
<when >2025-09-05T18:02:24.920Z</when>
<when >2025-09-05T18:02:31.440Z</when>
<when >2025-09-05T18:02:35.940Z</when>
<when >2025-09-05T18:02:39.980Z</when>
<when >2025-09-05T18:02:47.650Z</when>
<when >2025-09-05T18:02:49.250Z</when>
<when >2025-09-05T18:02:53.450Z</when>
<when >2025-09-05T18:03:01.980Z</when>
<when >2025-09-05T18:03:12.120Z</when>
<when >2025-09-05T18:03:20.270Z</when>
<when >2025-09-05T18:03:31.560Z</when>
<when >2025-09-05T18:03:39.200Z</when>
<when >2025-09-05T18:03:44.190Z</when>
<when >2025-09-05T18:03:55.360Z</when>
<when >2025-09-05T18:04:07.140Z</when>
<when >2025-09-05T18:04:18.280Z</when>
<when >2025-09-05T18:04:28.970Z</when>
<when >2025-09-05T18:04:41.520Z</when>
<when >2025-09-05T18:04:53.490Z</when>
<when >2025-09-05T18:05:06.230Z</when>
<when >2025-09-05T18:05:17.540Z</when>
<when >2025-09-05T18:05:29.300Z</when>
<when >2025-09-05T18:05:41.910Z</when>
<when >2025-09-05T18:05:53.280Z</when>
<when >2025-09-05T18:06:05.660Z</when>
<when >2025-09-05T18:06:17.390Z</when>
<when >2025-09-05T18:06:30.030Z</when>
<when >2025-09-05T18:06:42.690Z</when>
<when >2025-09-05T18:06:54.350Z</when>
<when >2025-09-05T18:07:07.190Z</when>
<when >2025-09-05T18:07:18.970Z</when>
<when >2025-09-05T18:07:31.790Z</when>
<when >2025-09-05T18:07:43.950Z</when>
<when >2025-09-05T18:07:56.100Z</when>
<when >2025-09-05T18:08:09.130Z</when>
<when >2025-09-05T18:08:21.870Z</when>
<when >2025-09-05T18:08:34.210Z</when>
<when >2025-09-05T18:08:46.260Z</when>
<when >2025-09-05T18:08:59.600Z</when>
<when >2025-09-05T18:09:13.120Z</when>
<when >2025-09-05T18:09:25.390Z</when>
<when >2025-09-05T18:09:37.350Z</when>
<when >2025-09-05T18:09:52.350Z</when>
<when >2025-09-05T18:10:06.980Z</when>
<when >2025-09-05T18:10:22.620Z</when>
<when >2025-09-05T18:10:36.130Z</when>
<when >2025-09-05T18:10:48.910Z</when>
<when >2025-09-05T18:11:02.900Z</when>
<when >2025-09-05T18:11:19.820Z</when>
<when >2025-09-05T18:11:36.010Z</when>
<when >2025-09-05T18:11:49.990Z</when>
<when >2025-09-05T18:12:04.890Z</when>
<when >2025-09-05T18:12:17.460Z</when>
<when >2025-09-05T18:12:32.250Z</when>
<when >2025-09-05T18:12:47.820Z</when>
<when >2025-09-05T18:13:04.150Z</when>
<when >2025-09-05T18:13:19.380Z</when>
<when >2025-09-05T18:13:30.090Z</when>
<when >2025-09-05T18:13:39.120Z</when>
<when >2025-09-05T18:13:48.700Z</when>
<when >2025-09-05T18:13:57.720Z</when>
<when >2025-09-05T18:14:03.910Z</when>
<when >2025-09-05T18:14:08.750Z</when>
<when >2025-09-05T18:14:14.020Z</when>
<when >2025-09-05T18:14:18.350Z</when>
<when >2025-09-05T18:14:23.090Z</when>
<when >2025-09-05T18:14:29.700Z</when>
<when >2025-09-05T18:14:38.010Z</when>
<when >2025-09-05T18:14:42.160Z</when>
<when >2025-09-05T18:14:46.270Z</when>
<when >2025-09-05T18:14:50.540Z</when>
<when >2025-09-05T18:14:55.010Z</when>
<when >2025-09-05T18:14:59.600Z</when>
<when >2025-09-05T18:15:04.570Z</when>
<when >2025-09-05T18:15:09.250Z</when>
<when >2025-09-05T18:15:15.210Z</when>
<when >2025-09-05T18:15:24.940Z</when>
<when >2025-09-05T18:15:39.330Z</when>
<when >2025-09-05T18:15:50.450Z</when>
<when >2025-09-05T18:16:02.280Z</when>
<when >2025-09-05T18:16:13.990Z</when>
<when >2025-09-05T18:16:29.520Z</when>
<when >2025-09-05T18:16:41.620Z</when>
<when >2025-09-05T18:16:55.000Z</when>
<when >2025-09-05T18:17:11.490Z</when>
<when >2025-09-05T18:17:28.370Z</when>
<when >2025-09-05T18:17:41.430Z</when>
<when >2025-09-05T18:17:55.170Z</when>
<when >2025-09-05T18:18:00.580Z</when>
<when >2025-09-05T18:18:09.630Z</when>
<when >2025-09-05T18:18:24.320Z</when>
<when >2025-09-05T18:18:40.720Z</when>
<when >2025-09-05T18:18:56.890Z</when>
<when >2025-09-05T18:19:13.730Z</when>
<when >2025-09-05T18:19:17.650Z</when>
<when >2025-09-05T18:19:37.570Z</when>
<when >2025-09-05T18:19:57.120Z</when>
<when >2025-09-05T18:20:17.010Z</when>
<when >2025-09-05T18:20:36.950Z</when>
<when >2025-09-05T18:20:56.370Z</when>
<when >2025-09-05T18:21:16.110Z</when>
<when >2025-09-05T18:21:35.990Z</when>
<when >2025-09-05T18:21:55.430Z</when>
<when >2025-09-05T18:22:15.400Z</when>
<when >2025-09-05T18:22:34.490Z</when>
<when >2025-09-05T18:22:53.880Z</when>
<when >2025-09-05T18:23:13.310Z</when>
<when >2025-09-05T18:23:32.000Z</when>
<when >2025-09-05T18:23:50.740Z</when>
<when >2025-09-05T18:24:10.090Z</when>
<when >2025-09-05T18:24:29.910Z</when>
<when >2025-09-05T18:24:49.730Z</when>
<when >2025-09-05T18:25:08.850Z</when>
<when >2025-09-05T18:25:28.390Z</when>
<when >2025-09-05T18:25:47.690Z</when>
<when >2025-09-05T18:26:07.430Z</when>
<when >2025-09-05T18:26:27.280Z</when>
<when >2025-09-05T18:26:46.940Z</when>
<when >2025-09-05T18:27:05.800Z</when>
<when >2025-09-05T18:27:25.550Z</when>
<when >2025-09-05T18:27:44.980Z</when>
<when >2025-09-05T18:28:04.810Z</when>
<when >2025-09-05T18:28:24.690Z</when>
<when >2025-09-05T18:28:44.190Z</when>
<when >2025-09-05T18:29:04.000Z</when>
<when >2025-09-05T18:29:22.730Z</when>
<when >2025-09-05T18:29:41.990Z</when>
<when >2025-09-05T18:30:01.330Z</when>
<when >2025-09-05T18:30:20.860Z</when>
<when >2025-09-05T18:30:40.570Z</when>
<when >2025-09-05T18:31:00.150Z</when>
<when >2025-09-05T18:31:20.080Z</when>
<when >2025-09-05T18:31:39.930Z</when>
<when >2025-09-05T18:31:59.870Z</when>
<when >2025-09-05T18:32:19.660Z</when>
<when >2025-09-05T18:32:39.190Z</when>
<when >2025-09-05T18:32:58.580Z</when>
<when >2025-09-05T18:33:17.870Z</when>
<when >2025-09-05T18:33:36.730Z</when>
<when >2025-09-05T18:33:56.220Z</when>
<when >2025-09-05T18:34:15.930Z</when>
<when >2025-09-05T18:34:35.810Z</when>
<when >2025-09-05T18:34:55.690Z</when>
<when >2025-09-05T18:35:15.190Z</when>
<when >2025-09-05T18:35:34.630Z</when>
<when >2025-09-05T18:35:53.960Z</when>
<when >2025-09-05T18:36:13.290Z</when>
<when >2025-09-05T18:36:32.510Z</when>
<when >2025-09-05T18:36:52.410Z</when>
<when >2025-09-05T18:37:12.110Z</when>
<when >2025-09-05T18:37:31.270Z</when>
<when >2025-09-05T18:37:51.230Z</when>
<when >2025-09-05T18:38:11.130Z</when>
<when >2025-09-05T18:38:30.500Z</when>
<when >2025-09-05T18:38:50.490Z</when>
<when >2025-09-05T18:39:09.770Z</when>
<when >2025-09-05T18:39:29.650Z</when>
<when >2025-09-05T18:39:49.640Z</when>
<when >2025-09-05T18:40:09.010Z</when>
<when >2025-09-05T18:40:28.800Z</when>
<when >2025-09-05T18:40:48.700Z</when>
<when >2025-09-05T18:41:08.620Z</when>
<when >2025-09-05T18:41:27.970Z</when>
<when >2025-09-05T18:41:47.670Z</when>
<when >2025-09-05T18:42:07.630Z</when>
<when >2025-09-05T18:42:26.640Z</when>
<when >2025-09-05T18:42:45.920Z</when>
<when >2025-09-05T18:43:05.790Z</when>
<when >2025-09-05T18:43:24.640Z</when>
<when >2025-09-05T18:43:44.120Z</when>
<when >2025-09-05T18:44:03.790Z</when>
<when >2025-09-05T18:44:23.380Z</when>
<when >2025-09-05T18:44:41.850Z</when>
<when >2025-09-05T18:45:01.470Z</when>
<when >2025-09-05T18:45:21.270Z</when>
<when >2025-09-05T18:45:39.020Z</when>
<when >2025-09-05T18:45:56.620Z</when>
<when >2025-09-05T18:46:16.450Z</when>
<when >2025-09-05T18:46:36.120Z</when>
<when >2025-09-05T18:46:54.160Z</when>
<when >2025-09-05T18:47:13.270Z</when>
<when >2025-09-05T18:47:33.000Z</when>
<when >2025-09-05T18:47:52.220Z</when>
<when >2025-09-05T18:48:12.170Z</when>
<when >2025-09-05T18:48:32.040Z</when>
<when >2025-09-05T18:48:51.200Z</when>
<when >2025-09-05T18:49:10.570Z</when>
<when >2025-09-05T18:49:30.370Z</when>
<when >2025-09-05T18:49:49.910Z</when>
<when >2025-09-05T18:50:09.660Z</when>
<when >2025-09-05T18:50:28.980Z</when>
<when >2025-09-05T18:50:48.450Z</when>
<when >2025-09-05T18:51:08.130Z</when>
<when >2025-09-05T18:51:27.540Z</when>
<when >2025-09-05T18:51:47.430Z</when>
<when >2025-09-05T18:52:07.010Z</when>
<when >2025-09-05T18:52:26.420Z</when>
<when >2025-09-05T18:52:46.160Z</when>
<when >2025-09-05T18:53:04.770Z</when>
<when >2025-09-05T18:53:24.300Z</when>
<when >2025-09-05T18:53:43.730Z</when>
<when >2025-09-05T18:54:02.410Z</when>
<when >2025-09-05T18:54:22.320Z</when>
<when >2025-09-05T18:54:42.140Z</when>
<when >2025-09-05T18:55:01.480Z</when>
<when >2025-09-05T18:55:20.800Z</when>
<when >2025-09-05T18:55:40.680Z</when>
<when >2025-09-05T18:56:00.510Z</when>
<when >2025-09-05T18:56:19.020Z</when>
<when >2025-09-05T18:56:38.660Z</when>
<when >2025-09-05T18:56:58.530Z</when>
<when >2025-09-05T18:57:18.300Z</when>
<when >2025-09-05T18:57:37.840Z</when>
<when >2025-09-05T18:57:57.030Z</when>
<when >2025-09-05T18:58:16.720Z</when>
<when >2025-09-05T18:58:36.510Z</when>
<when >2025-09-05T18:58:55.970Z</when>
<when >2025-09-05T18:59:15.900Z</when>
<when >2025-09-05T18:59:29.100Z</when>
<when >2025-09-05T18:59:48.500Z</when>
<when >2025-09-05T19:00:08.270Z</when>
<when >2025-09-05T19:00:28.090Z</when>
<when >2025-09-05T19:00:46.600Z</when>
<when >2025-09-05T19:01:06.200Z</when>
<when >2025-09-05T19:01:25.550Z</when>
<when >2025-09-05T19:01:44.560Z</when>
<when >2025-09-05T19:02:03.770Z</when>
<when >2025-09-05T19:02:23.420Z</when>
<when >2025-09-05T19:02:42.650Z</when>
<when >2025-09-05T19:03:02.050Z</when>
<when >2025-09-05T19:03:21.420Z</when>
<when >2025-09-05T19:03:41.280Z</when>
<when >2025-09-05T19:04:01.190Z</when>
<when >2025-09-05T19:04:21.100Z</when>
<when >2025-09-05T19:04:40.860Z</when>
<when >2025-09-05T19:05:00.340Z</when>
<when >2025-09-05T19:05:20.080Z</when>
<when >2025-09-05T19:05:39.450Z</when>
<when >2025-09-05T19:05:59.140Z</when>
<when >2025-09-05T19:06:18.520Z</when>
<when >2025-09-05T19:06:38.430Z</when>
<when >2025-09-05T19:06:57.630Z</when>
<when >2025-09-05T19:07:16.500Z</when>
<when >2025-09-05T19:07:35.950Z</when>
<when >2025-09-05T19:07:55.600Z</when>
<when >2025-09-05T19:08:15.380Z</when>
<when >2025-09-05T19:08:35.360Z</when>
<when >2025-09-05T19:08:54.450Z</when>
<when >2025-09-05T19:09:13.070Z</when>
<when >2025-09-05T19:09:32.830Z</when>
<when >2025-09-05T19:09:52.600Z</when>
<when >2025-09-05T19:10:12.270Z</when>
<when >2025-09-05T19:10:31.860Z</when>
<when >2025-09-05T19:10:51.600Z</when>
<when >2025-09-05T19:11:11.300Z</when>
<when >2025-09-05T19:11:30.860Z</when>
<when >2025-09-05T19:11:50.660Z</when>
<when >2025-09-05T19:12:09.820Z</when>
<when >2025-09-05T19:12:29.650Z</when>
<when >2025-09-05T19:12:49.340Z</when>
<when >2025-09-05T19:13:08.530Z</when>
<when >2025-09-05T19:13:28.430Z</when>
<when >2025-09-05T19:13:48.030Z</when>
<when >2025-09-05T19:14:07.870Z</when>
<when >2025-09-05T19:14:27.310Z</when>
<when >2025-09-05T19:14:46.870Z</when>
<when >2025-09-05T19:15:06.710Z</when>
<when >2025-09-05T19:15:26.690Z</when>
<when >2025-09-05T19:15:45.940Z</when>
<when >2025-09-05T19:16:05.900Z</when>
<when >2025-09-05T19:16:24.980Z</when>
<when >2025-09-05T19:16:44.660Z</when>
<when >2025-09-05T19:17:03.140Z</when>
<when >2025-09-05T19:17:22.550Z</when>
<when >2025-09-05T19:17:42.350Z</when>
<when >2025-09-05T19:18:02.080Z</when>
<when >2025-09-05T19:18:21.530Z</when>
<when >2025-09-05T19:18:40.960Z</when>
<when >2025-09-05T19:19:00.600Z</when>
<when >2025-09-05T19:19:19.700Z</when>
<when >2025-09-05T19:19:39.120Z</when>
<when >2025-09-05T19:19:58.430Z</when>
<when >2025-09-05T19:20:18.370Z</when>
<when >2025-09-05T19:20:38.070Z</when>
<when >2025-09-05T19:20:57.500Z</when>
<when >2025-09-05T19:21:17.330Z</when>
<when >2025-09-05T19:21:36.780Z</when>
<when >2025-09-05T19:21:56.500Z</when>
<when >2025-09-05T19:22:16.480Z</when>
<when >2025-09-05T19:22:36.350Z</when>
<when >2025-09-05T19:22:55.680Z</when>
<when >2025-09-05T19:23:15.120Z</when>
<when >2025-09-05T19:23:34.900Z</when>
<when >2025-09-05T19:23:54.690Z</when>
<when >2025-09-05T19:24:14.590Z</when>
<when >2025-09-05T19:24:34.470Z</when>
<when >2025-09-05T19:24:53.980Z</when>
<when >2025-09-05T19:25:13.480Z</when>
<when >2025-09-05T19:25:33.160Z</when>
<when >2025-09-05T19:25:40.210Z</when>
<when >2025-09-05T19:25:45.960Z</when>
<when >2025-09-05T19:26:01.150Z</when>
<when >2025-09-05T19:26:21.090Z</when>
<when >2025-09-05T19:26:40.990Z</when>
<when >2025-09-05T19:27:00.480Z</when>
<when >2025-09-05T19:27:20.210Z</when>
<when >2025-09-05T19:27:39.720Z</when>
<when >2025-09-05T19:27:59.700Z</when>
<when >2025-09-05T19:28:19.560Z</when>
<when >2025-09-05T19:28:39.490Z</when>
<when >2025-09-05T19:28:59.440Z</when>
<when >2025-09-05T19:29:19.400Z</when>
<when >2025-09-05T19:29:38.990Z</when>
<when >2025-09-05T19:29:58.610Z</when>
<when >2025-09-05T19:30:18.400Z</when>
<when >2025-09-05T19:30:38.180Z</when>
<when >2025-09-05T19:30:57.950Z</when>
<when >2025-09-05T19:31:17.370Z</when>
<when >2025-09-05T19:31:36.950Z</when>
<when >2025-09-05T19:31:56.190Z</when>
<when >2025-09-05T19:32:15.940Z</when>
<when >2025-09-05T19:32:35.680Z</when>
<when >2025-09-05T19:32:55.290Z</when>
<when >2025-09-05T19:33:15.270Z</when>
<when >2025-09-05T19:33:35.180Z</when>
<when >2025-09-05T19:33:54.670Z</when>
<when >2025-09-05T19:34:14.380Z</when>
<when >2025-09-05T19:34:33.390Z</when>
<when >2025-09-05T19:34:53.210Z</when>
<when >2025-09-05T19:35:12.420Z</when>
<when >2025-09-05T19:35:32.070Z</when>
<when >2025-09-05T19:35:51.410Z</when>
<when >2025-09-05T19:36:11.350Z</when>
<when >2025-09-05T19:36:30.760Z</when>
<when >2025-09-05T19:36:50.320Z</when>
<when >2025-09-05T19:37:10.060Z</when>
<when >2025-09-05T19:37:28.200Z</when>
<when >2025-09-05T19:37:47.940Z</when>
<when >2025-09-05T19:38:07.660Z</when>
<when >2025-09-05T19:38:27.340Z</when>
<when >2025-09-05T19:38:47.150Z</when>
<when >2025-09-05T19:39:06.600Z</when>
<when >2025-09-05T19:39:25.660Z</when>
<when >2025-09-05T19:39:45.300Z</when>
<when >2025-09-05T19:40:04.430Z</when>
<when >2025-09-05T19:40:24.360Z</when>
<when >2025-09-05T19:40:44.220Z</when>
<when >2025-09-05T19:40:51.050Z</when>
<when >2025-09-05T19:40:56.060Z</when>
<when >2025-09-05T19:41:04.270Z</when>
<when >2025-09-05T19:41:23.770Z</when>
<when >2025-09-05T19:41:43.750Z</when>
<when >2025-09-05T19:42:02.800Z</when>
<when >2025-09-05T19:42:22.180Z</when>
<when >2025-09-05T19:42:41.710Z</when>
<when >2025-09-05T19:43:01.330Z</when>
<when >2025-09-05T19:43:20.590Z</when>
<when >2025-09-05T19:43:29.100Z</when>
<when >2025-09-05T19:43:34.150Z</when>
<when >2025-09-05T19:43:39.190Z</when>
<when >2025-09-05T19:43:44.390Z</when>
<when >2025-09-05T19:43:48.720Z</when>
<when >2025-09-05T19:43:51.540Z</when>
<when >2025-09-05T19:43:56.430Z</when>
<when >2025-09-05T19:44:16.070Z</when>
<when >2025-09-05T19:44:32.350Z</when>
<when >2025-09-05T19:44:52.240Z</when>
<when >2025-09-05T19:45:12.120Z</when>
<when >2025-09-05T19:45:31.990Z</when>
<when >2025-09-05T19:45:51.920Z</when>
<when >2025-09-05T19:46:11.580Z</when>
<when >2025-09-05T19:46:31.260Z</when>
<when >2025-09-05T19:46:51.040Z</when>
<when >2025-09-05T19:47:10.030Z</when>
<when >2025-09-05T19:47:29.810Z</when>
<when >2025-09-05T19:47:49.490Z</when>
<when >2025-09-05T19:48:09.470Z</when>
<when >2025-09-05T19:48:29.450Z</when>
<when >2025-09-05T19:48:46.020Z</when>
<when >2025-09-05T19:49:04.130Z</when>
<when >2025-09-05T19:49:22.370Z</when>
<when >2025-09-05T19:49:39.050Z</when>
<when >2025-09-05T19:49:52.110Z</when>
<when >2025-09-05T19:50:01.880Z</when>
<when >2025-09-05T19:50:21.340Z</when>
<when >2025-09-05T19:50:40.910Z</when>
<when >2025-09-05T19:51:00.770Z</when>
<when >2025-09-05T19:51:20.400Z</when>
<when >2025-09-05T19:51:40.190Z</when>
<when >2025-09-05T19:51:59.890Z</when>
<when >2025-09-05T19:52:19.760Z</when>
<when >2025-09-05T19:52:39.360Z</when>
<when >2025-09-05T19:52:58.680Z</when>
<when >2025-09-05T19:53:17.870Z</when>
<when >2025-09-05T19:53:37.240Z</when>
<when >2025-09-05T19:53:56.920Z</when>
<when >2025-09-05T19:54:15.770Z</when>
<when >2025-09-05T19:54:35.610Z</when>
<when >2025-09-05T19:54:55.120Z</when>
<when >2025-09-05T19:55:14.630Z</when>
<when >2025-09-05T19:55:34.480Z</when>
<when >2025-09-05T19:55:53.930Z</when>
<when >2025-09-05T19:56:13.290Z</when>
<when >2025-09-05T19:56:32.920Z</when>
<when >2025-09-05T19:56:52.620Z</when>
<when >2025-09-05T19:57:12.490Z</when>
<when >2025-09-05T19:57:31.800Z</when>
<when >2025-09-05T19:57:51.200Z</when>
<when >2025-09-05T19:58:10.940Z</when>
<when >2025-09-05T19:58:20.090Z</when>
<when >2025-09-05T19:58:29.710Z</when>
<when >2025-09-05T19:58:40.080Z</when>
<when >2025-09-05T19:58:59.770Z</when>
<when >2025-09-05T19:59:19.680Z</when>
<when >2025-09-05T19:59:39.410Z</when>
<when >2025-09-05T19:59:59.000Z</when>
<when >2025-09-05T20:00:18.680Z</when>
<when >2025-09-05T20:00:38.540Z</when>
<when >2025-09-05T20:00:58.130Z</when>
<when >2025-09-05T20:01:17.800Z</when>
<when >2025-09-05T20:01:37.210Z</when>
<when >2025-09-05T20:01:56.810Z</when>
<when >2025-09-05T20:02:16.670Z</when>
<when >2025-09-05T20:02:36.600Z</when>
<when >2025-09-05T20:02:56.590Z</when>
<when >2025-09-05T20:03:16.470Z</when>
<when >2025-09-05T20:03:36.440Z</when>
<when >2025-09-05T20:03:56.090Z</when>
<when >2025-09-05T20:04:15.910Z</when>
<when >2025-09-05T20:04:35.350Z</when>
<when >2025-09-05T20:04:54.950Z</when>
<when >2025-09-05T20:05:14.730Z</when>
<when >2025-09-05T20:05:34.140Z</when>
<when >2025-09-05T20:05:53.920Z</when>
<when >2025-09-05T20:06:13.430Z</when>
<when >2025-09-05T20:06:32.890Z</when>
<when >2025-09-05T20:06:52.690Z</when>
<when >2025-09-05T20:07:12.600Z</when>
<when >2025-09-05T20:07:32.110Z</when>
<when >2025-09-05T20:07:51.630Z</when>
<when >2025-09-05T20:08:11.510Z</when>
<when >2025-09-05T20:08:31.280Z</when>
<when >2025-09-05T20:08:50.820Z</when>
<when >2025-09-05T20:09:10.600Z</when>
<when >2025-09-05T20:09:30.140Z</when>
<when >2025-09-05T20:09:49.720Z</when>
<when >2025-09-05T20:10:09.300Z</when>
<when >2025-09-05T20:10:29.080Z</when>
<when >2025-09-05T20:10:48.800Z</when>
<when >2025-09-05T20:11:08.230Z</when>
<when >2025-09-05T20:11:27.840Z</when>
<when >2025-09-05T20:11:47.760Z</when>
<when >2025-09-05T20:12:07.540Z</when>
<when >2025-09-05T20:12:27.370Z</when>
<when >2025-09-05T20:12:46.890Z</when>
<when >2025-09-05T20:13:06.780Z</when>
<when >2025-09-05T20:13:26.600Z</when>
<when >2025-09-05T20:13:46.550Z</when>
<when >2025-09-05T20:14:06.060Z</when>
<when >2025-09-05T20:14:25.950Z</when>
<when >2025-09-05T20:14:45.940Z</when>
<when >2025-09-05T20:15:05.590Z</when>
<when >2025-09-05T20:15:25.060Z</when>
<when >2025-09-05T20:15:44.810Z</when>
<when >2025-09-05T20:16:04.800Z</when>
<when >2025-09-05T20:16:24.460Z</when>
<when >2025-09-05T20:16:44.380Z</when>
<when >2025-09-05T20:17:04.360Z</when>
<when >2025-09-05T20:17:23.870Z</when>
<when >2025-09-05T20:17:43.700Z</when>
<when >2025-09-05T20:18:03.050Z</when>
<when >2025-09-05T20:18:22.780Z</when>
<when >2025-09-05T20:18:42.690Z</when>
<when >2025-09-05T20:19:02.540Z</when>
<when >2025-09-05T20:19:22.150Z</when>
<when >2025-09-05T20:19:41.750Z</when>
<when >2025-09-05T20:20:01.740Z</when>
<when >2025-09-05T20:20:21.100Z</when>
<when >2025-09-05T20:20:40.560Z</when>
<when >2025-09-05T20:21:00.430Z</when>
<when >2025-09-05T20:21:20.050Z</when>
<when >2025-09-05T20:21:39.880Z</when>
<when >2025-09-05T20:21:59.710Z</when>
<when >2025-09-05T20:22:19.390Z</when>
<when >2025-09-05T20:22:39.210Z</when>
<when >2025-09-05T20:22:58.880Z</when>
<when >2025-09-05T20:23:18.440Z</when>
<when >2025-09-05T20:23:38.390Z</when>
<when >2025-09-05T20:23:58.250Z</when>
<when >2025-09-05T20:24:17.780Z</when>
<when >2025-09-05T20:24:37.450Z</when>
<when >2025-09-05T20:24:57.160Z</when>
<when >2025-09-05T20:25:16.720Z</when>
<when >2025-09-05T20:25:36.540Z</when>
<when >2025-09-05T20:25:56.260Z</when>
<when >2025-09-05T20:26:16.120Z</when>
<when >2025-09-05T20:26:35.910Z</when>
<when >2025-09-05T20:26:55.680Z</when>
<when >2025-09-05T20:27:14.910Z</when>
<when >2025-09-05T20:27:34.820Z</when>
<when >2025-09-05T20:27:54.580Z</when>
<when >2025-09-05T20:28:14.550Z</when>
<when >2025-09-05T20:28:34.170Z</when>
<when >2025-09-05T20:28:54.070Z</when>
<when >2025-09-05T20:29:13.620Z</when>
<when >2025-09-05T20:29:33.560Z</when>
<when >2025-09-05T20:29:53.240Z</when>
<when >2025-09-05T20:30:12.880Z</when>
<when >2025-09-05T20:30:32.170Z</when>
<when >2025-09-05T20:30:51.680Z</when>
<when >2025-09-05T20:31:11.410Z</when>
<when >2025-09-05T20:31:31.400Z</when>
<when >2025-09-05T20:31:51.130Z</when>
<when >2025-09-05T20:32:10.780Z</when>
<when >2025-09-05T20:32:30.380Z</when>
<when >2025-09-05T20:32:50.330Z</when>
<when >2025-09-05T20:33:09.490Z</when>
<when >2025-09-05T20:33:29.200Z</when>
<when >2025-09-05T20:33:49.120Z</when>
<when >2025-09-05T20:34:08.970Z</when>
<when >2025-09-05T20:34:28.870Z</when>
<when >2025-09-05T20:34:48.360Z</when>
<when >2025-09-05T20:35:08.140Z</when>
<when >2025-09-05T20:35:27.760Z</when>
<when >2025-09-05T20:35:47.750Z</when>
<when >2025-09-05T20:36:07.620Z</when>
<when >2025-09-05T20:36:27.620Z</when>
<when >2025-09-05T20:36:47.160Z</when>
<when >2025-09-05T20:37:06.920Z</when>
<when >2025-09-05T20:37:26.520Z</when>
<when >2025-09-05T20:37:46.060Z</when>
<when >2025-09-05T20:38:05.960Z</when>
<when >2025-09-05T20:38:25.670Z</when>
<when >2025-09-05T20:38:44.900Z</when>
<when >2025-09-05T20:39:04.740Z</when>
<when >2025-09-05T20:39:24.480Z</when>
<when >2025-09-05T20:39:44.010Z</when>
<when >2025-09-05T20:40:03.950Z</when>
<when >2025-09-05T20:40:21.940Z</when>
<when >2025-09-05T20:40:29.040Z</when>
<when >2025-09-05T20:40:34.900Z</when>
<when >2025-09-05T20:40:42.130Z</when>
<when >2025-09-05T20:41:01.930Z</when>
<when >2025-09-05T20:41:21.530Z</when>
<when >2025-09-05T20:41:41.490Z</when>
<when >2025-09-05T20:42:01.220Z</when>
<when >2025-09-05T20:42:21.220Z</when>
<when >2025-09-05T20:42:41.130Z</when>
<when >2025-09-05T20:43:00.870Z</when>
<when >2025-09-05T20:43:20.570Z</when>
<when >2025-09-05T20:43:40.160Z</when>
<when >2025-09-05T20:44:00.140Z</when>
<when >2025-09-05T20:44:19.650Z</when>
<when >2025-09-05T20:44:39.600Z</when>
<when >2025-09-05T20:44:59.380Z</when>
<when >2025-09-05T20:45:19.180Z</when>
<when >2025-09-05T20:45:39.180Z</when>
<when >2025-09-05T20:45:59.080Z</when>
<when >2025-09-05T20:46:18.860Z</when>
<when >2025-09-05T20:46:38.620Z</when>
<when >2025-09-05T20:46:58.290Z</when>
<when >2025-09-05T20:47:18.170Z</when>
<when >2025-09-05T20:47:38.150Z</when>
<when >2025-09-05T20:47:58.070Z</when>
<when >2025-09-05T20:48:17.760Z</when>
<when >2025-09-05T20:48:37.640Z</when>
<when >2025-09-05T20:48:57.200Z</when>
<when >2025-09-05T20:49:16.570Z</when>
<when >2025-09-05T20:49:36.170Z</when>
<when >2025-09-05T20:49:55.990Z</when>
<when >2025-09-05T20:50:15.900Z</when>
<when >2025-09-05T20:50:35.420Z</when>
<when >2025-09-05T20:50:54.850Z</when>
<when >2025-09-05T20:51:14.630Z</when>
<when >2025-09-05T20:51:34.610Z</when>
<when >2025-09-05T20:51:54.290Z</when>
<when >2025-09-05T20:52:13.750Z</when>
<when >2025-09-05T20:52:33.570Z</when>
<when >2025-09-05T20:52:53.290Z</when>
<when >2025-09-05T20:53:13.220Z</when>
<when >2025-09-05T20:53:32.400Z</when>
<when >2025-09-05T20:53:52.140Z</when>
<when >2025-09-05T20:54:12.060Z</when>
<when >2025-09-05T20:54:31.820Z</when>
<when >2025-09-05T20:54:51.700Z</when>
<when >2025-09-05T20:55:11.390Z</when>
<when >2025-09-05T20:55:31.320Z</when>
<when >2025-09-05T20:55:51.070Z</when>
<when >2025-09-05T20:56:11.010Z</when>
<when >2025-09-05T20:56:30.550Z</when>
<when >2025-09-05T20:56:50.410Z</when>
<when >2025-09-05T20:57:09.820Z</when>
<when >2025-09-05T20:57:29.260Z</when>
<when >2025-09-05T20:57:39.260Z</when>
<when >2025-09-05T20:57:45.680Z</when>
<when >2025-09-05T20:57:52.100Z</when>
<when >2025-09-05T20:57:57.460Z</when>
<when >2025-09-05T20:58:06.930Z</when>
<when >2025-09-05T20:58:26.540Z</when>
<when >2025-09-05T20:58:46.290Z</when>
<when >2025-09-05T20:59:06.090Z</when>
<when >2025-09-05T20:59:25.980Z</when>
<when >2025-09-05T20:59:45.770Z</when>
<when >2025-09-05T21:00:05.600Z</when>
<when >2025-09-05T21:00:25.300Z</when>
<when >2025-09-05T21:00:44.970Z</when>
<when >2025-09-05T21:01:04.800Z</when>
<when >2025-09-05T21:01:24.800Z</when>
<when >2025-09-05T21:01:44.630Z</when>
<when >2025-09-05T21:02:04.380Z</when>
<when >2025-09-05T21:02:24.010Z</when>
<when >2025-09-05T21:02:43.950Z</when>
<when >2025-09-05T21:03:03.420Z</when>
<when >2025-09-05T21:03:23.260Z</when>
<when >2025-09-05T21:03:43.130Z</when>
<when >2025-09-05T21:04:03.070Z</when>
<when >2025-09-05T21:04:23.060Z</when>
<when >2025-09-05T21:04:42.450Z</when>
<when >2025-09-05T21:05:02.240Z</when>
<when >2025-09-05T21:05:21.680Z</when>
<when >2025-09-05T21:05:41.220Z</when>
<when >2025-09-05T21:06:00.810Z</when>
<when >2025-09-05T21:06:20.500Z</when>
<when >2025-09-05T21:06:40.370Z</when>
<when >2025-09-05T21:07:00.340Z</when>
<when >2025-09-05T21:07:19.670Z</when>
<when >2025-09-05T21:07:34.370Z</when>
<when >2025-09-05T21:07:41.690Z</when>
<when >2025-09-05T21:07:50.790Z</when>
<when >2025-09-05T21:08:03.390Z</when>
<when >2025-09-05T21:08:10.540Z</when>
<when >2025-09-05T21:08:14.010Z</when>
<when >2025-09-05T21:08:23.230Z</when>
<when >2025-09-05T21:08:29.680Z</when>
<when >2025-09-05T21:08:30.260Z</when>
<when >2025-09-05T21:08:36.120Z</when>
<when >2025-09-05T21:08:48.730Z</when>
<when >2025-09-05T21:09:01.880Z</when>
<when >2025-09-05T21:09:14.420Z</when>
<when >2025-09-05T21:09:19.510Z</when>
<when >2025-09-05T21:09:26.160Z</when>
<when >2025-09-05T21:09:45.920Z</when>
<when >2025-09-05T21:10:05.710Z</when>
<when >2025-09-05T21:10:25.180Z</when>
<when >2025-09-05T21:10:36.820Z</when>
<when >2025-09-05T21:10:41.770Z</when>
<when >2025-09-05T21:10:46.700Z</when>
<when >2025-09-05T21:10:51.520Z</when>
<when >2025-09-05T21:11:02.640Z</when>
<when >2025-09-05T21:11:13.050Z</when>
<when >2025-09-05T21:11:23.780Z</when>
<when >2025-09-05T21:11:34.250Z</when>
<when >2025-09-05T21:11:45.300Z</when>
<when >2025-09-05T21:11:57.020Z</when>
<when >2025-09-05T21:12:08.690Z</when>
<when >2025-09-05T21:12:17.930Z</when>
<when >2025-09-05T21:12:34.040Z</when>
<when >2025-09-05T21:12:49.290Z</when>
<when >2025-09-05T21:13:03.870Z</when>
<when >2025-09-05T21:13:20.140Z</when>
<when >2025-09-05T21:13:36.160Z</when>
<when >2025-09-05T21:13:52.490Z</when>
<when >2025-09-05T21:14:08.310Z</when>
<when >2025-09-05T21:14:23.010Z</when>
<when >2025-09-05T21:14:38.900Z</when>
<when >2025-09-05T21:14:54.770Z</when>
<when >2025-09-05T21:15:10.760Z</when>
<when >2025-09-05T21:15:26.910Z</when>
<when >2025-09-05T21:15:43.070Z</when>
<when >2025-09-05T21:15:59.120Z</when>
<when >2025-09-05T21:16:06.850Z</when>
<when >2025-09-05T21:16:12.700Z</when>
<when >2025-09-05T21:16:21.130Z</when>
<when >2025-09-05T21:16:28.050Z</when>
<when >2025-09-05T21:16:38.970Z</when>
<when >2025-09-05T21:16:50.520Z</when>
<when >2025-09-05T21:17:02.420Z</when>
<when >2025-09-05T21:17:14.500Z</when>
<when >2025-09-05T21:17:24.670Z</when>
<when >2025-09-05T21:17:35.550Z</when>
<when >2025-09-05T21:17:47.290Z</when>
<when >2025-09-05T21:17:58.780Z</when>
<when >2025-09-05T21:18:10.490Z</when>
<when >2025-09-05T21:18:22.260Z</when>
<when >2025-09-05T21:18:33.460Z</when>
<when >2025-09-05T21:18:44.380Z</when>
<when >2025-09-05T21:18:55.430Z</when>
<when >2025-09-05T21:19:06.350Z</when>
<when >2025-09-05T21:19:17.830Z</when>
<when >2025-09-05T21:19:29.310Z</when>
<when >2025-09-05T21:19:42.770Z</when>
<when >2025-09-05T21:19:55.210Z</when>
<when >2025-09-05T21:20:07.100Z</when>
<when >2025-09-05T21:20:19.590Z</when>
<when >2025-09-05T21:20:31.430Z</when>
<when >2025-09-05T21:20:42.860Z</when>
<when >2025-09-05T21:20:54.460Z</when>
<when >2025-09-05T21:21:05.870Z</when>
<when >2025-09-05T21:21:17.630Z</when>
<when >2025-09-05T21:21:30.110Z</when>
<when >2025-09-05T21:21:42.680Z</when>
<when >2025-09-05T21:21:55.720Z</when>
<when >2025-09-05T21:22:08.680Z</when>
<when >2025-09-05T21:22:21.060Z</when>
<when >2025-09-05T21:22:33.260Z</when>
<when >2025-09-05T21:22:44.430Z</when>
<when >2025-09-05T21:22:52.220Z</when>
<when >2025-09-05T21:23:04.650Z</when>
<when >2025-09-05T21:23:15.730Z</when>
<when >2025-09-05T21:23:21.930Z</when>
<when >2025-09-05T21:23:28.930Z</when>
<when >2025-09-05T21:23:35.530Z</when>
<when >2025-09-05T21:23:42.120Z</when>
<when >2025-09-05T21:23:46.540Z</when>
<when >2025-09-05T21:23:51.500Z</when>
<when >2025-09-05T21:23:56.390Z</when>
<when >2025-09-05T21:24:01.120Z</when>
<when >2025-09-05T21:24:05.800Z</when>
<when >2025-09-05T21:24:06.870Z</when>
<when >2025-09-05T21:24:11.400Z</when>
<when >2025-09-05T21:24:19.640Z</when>
<when >2025-09-05T21:24:23.420Z</when>
<when >2025-09-05T21:24:29.610Z</when>
<when >2025-09-05T21:24:35.130Z</when>
<when >2025-09-05T21:24:39.800Z</when>
<when >2025-09-05T21:24:44.740Z</when>
<when >2025-09-05T21:24:48.440Z</when>
<when >2025-09-05T21:24:52.570Z</when>
<when >2025-09-05T21:24:56.860Z</when>
<when >2025-09-05T21:25:01.140Z</when>
<when >2025-09-05T21:25:06.010Z</when>
<when >2025-09-05T21:25:11.170Z</when>
<when >2025-09-05T21:25:15.660Z</when>
<when >2025-09-05T21:25:19.600Z</when>
<when >2025-09-05T21:25:23.830Z</when>
<when >2025-09-05T21:25:27.150Z</when>
<when >2025-09-05T21:25:28.520Z</when>
<when >2025-09-05T21:25:32.360Z</when>
<when >2025-09-05T21:25:34.890Z</when>
<when >2025-09-05T21:25:38.090Z</when>
<when >2025-09-05T21:25:40.480Z</when>
<when >2025-09-05T21:25:43.300Z</when>
<when >2025-09-05T21:25:46.520Z</when>
<when >2025-09-05T21:25:49.080Z</when>
<when >2025-09-05T21:25:51.910Z</when>
<when >2025-09-05T21:25:54.460Z</when>
<when >2025-09-05T21:25:57.300Z</when>
<when >2025-09-05T21:25:59.830Z</when>
<when >2025-09-05T21:26:02.740Z</when>
<when >2025-09-05T21:26:05.000Z</when>
<when >2025-09-05T21:26:07.240Z</when>
<when >2025-09-05T21:26:09.990Z</when>
<when >2025-09-05T21:26:12.670Z</when>
<when >2025-09-05T21:26:14.870Z</when>
<when >2025-09-05T21:26:17.720Z</when>
<when >2025-09-05T21:26:20.250Z</when>
<when >2025-09-05T21:26:22.900Z</when>
<when >2025-09-05T21:26:24.760Z</when>
<when >2025-09-05T21:26:25.340Z</when>
<when >2025-09-05T21:26:27.010Z</when>
<when >2025-09-05T21:26:32.270Z</when>
<when >2025-09-05T21:26:35.380Z</when>
<when >2025-09-05T21:26:40.340Z</when>
<when >2025-09-05T21:26:44.780Z</when>
<when >2025-09-05T21:26:49.030Z</when>
<when >2025-09-05T21:26:53.670Z</when>
<when >2025-09-05T21:26:58.480Z</when>
<when >2025-09-05T21:27:03.840Z</when>
<when >2025-09-05T21:27:06.660Z</when>
<when >2025-09-05T21:27:08.600Z</when>
<when >2025-09-05T21:27:12.550Z</when>
<when >2025-09-05T21:27:15.610Z</when>
<when >2025-09-05T21:27:20.050Z</when>
<when >2025-09-05T21:27:24.100Z</when>
<when >2025-09-05T21:27:26.960Z</when>
<when >2025-09-05T21:27:29.650Z</when>
<when >2025-09-05T21:27:31.990Z</when>
<when >2025-09-05T21:27:34.630Z</when>
<when >2025-09-05T21:27:36.530Z</when>
<when >2025-09-05T21:27:39.090Z</when>
<when >2025-09-05T21:27:41.120Z</when>
<when >2025-09-05T21:27:44.090Z</when>
<when >2025-09-05T21:27:45.910Z</when>
<when >2025-09-05T21:27:47.770Z</when>
<when >2025-09-05T21:27:49.640Z</when>
<when >2025-09-05T21:27:52.120Z</when>
<when >2025-09-05T21:27:54.680Z</when>
<when >2025-09-05T21:27:57.320Z</when>
<when >2025-09-05T21:28:00.480Z</when>
<when >2025-09-05T21:28:03.690Z</when>
<when >2025-09-05T21:28:06.950Z</when>
<when >2025-09-05T21:28:10.610Z</when>
<when >2025-09-05T21:28:15.910Z</when>
<when >2025-09-05T21:28:21.260Z</when>
<when >2025-09-05T21:28:28.480Z</when>
<when >2025-09-05T21:28:37.200Z</when>
<when >2025-09-05T21:28:45.680Z</when>
<when >2025-09-05T21:28:54.590Z</when>
<when >2025-09-05T21:29:03.490Z</when>
<when >2025-09-05T21:29:12.760Z</when>
<when >2025-09-05T21:29:22.180Z</when>
<when >2025-09-05T21:29:30.980Z</when>
<when >2025-09-05T21:29:39.920Z</when>
<when >2025-09-05T21:29:48.470Z</when>
<when >2025-09-05T21:30:08.080Z</when>
<when >2025-09-05T21:30:27.900Z</when>
<when >2025-09-05T21:30:31.450Z</when>
<when >2025-09-05T21:30:35.500Z</when>
<when >2025-09-05T21:30:39.020Z</when>
<when >2025-09-05T21:30:43.380Z</when>
<when >2025-09-05T21:30:47.270Z</when>
<when >2025-09-05T21:30:49.640Z</when>
<when >2025-09-05T21:30:54.290Z</when>
<when >2025-09-05T21:30:58.480Z</when>
<when >2025-09-05T21:31:02.600Z</when>
<when >2025-09-05T21:31:06.360Z</when>
<when >2025-09-05T21:31:07.630Z</when>
<when >2025-09-05T21:31:09.290Z</when>
<when >2025-09-05T21:31:13.580Z</when>
<when >2025-09-05T21:31:19.120Z</when>
<when >2025-09-05T21:31:23.930Z</when>
<when >2025-09-05T21:31:25.880Z</when>
<when >2025-09-05T21:31:31.570Z</when>
<when >2025-09-05T21:31:36.730Z</when>
<when >2025-09-05T21:31:44.120Z</when>
<when >2025-09-05T21:31:52.620Z</when>
<when >2025-09-05T21:32:00.620Z</when>
<when >2025-09-05T21:32:09.070Z</when>
<when >2025-09-05T21:32:16.830Z</when>
<when >2025-09-05T21:32:24.900Z</when>
<when >2025-09-05T21:32:33.410Z</when>
<when >2025-09-05T21:32:41.510Z</when>
<when >2025-09-05T21:32:49.370Z</when>
<when >2025-09-05T21:32:57.560Z</when>
<when >2025-09-05T21:33:05.790Z</when>
<when >2025-09-05T21:33:13.760Z</when>
<when >2025-09-05T21:33:22.480Z</when>
<when >2025-09-05T21:33:29.070Z</when>
<when >2025-09-05T21:33:36.660Z</when>
<when >2025-09-05T21:33:43.580Z</when>
<when >2025-09-05T21:33:48.320Z</when>
<when >2025-09-05T21:33:51.160Z</when>
<when >2025-09-05T21:33:54.710Z</when>
<when >2025-09-05T21:33:56.330Z</when>
<when >2025-09-05T21:33:58.070Z</when>
<when >2025-09-05T21:34:00.680Z</when>
<when >2025-09-05T21:34:02.910Z</when>
<when >2025-09-05T21:34:05.060Z</when>
<when >2025-09-05T21:34:05.060Z</when>
<gx:coord >-5.921452 37.417944 288</gx:coord>
<gx:coord >-5.923501 37.41806 350</gx:coord>
<gx:coord >-5.927064 37.418549 408</gx:coord>
<gx:coord >-5.93005 37.41934 440</gx:coord>
<gx:coord >-5.932677 37.420318 465</gx:coord>
<gx:coord >-5.934528 37.421249 481</gx:coord>
<gx:coord >-5.937935 37.423325 503</gx:coord>
<gx:coord >-5.940974 37.425522 534</gx:coord>
<gx:coord >-5.94635 37.429861 574</gx:coord>
<gx:coord >-5.948918 37.432003 588</gx:coord>
<gx:coord >-5.951425 37.434191 607</gx:coord>
<gx:coord >-5.953037 37.435634 616</gx:coord>
<gx:coord >-5.956752 37.43898 639</gx:coord>
<gx:coord >-5.959265 37.441269 659</gx:coord>
<gx:coord >-5.961836 37.443604 670</gx:coord>
<gx:coord >-5.969433 37.450699 719</gx:coord>
<gx:coord >-5.973173 37.454224 728</gx:coord>
<gx:coord >-5.978891 37.459701 777</gx:coord>
<gx:coord >-5.983458 37.46402 805</gx:coord>
<gx:coord >-5.986614 37.467041 834</gx:coord>
<gx:coord >-5.990713 37.47092 886</gx:coord>
<gx:coord >-5.994561 37.474503 923</gx:coord>
<gx:coord >-5.9976 37.477295 954</gx:coord>
<gx:coord >-5.999821 37.479401 980</gx:coord>
<gx:coord >-6.001998 37.481395 1006</gx:coord>
<gx:coord >-6.004671 37.483841 1041</gx:coord>
<gx:coord >-6.006835 37.485817 1072</gx:coord>
<gx:coord >-6.008865 37.487726 1102</gx:coord>
<gx:coord >-6.011611 37.490193 1132</gx:coord>
<gx:coord >-6.013582 37.492009 1161</gx:coord>
<gx:coord >-6.015134 37.493359 1179</gx:coord>
<gx:coord >-6.017702 37.49564 1211</gx:coord>
<gx:coord >-6.020449 37.498123 1256</gx:coord>
<gx:coord >-6.023792 37.501086 1293</gx:coord>
<gx:coord >-6.0263 37.503321 1332</gx:coord>
<gx:coord >-6.027971 37.50481 1364</gx:coord>
<gx:coord >-6.030033 37.506638 1386</gx:coord>
<gx:coord >-6.032151 37.508488 1407</gx:coord>
<gx:coord >-6.034416 37.510483 1436</gx:coord>
<gx:coord >-6.037104 37.512817 1467</gx:coord>
<gx:coord >-6.040331 37.515657 1507</gx:coord>
<gx:coord >-6.043766 37.518631 1552</gx:coord>
<gx:coord >-6.04663 37.521194 1585</gx:coord>
<gx:coord >-6.050603 37.524628 1627</gx:coord>
<gx:coord >-6.052181 37.526001 1650</gx:coord>
<gx:coord >-6.054986 37.528427 1683</gx:coord>
<gx:coord >-6.057733 37.530762 1715</gx:coord>
<gx:coord >-6.060871 37.533533 1746</gx:coord>
<gx:coord >-6.063259 37.535581 1770</gx:coord>
<gx:coord >-6.066265 37.538177 1805</gx:coord>
<gx:coord >-6.068812 37.540376 1837</gx:coord>
<gx:coord >-6.072167 37.543304 1867</gx:coord>
<gx:coord >-6.075439 37.546149 1894</gx:coord>
<gx:coord >-6.076932 37.547452 1924</gx:coord>
<gx:coord >-6.079977 37.550059 1957</gx:coord>
<gx:coord >-6.083387 37.553055 1982</gx:coord>
<gx:coord >-6.086665 37.555925 2019</gx:coord>
<gx:coord >-6.089815 37.55864 2073</gx:coord>
<gx:coord >-6.092098 37.560627 2099</gx:coord>
<gx:coord >-6.094486 37.562768 2135</gx:coord>
<gx:coord >-6.097173 37.565235 2166</gx:coord>
<gx:coord >-6.101054 37.569332 2217</gx:coord>
<gx:coord >-6.102846 37.57152 2238</gx:coord>
<gx:coord >-6.107025 37.57813 2282</gx:coord>
<gx:coord >-6.108983 37.582535 2330</gx:coord>
<gx:coord >-6.109593 37.584601 2371</gx:coord>
<gx:coord >-6.110429 37.588185 2402</gx:coord>
<gx:coord >-6.110794 37.592285 2431</gx:coord>
<gx:coord >-6.110502 37.59787 2497</gx:coord>
<gx:coord >-6.110035 37.600708 2534</gx:coord>
<gx:coord >-6.108637 37.605689 2600</gx:coord>
<gx:coord >-6.107113 37.609314 2628</gx:coord>
<gx:coord >-6.105294 37.612858 2665</gx:coord>
<gx:coord >-6.103204 37.616396 2704</gx:coord>
<gx:coord >-6.099263 37.622215 2755</gx:coord>
<gx:coord >-6.094432 37.628906 2835</gx:coord>
<gx:coord >-6.09174 37.632503 2861</gx:coord>
<gx:coord >-6.086718 37.639252 2927</gx:coord>
<gx:coord >-6.081649 37.646609 2988</gx:coord>
<gx:coord >-6.077134 37.653488 3054</gx:coord>
<gx:coord >-6.072275 37.661319 3111</gx:coord>
<gx:coord >-6.068193 37.667999 3165</gx:coord>
<gx:coord >-6.063558 37.675704 3237</gx:coord>
<gx:coord >-6.058551 37.684021 3300</gx:coord>
<gx:coord >-6.054542 37.6906 3355</gx:coord>
<gx:coord >-6.051305 37.695831 3406</gx:coord>
<gx:coord >-6.046396 37.703751 3469</gx:coord>
<gx:coord >-6.043065 37.709061 3529</gx:coord>
<gx:coord >-6.038507 37.716202 3595</gx:coord>
<gx:coord >-6.034533 37.722382 3650</gx:coord>
<gx:coord >-6.030181 37.728959 3718</gx:coord>
<gx:coord >-6.025358 37.736252 3780</gx:coord>
<gx:coord >-6.021165 37.742553 3833</gx:coord>
<gx:coord >-6.014358 37.752608 3917</gx:coord>
<gx:coord >-6.012985 37.754656 3933</gx:coord>
<gx:coord >-6.009229 37.760239 3960</gx:coord>
<gx:coord >-6.001574 37.771545 3992</gx:coord>
<gx:coord >-5.992107 37.785507 4046</gx:coord>
<gx:coord >-5.984568 37.796631 4084</gx:coord>
<gx:coord >-5.973159 37.813405 4130</gx:coord>
<gx:coord >-5.965516 37.824578 4183</gx:coord>
<gx:coord >-5.960561 37.831886 4221</gx:coord>
<gx:coord >-5.949156 37.848599 4343</gx:coord>
<gx:coord >-5.938753 37.863831 4457</gx:coord>
<gx:coord >-5.926348 37.88193 4587</gx:coord>
<gx:coord >-5.914048 37.899946 4693</gx:coord>
<gx:coord >-5.901937 37.917664 4815</gx:coord>
<gx:coord >-5.889315 37.936111 4937</gx:coord>
<gx:coord >-5.877029 37.954133 5067</gx:coord>
<gx:coord >-5.863475 37.97401 5196</gx:coord>
<gx:coord >-5.85022 37.993376 5302</gx:coord>
<gx:coord >-5.836785 38.012928 5401</gx:coord>
<gx:coord >-5.823232 38.032666 5538</gx:coord>
<gx:coord >-5.810335 38.051427 5645</gx:coord>
<gx:coord >-5.796749 38.071198 5751</gx:coord>
<gx:coord >-5.783016 38.091156 5866</gx:coord>
<gx:coord >-5.769375 38.110967 5972</gx:coord>
<gx:coord >-5.754806 38.132195 6087</gx:coord>
<gx:coord >-5.740715 38.152631 6186</gx:coord>
<gx:coord >-5.725455 38.174744 6300</gx:coord>
<gx:coord >-5.711099 38.195646 6407</gx:coord>
<gx:coord >-5.696937 38.216125 6521</gx:coord>
<gx:coord >-5.682977 38.236286 6635</gx:coord>
<gx:coord >-5.667512 38.258677 6742</gx:coord>
<gx:coord >-5.652048 38.280976 6856</gx:coord>
<gx:coord >-5.638255 38.300947 6948</gx:coord>
<gx:coord >-5.622195 38.324158 7062</gx:coord>
<gx:coord >-5.606132 38.347499 7169</gx:coord>
<gx:coord >-5.591086 38.369285 7260</gx:coord>
<gx:coord >-5.574666 38.393027 7359</gx:coord>
<gx:coord >-5.560097 38.414017 7481</gx:coord>
<gx:coord >-5.543396 38.43809 7588</gx:coord>
<gx:coord >-5.524048 38.466114 7687</gx:coord>
<gx:coord >-5.505763 38.492386 7794</gx:coord>
<gx:coord >-5.489343 38.516052 7893</gx:coord>
<gx:coord >-5.472565 38.540131 7992</gx:coord>
<gx:coord >-5.456238 38.563594 8076</gx:coord>
<gx:coord >-5.433695 38.596069 8167</gx:coord>
<gx:coord >-5.413025 38.625649 8258</gx:coord>
<gx:coord >-5.395447 38.650833 8343</gx:coord>
<gx:coord >-5.377867 38.675903 8419</gx:coord>
<gx:coord >-5.36084 38.700132 8526</gx:coord>
<gx:coord >-5.341431 38.727831 8618</gx:coord>
<gx:coord >-5.32198 38.755646 8709</gx:coord>
<gx:coord >-5.300903 38.785695 8800</gx:coord>
<gx:coord >-5.280722 38.814377 8892</gx:coord>
<gx:coord >-5.267586 38.83374 8938</gx:coord>
<gx:coord >-5.256301 38.851822 8991</gx:coord>
<gx:coord >-5.245494 38.871002 9044</gx:coord>
<gx:coord >-5.237135 38.887299 9075</gx:coord>
<gx:coord >-5.23114 38.900726 9113</gx:coord>
<gx:coord >-5.227661 38.910641 9143</gx:coord>
<gx:coord >-5.224609 38.921814 9177</gx:coord>
<gx:coord >-5.2229 38.930333 9203</gx:coord>
<gx:coord >-5.221491 38.941589 9227</gx:coord>
<gx:coord >-5.220886 38.952445 9265</gx:coord>
<gx:coord >-5.219666 38.971159 9304</gx:coord>
<gx:coord >-5.218384 38.979585 9327</gx:coord>
<gx:coord >-5.215998 38.989838 9353</gx:coord>
<gx:coord >-5.213192 38.998627 9366</gx:coord>
<gx:coord >-5.2099 39.006865 9373</gx:coord>
<gx:coord >-5.20537 39.016251 9396</gx:coord>
<gx:coord >-5.199459 39.026276 9432</gx:coord>
<gx:coord >-5.193115 39.035634 9470</gx:coord>
<gx:coord >-5.184711 39.046646 9509</gx:coord>
<gx:coord >-5.170321 39.063995 9578</gx:coord>
<gx:coord >-5.148743 39.089774 9639</gx:coord>
<gx:coord >-5.132466 39.110458 9677</gx:coord>
<gx:coord >-5.115628 39.133392 9738</gx:coord>
<gx:coord >-5.100224 39.155869 9799</gx:coord>
<gx:coord >-5.081057 39.18512 9898</gx:coord>
<gx:coord >-5.065247 39.209879 9959</gx:coord>
<gx:coord >-5.049591 39.234604 10043</gx:coord>
<gx:coord >-5.028693 39.267792 10126</gx:coord>
<gx:coord >-5.008118 39.30033 10210</gx:coord>
<gx:coord >-4.992211 39.325287 10309</gx:coord>
<gx:coord >-4.975433 39.351562 10408</gx:coord>
<gx:coord >-4.968089 39.363098 10454</gx:coord>
<gx:coord >-4.957461 39.379715 10515</gx:coord>
<gx:coord >-4.939331 39.408052 10606</gx:coord>
<gx:coord >-4.919308 39.439178 10683</gx:coord>
<gx:coord >-4.898926 39.470851 10759</gx:coord>
<gx:coord >-4.877991 39.503345 10843</gx:coord>
<gx:coord >-4.873093 39.51091 10850</gx:coord>
<gx:coord >-4.84921 39.54808 10858</gx:coord>
<gx:coord >-4.824463 39.586487 10858</gx:coord>
<gx:coord >-4.801145 39.622559 10858</gx:coord>
<gx:coord >-4.776123 39.661157 10858</gx:coord>
<gx:coord >-4.752075 39.698352 10858</gx:coord>
<gx:coord >-4.727286 39.736542 10850</gx:coord>
<gx:coord >-4.702087 39.775303 10858</gx:coord>
<gx:coord >-4.678385 39.811707 10865</gx:coord>
<gx:coord >-4.652344 39.851741 10873</gx:coord>
<gx:coord >-4.628052 39.888983 10873</gx:coord>
<gx:coord >-4.603882 39.925964 10865</gx:coord>
<gx:coord >-4.579239 39.963746 10850</gx:coord>
<gx:coord >-4.555664 39.999893 10851</gx:coord>
<gx:coord >-4.53236 40.035669 10851</gx:coord>
<gx:coord >-4.50814 40.072585 10851</gx:coord>
<gx:coord >-4.484045 40.109268 10851</gx:coord>
<gx:coord >-4.457703 40.149303 10851</gx:coord>
<gx:coord >-4.433233 40.186499 10851</gx:coord>
<gx:coord >-4.408327 40.224206 10851</gx:coord>
<gx:coord >-4.383606 40.261505 10851</gx:coord>
<gx:coord >-4.358638 40.299248 10851</gx:coord>
<gx:coord >-4.333357 40.337607 10851</gx:coord>
<gx:coord >-4.307861 40.376312 10844</gx:coord>
<gx:coord >-4.283875 40.412567 10844</gx:coord>
<gx:coord >-4.258545 40.45079 10851</gx:coord>
<gx:coord >-4.233337 40.488647 10851</gx:coord>
<gx:coord >-4.207825 40.526825 10851</gx:coord>
<gx:coord >-4.182007 40.565598 10851</gx:coord>
<gx:coord >-4.156921 40.60318 10851</gx:coord>
<gx:coord >-4.131171 40.641547 10851</gx:coord>
<gx:coord >-4.106995 40.677658 10851</gx:coord>
<gx:coord >-4.082458 40.714417 10851</gx:coord>
<gx:coord >-4.058013 40.750991 10851</gx:coord>
<gx:coord >-4.032669 40.788512 10851</gx:coord>
<gx:coord >-4.007202 40.826294 10851</gx:coord>
<gx:coord >-3.9823 40.863235 10844</gx:coord>
<gx:coord >-3.956701 40.901122 10844</gx:coord>
<gx:coord >-3.93117 40.938969 10850</gx:coord>
<gx:coord >-3.905701 40.976715 10843</gx:coord>
<gx:coord >-3.880733 41.013825 10835</gx:coord>
<gx:coord >-3.855702 41.050881 10843</gx:coord>
<gx:coord >-3.830733 41.08775 10843</gx:coord>
<gx:coord >-3.806274 41.12384 10843</gx:coord>
<gx:coord >-3.782043 41.15944 10843</gx:coord>
<gx:coord >-3.757137 41.195844 10835</gx:coord>
<gx:coord >-3.732788 41.231461 10835</gx:coord>
<gx:coord >-3.706949 41.269304 10827</gx:coord>
<gx:coord >-3.681396 41.306671 10827</gx:coord>
<gx:coord >-3.656387 41.343182 10835</gx:coord>
<gx:coord >-3.631918 41.378795 10843</gx:coord>
<gx:coord >-3.606454 41.41585 10850</gx:coord>
<gx:coord >-3.581106 41.452744 10858</gx:coord>
<gx:coord >-3.556512 41.488541 10858</gx:coord>
<gx:coord >-3.531106 41.525391 10858</gx:coord>
<gx:coord >-3.506044 41.561745 10850</gx:coord>
<gx:coord >-3.481772 41.596985 10858</gx:coord>
<gx:coord >-3.455775 41.634646 10858</gx:coord>
<gx:coord >-3.430098 41.671701 10843</gx:coord>
<gx:coord >-3.406136 41.706207 10843</gx:coord>
<gx:coord >-3.380356 41.743378 10827</gx:coord>
<gx:coord >-3.355621 41.779097 10820</gx:coord>
<gx:coord >-3.330356 41.81543 10820</gx:coord>
<gx:coord >-3.306198 41.849991 10820</gx:coord>
<gx:coord >-3.280792 41.886429 10827</gx:coord>
<gx:coord >-3.255147 41.92313 10835</gx:coord>
<gx:coord >-3.229419 41.959854 10835</gx:coord>
<gx:coord >-3.203792 41.996403 10835</gx:coord>
<gx:coord >-3.178544 42.032364 10835</gx:coord>
<gx:coord >-3.153888 42.067612 10835</gx:coord>
<gx:coord >-3.12817 42.104233 10835</gx:coord>
<gx:coord >-3.103382 42.139318 10843</gx:coord>
<gx:coord >-3.077833 42.17549 10835</gx:coord>
<gx:coord >-3.053177 42.21045 10827</gx:coord>
<gx:coord >-3.028107 42.246002 10827</gx:coord>
<gx:coord >-3.002701 42.281891 10828</gx:coord>
<gx:coord >-2.977857 42.316818 10821</gx:coord>
<gx:coord >-2.95295 42.351883 10821</gx:coord>
<gx:coord >-2.928431 42.386325 10821</gx:coord>
<gx:coord >-2.902179 42.423194 10828</gx:coord>
<gx:coord >-2.876545 42.459091 10828</gx:coord>
<gx:coord >-2.853574 42.490768 10828</gx:coord>
<gx:coord >-2.83029 42.521347 10829</gx:coord>
<gx:coord >-2.801705 42.558568 10822</gx:coord>
<gx:coord >-2.773861 42.595093 10822</gx:coord>
<gx:coord >-2.749578 42.627136 10822</gx:coord>
<gx:coord >-2.722862 42.66243 10822</gx:coord>
<gx:coord >-2.69593 42.697992 10829</gx:coord>
<gx:coord >-2.669865 42.732376 10829</gx:coord>
<gx:coord >-2.643298 42.767355 10830</gx:coord>
<gx:coord >-2.615121 42.804245 10830</gx:coord>
<gx:coord >-2.589242 42.838114 10823</gx:coord>
<gx:coord >-2.562299 42.873401 10823</gx:coord>
<gx:coord >-2.535031 42.909073 10815</gx:coord>
<gx:coord >-2.50846 42.943726 10815</gx:coord>
<gx:coord >-2.482144 42.978104 10815</gx:coord>
<gx:coord >-2.455189 43.013214 10816</gx:coord>
<gx:coord >-2.428371 43.048111 10816</gx:coord>
<gx:coord >-2.401886 43.082513 10816</gx:coord>
<gx:coord >-2.375009 43.117288 10809</gx:coord>
<gx:coord >-2.348008 43.152283 10809</gx:coord>
<gx:coord >-2.321437 43.186661 10801</gx:coord>
<gx:coord >-2.295312 43.220444 10801</gx:coord>
<gx:coord >-2.268154 43.255455 10810</gx:coord>
<gx:coord >-2.242297 43.288696 10802</gx:coord>
<gx:coord >-2.215642 43.322956 10810</gx:coord>
<gx:coord >-2.189154 43.356995 10802</gx:coord>
<gx:coord >-2.163412 43.390045 10802</gx:coord>
<gx:coord >-2.136841 43.424194 10794</gx:coord>
<gx:coord >-2.10944 43.459214 10794</gx:coord>
<gx:coord >-2.082694 43.49343 10794</gx:coord>
<gx:coord >-2.055947 43.527599 10794</gx:coord>
<gx:coord >-2.028447 43.562576 10802</gx:coord>
<gx:coord >-2.001997 43.596217 10802</gx:coord>
<gx:coord >-1.975446 43.630061 10802</gx:coord>
<gx:coord >-1.948111 43.664742 10794</gx:coord>
<gx:coord >-1.920947 43.699265 10794</gx:coord>
<gx:coord >-1.892918 43.734757 10802</gx:coord>
<gx:coord >-1.866909 43.7677 10802</gx:coord>
<gx:coord >-1.839443 43.802399 10802</gx:coord>
<gx:coord >-1.811698 43.837358 10802</gx:coord>
<gx:coord >-1.784428 43.871713 10802</gx:coord>
<gx:coord >-1.756505 43.906907 10802</gx:coord>
<gx:coord >-1.72875 43.942291 10794</gx:coord>
<gx:coord >-1.713082 43.963701 10787</gx:coord>
<gx:coord >-1.688102 43.999313 10787</gx:coord>
<gx:coord >-1.662768 44.035629 10787</gx:coord>
<gx:coord >-1.63741 44.071243 10787</gx:coord>
<gx:coord >-1.612946 44.105072 10787</gx:coord>
<gx:coord >-1.587397 44.14032 10787</gx:coord>
<gx:coord >-1.562039 44.175064 10779</gx:coord>
<gx:coord >-1.536974 44.209396 10779</gx:coord>
<gx:coord >-1.51263 44.242642 10779</gx:coord>
<gx:coord >-1.486686 44.278152 10771</gx:coord>
<gx:coord >-1.461901 44.312027 10771</gx:coord>
<gx:coord >-1.43607 44.347275 10771</gx:coord>
<gx:coord >-1.410738 44.381879 10771</gx:coord>
<gx:coord >-1.385014 44.416933 10780</gx:coord>
<gx:coord >-1.358687 44.452825 10780</gx:coord>
<gx:coord >-1.332896 44.487972 10772</gx:coord>
<gx:coord >-1.306435 44.52405 10765</gx:coord>
<gx:coord >-1.280954 44.558533 10765</gx:coord>
<gx:coord >-1.254786 44.593878 10772</gx:coord>
<gx:coord >-1.228703 44.62912 10772</gx:coord>
<gx:coord >-1.202601 44.664451 10772</gx:coord>
<gx:coord >-1.176676 44.699319 10780</gx:coord>
<gx:coord >-1.150883 44.734039 10780</gx:coord>
<gx:coord >-1.124424 44.76952 10780</gx:coord>
<gx:coord >-1.098767 44.803922 10772</gx:coord>
<gx:coord >-1.072909 44.838603 10773</gx:coord>
<gx:coord >-1.046984 44.873331 10773</gx:coord>
<gx:coord >-1.019719 44.909921 10766</gx:coord>
<gx:coord >-0.993258 44.945255 10766</gx:coord>
<gx:coord >-0.966797 44.980588 10773</gx:coord>
<gx:coord >-0.941475 45.014105 10773</gx:coord>
<gx:coord >-0.914612 45.049764 10758</gx:coord>
<gx:coord >-0.887883 45.085284 10758</gx:coord>
<gx:coord >-0.861119 45.120758 10758</gx:coord>
<gx:coord >-0.834699 45.155869 10758</gx:coord>
<gx:coord >-0.80783 45.191516 10751</gx:coord>
<gx:coord >-0.781637 45.225965 10751</gx:coord>
<gx:coord >-0.754198 45.26207 10758</gx:coord>
<gx:coord >-0.727308 45.297515 10758</gx:coord>
<gx:coord >-0.701229 45.331924 10766</gx:coord>
<gx:coord >-0.674319 45.36739 10751</gx:coord>
<gx:coord >-0.647256 45.402956 10751</gx:coord>
<gx:coord >-0.620924 45.437531 10743</gx:coord>
<gx:coord >-0.594066 45.472645 10743</gx:coord>
<gx:coord >-0.567337 45.507419 10743</gx:coord>
<gx:coord >-0.539638 45.543365 10743</gx:coord>
<gx:coord >-0.512924 45.578086 10743</gx:coord>
<gx:coord >-0.485743 45.613358 10735</gx:coord>
<gx:coord >-0.458611 45.648612 10743</gx:coord>
<gx:coord >-0.431076 45.684271 10742</gx:coord>
<gx:coord >-0.404216 45.719101 10742</gx:coord>
<gx:coord >-0.377354 45.753891 10742</gx:coord>
<gx:coord >-0.349553 45.789688 10750</gx:coord>
<gx:coord >-0.322105 45.824859 10750</gx:coord>
<gx:coord >-0.296631 45.85762 10750</gx:coord>
<gx:coord >-0.269299 45.892731 10750</gx:coord>
<gx:coord >-0.242503 45.927155 10750</gx:coord>
<gx:coord >-0.214769 45.962723 10742</gx:coord>
<gx:coord >-0.187248 45.997894 10742</gx:coord>
<gx:coord >-0.160106 46.032669 10742</gx:coord>
<gx:coord >-0.132729 46.067629 10742</gx:coord>
<gx:coord >-0.106112 46.101379 10734</gx:coord>
<gx:coord >-0.07869 46.1362 10734</gx:coord>
<gx:coord >-0.052252 46.169861 10727</gx:coord>
<gx:coord >-0.024786 46.204742 10727</gx:coord>
<gx:coord >0.003296 46.240291 10719</gx:coord>
<gx:coord >0.030006 46.274135 10727</gx:coord>
<gx:coord >0.058281 46.309845 10719</gx:coord>
<gx:coord >0.085213 46.343963 10727</gx:coord>
<gx:coord >0.113022 46.379063 10727</gx:coord>
<gx:coord >0.140679 46.413803 10727</gx:coord>
<gx:coord >0.168747 46.449142 10727</gx:coord>
<gx:coord >0.196481 46.483887 10727</gx:coord>
<gx:coord >0.223947 46.518173 10727</gx:coord>
<gx:coord >0.251681 46.552872 10727</gx:coord>
<gx:coord >0.279465 46.587524 10719</gx:coord>
<gx:coord >0.307885 46.622955 10719</gx:coord>
<gx:coord >0.336662 46.658703 10719</gx:coord>
<gx:coord >0.364224 46.692856 10719</gx:coord>
<gx:coord >0.392091 46.727417 10719</gx:coord>
<gx:coord >0.42009 46.762002 10719</gx:coord>
<gx:coord >0.431488 46.774944 10719</gx:coord>
<gx:coord >0.441238 46.784813 10719</gx:coord>
<gx:coord >0.468224 46.810417 10719</gx:coord>
<gx:coord >0.503517 46.843981 10719</gx:coord>
<gx:coord >0.538742 46.877975 10719</gx:coord>
<gx:coord >0.572182 46.910202 10719</gx:coord>
<gx:coord >0.607681 46.94426 10711</gx:coord>
<gx:coord >0.64167 46.976715 10711</gx:coord>
<gx:coord >0.676645 47.010172 10712</gx:coord>
<gx:coord >0.711365 47.043224 10712</gx:coord>
<gx:coord >0.747276 47.077423 10712</gx:coord>
<gx:coord >0.782001 47.110539 10720</gx:coord>
<gx:coord >0.817777 47.144615 10712</gx:coord>
<gx:coord >0.852676 47.177765 10712</gx:coord>
<gx:coord >0.887076 47.210347 10705</gx:coord>
<gx:coord >0.922147 47.243492 10712</gx:coord>
<gx:coord >0.957184 47.276596 10697</gx:coord>
<gx:coord >0.992271 47.309875 10705</gx:coord>
<gx:coord >1.026535 47.342194 10705</gx:coord>
<gx:coord >1.061554 47.375198 10705</gx:coord>
<gx:coord >1.09568 47.407196 10705</gx:coord>
<gx:coord >1.130974 47.440292 10705</gx:coord>
<gx:coord >1.165466 47.472622 10697</gx:coord>
<gx:coord >1.20082 47.505674 10705</gx:coord>
<gx:coord >1.236455 47.538866 10698</gx:coord>
<gx:coord >1.271386 47.571359 10698</gx:coord>
<gx:coord >1.30545 47.603073 10698</gx:coord>
<gx:coord >1.341431 47.636444 10698</gx:coord>
<gx:coord >1.375626 47.668121 10698</gx:coord>
<gx:coord >1.410757 47.700588 10698</gx:coord>
<gx:coord >1.445125 47.73243 10691</gx:coord>
<gx:coord >1.480476 47.765121 10691</gx:coord>
<gx:coord >1.51474 47.796707 10691</gx:coord>
<gx:coord >1.549988 47.829166 10691</gx:coord>
<gx:coord >1.584641 47.861069 10691</gx:coord>
<gx:coord >1.62014 47.893661 10691</gx:coord>
<gx:coord >1.654953 47.925385 10691</gx:coord>
<gx:coord >1.686607 47.954269 10691</gx:coord>
<gx:coord >1.722176 47.986679 10683</gx:coord>
<gx:coord >1.756615 48.018075 10683</gx:coord>
<gx:coord >1.792007 48.050354 10683</gx:coord>
<gx:coord >1.826125 48.081432 10683</gx:coord>
<gx:coord >1.861478 48.113553 10683</gx:coord>
<gx:coord >1.895485 48.14447 10684</gx:coord>
<gx:coord >1.930413 48.17612 10684</gx:coord>
<gx:coord >1.964792 48.207184 10684</gx:coord>
<gx:coord >2.000235 48.239012 10684</gx:coord>
<gx:coord >2.036012 48.271133 10684</gx:coord>
<gx:coord >2.049673 48.282398 10684</gx:coord>
<gx:coord >2.059655 48.28981 10684</gx:coord>
<gx:coord >2.077402 48.302078 10684</gx:coord>
<gx:coord >2.119305 48.330551 10684</gx:coord>
<gx:coord >2.160926 48.35939 10684</gx:coord>
<gx:coord >2.202055 48.388092 10684</gx:coord>
<gx:coord >2.243162 48.416655 10676</gx:coord>
<gx:coord >2.283132 48.4444 10676</gx:coord>
<gx:coord >2.325849 48.473914 10676</gx:coord>
<gx:coord >2.366036 48.501613 10669</gx:coord>
<gx:coord >2.384104 48.513611 10669</gx:coord>
<gx:coord >2.396465 48.520839 10669</gx:coord>
<gx:coord >2.408752 48.527023 10669</gx:coord>
<gx:coord >2.422204 48.532837 10669</gx:coord>
<gx:coord >2.434267 48.537318 10669</gx:coord>
<gx:coord >2.442217 48.539925 10669</gx:coord>
<gx:coord >2.456239 48.544162 10669</gx:coord>
<gx:coord >2.513756 48.560806 10669</gx:coord>
<gx:coord >2.560248 48.575072 10669</gx:coord>
<gx:coord >2.61677 48.592855 10669</gx:coord>
<gx:coord >2.673269 48.610611 10669</gx:coord>
<gx:coord >2.730173 48.628326 10653</gx:coord>
<gx:coord >2.786913 48.645785 10653</gx:coord>
<gx:coord >2.842785 48.662916 10653</gx:coord>
<gx:coord >2.898841 48.680099 10653</gx:coord>
<gx:coord >2.955463 48.697403 10653</gx:coord>
<gx:coord >3.009831 48.714066 10653</gx:coord>
<gx:coord >3.06627 48.731302 10653</gx:coord>
<gx:coord >3.121033 48.748032 10653</gx:coord>
<gx:coord >3.179908 48.765839 10646</gx:coord>
<gx:coord >3.23653 48.783005 10653</gx:coord>
<gx:coord >3.283363 48.797195 10669</gx:coord>
<gx:coord >3.335868 48.813094 10737</gx:coord>
<gx:coord >3.388789 48.829102 10806</gx:coord>
<gx:coord >3.437453 48.84375 10890</gx:coord>
<gx:coord >3.475727 48.855224 10943</gx:coord>
<gx:coord >3.503794 48.863617 10951</gx:coord>
<gx:coord >3.559852 48.880325 10958</gx:coord>
<gx:coord >3.615152 48.896795 10951</gx:coord>
<gx:coord >3.672397 48.913879 10951</gx:coord>
<gx:coord >3.728485 48.930685 10951</gx:coord>
<gx:coord >3.785917 48.947845 10951</gx:coord>
<gx:coord >3.843046 48.964761 10951</gx:coord>
<gx:coord >3.900869 48.981846 10951</gx:coord>
<gx:coord >3.957969 48.998604 10951</gx:coord>
<gx:coord >4.01339 49.014862 10951</gx:coord>
<gx:coord >4.070857 49.031708 10951</gx:coord>
<gx:coord >4.1258 49.047671 10958</gx:coord>
<gx:coord >4.184735 49.06485 10950</gx:coord>
<gx:coord >4.240144 49.081002 10942</gx:coord>
<gx:coord >4.298119 49.097855 10950</gx:coord>
<gx:coord >4.355375 49.114426 10942</gx:coord>
<gx:coord >4.412601 49.130906 10950</gx:coord>
<gx:coord >4.470857 49.147711 10950</gx:coord>
<gx:coord >4.52774 49.164051 10942</gx:coord>
<gx:coord >4.584186 49.180298 10942</gx:coord>
<gx:coord >4.641796 49.196777 10934</gx:coord>
<gx:coord >4.699619 49.213257 10934</gx:coord>
<gx:coord >4.757514 49.229736 10927</gx:coord>
<gx:coord >4.814054 49.245804 10934</gx:coord>
<gx:coord >4.871591 49.262009 10934</gx:coord>
<gx:coord >4.929247 49.277964 10933</gx:coord>
<gx:coord >4.95628 49.285785 10933</gx:coord>
<gx:coord >4.98295 49.294397 10933</gx:coord>
<gx:coord >5.012512 49.304639 10933</gx:coord>
<gx:coord >5.066458 49.324173 10926</gx:coord>
<gx:coord >5.12139 49.343811 10918</gx:coord>
<gx:coord >5.1778 49.363266 10926</gx:coord>
<gx:coord >5.233034 49.381916 10926</gx:coord>
<gx:coord >5.288227 49.400436 10926</gx:coord>
<gx:coord >5.344144 49.41925 10918</gx:coord>
<gx:coord >5.399491 49.43779 10911</gx:coord>
<gx:coord >5.454935 49.45626 10911</gx:coord>
<gx:coord >5.509716 49.474503 10911</gx:coord>
<gx:coord >5.565318 49.492989 10911</gx:coord>
<gx:coord >5.621242 49.51149 10910</gx:coord>
<gx:coord >5.677779 49.530184 10917</gx:coord>
<gx:coord >5.73443 49.548889 10917</gx:coord>
<gx:coord >5.791096 49.567566 10925</gx:coord>
<gx:coord >5.847325 49.586094 10925</gx:coord>
<gx:coord >5.903634 49.604599 10925</gx:coord>
<gx:coord >5.959938 49.623093 10925</gx:coord>
<gx:coord >6.015376 49.641266 10917</gx:coord>
<gx:coord >6.071103 49.659485 10917</gx:coord>
<gx:coord >6.127119 49.677704 10917</gx:coord>
<gx:coord >6.182927 49.695771 10910</gx:coord>
<gx:coord >6.239222 49.713821 10902</gx:coord>
<gx:coord >6.294877 49.73172 10894</gx:coord>
<gx:coord >6.350314 49.74971 10894</gx:coord>
<gx:coord >6.406836 49.767929 10894</gx:coord>
<gx:coord >6.463503 49.786194 10894</gx:coord>
<gx:coord >6.519302 49.804138 10887</gx:coord>
<gx:coord >6.575614 49.82216 10887</gx:coord>
<gx:coord >6.632773 49.840362 10887</gx:coord>
<gx:coord >6.689783 49.858471 10893</gx:coord>
<gx:coord >6.746401 49.876373 10893</gx:coord>
<gx:coord >6.803655 49.894549 10893</gx:coord>
<gx:coord >6.860294 49.912425 10893</gx:coord>
<gx:coord >6.917749 49.930534 10893</gx:coord>
<gx:coord >6.974611 49.94841 10893</gx:coord>
<gx:coord >7.032289 49.966425 10886</gx:coord>
<gx:coord >7.090116 49.984488 10893</gx:coord>
<gx:coord >7.147349 50.002271 10893</gx:coord>
<gx:coord >7.205152 50.020294 10901</gx:coord>
<gx:coord >7.26367 50.038535 10893</gx:coord>
<gx:coord >7.321231 50.056366 10901</gx:coord>
<gx:coord >7.379849 50.074402 10901</gx:coord>
<gx:coord >7.436928 50.091977 10893</gx:coord>
<gx:coord >7.494555 50.109741 10886</gx:coord>
<gx:coord >7.552522 50.12764 10878</gx:coord>
<gx:coord >7.611002 50.145652 10878</gx:coord>
<gx:coord >7.667566 50.162969 10878</gx:coord>
<gx:coord >7.725485 50.180649 10863</gx:coord>
<gx:coord >7.783739 50.198349 10855</gx:coord>
<gx:coord >7.84113 50.215805 10863</gx:coord>
<gx:coord >7.897537 50.232891 10864</gx:coord>
<gx:coord >7.955512 50.250441 10864</gx:coord>
<gx:coord >8.013264 50.267805 10856</gx:coord>
<gx:coord >8.070904 50.28511 10856</gx:coord>
<gx:coord >8.129015 50.30246 10864</gx:coord>
<gx:coord >8.187709 50.319943 10871</gx:coord>
<gx:coord >8.244516 50.336975 10871</gx:coord>
<gx:coord >8.302267 50.354233 10871</gx:coord>
<gx:coord >8.358716 50.371033 10864</gx:coord>
<gx:coord >8.416344 50.388096 10849</gx:coord>
<gx:coord >8.47429 50.405228 10849</gx:coord>
<gx:coord >8.532113 50.422348 10841</gx:coord>
<gx:coord >8.589824 50.43935 10841</gx:coord>
<gx:coord >8.647502 50.456248 10833</gx:coord>
<gx:coord >8.706159 50.473434 10849</gx:coord>
<gx:coord >8.764777 50.490555 10849</gx:coord>
<gx:coord >8.822912 50.507362 10856</gx:coord>
<gx:coord >8.882372 50.524587 10849</gx:coord>
<gx:coord >8.940496 50.541811 10849</gx:coord>
<gx:coord >8.999362 50.559361 10849</gx:coord>
<gx:coord >9.058011 50.576843 10849</gx:coord>
<gx:coord >9.116871 50.594182 10849</gx:coord>
<gx:coord >9.176627 50.611593 10849</gx:coord>
<gx:coord >9.236087 50.62891 10849</gx:coord>
<gx:coord >9.295807 50.64624 10849</gx:coord>
<gx:coord >9.35681 50.663956 10856</gx:coord>
<gx:coord >9.417659 50.68158 10856</gx:coord>
<gx:coord >9.477539 50.698878 10856</gx:coord>
<gx:coord >9.537321 50.716187 10856</gx:coord>
<gx:coord >9.597931 50.733606 10856</gx:coord>
<gx:coord >9.658127 50.750924 10856</gx:coord>
<gx:coord >9.718892 50.768326 10856</gx:coord>
<gx:coord >9.779614 50.785446 10841</gx:coord>
<gx:coord >9.84041 50.802704 10841</gx:coord>
<gx:coord >9.900389 50.819824 10834</gx:coord>
<gx:coord >9.961111 50.837082 10850</gx:coord>
<gx:coord >10.019457 50.853424 10850</gx:coord>
<gx:coord >10.079193 50.870191 10834</gx:coord>
<gx:coord >10.139694 50.887136 10827</gx:coord>
<gx:coord >10.200119 50.904081 10819</gx:coord>
<gx:coord >10.259323 50.920746 10819</gx:coord>
<gx:coord >10.319428 50.937424 10819</gx:coord>
<gx:coord >10.378189 50.953612 10819</gx:coord>
<gx:coord >10.438538 50.970325 10819</gx:coord>
<gx:coord >10.498847 50.986954 10834</gx:coord>
<gx:coord >10.559082 51.003563 10834</gx:coord>
<gx:coord >10.61882 51.019996 10834</gx:coord>
<gx:coord >10.680047 51.036896 10834</gx:coord>
<gx:coord >10.74166 51.05397 10834</gx:coord>
<gx:coord >10.804367 51.071157 10835</gx:coord>
<gx:coord >10.865775 51.087891 10843</gx:coord>
<gx:coord >10.927611 51.104553 10843</gx:coord>
<gx:coord >10.989609 51.121247 10835</gx:coord>
<gx:coord >11.05232 51.138153 10835</gx:coord>
<gx:coord >11.112894 51.154404 10851</gx:coord>
<gx:coord >11.174469 51.170825 10843</gx:coord>
<gx:coord >11.237529 51.187729 10843</gx:coord>
<gx:coord >11.299667 51.204482 10851</gx:coord>
<gx:coord >11.362381 51.221195 10843</gx:coord>
<gx:coord >11.423554 51.237442 10851</gx:coord>
<gx:coord >11.484909 51.253735 10835</gx:coord>
<gx:coord >11.546249 51.270028 10835</gx:coord>
<gx:coord >11.608276 51.286321 10828</gx:coord>
<gx:coord >11.670301 51.302399 10836</gx:coord>
<gx:coord >11.731914 51.318466 10829</gx:coord>
<gx:coord >11.792042 51.334442 10829</gx:coord>
<gx:coord >11.853209 51.350464 10829</gx:coord>
<gx:coord >11.914368 51.366344 10836</gx:coord>
<gx:coord >11.975479 51.382172 10844</gx:coord>
<gx:coord >12.038269 51.398279 10844</gx:coord>
<gx:coord >12.100525 51.414247 10844</gx:coord>
<gx:coord >12.162088 51.429977 10844</gx:coord>
<gx:coord >12.224884 51.446042 10845</gx:coord>
<gx:coord >12.287827 51.462242 10853</gx:coord>
<gx:coord >12.349777 51.478163 10853</gx:coord>
<gx:coord >12.412398 51.49411 10853</gx:coord>
<gx:coord >12.469864 51.508468 10853</gx:coord>
<gx:coord >12.492865 51.513474 10853</gx:coord>
<gx:coord >12.512092 51.516998 10845</gx:coord>
<gx:coord >12.535549 51.520569 10853</gx:coord>
<gx:coord >12.601471 51.530022 10853</gx:coord>
<gx:coord >12.666346 51.539703 10845</gx:coord>
<gx:coord >12.731476 51.549621 10846</gx:coord>
<gx:coord >12.796771 51.559525 10838</gx:coord>
<gx:coord >12.863007 51.569545 10846</gx:coord>
<gx:coord >12.929349 51.579254 10854</gx:coord>
<gx:coord >12.994843 51.588724 10854</gx:coord>
<gx:coord >13.059692 51.598128 10861</gx:coord>
<gx:coord >13.125173 51.607635 10869</gx:coord>
<gx:coord >13.191091 51.617294 10876</gx:coord>
<gx:coord >13.255673 51.626724 10876</gx:coord>
<gx:coord >13.320999 51.636254 10869</gx:coord>
<gx:coord >13.386459 51.645658 10869</gx:coord>
<gx:coord >13.451309 51.655015 10861</gx:coord>
<gx:coord >13.517563 51.66449 10861</gx:coord>
<gx:coord >13.582962 51.673737 10854</gx:coord>
<gx:coord >13.64695 51.682755 10855</gx:coord>
<gx:coord >13.713461 51.692047 10862</gx:coord>
<gx:coord >13.778563 51.701111 10870</gx:coord>
<gx:coord >13.84411 51.710175 10870</gx:coord>
<gx:coord >13.911209 51.719443 10877</gx:coord>
<gx:coord >13.977059 51.728622 10885</gx:coord>
<gx:coord >14.042969 51.737738 10893</gx:coord>
<gx:coord >14.109344 51.746769 10893</gx:coord>
<gx:coord >14.174728 51.755707 10893</gx:coord>
<gx:coord >14.239349 51.764413 10901</gx:coord>
<gx:coord >14.304504 51.773118 10901</gx:coord>
<gx:coord >14.370499 51.782009 10909</gx:coord>
<gx:coord >14.436777 51.790878 10909</gx:coord>
<gx:coord >14.500961 51.799466 10901</gx:coord>
<gx:coord >14.565199 51.808044 10909</gx:coord>
<gx:coord >14.630523 51.816696 10901</gx:coord>
<gx:coord >14.696198 51.825443 10901</gx:coord>
<gx:coord >14.760437 51.833822 10895</gx:coord>
<gx:coord >14.824862 51.842194 10895</gx:coord>
<gx:coord >14.889374 51.850534 10902</gx:coord>
<gx:coord >14.954026 51.858856 10895</gx:coord>
<gx:coord >15.019531 51.867246 10895</gx:coord>
<gx:coord >15.082245 51.8753 10902</gx:coord>
<gx:coord >15.147476 51.883633 10910</gx:coord>
<gx:coord >15.213021 51.891998 10910</gx:coord>
<gx:coord >15.277634 51.900146 10918</gx:coord>
<gx:coord >15.342329 51.908212 10925</gx:coord>
<gx:coord >15.408247 51.916219 10925</gx:coord>
<gx:coord >15.473633 51.924225 10925</gx:coord>
<gx:coord >15.538254 51.932144 10940</gx:coord>
<gx:coord >15.602862 51.940101 10941</gx:coord>
<gx:coord >15.667953 51.948166 10941</gx:coord>
<gx:coord >15.732727 51.956497 10941</gx:coord>
<gx:coord >15.79732 51.964168 10941</gx:coord>
<gx:coord >15.860748 51.97197 10934</gx:coord>
<gx:coord >15.893372 51.97562 10941</gx:coord>
<gx:coord >15.914795 51.977249 10928</gx:coord>
<gx:coord >15.936127 51.978104 10933</gx:coord>
<gx:coord >15.953751 51.978241 10934</gx:coord>
<gx:coord >15.98465 51.977829 10941</gx:coord>
<gx:coord >16.048355 51.977234 10941</gx:coord>
<gx:coord >16.112823 51.977188 10941</gx:coord>
<gx:coord >16.177368 51.977249 10941</gx:coord>
<gx:coord >16.242501 51.977156 10950</gx:coord>
<gx:coord >16.307242 51.976924 10950</gx:coord>
<gx:coord >16.371826 51.976691 10958</gx:coord>
<gx:coord >16.436539 51.97641 10950</gx:coord>
<gx:coord >16.501007 51.975952 10958</gx:coord>
<gx:coord >16.565552 51.975449 10958</gx:coord>
<gx:coord >16.631088 51.975037 10958</gx:coord>
<gx:coord >16.696548 51.974579 10958</gx:coord>
<gx:coord >16.761322 51.974075 10958</gx:coord>
<gx:coord >16.826477 51.97348 10959</gx:coord>
<gx:coord >16.892319 51.972794 10966</gx:coord>
<gx:coord >16.956558 51.972198 10982</gx:coord>
<gx:coord >17.021197 51.971617 10982</gx:coord>
<gx:coord >17.086879 51.970965 10982</gx:coord>
<gx:coord >17.151718 51.970184 10989</gx:coord>
<gx:coord >17.217712 51.969315 10974</gx:coord>
<gx:coord >17.281416 51.968404 10974</gx:coord>
<gx:coord >17.345607 51.967613 10966</gx:coord>
<gx:coord >17.40921 51.966843 10960</gx:coord>
<gx:coord >17.473373 51.966064 10960</gx:coord>
<gx:coord >17.537319 51.965146 10960</gx:coord>
<gx:coord >17.602216 51.964215 10975</gx:coord>
<gx:coord >17.667923 51.963226 10983</gx:coord>
<gx:coord >17.733459 51.962173 10983</gx:coord>
<gx:coord >17.797089 51.961029 10983</gx:coord>
<gx:coord >17.845764 51.960205 10969</gx:coord>
<gx:coord >17.869734 51.959792 10945</gx:coord>
<gx:coord >17.899857 51.95929 10892</gx:coord>
<gx:coord >17.941145 51.958582 10793</gx:coord>
<gx:coord >17.964935 51.958008 10727</gx:coord>
<gx:coord >17.975752 51.95793 10684</gx:coord>
<gx:coord >18.006058 51.957321 10572</gx:coord>
<gx:coord >18.027267 51.957001 10484</gx:coord>
<gx:coord >18.028946 51.956955 10476</gx:coord>
<gx:coord >18.048096 51.956589 10414</gx:coord>
<gx:coord >18.089382 51.955789 10313</gx:coord>
<gx:coord >18.132778 51.954904 10222</gx:coord>
<gx:coord >18.174133 51.954025 10122</gx:coord>
<gx:coord >18.18985 51.953751 10100</gx:coord>
<gx:coord >18.211823 51.953293 10084</gx:coord>
<gx:coord >18.276699 51.951972 10078</gx:coord>
<gx:coord >18.340759 51.950592 10078</gx:coord>
<gx:coord >18.404312 51.949219 10078</gx:coord>
<gx:coord >18.442307 51.948761 10077</gx:coord>
<gx:coord >18.458252 51.948853 10058</gx:coord>
<gx:coord >18.473746 51.949178 10031</gx:coord>
<gx:coord >18.489441 51.949644 9994</gx:coord>
<gx:coord >18.52546 51.950947 9880</gx:coord>
<gx:coord >18.558807 51.952103 9765</gx:coord>
<gx:coord >18.593105 51.953275 9636</gx:coord>
<gx:coord >18.626404 51.9543 9514</gx:coord>
<gx:coord >18.661534 51.95537 9392</gx:coord>
<gx:coord >18.69873 51.956451 9270</gx:coord>
<gx:coord >18.735199 51.957596 9163</gx:coord>
<gx:coord >18.764038 51.958511 9095</gx:coord>
<gx:coord >18.813851 51.960072 9003</gx:coord>
<gx:coord >18.86125 51.961561 8928</gx:coord>
<gx:coord >18.906529 51.963004 8837</gx:coord>
<gx:coord >18.957291 51.964462 8753</gx:coord>
<gx:coord >19.006348 51.965744 8669</gx:coord>
<gx:coord >19.056492 51.966961 8593</gx:coord>
<gx:coord >19.104309 51.968033 8509</gx:coord>
<gx:coord >19.150033 51.969149 8418</gx:coord>
<gx:coord >19.198303 51.970322 8334</gx:coord>
<gx:coord >19.246477 51.97143 8250</gx:coord>
<gx:coord >19.29521 51.972455 8166</gx:coord>
<gx:coord >19.343393 51.973386 8090</gx:coord>
<gx:coord >19.391889 51.974363 8006</gx:coord>
<gx:coord >19.440918 51.975174 7922</gx:coord>
<gx:coord >19.463693 51.974736 7884</gx:coord>
<gx:coord >19.48082 51.973801 7854</gx:coord>
<gx:coord >19.505441 51.972222 7800</gx:coord>
<gx:coord >19.526236 51.970872 7739</gx:coord>
<gx:coord >19.558175 51.968777 7633</gx:coord>
<gx:coord >19.591217 51.96666 7511</gx:coord>
<gx:coord >19.625015 51.964554 7389</gx:coord>
<gx:coord >19.659653 51.962402 7267</gx:coord>
<gx:coord >19.688677 51.960584 7153</gx:coord>
<gx:coord >19.719772 51.958694 7031</gx:coord>
<gx:coord >19.75296 51.956635 6909</gx:coord>
<gx:coord >19.785043 51.954672 6787</gx:coord>
<gx:coord >19.818497 51.95256 6673</gx:coord>
<gx:coord >19.850961 51.950528 6551</gx:coord>
<gx:coord >19.88188 51.948573 6444</gx:coord>
<gx:coord >19.912262 51.946609 6322</gx:coord>
<gx:coord >19.942069 51.944663 6208</gx:coord>
<gx:coord >19.973066 51.942615 6086</gx:coord>
<gx:coord >20.00412 51.940521 5979</gx:coord>
<gx:coord >20.034589 51.938471 5880</gx:coord>
<gx:coord >20.071629 51.936004 5773</gx:coord>
<gx:coord >20.104588 51.93377 5667</gx:coord>
<gx:coord >20.135978 51.931721 5552</gx:coord>
<gx:coord >20.168858 51.929487 5453</gx:coord>
<gx:coord >20.199203 51.927383 5339</gx:coord>
<gx:coord >20.229048 51.925437 5225</gx:coord>
<gx:coord >20.258789 51.923492 5103</gx:coord>
<gx:coord >20.288138 51.921526 4989</gx:coord>
<gx:coord >20.318451 51.919464 4874</gx:coord>
<gx:coord >20.35076 51.917244 4768</gx:coord>
<gx:coord >20.382542 51.915056 4653</gx:coord>
<gx:coord >20.415344 51.912781 4554</gx:coord>
<gx:coord >20.447388 51.910492 4448</gx:coord>
<gx:coord >20.478673 51.908399 4349</gx:coord>
<gx:coord >20.508957 51.906372 4242</gx:coord>
<gx:coord >20.536728 51.904404 4128</gx:coord>
<gx:coord >20.555649 51.902985 4051</gx:coord>
<gx:coord >20.585709 51.900742 3945</gx:coord>
<gx:coord >20.61302 51.898716 3845</gx:coord>
<gx:coord >20.628357 51.897583 3778</gx:coord>
<gx:coord >20.645037 51.896342 3717</gx:coord>
<gx:coord >20.661163 51.895157 3661</gx:coord>
<gx:coord >20.676422 51.894058 3593</gx:coord>
<gx:coord >20.687866 51.893223 3536</gx:coord>
<gx:coord >20.699005 51.892431 3478</gx:coord>
<gx:coord >20.711307 51.891586 3416</gx:coord>
<gx:coord >20.722656 51.890755 3346</gx:coord>
<gx:coord >20.734022 51.889938 3300</gx:coord>
<gx:coord >20.736249 51.889755 3293</gx:coord>
<gx:coord >20.747013 51.889023 3267</gx:coord>
<gx:coord >20.766461 51.887604 3213</gx:coord>
<gx:coord >20.775375 51.886985 3175</gx:coord>
<gx:coord >20.789261 51.886007 3114</gx:coord>
<gx:coord >20.801392 51.885169 3053</gx:coord>
<gx:coord >20.812302 51.884424 2991</gx:coord>
<gx:coord >20.822983 51.883679 2929</gx:coord>
<gx:coord >20.831785 51.883026 2864</gx:coord>
<gx:coord >20.840768 51.882385 2798</gx:coord>
<gx:coord >20.850372 51.881678 2740</gx:coord>
<gx:coord >20.860291 51.880979 2679</gx:coord>
<gx:coord >20.870743 51.880188 2617</gx:coord>
<gx:coord >20.882115 51.879364 2550</gx:coord>
<gx:coord >20.891988 51.878632 2484</gx:coord>
<gx:coord >20.901337 51.877953 2421</gx:coord>
<gx:coord >20.910249 51.877304 2359</gx:coord>
<gx:coord >20.917672 51.876709 2319</gx:coord>
<gx:coord >20.921097 51.876464 2303</gx:coord>
<gx:coord >20.92926 51.875859 2272</gx:coord>
<gx:coord >20.935059 51.875393 2243</gx:coord>
<gx:coord >20.941055 51.874969 2210</gx:coord>
<gx:coord >20.94729 51.874466 2181</gx:coord>
<gx:coord >20.95314 51.874043 2151</gx:coord>
<gx:coord >20.959984 51.873505 2118</gx:coord>
<gx:coord >20.965329 51.873138 2088</gx:coord>
<gx:coord >20.971756 51.872647 2055</gx:coord>
<gx:coord >20.976791 51.872274 2023</gx:coord>
<gx:coord >20.982819 51.871809 1989</gx:coord>
<gx:coord >20.988083 51.871436 1958</gx:coord>
<gx:coord >20.994339 51.870971 1927</gx:coord>
<gx:coord >20.998956 51.870621 1896</gx:coord>
<gx:coord >21.004375 51.870209 1866</gx:coord>
<gx:coord >21.009942 51.869797 1833</gx:coord>
<gx:coord >21.015435 51.869339 1800</gx:coord>
<gx:coord >21.020355 51.868969 1770</gx:coord>
<gx:coord >21.026347 51.868515 1739</gx:coord>
<gx:coord >21.031618 51.868149 1705</gx:coord>
<gx:coord >21.037037 51.867737 1673</gx:coord>
<gx:coord >21.040802 51.867433 1657</gx:coord>
<gx:coord >21.041936 51.867371 1649</gx:coord>
<gx:coord >21.045151 51.867107 1639</gx:coord>
<gx:coord >21.056213 51.866315 1606</gx:coord>
<gx:coord >21.062276 51.86586 1597</gx:coord>
<gx:coord >21.071777 51.865105 1562</gx:coord>
<gx:coord >21.081161 51.864407 1531</gx:coord>
<gx:coord >21.089783 51.863755 1504</gx:coord>
<gx:coord >21.098724 51.863068 1470</gx:coord>
<gx:coord >21.108448 51.862335 1443</gx:coord>
<gx:coord >21.118317 51.861614 1409</gx:coord>
<gx:coord >21.12381 51.861195 1400</gx:coord>
<gx:coord >21.127526 51.860916 1392</gx:coord>
<gx:coord >21.13533 51.86031 1383</gx:coord>
<gx:coord >21.14111 51.859909 1380</gx:coord>
<gx:coord >21.149597 51.859519 1364</gx:coord>
<gx:coord >21.156921 51.859634 1351</gx:coord>
<gx:coord >21.162338 51.860124 1334</gx:coord>
<gx:coord >21.166611 51.860822 1325</gx:coord>
<gx:coord >21.170951 51.861877 1310</gx:coord>
<gx:coord >21.175108 51.863205 1302</gx:coord>
<gx:coord >21.178003 51.864349 1294</gx:coord>
<gx:coord >21.181717 51.866222 1287</gx:coord>
<gx:coord >21.184464 51.867945 1279</gx:coord>
<gx:coord >21.187505 51.870209 1271</gx:coord>
<gx:coord >21.189509 51.872177 1263</gx:coord>
<gx:coord >21.191101 51.873997 1263</gx:coord>
<gx:coord >21.192478 51.876022 1256</gx:coord>
<gx:coord >21.193815 51.878586 1256</gx:coord>
<gx:coord >21.19478 51.881378 1248</gx:coord>
<gx:coord >21.195374 51.884445 1241</gx:coord>
<gx:coord >21.195448 51.887421 1240</gx:coord>
<gx:coord >21.194928 51.891357 1233</gx:coord>
<gx:coord >21.194153 51.894333 1225</gx:coord>
<gx:coord >21.192551 51.898819 1225</gx:coord>
<gx:coord >21.189804 51.904358 1209</gx:coord>
<gx:coord >21.186523 51.909897 1196</gx:coord>
<gx:coord >21.181405 51.917244 1172</gx:coord>
<gx:coord >21.174774 51.925781 1149</gx:coord>
<gx:coord >21.168222 51.933863 1126</gx:coord>
<gx:coord >21.161159 51.942521 1103</gx:coord>
<gx:coord >21.153782 51.951227 1088</gx:coord>
<gx:coord >21.146014 51.960258 1058</gx:coord>
<gx:coord >21.138245 51.969289 1042</gx:coord>
<gx:coord >21.130868 51.977761 1004</gx:coord>
<gx:coord >21.123492 51.986281 981</gx:coord>
<gx:coord >21.116486 51.994308 959</gx:coord>
<gx:coord >21.10042 52.012769 951</gx:coord>
<gx:coord >21.084569 52.03111 943</gx:coord>
<gx:coord >21.081744 52.034369 928</gx:coord>
<gx:coord >21.078644 52.037933 921</gx:coord>
<gx:coord >21.076015 52.040979 906</gx:coord>
<gx:coord >21.073074 52.044388 884</gx:coord>
<gx:coord >21.070208 52.047636 871</gx:coord>
<gx:coord >21.068324 52.049824 856</gx:coord>
<gx:coord >21.06514 52.053452 821</gx:coord>
<gx:coord >21.062317 52.056656 786</gx:coord>
<gx:coord >21.05957 52.059814 769</gx:coord>
<gx:coord >21.057338 52.06244 748</gx:coord>
<gx:coord >21.056396 52.063464 747</gx:coord>
<gx:coord >21.055756 52.064255 739</gx:coord>
<gx:coord >21.05263 52.067794 715</gx:coord>
<gx:coord >21.0495 52.071442 686</gx:coord>
<gx:coord >21.04698 52.074311 674</gx:coord>
<gx:coord >21.045803 52.075614 665</gx:coord>
<gx:coord >21.042428 52.079525 638</gx:coord>
<gx:coord >21.039525 52.08283 615</gx:coord>
<gx:coord >21.03569 52.087234 578</gx:coord>
<gx:coord >21.031342 52.09227 547</gx:coord>
<gx:coord >21.027222 52.096985 509</gx:coord>
<gx:coord >21.023102 52.1017 479</gx:coord>
<gx:coord >21.019058 52.106369 456</gx:coord>
<gx:coord >21.014938 52.111084 418</gx:coord>
<gx:coord >21.010725 52.115929 387</gx:coord>
<gx:coord >21.006801 52.120444 357</gx:coord>
<gx:coord >21.00272 52.125053 319</gx:coord>
<gx:coord >20.998535 52.129898 296</gx:coord>
<gx:coord >20.994339 52.134659 258</gx:coord>
<gx:coord >20.990524 52.139008 227</gx:coord>
<gx:coord >20.986176 52.144043 204</gx:coord>
<gx:coord >20.982895 52.147705 174</gx:coord>
<gx:coord >20.979004 52.152237 144</gx:coord>
<gx:coord >20.975333 52.156336 124</gx:coord>
<gx:coord >20.973528 52.158384 111</gx:coord>
<gx:coord >20.972366 52.159836 116</gx:coord>
<gx:coord >20.970468 52.161969 107</gx:coord>
<gx:coord >20.96962 52.162903 106</gx:coord>
<gx:coord >20.968475 52.16423 106</gx:coord>
<gx:coord >20.967941 52.164871 105</gx:coord>
<gx:coord >20.967172 52.165693 111</gx:coord>
<gx:coord >20.966415 52.166519 112</gx:coord>
<gx:coord >20.966415 52.166519 112</gx:coord>
</gx:Track>
</Placemark>
<Placemark ><name >HA-LGM</name>
<Style ><LineStyle ><color >ff1c1ae3</color>
<width >4</width>
</LineStyle>
<IconStyle ><Icon ><href >http://maps.google.com/mapfiles/kml/shapes/airports.png</href>
</Icon>
</IconStyle>
</Style>
<gx:Track ><extrude >0</extrude>
<when >2025-09-05T21:34:05.720Z</when>
<when >2025-09-05T21:34:06.960Z</when>
<when >2025-09-05T21:34:09.230Z</when>
<when >2025-09-05T21:34:10.940Z</when>
<when >2025-09-05T21:34:12.470Z</when>
<when >2025-09-05T21:34:15.300Z</when>
<when >2025-09-05T21:34:15.300Z</when>
<when >2025-09-05T21:34:16.680Z</when>
<when >2025-09-05T21:34:19.420Z</when>
<when >2025-09-05T21:34:19.650Z</when>
<when >2025-09-05T21:34:21.170Z</when>
<when >2025-09-05T21:34:27.510Z</when>
<when >2025-09-05T21:34:30.800Z</when>
<when >2025-09-05T21:34:34.390Z</when>
<when >2025-09-05T21:34:37.840Z</when>
<when >2025-09-05T21:34:41.530Z</when>
<when >2025-09-05T21:34:47.080Z</when>
<when >2025-09-05T21:34:51.700Z</when>
<when >2025-09-05T21:34:53.810Z</when>
<when >2025-09-05T21:34:55.620Z</when>
<when >2025-09-05T21:35:00.390Z</when>
<when >2025-09-05T21:35:02.250Z</when>
<when >2025-09-05T21:35:06.470Z</when>
<when >2025-09-05T21:35:08.350Z</when>
<when >2025-09-05T21:35:11.890Z</when>
<when >2025-09-05T21:35:15.260Z</when>
<when >2025-09-05T21:35:19.770Z</when>
<when >2025-09-05T21:35:22.920Z</when>
<when >2025-09-05T21:35:26.120Z</when>
<when >2025-09-05T21:35:29.410Z</when>
<when >2025-09-05T21:35:38.210Z</when>
<when >2025-09-05T21:35:43.530Z</when>
<when >2025-09-05T21:35:45.780Z</when>
<when >2025-09-05T21:35:48.970Z</when>
<when >2025-09-05T21:35:55.930Z</when>
<when >2025-09-05T21:35:59.190Z</when>
<when >2025-09-05T21:36:04.660Z</when>
<when >2025-09-05T21:36:11.730Z</when>
<when >2025-09-05T21:36:19.600Z</when>
<when >2025-09-05T21:36:28.190Z</when>
<when >2025-09-05T21:36:33.520Z</when>
<when >2025-09-05T21:36:42.160Z</when>
<when >2025-09-05T21:36:45.740Z</when>
<when >2025-09-05T21:36:47.460Z</when>
<when >2025-09-05T21:36:50.770Z</when>
<when >2025-09-05T21:36:58.260Z</when>
<when >2025-09-05T21:37:09.620Z</when>
<when >2025-09-05T21:37:13.050Z</when>
<when >2025-09-05T21:37:27.020Z</when>
<when >2025-09-05T21:37:32.700Z</when>
<when >2025-09-05T21:37:38.510Z</when>
<when >2025-09-05T21:37:43.970Z</when>
<when >2025-09-05T21:37:58.320Z</when>
<when >2025-09-05T21:37:58.320Z</when>
<gx:coord >20.965936 52.167124 0</gx:coord>
<gx:coord >20.965445 52.167706 0</gx:coord>
<gx:coord >20.964975 52.16823 0</gx:coord>
<gx:coord >20.964602 52.168661 0</gx:coord>
<gx:coord >20.96405 52.169289 0</gx:coord>
<gx:coord >20.963745 52.169643 0</gx:coord>
<gx:coord >20.96368 52.16972 0</gx:coord>
<gx:coord >20.963383 52.17009 0</gx:coord>
<gx:coord >20.963249 52.170238 0</gx:coord>
<gx:coord >20.963091 52.170476 0</gx:coord>
<gx:coord >20.962906 52.170753 0</gx:coord>
<gx:coord >20.96262 52.171429 0</gx:coord>
<gx:coord >20.962561 52.171628 0</gx:coord>
<gx:coord >20.962486 52.172001 0</gx:coord>
<gx:coord >20.962448 52.172401 0</gx:coord>
<gx:coord >20.962467 52.172676 0</gx:coord>
<gx:coord >20.962486 52.173065 0</gx:coord>
<gx:coord >20.962503 52.173479 0</gx:coord>
<gx:coord >20.962522 52.173607 0</gx:coord>
<gx:coord >20.962543 52.173672 0</gx:coord>
<gx:coord >20.962738 52.173898 0</gx:coord>
<gx:coord >20.962887 52.173969 0</gx:coord>
<gx:coord >20.963032 52.174014 0</gx:coord>
<gx:coord >20.963211 52.174061 0</gx:coord>
<gx:coord >20.963385 52.174084 0</gx:coord>
<gx:coord >20.963726 52.174095 0</gx:coord>
<gx:coord >20.964052 52.174142 0</gx:coord>
<gx:coord >20.964203 52.174175 0</gx:coord>
<gx:coord >20.964394 52.174232 0</gx:coord>
<gx:coord >20.96468 52.17434 0</gx:coord>
<gx:coord >20.965233 52.174519 0</gx:coord>
<gx:coord >20.965557 52.174633 0</gx:coord>
<gx:coord >20.96571 52.174713 0</gx:coord>
<gx:coord >20.965857 52.174794 0</gx:coord>
<gx:coord >20.966301 52.175045 0</gx:coord>
<gx:coord >20.966415 52.175091 0</gx:coord>
<gx:coord >20.966701 52.175201 0</gx:coord>
<gx:coord >20.967121 52.175354 0</gx:coord>
<gx:coord >20.967579 52.175526 0</gx:coord>
<gx:coord >20.968133 52.175725 0</gx:coord>
<gx:coord >20.968506 52.175865 0</gx:coord>
<gx:coord >20.969016 52.176074 0</gx:coord>
<gx:coord >20.969251 52.176155 0</gx:coord>
<gx:coord >20.969334 52.176155 0</gx:coord>
<gx:coord >20.969563 52.176109 0</gx:coord>
<gx:coord >20.96983 52.17588 0</gx:coord>
<gx:coord >20.970213 52.175411 0</gx:coord>
<gx:coord >20.970311 52.175318 0</gx:coord>
<gx:coord >20.970173 52.174945 0</gx:coord>
<gx:coord >20.969958 52.174899 0</gx:coord>
<gx:coord >20.969801 52.174864 0</gx:coord>
<gx:coord >20.969696 52.174828 0</gx:coord>
<gx:coord >20.969467 52.174747 0</gx:coord>
<gx:coord >20.969467 52.174747 0</gx:coord>
</gx:Track>
</Placemark>
</Folder>
</Folder>
</kml>
