<?xml version="1.0" encoding="UTF-8"?>
<kml xmlns="http://www.opengis.net/kml/2.2" xmlns:gx="http://www.google.com/kml/ext/2.2"><Folder ><Folder ><name >9H-WNC track</name>
<Placemark ><name >9H-WNC</name>
<Style ><LineStyle ><color >ff1c1ae3</color>
<width >4</width>
</LineStyle>
<IconStyle ><Icon ><href >http://maps.google.com/mapfiles/kml/shapes/airports.png</href>
</Icon>
</IconStyle>
</Style>
<gx:Track ><extrude >0</extrude>
<when >2025-07-08T03:54:43.410Z</when>
<when >2025-07-08T03:54:43.410Z</when>
<when >2025-07-08T03:54:55.250Z</when>
<when >2025-07-08T03:55:02.290Z</when>
<when >2025-07-08T03:55:18.400Z</when>
<when >2025-07-08T03:55:35.400Z</when>
<when >2025-07-08T03:55:41.020Z</when>
<when >2025-07-08T03:55:44.230Z</when>
<when >2025-07-08T03:55:47.890Z</when>
<when >2025-07-08T03:55:49.770Z</when>
<when >2025-07-08T03:55:54.790Z</when>
<when >2025-07-08T03:55:56.880Z</when>
<when >2025-07-08T03:55:59.770Z</when>
<when >2025-07-08T03:56:05.620Z</when>
<when >2025-07-08T03:56:10.760Z</when>
<when >2025-07-08T03:56:16.830Z</when>
<when >2025-07-08T03:56:36.050Z</when>
<when >2025-07-08T03:57:51.100Z</when>
<when >2025-07-08T03:58:31.240Z</when>
<when >2025-07-08T03:58:37.370Z</when>
<when >2025-07-08T03:58:46.250Z</when>
<when >2025-07-08T03:58:55.860Z</when>
<when >2025-07-08T03:59:04.280Z</when>
<when >2025-07-08T03:59:07.610Z</when>
<when >2025-07-08T03:59:10.680Z</when>
<when >2025-07-08T03:59:17.450Z</when>
<when >2025-07-08T03:59:23.120Z</when>
<when >2025-07-08T03:59:29.940Z</when>
<when >2025-07-08T03:59:36.770Z</when>
<when >2025-07-08T03:59:38.440Z</when>
<when >2025-07-08T03:59:40.070Z</when>
<when >2025-07-08T03:59:43.640Z</when>
<when >2025-07-08T03:59:44.890Z</when>
<when >2025-07-08T03:59:45.940Z</when>
<when >2025-07-08T03:59:47.060Z</when>
<when >2025-07-08T03:59:49.030Z</when>
<when >2025-07-08T03:59:55.750Z</when>
<when >2025-07-08T04:00:01.660Z</when>
<when >2025-07-08T04:00:07.030Z</when>
<when >2025-07-08T04:00:13.230Z</when>
<when >2025-07-08T04:00:17.740Z</when>
<when >2025-07-08T04:00:22.970Z</when>
<when >2025-07-08T04:00:28.430Z</when>
<when >2025-07-08T04:00:32.950Z</when>
<when >2025-07-08T04:00:37.370Z</when>
<when >2025-07-08T04:00:41.800Z</when>
<when >2025-07-08T04:00:46.250Z</when>
<when >2025-07-08T04:00:50.410Z</when>
<when >2025-07-08T04:00:54.620Z</when>
<when >2025-07-08T04:00:58.690Z</when>
<when >2025-07-08T04:01:03.430Z</when>
<when >2025-07-08T04:01:09.110Z</when>
<when >2025-07-08T04:01:14.140Z</when>
<when >2025-07-08T04:01:19.220Z</when>
<when >2025-07-08T04:01:23.870Z</when>
<when >2025-07-08T04:01:27.100Z</when>
<when >2025-07-08T04:01:31.570Z</when>
<when >2025-07-08T04:01:36.170Z</when>
<when >2025-07-08T04:01:40.730Z</when>
<when >2025-07-08T04:01:45.040Z</when>
<when >2025-07-08T04:01:47.970Z</when>
<when >2025-07-08T04:01:49.350Z</when>
<when >2025-07-08T04:01:50.800Z</when>
<when >2025-07-08T04:01:52.880Z</when>
<when >2025-07-08T04:01:54.870Z</when>
<when >2025-07-08T04:01:56.330Z</when>
<when >2025-07-08T04:01:59.930Z</when>
<when >2025-07-08T04:02:02.920Z</when>
<when >2025-07-08T04:02:06.520Z</when>
<when >2025-07-08T04:02:10.180Z</when>
<when >2025-07-08T04:02:14.010Z</when>
<when >2025-07-08T04:02:17.950Z</when>
<when >2025-07-08T04:02:21.310Z</when>
<when >2025-07-08T04:02:24.920Z</when>
<when >2025-07-08T04:02:28.100Z</when>
<when >2025-07-08T04:02:31.540Z</when>
<when >2025-07-08T04:02:35.150Z</when>
<when >2025-07-08T04:02:38.190Z</when>
<when >2025-07-08T04:02:41.010Z</when>
<when >2025-07-08T04:02:44.260Z</when>
<when >2025-07-08T04:02:47.300Z</when>
<when >2025-07-08T04:02:49.750Z</when>
<when >2025-07-08T04:02:51.280Z</when>
<when >2025-07-08T04:02:52.780Z</when>
<when >2025-07-08T04:02:54.690Z</when>
<when >2025-07-08T04:02:56.580Z</when>
<when >2025-07-08T04:02:59.400Z</when>
<when >2025-07-08T04:03:01.470Z</when>
<when >2025-07-08T04:03:02.370Z</when>
<when >2025-07-08T04:03:05.390Z</when>
<when >2025-07-08T04:03:07.500Z</when>
<when >2025-07-08T04:03:09.780Z</when>
<when >2025-07-08T04:03:11.760Z</when>
<when >2025-07-08T04:03:19.940Z</when>
<when >2025-07-08T04:03:35.050Z</when>
<when >2025-07-08T04:03:44.900Z</when>
<when >2025-07-08T04:03:47.830Z</when>
<when >2025-07-08T04:03:56.100Z</when>
<when >2025-07-08T04:03:58.540Z</when>
<when >2025-07-08T04:03:59.720Z</when>
<when >2025-07-08T04:04:00.510Z</when>
<when >2025-07-08T04:04:01.380Z</when>
<when >2025-07-08T04:04:02.420Z</when>
<when >2025-07-08T04:04:03.330Z</when>
<when >2025-07-08T04:04:05.320Z</when>
<when >2025-07-08T04:04:05.320Z</when>
<gx:coord >20.968329 52.174875 0</gx:coord>
<gx:coord >20.968329 52.174875 0</gx:coord>
<gx:coord >20.968323 52.174976 0</gx:coord>
<gx:coord >20.968304 52.175045 0</gx:coord>
<gx:coord >20.968246 52.175217 0</gx:coord>
<gx:coord >20.968189 52.175377 0</gx:coord>
<gx:coord >20.968153 52.175434 0</gx:coord>
<gx:coord >20.968113 52.175468 0</gx:coord>
<gx:coord >20.968075 52.175503 0</gx:coord>
<gx:coord >20.968056 52.175514 0</gx:coord>
<gx:coord >20.968015 52.17555 0</gx:coord>
<gx:coord >20.967999 52.175571 0</gx:coord>
<gx:coord >20.967976 52.175585 0</gx:coord>
<gx:coord >20.967957 52.175632 0</gx:coord>
<gx:coord >20.967979 52.175652 0</gx:coord>
<gx:coord >20.967999 52.175663 0</gx:coord>
<gx:coord >20.967996 52.175667 0</gx:coord>
<gx:coord >20.967996 52.175667 0</gx:coord>
<gx:coord >20.967884 52.175617 0</gx:coord>
<gx:coord >20.967712 52.17556 0</gx:coord>
<gx:coord >20.967368 52.175434 0</gx:coord>
<gx:coord >20.966835 52.17524 0</gx:coord>
<gx:coord >20.966282 52.175034 0</gx:coord>
<gx:coord >20.966073 52.174933 0</gx:coord>
<gx:coord >20.9659 52.174816 0</gx:coord>
<gx:coord >20.965504 52.174608 0</gx:coord>
<gx:coord >20.96519 52.174491 0</gx:coord>
<gx:coord >20.964775 52.174358 0</gx:coord>
<gx:coord >20.964241 52.174187 0</gx:coord>
<gx:coord >20.964146 52.174141 0</gx:coord>
<gx:coord >20.964069 52.174072 0</gx:coord>
<gx:coord >20.964012 52.173878 0</gx:coord>
<gx:coord >20.96405 52.173809 0</gx:coord>
<gx:coord >20.964092 52.173746 0</gx:coord>
<gx:coord >20.964146 52.173695 0</gx:coord>
<gx:coord >20.964249 52.173595 0</gx:coord>
<gx:coord >20.964563 52.173246 0</gx:coord>
<gx:coord >20.964909 52.172871 0</gx:coord>
<gx:coord >20.96523 52.172501 0</gx:coord>
<gx:coord >20.965563 52.172105 0</gx:coord>
<gx:coord >20.965877 52.171756 0</gx:coord>
<gx:coord >20.966211 52.171361 0</gx:coord>
<gx:coord >20.966549 52.170971 0</gx:coord>
<gx:coord >20.966873 52.170605 0</gx:coord>
<gx:coord >20.967191 52.170243 0</gx:coord>
<gx:coord >20.967522 52.169861 0</gx:coord>
<gx:coord >20.967858 52.169487 0</gx:coord>
<gx:coord >20.968189 52.169106 0</gx:coord>
<gx:coord >20.968513 52.168728 0</gx:coord>
<gx:coord >20.968839 52.168346 0</gx:coord>
<gx:coord >20.969153 52.167986 0</gx:coord>
<gx:coord >20.969487 52.167625 0</gx:coord>
<gx:coord >20.969772 52.167297 0</gx:coord>
<gx:coord >20.970095 52.166915 0</gx:coord>
<gx:coord >20.97044 52.166519 0</gx:coord>
<gx:coord >20.970644 52.166275 0</gx:coord>
<gx:coord >20.970955 52.165924 0</gx:coord>
<gx:coord >20.971279 52.165558 0</gx:coord>
<gx:coord >20.971625 52.165169 0</gx:coord>
<gx:coord >20.971947 52.164791 0</gx:coord>
<gx:coord >20.972175 52.164552 0</gx:coord>
<gx:coord >20.972312 52.164459 0</gx:coord>
<gx:coord >20.972462 52.164356 0</gx:coord>
<gx:coord >20.972704 52.164238 0</gx:coord>
<gx:coord >20.97294 52.164133 0</gx:coord>
<gx:coord >20.973148 52.164059 0</gx:coord>
<gx:coord >20.973663 52.16391 0</gx:coord>
<gx:coord >20.974178 52.163773 0</gx:coord>
<gx:coord >20.974789 52.163612 0</gx:coord>
<gx:coord >20.975399 52.163429 0</gx:coord>
<gx:coord >20.976059 52.163249 0</gx:coord>
<gx:coord >20.976785 52.163039 0</gx:coord>
<gx:coord >20.977364 52.16288 0</gx:coord>
<gx:coord >20.977962 52.162714 0</gx:coord>
<gx:coord >20.97857 52.162539 0</gx:coord>
<gx:coord >20.979218 52.162353 0</gx:coord>
<gx:coord >20.979885 52.162167 0</gx:coord>
<gx:coord >20.980493 52.161992 0</gx:coord>
<gx:coord >20.981062 52.161829 0</gx:coord>
<gx:coord >20.981709 52.161654 0</gx:coord>
<gx:coord >20.982317 52.16148 0</gx:coord>
<gx:coord >20.982742 52.161369 0</gx:coord>
<gx:coord >20.982965 52.161317 0</gx:coord>
<gx:coord >20.983161 52.161294 0</gx:coord>
<gx:coord >20.983377 52.161294 0</gx:coord>
<gx:coord >20.983562 52.161301 0</gx:coord>
<gx:coord >20.983808 52.161317 0</gx:coord>
<gx:coord >20.983926 52.161282 0</gx:coord>
<gx:coord >20.983985 52.161247 0</gx:coord>
<gx:coord >20.983982 52.161129 0</gx:coord>
<gx:coord >20.983906 52.161073 0</gx:coord>
<gx:coord >20.983772 52.161049 0</gx:coord>
<gx:coord >20.983651 52.161061 0</gx:coord>
<gx:coord >20.983353 52.161221 0</gx:coord>
<gx:coord >20.982866 52.16135 0</gx:coord>
<gx:coord >20.982666 52.161404 0</gx:coord>
<gx:coord >20.982553 52.161433 0</gx:coord>
<gx:coord >20.980778 52.16193 0</gx:coord>
<gx:coord >20.979748 52.162216 0</gx:coord>
<gx:coord >20.979296 52.162353 0</gx:coord>
<gx:coord >20.978845 52.162481 0</gx:coord>
<gx:coord >20.978354 52.16262 0</gx:coord>
<gx:coord >20.977844 52.16276 0</gx:coord>
<gx:coord >20.977268 52.162926 0</gx:coord>
<gx:coord >20.975952 52.163292 0</gx:coord>
<gx:coord >20.975952 52.163292 0</gx:coord>
</gx:Track>
</Placemark>
<Placemark ><name >9H-WNC</name>
<Style ><LineStyle ><color >ff1c1ae3</color>
<width >4</width>
</LineStyle>
<IconStyle ><Icon ><href >http://maps.google.com/mapfiles/kml/shapes/airports.png</href>
</Icon>
</IconStyle>
</Style>
<gx:Track ><altitudeMode >absolute</altitudeMode>
<extrude >1</extrude>
<when >2025-07-08T04:04:07.520Z</when>
<when >2025-07-08T04:04:09.260Z</when>
<when >2025-07-08T04:04:10.530Z</when>
<when >2025-07-08T04:04:13.220Z</when>
<when >2025-07-08T04:04:14.150Z</when>
<when >2025-07-08T04:04:15.120Z</when>
<when >2025-07-08T04:04:17.680Z</when>
<when >2025-07-08T04:04:20.490Z</when>
<when >2025-07-08T04:04:21.450Z</when>
<when >2025-07-08T04:04:22.110Z</when>
<when >2025-07-08T04:04:22.980Z</when>
<when >2025-07-08T04:04:24.450Z</when>
<when >2025-07-08T04:04:27.070Z</when>
<when >2025-07-08T04:04:29.590Z</when>
<when >2025-07-08T04:04:32.490Z</when>
<when >2025-07-08T04:04:35.180Z</when>
<when >2025-07-08T04:04:37.150Z</when>
<when >2025-07-08T04:04:39.330Z</when>
<when >2025-07-08T04:04:40.990Z</when>
<when >2025-07-08T04:04:43.270Z</when>
<when >2025-07-08T04:04:45.290Z</when>
<when >2025-07-08T04:04:47.340Z</when>
<when >2025-07-08T04:04:49.270Z</when>
<when >2025-07-08T04:04:51.740Z</when>
<when >2025-07-08T04:04:53.560Z</when>
<when >2025-07-08T04:04:55.810Z</when>
<when >2025-07-08T04:04:58.130Z</when>
<when >2025-07-08T04:05:00.610Z</when>
<when >2025-07-08T04:05:02.560Z</when>
<when >2025-07-08T04:05:05.120Z</when>
<when >2025-07-08T04:05:07.190Z</when>
<when >2025-07-08T04:05:09.360Z</when>
<when >2025-07-08T04:05:11.650Z</when>
<when >2025-07-08T04:05:14.240Z</when>
<when >2025-07-08T04:05:16.740Z</when>
<when >2025-07-08T04:05:19.360Z</when>
<when >2025-07-08T04:05:21.570Z</when>
<when >2025-07-08T04:05:23.860Z</when>
<when >2025-07-08T04:05:26.320Z</when>
<when >2025-07-08T04:05:28.780Z</when>
<when >2025-07-08T04:05:36.830Z</when>
<when >2025-07-08T04:05:37.320Z</when>
<when >2025-07-08T04:05:40.990Z</when>
<when >2025-07-08T04:05:44.250Z</when>
<when >2025-07-08T04:05:47.640Z</when>
<when >2025-07-08T04:05:51.330Z</when>
<when >2025-07-08T04:05:54.880Z</when>
<when >2025-07-08T04:05:58.880Z</when>
<when >2025-07-08T04:06:03.010Z</when>
<when >2025-07-08T04:06:06.060Z</when>
<when >2025-07-08T04:06:08.830Z</when>
<when >2025-07-08T04:06:13.200Z</when>
<when >2025-07-08T04:06:15.730Z</when>
<when >2025-07-08T04:06:19.210Z</when>
<when >2025-07-08T04:06:22.820Z</when>
<when >2025-07-08T04:06:25.240Z</when>
<when >2025-07-08T04:06:28.280Z</when>
<when >2025-07-08T04:06:29.790Z</when>
<when >2025-07-08T04:06:33.020Z</when>
<when >2025-07-08T04:06:35.620Z</when>
<when >2025-07-08T04:06:39.310Z</when>
<when >2025-07-08T04:06:42.020Z</when>
<when >2025-07-08T04:06:45.430Z</when>
<when >2025-07-08T04:06:48.320Z</when>
<when >2025-07-08T04:06:51.150Z</when>
<when >2025-07-08T04:06:53.750Z</when>
<when >2025-07-08T04:06:56.080Z</when>
<when >2025-07-08T04:06:58.550Z</when>
<when >2025-07-08T04:07:00.420Z</when>
<when >2025-07-08T04:07:02.320Z</when>
<when >2025-07-08T04:07:03.950Z</when>
<when >2025-07-08T04:07:06.120Z</when>
<when >2025-07-08T04:07:08.280Z</when>
<when >2025-07-08T04:07:10.330Z</when>
<when >2025-07-08T04:07:12.620Z</when>
<when >2025-07-08T04:07:14.450Z</when>
<when >2025-07-08T04:07:18.260Z</when>
<when >2025-07-08T04:07:21.220Z</when>
<when >2025-07-08T04:07:23.750Z</when>
<when >2025-07-08T04:07:26.870Z</when>
<when >2025-07-08T04:07:30.260Z</when>
<when >2025-07-08T04:07:33.700Z</when>
<when >2025-07-08T04:07:37.380Z</when>
<when >2025-07-08T04:07:40.900Z</when>
<when >2025-07-08T04:07:45.000Z</when>
<when >2025-07-08T04:07:48.650Z</when>
<when >2025-07-08T04:07:52.870Z</when>
<when >2025-07-08T04:07:57.810Z</when>
<when >2025-07-08T04:08:02.290Z</when>
<when >2025-07-08T04:08:06.560Z</when>
<when >2025-07-08T04:08:10.740Z</when>
<when >2025-07-08T04:08:15.260Z</when>
<when >2025-07-08T04:08:18.520Z</when>
<when >2025-07-08T04:08:21.820Z</when>
<when >2025-07-08T04:08:23.000Z</when>
<when >2025-07-08T04:08:24.330Z</when>
<when >2025-07-08T04:08:26.110Z</when>
<when >2025-07-08T04:08:30.920Z</when>
<when >2025-07-08T04:08:38.810Z</when>
<when >2025-07-08T04:08:46.290Z</when>
<when >2025-07-08T04:08:53.760Z</when>
<when >2025-07-08T04:08:58.080Z</when>
<when >2025-07-08T04:09:01.680Z</when>
<when >2025-07-08T04:09:05.020Z</when>
<when >2025-07-08T04:09:08.110Z</when>
<when >2025-07-08T04:09:10.880Z</when>
<when >2025-07-08T04:09:14.490Z</when>
<when >2025-07-08T04:09:18.070Z</when>
<when >2025-07-08T04:09:24.970Z</when>
<when >2025-07-08T04:09:33.520Z</when>
<when >2025-07-08T04:09:40.930Z</when>
<when >2025-07-08T04:09:46.850Z</when>
<when >2025-07-08T04:09:51.190Z</when>
<when >2025-07-08T04:09:53.210Z</when>
<when >2025-07-08T04:09:59.930Z</when>
<when >2025-07-08T04:10:02.420Z</when>
<when >2025-07-08T04:10:07.300Z</when>
<when >2025-07-08T04:10:16.680Z</when>
<when >2025-07-08T04:10:26.950Z</when>
<when >2025-07-08T04:10:36.860Z</when>
<when >2025-07-08T04:10:42.640Z</when>
<when >2025-07-08T04:10:50.870Z</when>
<when >2025-07-08T04:11:00.270Z</when>
<when >2025-07-08T04:11:10.220Z</when>
<when >2025-07-08T04:11:19.700Z</when>
<when >2025-07-08T04:11:30.200Z</when>
<when >2025-07-08T04:11:42.160Z</when>
<when >2025-07-08T04:11:54.470Z</when>
<when >2025-07-08T04:12:07.060Z</when>
<when >2025-07-08T04:12:13.640Z</when>
<when >2025-07-08T04:12:24.050Z</when>
<when >2025-07-08T04:12:35.370Z</when>
<when >2025-07-08T04:12:46.280Z</when>
<when >2025-07-08T04:12:57.450Z</when>
<when >2025-07-08T04:13:08.400Z</when>
<when >2025-07-08T04:13:19.120Z</when>
<when >2025-07-08T04:13:30.880Z</when>
<when >2025-07-08T04:13:42.020Z</when>
<when >2025-07-08T04:13:53.480Z</when>
<when >2025-07-08T04:14:06.070Z</when>
<when >2025-07-08T04:14:19.430Z</when>
<when >2025-07-08T04:14:31.990Z</when>
<when >2025-07-08T04:14:44.900Z</when>
<when >2025-07-08T04:14:57.600Z</when>
<when >2025-07-08T04:15:10.210Z</when>
<when >2025-07-08T04:15:21.310Z</when>
<when >2025-07-08T04:15:30.710Z</when>
<when >2025-07-08T04:15:36.350Z</when>
<when >2025-07-08T04:15:43.250Z</when>
<when >2025-07-08T04:15:51.940Z</when>
<when >2025-07-08T04:16:07.420Z</when>
<when >2025-07-08T04:16:22.510Z</when>
<when >2025-07-08T04:16:35.210Z</when>
<when >2025-07-08T04:16:47.830Z</when>
<when >2025-07-08T04:17:00.570Z</when>
<when >2025-07-08T04:17:12.910Z</when>
<when >2025-07-08T04:17:25.440Z</when>
<when >2025-07-08T04:17:37.910Z</when>
<when >2025-07-08T04:17:51.580Z</when>
<when >2025-07-08T04:18:06.310Z</when>
<when >2025-07-08T04:18:22.080Z</when>
<when >2025-07-08T04:18:36.820Z</when>
<when >2025-07-08T04:18:49.270Z</when>
<when >2025-07-08T04:19:02.880Z</when>
<when >2025-07-08T04:19:18.160Z</when>
<when >2025-07-08T04:19:34.560Z</when>
<when >2025-07-08T04:19:49.120Z</when>
<when >2025-07-08T04:20:02.390Z</when>
<when >2025-07-08T04:20:16.360Z</when>
<when >2025-07-08T04:20:31.390Z</when>
<when >2025-07-08T04:20:49.600Z</when>
<when >2025-07-08T04:21:04.300Z</when>
<when >2025-07-08T04:21:17.810Z</when>
<when >2025-07-08T04:21:23.990Z</when>
<when >2025-07-08T04:21:31.120Z</when>
<when >2025-07-08T04:21:33.220Z</when>
<when >2025-07-08T04:21:44.530Z</when>
<when >2025-07-08T04:21:54.480Z</when>
<when >2025-07-08T04:22:03.060Z</when>
<when >2025-07-08T04:22:22.900Z</when>
<when >2025-07-08T04:22:41.450Z</when>
<when >2025-07-08T04:22:59.580Z</when>
<when >2025-07-08T04:23:19.510Z</when>
<when >2025-07-08T04:23:36.340Z</when>
<when >2025-07-08T04:23:51.730Z</when>
<when >2025-07-08T04:24:06.470Z</when>
<when >2025-07-08T04:24:23.930Z</when>
<when >2025-07-08T04:24:42.320Z</when>
<when >2025-07-08T04:24:58.480Z</when>
<when >2025-07-08T04:25:07.610Z</when>
<when >2025-07-08T04:25:27.350Z</when>
<when >2025-07-08T04:25:46.900Z</when>
<when >2025-07-08T04:26:06.670Z</when>
<when >2025-07-08T04:26:26.100Z</when>
<when >2025-07-08T04:26:45.890Z</when>
<when >2025-07-08T04:27:05.890Z</when>
<when >2025-07-08T04:27:25.880Z</when>
<when >2025-07-08T04:27:45.810Z</when>
<when >2025-07-08T04:28:05.710Z</when>
<when >2025-07-08T04:28:25.410Z</when>
<when >2025-07-08T04:28:45.180Z</when>
<when >2025-07-08T04:29:04.600Z</when>
<when >2025-07-08T04:29:24.280Z</when>
<when >2025-07-08T04:29:44.180Z</when>
<when >2025-07-08T04:30:04.020Z</when>
<when >2025-07-08T04:30:23.640Z</when>
<when >2025-07-08T04:30:43.470Z</when>
<when >2025-07-08T04:31:03.270Z</when>
<when >2025-07-08T04:31:23.000Z</when>
<when >2025-07-08T04:31:42.670Z</when>
<when >2025-07-08T04:32:02.500Z</when>
<when >2025-07-08T04:32:22.410Z</when>
<when >2025-07-08T04:32:41.880Z</when>
<when >2025-07-08T04:33:01.560Z</when>
<when >2025-07-08T04:33:21.530Z</when>
<when >2025-07-08T04:33:41.320Z</when>
<when >2025-07-08T04:34:01.310Z</when>
<when >2025-07-08T04:34:21.010Z</when>
<when >2025-07-08T04:34:40.880Z</when>
<when >2025-07-08T04:35:00.630Z</when>
<when >2025-07-08T04:35:20.230Z</when>
<when >2025-07-08T04:35:39.740Z</when>
<when >2025-07-08T04:35:59.540Z</when>
<when >2025-07-08T04:36:19.250Z</when>
<when >2025-07-08T04:36:39.050Z</when>
<when >2025-07-08T04:36:58.510Z</when>
<when >2025-07-08T04:37:18.220Z</when>
<when >2025-07-08T04:37:38.200Z</when>
<when >2025-07-08T04:37:58.190Z</when>
<when >2025-07-08T04:38:17.910Z</when>
<when >2025-07-08T04:38:37.890Z</when>
<when >2025-07-08T04:38:57.790Z</when>
<when >2025-07-08T04:39:17.670Z</when>
<when >2025-07-08T04:39:37.470Z</when>
<when >2025-07-08T04:39:57.440Z</when>
<when >2025-07-08T04:40:17.060Z</when>
<when >2025-07-08T04:40:36.880Z</when>
<when >2025-07-08T04:40:56.650Z</when>
<when >2025-07-08T04:41:16.490Z</when>
<when >2025-07-08T04:41:36.160Z</when>
<when >2025-07-08T04:41:55.800Z</when>
<when >2025-07-08T04:42:15.640Z</when>
<when >2025-07-08T04:42:35.510Z</when>
<when >2025-07-08T04:42:55.460Z</when>
<when >2025-07-08T04:43:14.870Z</when>
<when >2025-07-08T04:43:34.320Z</when>
<when >2025-07-08T04:43:53.790Z</when>
<when >2025-07-08T04:44:13.310Z</when>
<when >2025-07-08T04:44:33.020Z</when>
<when >2025-07-08T04:44:52.870Z</when>
<when >2025-07-08T04:45:12.500Z</when>
<when >2025-07-08T04:45:32.100Z</when>
<when >2025-07-08T04:45:52.010Z</when>
<when >2025-07-08T04:46:11.800Z</when>
<when >2025-07-08T04:46:31.370Z</when>
<when >2025-07-08T04:46:51.330Z</when>
<when >2025-07-08T04:47:10.910Z</when>
<when >2025-07-08T04:47:30.680Z</when>
<when >2025-07-08T04:47:50.270Z</when>
<when >2025-07-08T04:48:09.860Z</when>
<when >2025-07-08T04:48:29.670Z</when>
<when >2025-07-08T04:48:49.270Z</when>
<when >2025-07-08T04:49:09.000Z</when>
<when >2025-07-08T04:49:28.750Z</when>
<when >2025-07-08T04:49:48.430Z</when>
<when >2025-07-08T04:50:08.310Z</when>
<when >2025-07-08T04:50:28.220Z</when>
<when >2025-07-08T04:50:48.080Z</when>
<when >2025-07-08T04:51:07.700Z</when>
<when >2025-07-08T04:51:27.680Z</when>
<when >2025-07-08T04:51:47.620Z</when>
<when >2025-07-08T04:52:07.360Z</when>
<when >2025-07-08T04:52:27.120Z</when>
<when >2025-07-08T04:52:47.040Z</when>
<when >2025-07-08T04:53:06.760Z</when>
<when >2025-07-08T04:53:26.530Z</when>
<when >2025-07-08T04:53:46.440Z</when>
<when >2025-07-08T04:54:06.050Z</when>
<when >2025-07-08T04:54:26.010Z</when>
<when >2025-07-08T04:54:45.710Z</when>
<when >2025-07-08T04:55:05.350Z</when>
<when >2025-07-08T04:55:24.760Z</when>
<when >2025-07-08T04:55:44.460Z</when>
<when >2025-07-08T04:56:04.050Z</when>
<when >2025-07-08T04:56:23.650Z</when>
<when >2025-07-08T04:56:43.250Z</when>
<when >2025-07-08T04:57:03.040Z</when>
<when >2025-07-08T04:57:22.650Z</when>
<when >2025-07-08T04:57:42.150Z</when>
<when >2025-07-08T04:58:02.140Z</when>
<when >2025-07-08T04:58:21.810Z</when>
<when >2025-07-08T04:58:41.530Z</when>
<when >2025-07-08T04:59:01.410Z</when>
<when >2025-07-08T04:59:21.270Z</when>
<when >2025-07-08T04:59:41.080Z</when>
<when >2025-07-08T05:00:00.460Z</when>
<when >2025-07-08T05:00:20.460Z</when>
<when >2025-07-08T05:00:39.920Z</when>
<when >2025-07-08T05:00:59.780Z</when>
<when >2025-07-08T05:01:19.330Z</when>
<when >2025-07-08T05:01:39.260Z</when>
<when >2025-07-08T05:01:59.030Z</when>
<when >2025-07-08T05:02:18.810Z</when>
<when >2025-07-08T05:02:38.790Z</when>
<when >2025-07-08T05:02:58.620Z</when>
<when >2025-07-08T05:03:18.190Z</when>
<when >2025-07-08T05:03:38.100Z</when>
<when >2025-07-08T05:03:57.890Z</when>
<when >2025-07-08T05:04:17.510Z</when>
<when >2025-07-08T05:04:37.350Z</when>
<when >2025-07-08T05:04:57.120Z</when>
<when >2025-07-08T05:05:16.990Z</when>
<when >2025-07-08T05:05:36.540Z</when>
<when >2025-07-08T05:05:56.180Z</when>
<when >2025-07-08T05:06:15.740Z</when>
<when >2025-07-08T05:06:35.530Z</when>
<when >2025-07-08T05:06:55.500Z</when>
<when >2025-07-08T05:07:15.170Z</when>
<when >2025-07-08T05:07:34.820Z</when>
<when >2025-07-08T05:07:54.400Z</when>
<when >2025-07-08T05:08:14.130Z</when>
<when >2025-07-08T05:08:33.670Z</when>
<when >2025-07-08T05:08:53.360Z</when>
<when >2025-07-08T05:09:13.170Z</when>
<when >2025-07-08T05:09:32.980Z</when>
<when >2025-07-08T05:09:52.710Z</when>
<when >2025-07-08T05:10:12.260Z</when>
<when >2025-07-08T05:10:32.100Z</when>
<when >2025-07-08T05:10:51.780Z</when>
<when >2025-07-08T05:11:11.450Z</when>
<when >2025-07-08T05:11:31.040Z</when>
<when >2025-07-08T05:11:50.780Z</when>
<when >2025-07-08T05:12:10.660Z</when>
<when >2025-07-08T05:12:30.180Z</when>
<when >2025-07-08T05:12:50.080Z</when>
<when >2025-07-08T05:13:10.050Z</when>
<when >2025-07-08T05:13:29.680Z</when>
<when >2025-07-08T05:13:49.550Z</when>
<when >2025-07-08T05:14:09.490Z</when>
<when >2025-07-08T05:14:29.040Z</when>
<when >2025-07-08T05:14:48.930Z</when>
<when >2025-07-08T05:15:08.430Z</when>
<when >2025-07-08T05:15:28.050Z</when>
<when >2025-07-08T05:15:47.790Z</when>
<when >2025-07-08T05:16:07.580Z</when>
<when >2025-07-08T05:16:27.360Z</when>
<when >2025-07-08T05:16:47.050Z</when>
<when >2025-07-08T05:17:06.610Z</when>
<when >2025-07-08T05:17:26.380Z</when>
<when >2025-07-08T05:17:46.270Z</when>
<when >2025-07-08T05:18:06.240Z</when>
<when >2025-07-08T05:18:25.880Z</when>
<when >2025-07-08T05:18:45.730Z</when>
<when >2025-07-08T05:19:05.480Z</when>
<when >2025-07-08T05:19:25.410Z</when>
<when >2025-07-08T05:19:45.200Z</when>
<when >2025-07-08T05:20:05.080Z</when>
<when >2025-07-08T05:20:25.060Z</when>
<when >2025-07-08T05:20:44.970Z</when>
<when >2025-07-08T05:21:04.620Z</when>
<when >2025-07-08T05:21:24.440Z</when>
<when >2025-07-08T05:21:44.250Z</when>
<when >2025-07-08T05:22:03.870Z</when>
<when >2025-07-08T05:22:23.830Z</when>
<when >2025-07-08T05:22:43.780Z</when>
<when >2025-07-08T05:23:03.400Z</when>
<when >2025-07-08T05:23:22.920Z</when>
<when >2025-07-08T05:23:42.830Z</when>
<when >2025-07-08T05:24:02.740Z</when>
<when >2025-07-08T05:24:22.620Z</when>
<when >2025-07-08T05:24:42.300Z</when>
<when >2025-07-08T05:25:02.280Z</when>
<when >2025-07-08T05:25:21.800Z</when>
<when >2025-07-08T05:25:41.550Z</when>
<when >2025-07-08T05:26:01.190Z</when>
<when >2025-07-08T05:26:21.120Z</when>
<when >2025-07-08T05:26:40.940Z</when>
<when >2025-07-08T05:27:00.900Z</when>
<when >2025-07-08T05:27:20.770Z</when>
<when >2025-07-08T05:27:40.590Z</when>
<when >2025-07-08T05:28:00.050Z</when>
<when >2025-07-08T05:28:19.890Z</when>
<when >2025-07-08T05:28:39.630Z</when>
<when >2025-07-08T05:28:59.310Z</when>
<when >2025-07-08T05:29:18.990Z</when>
<when >2025-07-08T05:29:32.010Z</when>
<when >2025-07-08T05:29:38.970Z</when>
<when >2025-07-08T05:29:53.530Z</when>
<when >2025-07-08T05:30:09.370Z</when>
<when >2025-07-08T05:30:25.420Z</when>
<when >2025-07-08T05:30:40.500Z</when>
<when >2025-07-08T05:30:55.330Z</when>
<when >2025-07-08T05:31:10.940Z</when>
<when >2025-07-08T05:31:19.740Z</when>
<when >2025-07-08T05:31:27.150Z</when>
<when >2025-07-08T05:31:46.720Z</when>
<when >2025-07-08T05:32:06.230Z</when>
<when >2025-07-08T05:32:25.940Z</when>
<when >2025-07-08T05:32:45.530Z</when>
<when >2025-07-08T05:33:05.360Z</when>
<when >2025-07-08T05:33:24.940Z</when>
<when >2025-07-08T05:33:44.860Z</when>
<when >2025-07-08T05:34:04.860Z</when>
<when >2025-07-08T05:34:24.810Z</when>
<when >2025-07-08T05:34:39.890Z</when>
<when >2025-07-08T05:34:45.470Z</when>
<when >2025-07-08T05:34:50.170Z</when>
<when >2025-07-08T05:35:03.200Z</when>
<when >2025-07-08T05:35:16.040Z</when>
<when >2025-07-08T05:35:29.700Z</when>
<when >2025-07-08T05:35:43.230Z</when>
<when >2025-07-08T05:35:56.590Z</when>
<when >2025-07-08T05:36:09.030Z</when>
<when >2025-07-08T05:36:21.790Z</when>
<when >2025-07-08T05:36:34.510Z</when>
<when >2025-07-08T05:36:47.790Z</when>
<when >2025-07-08T05:37:00.860Z</when>
<when >2025-07-08T05:37:14.510Z</when>
<when >2025-07-08T05:37:27.400Z</when>
<when >2025-07-08T05:37:40.640Z</when>
<when >2025-07-08T05:37:53.080Z</when>
<when >2025-07-08T05:38:06.420Z</when>
<when >2025-07-08T05:38:19.310Z</when>
<when >2025-07-08T05:38:32.270Z</when>
<when >2025-07-08T05:38:45.280Z</when>
<when >2025-07-08T05:38:58.010Z</when>
<when >2025-07-08T05:39:03.480Z</when>
<when >2025-07-08T05:39:08.150Z</when>
<when >2025-07-08T05:39:13.150Z</when>
<when >2025-07-08T05:39:18.020Z</when>
<when >2025-07-08T05:39:23.540Z</when>
<when >2025-07-08T05:39:28.110Z</when>
<when >2025-07-08T05:39:41.350Z</when>
<when >2025-07-08T05:39:53.970Z</when>
<when >2025-07-08T05:40:06.540Z</when>
<when >2025-07-08T05:40:19.200Z</when>
<when >2025-07-08T05:40:31.690Z</when>
<when >2025-07-08T05:40:44.380Z</when>
<when >2025-07-08T05:40:57.050Z</when>
<when >2025-07-08T05:41:10.360Z</when>
<when >2025-07-08T05:41:23.020Z</when>
<when >2025-07-08T05:41:35.760Z</when>
<when >2025-07-08T05:41:48.610Z</when>
<when >2025-07-08T05:42:02.340Z</when>
<when >2025-07-08T05:42:18.620Z</when>
<when >2025-07-08T05:42:35.230Z</when>
<when >2025-07-08T05:42:50.990Z</when>
<when >2025-07-08T05:43:07.380Z</when>
<when >2025-07-08T05:43:23.640Z</when>
<when >2025-07-08T05:43:37.890Z</when>
<when >2025-07-08T05:43:54.200Z</when>
<when >2025-07-08T05:44:10.720Z</when>
<when >2025-07-08T05:44:27.030Z</when>
<when >2025-07-08T05:44:42.690Z</when>
<when >2025-07-08T05:44:49.240Z</when>
<when >2025-07-08T05:44:53.370Z</when>
<when >2025-07-08T05:44:57.670Z</when>
<when >2025-07-08T05:45:00.610Z</when>
<when >2025-07-08T05:45:04.310Z</when>
<when >2025-07-08T05:45:08.010Z</when>
<when >2025-07-08T05:45:11.940Z</when>
<when >2025-07-08T05:45:16.500Z</when>
<when >2025-07-08T05:45:20.240Z</when>
<when >2025-07-08T05:45:24.350Z</when>
<when >2025-07-08T05:45:28.350Z</when>
<when >2025-07-08T05:45:33.350Z</when>
<when >2025-07-08T05:45:37.480Z</when>
<when >2025-07-08T05:45:42.110Z</when>
<when >2025-07-08T05:45:46.480Z</when>
<when >2025-07-08T05:45:50.530Z</when>
<when >2025-07-08T05:45:54.820Z</when>
<when >2025-07-08T05:45:59.170Z</when>
<when >2025-07-08T05:46:04.290Z</when>
<when >2025-07-08T05:46:08.380Z</when>
<when >2025-07-08T05:46:12.650Z</when>
<when >2025-07-08T05:46:17.820Z</when>
<when >2025-07-08T05:46:21.900Z</when>
<when >2025-07-08T05:46:26.870Z</when>
<when >2025-07-08T05:46:31.410Z</when>
<when >2025-07-08T05:46:36.040Z</when>
<when >2025-07-08T05:46:52.290Z</when>
<when >2025-07-08T05:47:05.080Z</when>
<when >2025-07-08T05:47:10.830Z</when>
<when >2025-07-08T05:47:30.630Z</when>
<when >2025-07-08T05:47:50.490Z</when>
<when >2025-07-08T05:48:10.030Z</when>
<when >2025-07-08T05:48:30.030Z</when>
<when >2025-07-08T05:48:49.650Z</when>
<when >2025-07-08T05:49:06.280Z</when>
<when >2025-07-08T05:49:09.580Z</when>
<when >2025-07-08T05:49:13.310Z</when>
<when >2025-07-08T05:49:16.340Z</when>
<when >2025-07-08T05:49:19.430Z</when>
<when >2025-07-08T05:49:23.370Z</when>
<when >2025-07-08T05:49:26.280Z</when>
<when >2025-07-08T05:49:30.060Z</when>
<when >2025-07-08T05:49:35.650Z</when>
<when >2025-07-08T05:49:55.390Z</when>
<when >2025-07-08T05:50:15.100Z</when>
<when >2025-07-08T05:50:34.860Z</when>
<when >2025-07-08T05:50:54.790Z</when>
<when >2025-07-08T05:51:14.700Z</when>
<when >2025-07-08T05:51:34.620Z</when>
<when >2025-07-08T05:51:45.180Z</when>
<when >2025-07-08T05:52:00.250Z</when>
<when >2025-07-08T05:52:15.130Z</when>
<when >2025-07-08T05:52:29.940Z</when>
<when >2025-07-08T05:52:44.780Z</when>
<when >2025-07-08T05:53:00.120Z</when>
<when >2025-07-08T05:53:15.140Z</when>
<when >2025-07-08T05:53:29.970Z</when>
<when >2025-07-08T05:53:45.710Z</when>
<when >2025-07-08T05:53:55.270Z</when>
<when >2025-07-08T05:53:58.810Z</when>
<when >2025-07-08T05:54:03.550Z</when>
<when >2025-07-08T05:54:06.010Z</when>
<when >2025-07-08T05:54:09.210Z</when>
<when >2025-07-08T05:54:11.970Z</when>
<when >2025-07-08T05:54:15.470Z</when>
<when >2025-07-08T05:54:20.620Z</when>
<when >2025-07-08T05:54:37.520Z</when>
<when >2025-07-08T05:54:53.700Z</when>
<when >2025-07-08T05:55:08.300Z</when>
<when >2025-07-08T05:55:16.300Z</when>
<when >2025-07-08T05:55:22.900Z</when>
<when >2025-07-08T05:55:42.470Z</when>
<when >2025-07-08T05:56:02.430Z</when>
<when >2025-07-08T05:56:21.960Z</when>
<when >2025-07-08T05:56:41.520Z</when>
<when >2025-07-08T05:57:01.480Z</when>
<when >2025-07-08T05:57:21.320Z</when>
<when >2025-07-08T05:57:41.080Z</when>
<when >2025-07-08T05:58:01.070Z</when>
<when >2025-07-08T05:58:20.630Z</when>
<when >2025-07-08T05:58:40.420Z</when>
<when >2025-07-08T05:58:48.640Z</when>
<when >2025-07-08T05:58:55.670Z</when>
<when >2025-07-08T05:59:10.640Z</when>
<when >2025-07-08T05:59:26.890Z</when>
<when >2025-07-08T05:59:43.220Z</when>
<when >2025-07-08T05:59:49.230Z</when>
<when >2025-07-08T06:00:08.850Z</when>
<when >2025-07-08T06:00:28.140Z</when>
<when >2025-07-08T06:00:37.170Z</when>
<when >2025-07-08T06:00:45.250Z</when>
<when >2025-07-08T06:00:54.260Z</when>
<when >2025-07-08T06:01:14.100Z</when>
<when >2025-07-08T06:01:22.670Z</when>
<when >2025-07-08T06:01:26.490Z</when>
<when >2025-07-08T06:01:41.150Z</when>
<when >2025-07-08T06:01:56.060Z</when>
<when >2025-07-08T06:02:12.190Z</when>
<when >2025-07-08T06:02:21.390Z</when>
<when >2025-07-08T06:02:29.840Z</when>
<when >2025-07-08T06:02:38.670Z</when>
<when >2025-07-08T06:02:47.360Z</when>
<when >2025-07-08T06:02:56.560Z</when>
<when >2025-07-08T06:03:05.560Z</when>
<when >2025-07-08T06:03:13.020Z</when>
<when >2025-07-08T06:03:19.060Z</when>
<when >2025-07-08T06:03:24.750Z</when>
<when >2025-07-08T06:03:31.240Z</when>
<when >2025-07-08T06:03:37.540Z</when>
<when >2025-07-08T06:03:45.620Z</when>
<when >2025-07-08T06:03:53.160Z</when>
<when >2025-07-08T06:04:00.390Z</when>
<when >2025-07-08T06:04:07.800Z</when>
<when >2025-07-08T06:04:15.070Z</when>
<when >2025-07-08T06:04:22.230Z</when>
<when >2025-07-08T06:04:25.510Z</when>
<when >2025-07-08T06:04:29.250Z</when>
<when >2025-07-08T06:04:31.780Z</when>
<when >2025-07-08T06:04:35.240Z</when>
<when >2025-07-08T06:04:37.830Z</when>
<when >2025-07-08T06:04:40.850Z</when>
<when >2025-07-08T06:04:44.260Z</when>
<when >2025-07-08T06:04:47.400Z</when>
<when >2025-07-08T06:04:50.630Z</when>
<when >2025-07-08T06:04:55.170Z</when>
<when >2025-07-08T06:05:03.070Z</when>
<when >2025-07-08T06:05:08.970Z</when>
<when >2025-07-08T06:05:15.080Z</when>
<when >2025-07-08T06:05:21.050Z</when>
<when >2025-07-08T06:05:40.960Z</when>
<when >2025-07-08T06:05:54.140Z</when>
<when >2025-07-08T06:06:00.280Z</when>
<when >2025-07-08T06:06:06.770Z</when>
<when >2025-07-08T06:06:13.600Z</when>
<when >2025-07-08T06:06:20.300Z</when>
<when >2025-07-08T06:06:27.160Z</when>
<when >2025-07-08T06:06:34.130Z</when>
<when >2025-07-08T06:06:37.600Z</when>
<when >2025-07-08T06:06:42.360Z</when>
<when >2025-07-08T06:06:47.120Z</when>
<when >2025-07-08T06:06:51.240Z</when>
<when >2025-07-08T06:06:55.860Z</when>
<when >2025-07-08T06:06:59.760Z</when>
<when >2025-07-08T06:07:03.990Z</when>
<when >2025-07-08T06:07:07.850Z</when>
<when >2025-07-08T06:07:12.710Z</when>
<when >2025-07-08T06:07:18.010Z</when>
<when >2025-07-08T06:07:23.070Z</when>
<when >2025-07-08T06:07:27.970Z</when>
<when >2025-07-08T06:07:33.400Z</when>
<when >2025-07-08T06:07:37.910Z</when>
<when >2025-07-08T06:07:43.320Z</when>
<when >2025-07-08T06:07:48.220Z</when>
<when >2025-07-08T06:07:53.590Z</when>
<when >2025-07-08T06:07:58.150Z</when>
<when >2025-07-08T06:08:02.930Z</when>
<when >2025-07-08T06:08:10.080Z</when>
<when >2025-07-08T06:08:18.000Z</when>
<when >2025-07-08T06:08:21.910Z</when>
<when >2025-07-08T06:08:25.810Z</when>
<when >2025-07-08T06:08:30.020Z</when>
<when >2025-07-08T06:08:34.980Z</when>
<when >2025-07-08T06:08:40.050Z</when>
<when >2025-07-08T06:08:43.090Z</when>
<when >2025-07-08T06:08:45.960Z</when>
<when >2025-07-08T06:08:48.760Z</when>
<when >2025-07-08T06:08:51.330Z</when>
<when >2025-07-08T06:08:53.910Z</when>
<when >2025-07-08T06:08:56.530Z</when>
<when >2025-07-08T06:08:59.210Z</when>
<when >2025-07-08T06:09:01.720Z</when>
<when >2025-07-08T06:09:04.610Z</when>
<when >2025-07-08T06:09:07.170Z</when>
<when >2025-07-08T06:09:10.100Z</when>
<when >2025-07-08T06:09:13.070Z</when>
<when >2025-07-08T06:09:15.450Z</when>
<when >2025-07-08T06:09:18.070Z</when>
<when >2025-07-08T06:09:20.660Z</when>
<when >2025-07-08T06:09:23.190Z</when>
<when >2025-07-08T06:09:26.030Z</when>
<when >2025-07-08T06:09:28.650Z</when>
<when >2025-07-08T06:09:32.110Z</when>
<when >2025-07-08T06:09:36.010Z</when>
<when >2025-07-08T06:09:41.840Z</when>
<when >2025-07-08T06:09:55.460Z</when>
<when >2025-07-08T06:10:15.040Z</when>
<when >2025-07-08T06:10:30.240Z</when>
<when >2025-07-08T06:10:34.470Z</when>
<when >2025-07-08T06:10:38.450Z</when>
<when >2025-07-08T06:10:43.490Z</when>
<when >2025-07-08T06:10:52.820Z</when>
<when >2025-07-08T06:10:58.760Z</when>
<when >2025-07-08T06:11:02.170Z</when>
<when >2025-07-08T06:11:04.900Z</when>
<when >2025-07-08T06:11:07.670Z</when>
<when >2025-07-08T06:11:10.370Z</when>
<when >2025-07-08T06:11:13.480Z</when>
<when >2025-07-08T06:11:16.450Z</when>
<when >2025-07-08T06:11:18.490Z</when>
<when >2025-07-08T06:11:21.540Z</when>
<when >2025-07-08T06:11:24.320Z</when>
<when >2025-07-08T06:11:26.840Z</when>
<when >2025-07-08T06:11:29.410Z</when>
<when >2025-07-08T06:11:32.110Z</when>
<when >2025-07-08T06:11:34.650Z</when>
<when >2025-07-08T06:11:37.990Z</when>
<when >2025-07-08T06:11:43.060Z</when>
<when >2025-07-08T06:11:46.440Z</when>
<when >2025-07-08T06:11:48.900Z</when>
<when >2025-07-08T06:11:52.070Z</when>
<when >2025-07-08T06:11:54.940Z</when>
<when >2025-07-08T06:11:57.770Z</when>
<when >2025-07-08T06:11:59.670Z</when>
<when >2025-07-08T06:12:02.180Z</when>
<when >2025-07-08T06:12:05.830Z</when>
<when >2025-07-08T06:12:09.680Z</when>
<when >2025-07-08T06:12:13.970Z</when>
<when >2025-07-08T06:12:18.190Z</when>
<when >2025-07-08T06:12:21.970Z</when>
<when >2025-07-08T06:12:25.960Z</when>
<when >2025-07-08T06:12:30.130Z</when>
<when >2025-07-08T06:12:35.080Z</when>
<when >2025-07-08T06:12:41.260Z</when>
<when >2025-07-08T06:12:45.060Z</when>
<when >2025-07-08T06:12:47.950Z</when>
<when >2025-07-08T06:12:51.490Z</when>
<when >2025-07-08T06:12:57.090Z</when>
<when >2025-07-08T06:13:02.390Z</when>
<when >2025-07-08T06:13:08.750Z</when>
<when >2025-07-08T06:13:14.690Z</when>
<when >2025-07-08T06:13:21.180Z</when>
<when >2025-07-08T06:13:27.300Z</when>
<when >2025-07-08T06:13:33.030Z</when>
<when >2025-07-08T06:13:38.630Z</when>
<when >2025-07-08T06:13:46.590Z</when>
<when >2025-07-08T06:13:50.260Z</when>
<when >2025-07-08T06:13:53.900Z</when>
<when >2025-07-08T06:13:58.260Z</when>
<when >2025-07-08T06:14:04.660Z</when>
<when >2025-07-08T06:14:07.090Z</when>
<when >2025-07-08T06:14:10.800Z</when>
<when >2025-07-08T06:14:15.210Z</when>
<when >2025-07-08T06:14:23.890Z</when>
<when >2025-07-08T06:14:32.280Z</when>
<when >2025-07-08T06:14:39.300Z</when>
<when >2025-07-08T06:14:47.790Z</when>
<when >2025-07-08T06:14:56.210Z</when>
<when >2025-07-08T06:15:04.790Z</when>
<when >2025-07-08T06:15:11.240Z</when>
<when >2025-07-08T06:15:19.450Z</when>
<when >2025-07-08T06:15:28.080Z</when>
<when >2025-07-08T06:15:35.550Z</when>
<when >2025-07-08T06:15:44.160Z</when>
<when >2025-07-08T06:15:51.200Z</when>
<when >2025-07-08T06:15:59.630Z</when>
<when >2025-07-08T06:16:05.580Z</when>
<when >2025-07-08T06:16:10.470Z</when>
<when >2025-07-08T06:16:12.170Z</when>
<when >2025-07-08T06:16:12.170Z</when>
<gx:coord >20.974391 52.163738 113</gx:coord>
<gx:coord >20.972977 52.164139 113</gx:coord>
<gx:coord >20.972214 52.164322 113</gx:coord>
<gx:coord >20.969604 52.165088 105</gx:coord>
<gx:coord >20.969086 52.165237 105</gx:coord>
<gx:coord >20.967941 52.165558 105</gx:coord>
<gx:coord >20.965347 52.16629 105</gx:coord>
<gx:coord >20.962228 52.167136 113</gx:coord>
<gx:coord >20.961129 52.167462 113</gx:coord>
<gx:coord >20.960541 52.167618 113</gx:coord>
<gx:coord >20.959473 52.167938 128</gx:coord>
<gx:coord >20.957676 52.168439 143</gx:coord>
<gx:coord >20.954851 52.169277 166</gx:coord>
<gx:coord >20.952105 52.170069 204</gx:coord>
<gx:coord >20.948715 52.171051 235</gx:coord>
<gx:coord >20.945748 52.171931 265</gx:coord>
<gx:coord >20.943473 52.172583 288</gx:coord>
<gx:coord >20.94101 52.173294 326</gx:coord>
<gx:coord >20.939157 52.17384 349</gx:coord>
<gx:coord >20.936646 52.174538 379</gx:coord>
<gx:coord >20.934213 52.175236 410</gx:coord>
<gx:coord >20.931937 52.175888 448</gx:coord>
<gx:coord >20.929661 52.17654 479</gx:coord>
<gx:coord >20.926971 52.177322 509</gx:coord>
<gx:coord >20.924911 52.177917 540</gx:coord>
<gx:coord >20.922285 52.178634 578</gx:coord>
<gx:coord >20.919647 52.179382 608</gx:coord>
<gx:coord >20.916901 52.180161 631</gx:coord>
<gx:coord >20.914612 52.180801 669</gx:coord>
<gx:coord >20.911713 52.181625 684</gx:coord>
<gx:coord >20.909415 52.182265 722</gx:coord>
<gx:coord >20.906825 52.182917 760</gx:coord>
<gx:coord >20.904083 52.183456 791</gx:coord>
<gx:coord >20.901018 52.183941 829</gx:coord>
<gx:coord >20.897879 52.184174 852</gx:coord>
<gx:coord >20.894662 52.184221 882</gx:coord>
<gx:coord >20.8918 52.184143 921</gx:coord>
<gx:coord >20.888977 52.184006 943</gx:coord>
<gx:coord >20.885951 52.183802 974</gx:coord>
<gx:coord >20.882812 52.183569 1012</gx:coord>
<gx:coord >20.872925 52.182684 1111</gx:coord>
<gx:coord >20.872269 52.182632 1134</gx:coord>
<gx:coord >20.867746 52.182219 1164</gx:coord>
<gx:coord >20.863665 52.181846 1187</gx:coord>
<gx:coord >20.859113 52.181474 1225</gx:coord>
<gx:coord >20.854187 52.18103 1248</gx:coord>
<gx:coord >20.849461 52.18059 1286</gx:coord>
<gx:coord >20.843733 52.180124 1317</gx:coord>
<gx:coord >20.837769 52.179845 1347</gx:coord>
<gx:coord >20.833282 52.179886 1362</gx:coord>
<gx:coord >20.829215 52.180124 1385</gx:coord>
<gx:coord >20.82283 52.180847 1408</gx:coord>
<gx:coord >20.818621 52.181381 1431</gx:coord>
<gx:coord >20.813128 52.182172 1454</gx:coord>
<gx:coord >20.807399 52.18301 1477</gx:coord>
<gx:coord >20.803375 52.183594 1500</gx:coord>
<gx:coord >20.798416 52.184372 1530</gx:coord>
<gx:coord >20.795942 52.184733 1538</gx:coord>
<gx:coord >20.79037 52.185571 1576</gx:coord>
<gx:coord >20.785904 52.186249 1599</gx:coord>
<gx:coord >20.779419 52.187256 1622</gx:coord>
<gx:coord >20.774676 52.187991 1644</gx:coord>
<gx:coord >20.768319 52.188922 1675</gx:coord>
<gx:coord >20.763062 52.18976 1713</gx:coord>
<gx:coord >20.757804 52.190505 1751</gx:coord>
<gx:coord >20.753174 52.191203 1782</gx:coord>
<gx:coord >20.748367 52.191925 1812</gx:coord>
<gx:coord >20.743866 52.192566 1843</gx:coord>
<gx:coord >20.740204 52.193115 1873</gx:coord>
<gx:coord >20.736537 52.193624 1903</gx:coord>
<gx:coord >20.733477 52.19409 1926</gx:coord>
<gx:coord >20.729239 52.194695 1949</gx:coord>
<gx:coord >20.725021 52.195312 1980</gx:coord>
<gx:coord >20.721157 52.195812 2010</gx:coord>
<gx:coord >20.716858 52.19632 2056</gx:coord>
<gx:coord >20.712995 52.19665 2086</gx:coord>
<gx:coord >20.705414 52.19696 2124</gx:coord>
<gx:coord >20.699419 52.19679 2170</gx:coord>
<gx:coord >20.694427 52.196365 2231</gx:coord>
<gx:coord >20.688276 52.19544 2269</gx:coord>
<gx:coord >20.681915 52.194168 2323</gx:coord>
<gx:coord >20.675328 52.192647 2391</gx:coord>
<gx:coord >20.668335 52.19101 2460</gx:coord>
<gx:coord >20.661621 52.189362 2513</gx:coord>
<gx:coord >20.654144 52.187576 2574</gx:coord>
<gx:coord >20.647077 52.18585 2643</gx:coord>
<gx:coord >20.639038 52.183914 2704</gx:coord>
<gx:coord >20.629499 52.181707 2765</gx:coord>
<gx:coord >20.620867 52.179705 2833</gx:coord>
<gx:coord >20.612564 52.177826 2894</gx:coord>
<gx:coord >20.604388 52.175934 2955</gx:coord>
<gx:coord >20.595442 52.173979 3008</gx:coord>
<gx:coord >20.589007 52.172536 3085</gx:coord>
<gx:coord >20.582581 52.171097 3138</gx:coord>
<gx:coord >20.580218 52.170581 3146</gx:coord>
<gx:coord >20.577621 52.169998 3161</gx:coord>
<gx:coord >20.574112 52.16922 3191</gx:coord>
<gx:coord >20.564366 52.167043 3237</gx:coord>
<gx:coord >20.548122 52.163505 3290</gx:coord>
<gx:coord >20.532379 52.160065 3328</gx:coord>
<gx:coord >20.515948 52.156569 3374</gx:coord>
<gx:coord >20.506138 52.154893 3405</gx:coord>
<gx:coord >20.497589 52.153885 3443</gx:coord>
<gx:coord >20.489578 52.153427 3466</gx:coord>
<gx:coord >20.482025 52.153427 3504</gx:coord>
<gx:coord >20.475159 52.153656 3542</gx:coord>
<gx:coord >20.466537 52.15416 3610</gx:coord>
<gx:coord >20.457687 52.154709 3664</gx:coord>
<gx:coord >20.441084 52.155777 3763</gx:coord>
<gx:coord >20.420131 52.156941 3877</gx:coord>
<gx:coord >20.401847 52.157593 3984</gx:coord>
<gx:coord >20.386937 52.157639 4060</gx:coord>
<gx:coord >20.376421 52.157407 4129</gx:coord>
<gx:coord >20.37132 52.157267 4159</gx:coord>
<gx:coord >20.355233 52.156801 4289</gx:coord>
<gx:coord >20.348798 52.156615 4350</gx:coord>
<gx:coord >20.337027 52.156289 4418</gx:coord>
<gx:coord >20.314102 52.155762 4548</gx:coord>
<gx:coord >20.288688 52.155265 4670</gx:coord>
<gx:coord >20.26413 52.1548 4799</gx:coord>
<gx:coord >20.250015 52.154526 4875</gx:coord>
<gx:coord >20.229111 52.154114 4990</gx:coord>
<gx:coord >20.205898 52.153636 5119</gx:coord>
<gx:coord >20.181046 52.153107 5249</gx:coord>
<gx:coord >20.157089 52.152557 5378</gx:coord>
<gx:coord >20.130641 52.151913 5500</gx:coord>
<gx:coord >20.100327 52.151184 5622</gx:coord>
<gx:coord >20.068588 52.150406 5729</gx:coord>
<gx:coord >20.0354 52.149536 5835</gx:coord>
<gx:coord >20.018311 52.149124 5889</gx:coord>
<gx:coord >19.990387 52.148392 6026</gx:coord>
<gx:coord >19.960251 52.147614 6148</gx:coord>
<gx:coord >19.931475 52.146886 6255</gx:coord>
<gx:coord >19.901184 52.146048 6376</gx:coord>
<gx:coord >19.871902 52.145233 6498</gx:coord>
<gx:coord >19.843063 52.144455 6620</gx:coord>
<gx:coord >19.811401 52.143631 6735</gx:coord>
<gx:coord >19.781433 52.142789 6856</gx:coord>
<gx:coord >19.750279 52.141905 6978</gx:coord>
<gx:coord >19.716187 52.140976 7077</gx:coord>
<gx:coord >19.679496 52.139903 7177</gx:coord>
<gx:coord >19.644699 52.138916 7268</gx:coord>
<gx:coord >19.608791 52.137901 7375</gx:coord>
<gx:coord >19.572983 52.136856 7474</gx:coord>
<gx:coord >19.537772 52.135806 7580</gx:coord>
<gx:coord >19.506304 52.134922 7710</gx:coord>
<gx:coord >19.480057 52.134384 7809</gx:coord>
<gx:coord >19.464188 52.134613 7878</gx:coord>
<gx:coord >19.445095 52.135574 7946</gx:coord>
<gx:coord >19.420471 52.137177 8015</gx:coord>
<gx:coord >19.376984 52.139969 8106</gx:coord>
<gx:coord >19.333897 52.14265 8190</gx:coord>
<gx:coord >19.297721 52.144837 8289</gx:coord>
<gx:coord >19.261466 52.146979 8403</gx:coord>
<gx:coord >19.224897 52.149074 8502</gx:coord>
<gx:coord >19.189741 52.151075 8601</gx:coord>
<gx:coord >19.153408 52.153124 8701</gx:coord>
<gx:coord >19.117661 52.155121 8807</gx:coord>
<gx:coord >19.078387 52.157313 8906</gx:coord>
<gx:coord >19.035697 52.159641 8997</gx:coord>
<gx:coord >18.989868 52.162155 9081</gx:coord>
<gx:coord >18.946629 52.164529 9157</gx:coord>
<gx:coord >18.909988 52.166519 9256</gx:coord>
<gx:coord >18.870239 52.168671 9362</gx:coord>
<gx:coord >18.825309 52.171093 9446</gx:coord>
<gx:coord >18.776474 52.17366 9522</gx:coord>
<gx:coord >18.733139 52.175995 9606</gx:coord>
<gx:coord >18.693542 52.178101 9713</gx:coord>
<gx:coord >18.651962 52.180298 9797</gx:coord>
<gx:coord >18.606949 52.182632 9888</gx:coord>
<gx:coord >18.552534 52.185431 9964</gx:coord>
<gx:coord >18.507961 52.187712 10018</gx:coord>
<gx:coord >18.466949 52.189774 10102</gx:coord>
<gx:coord >18.44841 52.190735 10140</gx:coord>
<gx:coord >18.426666 52.191788 10178</gx:coord>
<gx:coord >18.420306 52.192088 10185</gx:coord>
<gx:coord >18.386248 52.193764 10307</gx:coord>
<gx:coord >18.356271 52.195254 10376</gx:coord>
<gx:coord >18.330536 52.196548 10414</gx:coord>
<gx:coord >18.270187 52.199478 10460</gx:coord>
<gx:coord >18.212978 52.202329 10498</gx:coord>
<gx:coord >18.156791 52.204936 10566</gx:coord>
<gx:coord >18.09433 52.207855 10619</gx:coord>
<gx:coord >18.041 52.210327 10703</gx:coord>
<gx:coord >17.992388 52.212618 10779</gx:coord>
<gx:coord >17.945932 52.214759 10870</gx:coord>
<gx:coord >17.891312 52.217239 10946</gx:coord>
<gx:coord >17.834028 52.219833 11023</gx:coord>
<gx:coord >17.783203 52.222092 11099</gx:coord>
<gx:coord >17.754691 52.223325 11122</gx:coord>
<gx:coord >17.69249 52.225571 11137</gx:coord>
<gx:coord >17.630539 52.227676 11136</gx:coord>
<gx:coord >17.567374 52.230587 11136</gx:coord>
<gx:coord >17.504959 52.233627 11136</gx:coord>
<gx:coord >17.441025 52.237015 11136</gx:coord>
<gx:coord >17.375107 52.240128 11136</gx:coord>
<gx:coord >17.309509 52.242876 11136</gx:coord>
<gx:coord >17.244568 52.245346 11128</gx:coord>
<gx:coord >17.180405 52.247772 11121</gx:coord>
<gx:coord >17.11731 52.250107 11113</gx:coord>
<gx:coord >17.054214 52.252441 11112</gx:coord>
<gx:coord >16.99224 52.254747 11104</gx:coord>
<gx:coord >16.930084 52.257019 11104</gx:coord>
<gx:coord >16.867447 52.259308 11120</gx:coord>
<gx:coord >16.804531 52.261777 11112</gx:coord>
<gx:coord >16.74202 52.264114 11120</gx:coord>
<gx:coord >16.678266 52.266385 11120</gx:coord>
<gx:coord >16.614075 52.268573 11120</gx:coord>
<gx:coord >16.550827 52.27066 11120</gx:coord>
<gx:coord >16.487967 52.272716 11120</gx:coord>
<gx:coord >16.42395 52.274734 11120</gx:coord>
<gx:coord >16.360092 52.27684 11111</gx:coord>
<gx:coord >16.297747 52.278908 11111</gx:coord>
<gx:coord >16.234968 52.280956 11111</gx:coord>
<gx:coord >16.171188 52.282883 11111</gx:coord>
<gx:coord >16.10817 52.28476 11111</gx:coord>
<gx:coord >16.044846 52.286636 11111</gx:coord>
<gx:coord >15.982204 52.288451 11103</gx:coord>
<gx:coord >15.919113 52.290207 11096</gx:coord>
<gx:coord >15.856476 52.291992 11087</gx:coord>
<gx:coord >15.794373 52.293777 11095</gx:coord>
<gx:coord >15.731873 52.295574 11095</gx:coord>
<gx:coord >15.669022 52.297211 11095</gx:coord>
<gx:coord >15.606158 52.298832 11102</gx:coord>
<gx:coord >15.543379 52.300415 11102</gx:coord>
<gx:coord >15.48111 52.302017 11110</gx:coord>
<gx:coord >15.418527 52.303581 11110</gx:coord>
<gx:coord >15.354767 52.305176 11102</gx:coord>
<gx:coord >15.291138 52.306778 11095</gx:coord>
<gx:coord >15.228119 52.308243 11095</gx:coord>
<gx:coord >15.164185 52.309616 11087</gx:coord>
<gx:coord >15.100555 52.311035 11087</gx:coord>
<gx:coord >15.036673 52.312472 11087</gx:coord>
<gx:coord >14.972874 52.313822 11087</gx:coord>
<gx:coord >14.908524 52.315109 11086</gx:coord>
<gx:coord >14.8452 52.316299 11094</gx:coord>
<gx:coord >14.781189 52.31749 11101</gx:coord>
<gx:coord >14.717364 52.318757 11101</gx:coord>
<gx:coord >14.653397 52.320007 11101</gx:coord>
<gx:coord >14.589539 52.321106 11094</gx:coord>
<gx:coord >14.526062 52.322067 11086</gx:coord>
<gx:coord >14.46228 52.32312 11086</gx:coord>
<gx:coord >14.397975 52.32411 11086</gx:coord>
<gx:coord >14.333801 52.325134 11086</gx:coord>
<gx:coord >14.272003 52.326096 11086</gx:coord>
<gx:coord >14.209324 52.327043 11079</gx:coord>
<gx:coord >14.147016 52.327974 11071</gx:coord>
<gx:coord >14.084551 52.328858 11063</gx:coord>
<gx:coord >14.021458 52.329603 11063</gx:coord>
<gx:coord >13.957672 52.330307 11063</gx:coord>
<gx:coord >13.894958 52.331039 11062</gx:coord>
<gx:coord >13.831787 52.331745 11055</gx:coord>
<gx:coord >13.767282 52.33249 11055</gx:coord>
<gx:coord >13.703169 52.333141 11055</gx:coord>
<gx:coord >13.639679 52.333694 11062</gx:coord>
<gx:coord >13.574829 52.334335 11062</gx:coord>
<gx:coord >13.510513 52.334885 11070</gx:coord>
<gx:coord >13.44574 52.335342 11078</gx:coord>
<gx:coord >13.381269 52.335795 11070</gx:coord>
<gx:coord >13.316498 52.336258 11070</gx:coord>
<gx:coord >13.251266 52.33667 11078</gx:coord>
<gx:coord >13.186497 52.337052 11078</gx:coord>
<gx:coord >13.121129 52.337471 11070</gx:coord>
<gx:coord >13.055878 52.337769 11069</gx:coord>
<gx:coord >12.991019 52.337983 11069</gx:coord>
<gx:coord >12.925023 52.338262 11069</gx:coord>
<gx:coord >12.859268 52.338547 11077</gx:coord>
<gx:coord >12.793579 52.338776 11069</gx:coord>
<gx:coord >12.728806 52.338913 11061</gx:coord>
<gx:coord >12.66292 52.339053 11054</gx:coord>
<gx:coord >12.597316 52.3391 11054</gx:coord>
<gx:coord >12.532104 52.339147 11054</gx:coord>
<gx:coord >12.467128 52.3391 11046</gx:coord>
<gx:coord >12.401352 52.338867 11054</gx:coord>
<gx:coord >12.336502 52.338684 11046</gx:coord>
<gx:coord >12.271042 52.338547 11046</gx:coord>
<gx:coord >12.205658 52.338409 11045</gx:coord>
<gx:coord >12.14052 52.338169 11037</gx:coord>
<gx:coord >12.074585 52.337952 11053</gx:coord>
<gx:coord >12.009312 52.337657 11045</gx:coord>
<gx:coord >11.944257 52.337284 11045</gx:coord>
<gx:coord >11.87973 52.337036 11037</gx:coord>
<gx:coord >11.814346 52.33667 11045</gx:coord>
<gx:coord >11.749172 52.33626 11053</gx:coord>
<gx:coord >11.684036 52.335709 11060</gx:coord>
<gx:coord >11.618827 52.33519 11060</gx:coord>
<gx:coord >11.553116 52.334656 11053</gx:coord>
<gx:coord >11.487854 52.334165 11044</gx:coord>
<gx:coord >11.423264 52.333694 11036</gx:coord>
<gx:coord >11.356735 52.333054 11036</gx:coord>
<gx:coord >11.290741 52.332367 11036</gx:coord>
<gx:coord >11.224888 52.331652 11036</gx:coord>
<gx:coord >11.158829 52.330856 11036</gx:coord>
<gx:coord >11.092425 52.330162 11044</gx:coord>
<gx:coord >11.026507 52.329231 11052</gx:coord>
<gx:coord >10.962237 52.328253 11052</gx:coord>
<gx:coord >10.896005 52.327322 11044</gx:coord>
<gx:coord >10.831604 52.326416 11044</gx:coord>
<gx:coord >10.766131 52.325507 11036</gx:coord>
<gx:coord >10.701782 52.324576 11036</gx:coord>
<gx:coord >10.636139 52.323624 11021</gx:coord>
<gx:coord >10.571289 52.322708 11014</gx:coord>
<gx:coord >10.506287 52.321793 11021</gx:coord>
<gx:coord >10.440521 52.320648 11014</gx:coord>
<gx:coord >10.37529 52.319366 11014</gx:coord>
<gx:coord >10.310516 52.318039 11014</gx:coord>
<gx:coord >10.244446 52.316711 11029</gx:coord>
<gx:coord >10.178205 52.315358 11029</gx:coord>
<gx:coord >10.112152 52.314102 11029</gx:coord>
<gx:coord >10.045035 52.312705 11029</gx:coord>
<gx:coord >9.978333 52.311262 11029</gx:coord>
<gx:coord >9.911423 52.309753 11029</gx:coord>
<gx:coord >9.844666 52.308243 11029</gx:coord>
<gx:coord >9.778061 52.306686 11029</gx:coord>
<gx:coord >9.711761 52.305084 11029</gx:coord>
<gx:coord >9.644623 52.303436 11036</gx:coord>
<gx:coord >9.576874 52.301788 11036</gx:coord>
<gx:coord >9.510236 52.300089 11036</gx:coord>
<gx:coord >9.443612 52.29832 11036</gx:coord>
<gx:coord >9.377223 52.296551 11036</gx:coord>
<gx:coord >9.31076 52.294785 11035</gx:coord>
<gx:coord >9.245071 52.292908 11035</gx:coord>
<gx:coord >9.178763 52.291058 11028</gx:coord>
<gx:coord >9.113083 52.289108 11020</gx:coord>
<gx:coord >9.046249 52.287186 11013</gx:coord>
<gx:coord >8.980408 52.2854 11013</gx:coord>
<gx:coord >8.915558 52.283524 11013</gx:coord>
<gx:coord >8.849644 52.281422 11013</gx:coord>
<gx:coord >8.784119 52.279373 11013</gx:coord>
<gx:coord >8.718907 52.277325 11005</gx:coord>
<gx:coord >8.653852 52.275184 11005</gx:coord>
<gx:coord >8.588181 52.272903 11005</gx:coord>
<gx:coord >8.522263 52.270569 11005</gx:coord>
<gx:coord >8.45704 52.268341 11005</gx:coord>
<gx:coord >8.390656 52.266083 11013</gx:coord>
<gx:coord >8.323898 52.263657 11013</gx:coord>
<gx:coord >8.258057 52.26123 11013</gx:coord>
<gx:coord >8.191092 52.258704 11020</gx:coord>
<gx:coord >8.123919 52.256237 11020</gx:coord>
<gx:coord >8.057785 52.253815 11028</gx:coord>
<gx:coord >7.99057 52.251297 11028</gx:coord>
<gx:coord >7.924517 52.248742 11043</gx:coord>
<gx:coord >7.857971 52.24617 11035</gx:coord>
<gx:coord >7.790955 52.243482 11035</gx:coord>
<gx:coord >7.724152 52.240814 11035</gx:coord>
<gx:coord >7.657089 52.238022 11028</gx:coord>
<gx:coord >7.590714 52.235275 11020</gx:coord>
<gx:coord >7.524567 52.23262 11013</gx:coord>
<gx:coord >7.458191 52.229919 11013</gx:coord>
<gx:coord >7.391357 52.226852 11005</gx:coord>
<gx:coord >7.324066 52.22374 11005</gx:coord>
<gx:coord >7.258072 52.220718 11005</gx:coord>
<gx:coord >7.19162 52.217743 11005</gx:coord>
<gx:coord >7.125092 52.214722 11013</gx:coord>
<gx:coord >7.058323 52.21164 11013</gx:coord>
<gx:coord >6.991856 52.208614 11028</gx:coord>
<gx:coord >6.925201 52.205475 11028</gx:coord>
<gx:coord >6.858137 52.202283 11028</gx:coord>
<gx:coord >6.791458 52.19902 11035</gx:coord>
<gx:coord >6.725909 52.195766 11035</gx:coord>
<gx:coord >6.659851 52.192429 11028</gx:coord>
<gx:coord >6.594073 52.189109 11028</gx:coord>
<gx:coord >6.528704 52.185757 11020</gx:coord>
<gx:coord >6.462472 52.182359 11020</gx:coord>
<gx:coord >6.395926 52.17896 11020</gx:coord>
<gx:coord >6.330872 52.175562 11020</gx:coord>
<gx:coord >6.266131 52.172117 11020</gx:coord>
<gx:coord >6.19982 52.168439 11020</gx:coord>
<gx:coord >6.133902 52.164855 11020</gx:coord>
<gx:coord >6.067514 52.161317 11029</gx:coord>
<gx:coord >6.002045 52.15773 11029</gx:coord>
<gx:coord >5.935669 52.154022 11029</gx:coord>
<gx:coord >5.870544 52.150331 11029</gx:coord>
<gx:coord >5.80494 52.146606 11036</gx:coord>
<gx:coord >5.739415 52.142789 11036</gx:coord>
<gx:coord >5.672836 52.139008 11036</gx:coord>
<gx:coord >5.606794 52.135155 11044</gx:coord>
<gx:coord >5.540405 52.131291 11044</gx:coord>
<gx:coord >5.474319 52.127335 11044</gx:coord>
<gx:coord >5.408334 52.123237 11036</gx:coord>
<gx:coord >5.343628 52.119232 11036</gx:coord>
<gx:coord >5.277597 52.115091 11036</gx:coord>
<gx:coord >5.211914 52.110947 11036</gx:coord>
<gx:coord >5.146637 52.106918 11036</gx:coord>
<gx:coord >5.081253 52.10289 11036</gx:coord>
<gx:coord >5.037689 52.100052 11029</gx:coord>
<gx:coord >5.014572 52.098587 10998</gx:coord>
<gx:coord >4.966291 52.095492 10915</gx:coord>
<gx:coord >4.913177 52.092087 10823</gx:coord>
<gx:coord >4.858939 52.088556 10739</gx:coord>
<gx:coord >4.807696 52.085111 10648</gx:coord>
<gx:coord >4.757551 52.081713 10549</gx:coord>
<gx:coord >4.704817 52.078082 10465</gx:coord>
<gx:coord >4.675703 52.076173 10419</gx:coord>
<gx:coord >4.650827 52.074544 10404</gx:coord>
<gx:coord >4.586105 52.070251 10396</gx:coord>
<gx:coord >4.521423 52.065838 10396</gx:coord>
<gx:coord >4.455795 52.061371 10396</gx:coord>
<gx:coord >4.390564 52.056839 10396</gx:coord>
<gx:coord >4.324341 52.052261 10396</gx:coord>
<gx:coord >4.259164 52.047636 10404</gx:coord>
<gx:coord >4.192734 52.042969 10404</gx:coord>
<gx:coord >4.126151 52.038279 10403</gx:coord>
<gx:coord >4.059753 52.033539 10403</gx:coord>
<gx:coord >4.009476 52.029877 10403</gx:coord>
<gx:coord >3.990631 52.028549 10380</gx:coord>
<gx:coord >3.974991 52.027405 10357</gx:coord>
<gx:coord >3.931536 52.024174 10243</gx:coord>
<gx:coord >3.888779 52.020813 10152</gx:coord>
<gx:coord >3.842861 52.017238 10053</gx:coord>
<gx:coord >3.797895 52.013979 9953</gx:coord>
<gx:coord >3.753322 52.010767 9847</gx:coord>
<gx:coord >3.712123 52.007648 9748</gx:coord>
<gx:coord >3.669815 52.004517 9633</gx:coord>
<gx:coord >3.627607 52.001317 9527</gx:coord>
<gx:coord >3.584366 51.997879 9435</gx:coord>
<gx:coord >3.542023 51.994446 9329</gx:coord>
<gx:coord >3.498001 51.990967 9230</gx:coord>
<gx:coord >3.456192 51.987762 9130</gx:coord>
<gx:coord >3.413531 51.984558 9031</gx:coord>
<gx:coord >3.373871 51.981628 8932</gx:coord>
<gx:coord >3.330688 51.978378 8841</gx:coord>
<gx:coord >3.289071 51.975248 8749</gx:coord>
<gx:coord >3.247009 51.971989 8643</gx:coord>
<gx:coord >3.205183 51.968637 8559</gx:coord>
<gx:coord >3.164063 51.965192 8460</gx:coord>
<gx:coord >3.146515 51.963181 8422</gx:coord>
<gx:coord >3.13181 51.96091 8384</gx:coord>
<gx:coord >3.116115 51.957744 8338</gx:coord>
<gx:coord >3.101048 51.953973 8308</gx:coord>
<gx:coord >3.08449 51.948899 8262</gx:coord>
<gx:coord >3.070908 51.944183 8224</gx:coord>
<gx:coord >3.032462 51.929766 8132</gx:coord>
<gx:coord >2.996286 51.91608 8033</gx:coord>
<gx:coord >2.959976 51.902344 7927</gx:coord>
<gx:coord >2.923813 51.88866 7827</gx:coord>
<gx:coord >2.888439 51.875244 7736</gx:coord>
<gx:coord >2.853031 51.861786 7629</gx:coord>
<gx:coord >2.817399 51.848145 7530</gx:coord>
<gx:coord >2.780358 51.833771 7431</gx:coord>
<gx:coord >2.74532 51.820221 7340</gx:coord>
<gx:coord >2.710208 51.806625 7241</gx:coord>
<gx:coord >2.675171 51.792996 7142</gx:coord>
<gx:coord >2.637981 51.778427 7050</gx:coord>
<gx:coord >2.593813 51.761124 6974</gx:coord>
<gx:coord >2.548981 51.743697 6890</gx:coord>
<gx:coord >2.506256 51.727217 6806</gx:coord>
<gx:coord >2.461977 51.71022 6730</gx:coord>
<gx:coord >2.418213 51.693607 6654</gx:coord>
<gx:coord >2.37999 51.679175 6570</gx:coord>
<gx:coord >2.337787 51.663071 6486</gx:coord>
<gx:coord >2.295609 51.646868 6410</gx:coord>
<gx:coord >2.253905 51.630753 6342</gx:coord>
<gx:coord >2.214487 51.615463 6258</gx:coord>
<gx:coord >2.197342 51.609207 6220</gx:coord>
<gx:coord >2.186354 51.605896 6197</gx:coord>
<gx:coord >2.174835 51.603156 6159</gx:coord>
<gx:coord >2.166608 51.601593 6151</gx:coord>
<gx:coord >2.156587 51.60022 6128</gx:coord>
<gx:coord >2.145897 51.599258 6105</gx:coord>
<gx:coord >2.135356 51.598846 6090</gx:coord>
<gx:coord >2.123108 51.599012 6067</gx:coord>
<gx:coord >2.113012 51.599625 6052</gx:coord>
<gx:coord >2.102323 51.600723 6022</gx:coord>
<gx:coord >2.091904 51.602271 6006</gx:coord>
<gx:coord >2.079773 51.604738 5991</gx:coord>
<gx:coord >2.070032 51.607224 5968</gx:coord>
<gx:coord >2.059631 51.610418 5945</gx:coord>
<gx:coord >2.050286 51.613815 5922</gx:coord>
<gx:coord >2.041931 51.617401 5907</gx:coord>
<gx:coord >2.033733 51.621414 5884</gx:coord>
<gx:coord >2.025833 51.625827 5854</gx:coord>
<gx:coord >2.017327 51.631393 5839</gx:coord>
<gx:coord >2.011108 51.636068 5816</gx:coord>
<gx:coord >2.005302 51.641098 5793</gx:coord>
<gx:coord >1.998901 51.647566 5770</gx:coord>
<gx:coord >1.994538 51.652771 5747</gx:coord>
<gx:coord >1.989862 51.659454 5724</gx:coord>
<gx:coord >1.986237 51.665722 5694</gx:coord>
<gx:coord >1.983337 51.672099 5671</gx:coord>
<gx:coord >1.973953 51.694677 5595</gx:coord>
<gx:coord >1.966248 51.712553 5534</gx:coord>
<gx:coord >1.962767 51.720428 5526</gx:coord>
<gx:coord >1.950531 51.747793 5519</gx:coord>
<gx:coord >1.938324 51.775352 5519</gx:coord>
<gx:coord >1.926498 51.802492 5519</gx:coord>
<gx:coord >1.91459 51.830246 5518</gx:coord>
<gx:coord >1.902787 51.857666 5518</gx:coord>
<gx:coord >1.892776 51.88084 5518</gx:coord>
<gx:coord >1.890335 51.885448 5518</gx:coord>
<gx:coord >1.886978 51.890429 5518</gx:coord>
<gx:coord >1.883774 51.894379 5518</gx:coord>
<gx:coord >1.879883 51.898315 5518</gx:coord>
<gx:coord >1.874189 51.902952 5518</gx:coord>
<gx:coord >1.869507 51.906235 5518</gx:coord>
<gx:coord >1.862946 51.91008 5518</gx:coord>
<gx:coord >1.852452 51.915475 5518</gx:coord>
<gx:coord >1.815109 51.934158 5518</gx:coord>
<gx:coord >1.778412 51.953018 5525</gx:coord>
<gx:coord >1.741647 51.972175 5525</gx:coord>
<gx:coord >1.704372 51.991681 5525</gx:coord>
<gx:coord >1.667099 52.010925 5525</gx:coord>
<gx:coord >1.629868 52.03006 5518</gx:coord>
<gx:coord >1.61026 52.040085 5487</gx:coord>
<gx:coord >1.582947 52.054047 5403</gx:coord>
<gx:coord >1.556625 52.067551 5319</gx:coord>
<gx:coord >1.530838 52.08078 5236</gx:coord>
<gx:coord >1.505755 52.093677 5152</gx:coord>
<gx:coord >1.479492 52.107101 5068</gx:coord>
<gx:coord >1.454086 52.120102 4984</gx:coord>
<gx:coord >1.428693 52.13306 4900</gx:coord>
<gx:coord >1.401978 52.146652 4817</gx:coord>
<gx:coord >1.385803 52.154755 4771</gx:coord>
<gx:coord >1.379395 52.157593 4748</gx:coord>
<gx:coord >1.370466 52.160712 4718</gx:coord>
<gx:coord >1.365356 52.162125 4702</gx:coord>
<gx:coord >1.358459 52.163598 4679</gx:coord>
<gx:coord >1.352417 52.164576 4657</gx:coord>
<gx:coord >1.34457 52.165414 4634</gx:coord>
<gx:coord >1.332799 52.166205 4603</gx:coord>
<gx:coord >1.294111 52.168533 4535</gx:coord>
<gx:coord >1.257385 52.171186 4451</gx:coord>
<gx:coord >1.224426 52.173793 4359</gx:coord>
<gx:coord >1.206665 52.175217 4321</gx:coord>
<gx:coord >1.191711 52.176453 4306</gx:coord>
<gx:coord >1.147757 52.180031 4298</gx:coord>
<gx:coord >1.102905 52.183594 4298</gx:coord>
<gx:coord >1.059113 52.187027 4298</gx:coord>
<gx:coord >1.015472 52.19046 4306</gx:coord>
<gx:coord >0.970535 52.193893 4306</gx:coord>
<gx:coord >0.925912 52.197302 4305</gx:coord>
<gx:coord >0.881348 52.200668 4305</gx:coord>
<gx:coord >0.836182 52.204102 4305</gx:coord>
<gx:coord >0.792036 52.207404 4305</gx:coord>
<gx:coord >0.747541 52.210755 4305</gx:coord>
<gx:coord >0.728864 52.212152 4305</gx:coord>
<gx:coord >0.713091 52.213409 4282</gx:coord>
<gx:coord >0.679474 52.215958 4191</gx:coord>
<gx:coord >0.643014 52.218716 4115</gx:coord>
<gx:coord >0.606445 52.221416 4038</gx:coord>
<gx:coord >0.593026 52.222393 4008</gx:coord>
<gx:coord >0.549081 52.225559 4000</gx:coord>
<gx:coord >0.503331 52.228725 4008</gx:coord>
<gx:coord >0.486694 52.229982 4000</gx:coord>
<gx:coord >0.469901 52.231145 4000</gx:coord>
<gx:coord >0.451584 52.232391 4000</gx:coord>
<gx:coord >0.412694 52.235102 4008</gx:coord>
<gx:coord >0.395665 52.236359 4000</gx:coord>
<gx:coord >0.388336 52.236877 3993</gx:coord>
<gx:coord >0.359726 52.238983 3909</gx:coord>
<gx:coord >0.330924 52.241107 3825</gx:coord>
<gx:coord >0.300005 52.243295 3749</gx:coord>
<gx:coord >0.282192 52.244552 3703</gx:coord>
<gx:coord >0.265791 52.245716 3650</gx:coord>
<gx:coord >0.24884 52.24688 3604</gx:coord>
<gx:coord >0.232282 52.248044 3558</gx:coord>
<gx:coord >0.214844 52.249283 3513</gx:coord>
<gx:coord >0.197597 52.250511 3467</gx:coord>
<gx:coord >0.183563 52.251526 3429</gx:coord>
<gx:coord >0.171967 52.252396 3383</gx:coord>
<gx:coord >0.161209 52.253174 3314</gx:coord>
<gx:coord >0.148786 52.254096 3253</gx:coord>
<gx:coord >0.136387 52.254934 3200</gx:coord>
<gx:coord >0.12085 52.255966 3147</gx:coord>
<gx:coord >0.106489 52.256982 3093</gx:coord>
<gx:coord >0.092926 52.257889 3040</gx:coord>
<gx:coord >0.079023 52.258844 2979</gx:coord>
<gx:coord >0.065369 52.259775 2918</gx:coord>
<gx:coord >0.051871 52.260566 2857</gx:coord>
<gx:coord >0.045672 52.260566 2819</gx:coord>
<gx:coord >0.038452 52.260147 2796</gx:coord>
<gx:coord >0.033798 52.259583 2773</gx:coord>
<gx:coord >0.027073 52.258378 2735</gx:coord>
<gx:coord >0.022287 52.257215 2705</gx:coord>
<gx:coord >0.016861 52.255508 2682</gx:coord>
<gx:coord >0.010986 52.253165 2651</gx:coord>
<gx:coord >0.005951 52.250656 2629</gx:coord>
<gx:coord >0.000992 52.247818 2598</gx:coord>
<gx:coord >-0.005417 52.243469 2568</gx:coord>
<gx:coord >-0.016087 52.235614 2514</gx:coord>
<gx:coord >-0.02388 52.229828 2491</gx:coord>
<gx:coord >-0.031891 52.223877 2476</gx:coord>
<gx:coord >-0.039551 52.218111 2469</gx:coord>
<gx:coord >-0.065055 52.199257 2468</gx:coord>
<gx:coord >-0.081863 52.186844 2460</gx:coord>
<gx:coord >-0.089617 52.181102 2437</gx:coord>
<gx:coord >-0.097857 52.17505 2399</gx:coord>
<gx:coord >-0.106583 52.168716 2338</gx:coord>
<gx:coord >-0.115199 52.162434 2277</gx:coord>
<gx:coord >-0.12413 52.156082 2224</gx:coord>
<gx:coord >-0.133057 52.149673 2170</gx:coord>
<gx:coord >-0.137711 52.146423 2140</gx:coord>
<gx:coord >-0.143661 52.142166 2109</gx:coord>
<gx:coord >-0.149885 52.137808 2079</gx:coord>
<gx:coord >-0.155143 52.134084 2049</gx:coord>
<gx:coord >-0.161057 52.129944 2018</gx:coord>
<gx:coord >-0.165939 52.126465 1988</gx:coord>
<gx:coord >-0.171204 52.122665 1957</gx:coord>
<gx:coord >-0.176017 52.119234 1927</gx:coord>
<gx:coord >-0.181902 52.114858 1896</gx:coord>
<gx:coord >-0.188416 52.110109 1866</gx:coord>
<gx:coord >-0.194458 52.10564 1835</gx:coord>
<gx:coord >-0.2005 52.101242 1805</gx:coord>
<gx:coord >-0.207138 52.096481 1774</gx:coord>
<gx:coord >-0.212631 52.092499 1744</gx:coord>
<gx:coord >-0.219099 52.087951 1713</gx:coord>
<gx:coord >-0.225141 52.083668 1683</gx:coord>
<gx:coord >-0.231705 52.078995 1652</gx:coord>
<gx:coord >-0.237274 52.075058 1622</gx:coord>
<gx:coord >-0.243033 52.070959 1591</gx:coord>
<gx:coord >-0.251665 52.064814 1561</gx:coord>
<gx:coord >-0.261004 52.058111 1546</gx:coord>
<gx:coord >-0.265503 52.054916 1538</gx:coord>
<gx:coord >-0.270004 52.051758 1538</gx:coord>
<gx:coord >-0.274658 52.048381 1538</gx:coord>
<gx:coord >-0.280073 52.044517 1530</gx:coord>
<gx:coord >-0.285409 52.040514 1530</gx:coord>
<gx:coord >-0.288077 52.038093 1530</gx:coord>
<gx:coord >-0.290353 52.035626 1530</gx:coord>
<gx:coord >-0.29213 52.033035 1530</gx:coord>
<gx:coord >-0.293335 52.030645 1530</gx:coord>
<gx:coord >-0.294189 52.028137 1530</gx:coord>
<gx:coord >-0.294591 52.025664 1530</gx:coord>
<gx:coord >-0.294591 52.022917 1530</gx:coord>
<gx:coord >-0.294189 52.020493 1530</gx:coord>
<gx:coord >-0.293274 52.017654 1530</gx:coord>
<gx:coord >-0.292053 52.015274 1530</gx:coord>
<gx:coord >-0.290146 52.012665 1530</gx:coord>
<gx:coord >-0.287857 52.010193 1530</gx:coord>
<gx:coord >-0.285645 52.008316 1530</gx:coord>
<gx:coord >-0.282976 52.006484 1530</gx:coord>
<gx:coord >-0.279999 52.004791 1530</gx:coord>
<gx:coord >-0.276794 52.003326 1530</gx:coord>
<gx:coord >-0.273089 52.002015 1530</gx:coord>
<gx:coord >-0.269479 52.000991 1530</gx:coord>
<gx:coord >-0.264664 51.999985 1530</gx:coord>
<gx:coord >-0.25912 51.999036 1530</gx:coord>
<gx:coord >-0.250645 51.997919 1530</gx:coord>
<gx:coord >-0.230865 51.995682 1530</gx:coord>
<gx:coord >-0.202619 51.992612 1530</gx:coord>
<gx:coord >-0.180568 51.990237 1530</gx:coord>
<gx:coord >-0.174332 51.989822 1530</gx:coord>
<gx:coord >-0.168562 51.989772 1524</gx:coord>
<gx:coord >-0.161362 51.989868 1524</gx:coord>
<gx:coord >-0.147766 51.990377 1524</gx:coord>
<gx:coord >-0.139291 51.990656 1524</gx:coord>
<gx:coord >-0.134426 51.99047 1516</gx:coord>
<gx:coord >-0.130463 51.990051 1508</gx:coord>
<gx:coord >-0.126419 51.989365 1486</gx:coord>
<gx:coord >-0.122604 51.988403 1478</gx:coord>
<gx:coord >-0.118574 51.987025 1470</gx:coord>
<gx:coord >-0.114807 51.985396 1455</gx:coord>
<gx:coord >-0.112457 51.9841 1440</gx:coord>
<gx:coord >-0.109177 51.98204 1417</gx:coord>
<gx:coord >-0.106735 51.97998 1402</gx:coord>
<gx:coord >-0.104606 51.977901 1379</gx:coord>
<gx:coord >-0.102844 51.975586 1364</gx:coord>
<gx:coord >-0.101388 51.973199 1348</gx:coord>
<gx:coord >-0.100403 51.970688 1326</gx:coord>
<gx:coord >-0.099505 51.967473 1303</gx:coord>
<gx:coord >-0.098572 51.962677 1272</gx:coord>
<gx:coord >-0.098406 51.95928 1257</gx:coord>
<gx:coord >-0.09872 51.956906 1249</gx:coord>
<gx:coord >-0.099564 51.953979 1234</gx:coord>
<gx:coord >-0.100917 51.951134 1219</gx:coord>
<gx:coord >-0.102692 51.948624 1204</gx:coord>
<gx:coord >-0.104056 51.94699 1196</gx:coord>
<gx:coord >-0.106175 51.945035 1188</gx:coord>
<gx:coord >-0.109787 51.942215 1173</gx:coord>
<gx:coord >-0.113831 51.939468 1158</gx:coord>
<gx:coord >-0.118332 51.936584 1120</gx:coord>
<gx:coord >-0.123047 51.93363 1089</gx:coord>
<gx:coord >-0.127284 51.931116 1067</gx:coord>
<gx:coord >-0.13176 51.928391 1036</gx:coord>
<gx:coord >-0.136414 51.925598 998</gx:coord>
<gx:coord >-0.141907 51.922256 975</gx:coord>
<gx:coord >-0.148849 51.918137 937</gx:coord>
<gx:coord >-0.153259 51.915987 929</gx:coord>
<gx:coord >-0.156869 51.914497 922</gx:coord>
<gx:coord >-0.161499 51.912961 899</gx:coord>
<gx:coord >-0.168686 51.910904 884</gx:coord>
<gx:coord >-0.175546 51.909097 853</gx:coord>
<gx:coord >-0.183864 51.907095 823</gx:coord>
<gx:coord >-0.191422 51.905411 792</gx:coord>
<gx:coord >-0.199794 51.903697 762</gx:coord>
<gx:coord >-0.20752 51.902252 731</gx:coord>
<gx:coord >-0.214615 51.901016 701</gx:coord>
<gx:coord >-0.221453 51.899833 670</gx:coord>
<gx:coord >-0.230791 51.89825 640</gx:coord>
<gx:coord >-0.23495 51.897552 632</gx:coord>
<gx:coord >-0.23911 51.896854 616</gx:coord>
<gx:coord >-0.243988 51.896027 585</gx:coord>
<gx:coord >-0.250702 51.894928 570</gx:coord>
<gx:coord >-0.253143 51.894562 547</gx:coord>
<gx:coord >-0.25708 51.893874 532</gx:coord>
<gx:coord >-0.261222 51.893143 517</gx:coord>
<gx:coord >-0.269462 51.891769 486</gx:coord>
<gx:coord >-0.277331 51.890442 464</gx:coord>
<gx:coord >-0.283966 51.889266 433</gx:coord>
<gx:coord >-0.291901 51.887962 403</gx:coord>
<gx:coord >-0.299911 51.886519 380</gx:coord>
<gx:coord >-0.307766 51.885132 357</gx:coord>
<gx:coord >-0.313797 51.884052 326</gx:coord>
<gx:coord >-0.321426 51.882748 288</gx:coord>
<gx:coord >-0.329361 51.881398 265</gx:coord>
<gx:coord >-0.336304 51.880235 243</gx:coord>
<gx:coord >-0.344086 51.878838 220</gx:coord>
<gx:coord >-0.350876 51.877674 189</gx:coord>
<gx:coord >-0.35854 51.876343 166</gx:coord>
<gx:coord >-0.363959 51.875427 166</gx:coord>
<gx:coord >-0.367966 51.874741 166</gx:coord>
<gx:coord >-0.369007 51.874557 166</gx:coord>
<gx:coord >-0.369007 51.874557 166</gx:coord>
</gx:Track>
</Placemark>
<Placemark ><name >9H-WNC</name>
<Style ><LineStyle ><color >ff1c1ae3</color>
<width >4</width>
</LineStyle>
<IconStyle ><Icon ><href >http://maps.google.com/mapfiles/kml/shapes/airports.png</href>
</Icon>
</IconStyle>
</Style>
<gx:Track ><extrude >0</extrude>
<when >2025-07-08T06:16:12.850Z</when>
<when >2025-07-08T06:16:14.790Z</when>
<when >2025-07-08T06:16:15.660Z</when>
<when >2025-07-08T06:16:17.490Z</when>
<when >2025-07-08T06:16:18.400Z</when>
<when >2025-07-08T06:16:19.690Z</when>
<when >2025-07-08T06:16:20.100Z</when>
<when >2025-07-08T06:16:22.100Z</when>
<when >2025-07-08T06:16:24.010Z</when>
<when >2025-07-08T06:16:24.420Z</when>
<when >2025-07-08T06:16:28.960Z</when>
<when >2025-07-08T06:16:34.240Z</when>
<when >2025-07-08T06:16:37.000Z</when>
<when >2025-07-08T06:16:40.940Z</when>
<when >2025-07-08T06:16:42.870Z</when>
<when >2025-07-08T06:16:45.200Z</when>
<when >2025-07-08T06:16:48.510Z</when>
<when >2025-07-08T06:16:51.830Z</when>
<when >2025-07-08T06:16:57.290Z</when>
<when >2025-07-08T06:17:07.080Z</when>
<when >2025-07-08T06:17:15.240Z</when>
<when >2025-07-08T06:17:21.350Z</when>
<when >2025-07-08T06:17:23.910Z</when>
<when >2025-07-08T06:17:25.870Z</when>
<when >2025-07-08T06:17:27.790Z</when>
<when >2025-07-08T06:17:31.170Z</when>
<when >2025-07-08T06:17:34.900Z</when>
<when >2025-07-08T06:17:46.580Z</when>
<when >2025-07-08T06:17:53.080Z</when>
<when >2025-07-08T06:17:58.100Z</when>
<when >2025-07-08T06:18:03.080Z</when>
<when >2025-07-08T06:18:08.140Z</when>
<when >2025-07-08T06:18:10.720Z</when>
<when >2025-07-08T06:18:52.730Z</when>
<when >2025-07-08T06:18:58.690Z</when>
<when >2025-07-08T06:19:24.040Z</when>
<when >2025-07-08T06:19:41.770Z</when>
<when >2025-07-08T06:19:45.780Z</when>
<when >2025-07-08T06:19:47.760Z</when>
<when >2025-07-08T06:20:05.260Z</when>
<when >2025-07-08T06:20:14.670Z</when>
<when >2025-07-08T06:20:18.920Z</when>
<when >2025-07-08T06:20:22.730Z</when>
<when >2025-07-08T06:20:26.120Z</when>
<when >2025-07-08T06:20:31.410Z</when>
<when >2025-07-08T06:20:38.070Z</when>
<when >2025-07-08T06:20:46.250Z</when>
<when >2025-07-08T06:20:48.060Z</when>
<when >2025-07-08T06:20:49.210Z</when>
<when >2025-07-08T06:20:54.480Z</when>
<when >2025-07-08T06:21:00.380Z</when>
<when >2025-07-08T06:21:03.960Z</when>
<when >2025-07-08T06:21:14.330Z</when>
<when >2025-07-08T06:21:23.180Z</when>
<when >2025-07-08T06:21:41.580Z</when>
<when >2025-07-08T06:21:44.760Z</when>
<when >2025-07-08T06:22:35.520Z</when>
<when >2025-07-08T06:22:47.770Z</when>
<when >2025-07-08T06:23:50.310Z</when>
<when >2025-07-08T06:23:50.310Z</when>
<gx:coord >-0.369568 51.87445 0</gx:coord>
<gx:coord >-0.370881 51.874226 0</gx:coord>
<gx:coord >-0.371513 51.874113 0</gx:coord>
<gx:coord >-0.37241 51.873962 0</gx:coord>
<gx:coord >-0.372868 51.87388 0</gx:coord>
<gx:coord >-0.373478 51.873775 0</gx:coord>
<gx:coord >-0.373721 51.873734 0</gx:coord>
<gx:coord >-0.374426 51.873608 0</gx:coord>
<gx:coord >-0.375057 51.873493 0</gx:coord>
<gx:coord >-0.375156 51.873473 0</gx:coord>
<gx:coord >-0.376096 51.87331 0</gx:coord>
<gx:coord >-0.376727 51.873402 0</gx:coord>
<gx:coord >-0.376913 51.873528 0</gx:coord>
<gx:coord >-0.377007 51.873764 0</gx:coord>
<gx:coord >-0.376968 51.873848 0</gx:coord>
<gx:coord >-0.376854 51.873962 0</gx:coord>
<gx:coord >-0.376671 51.874088 0</gx:coord>
<gx:coord >-0.376511 51.874171 0</gx:coord>
<gx:coord >-0.376263 51.874322 0</gx:coord>
<gx:coord >-0.375781 51.874615 0</gx:coord>
<gx:coord >-0.37528 51.874912 0</gx:coord>
<gx:coord >-0.374908 51.875172 0</gx:coord>
<gx:coord >-0.374775 51.875288 0</gx:coord>
<gx:coord >-0.37468 51.875405 0</gx:coord>
<gx:coord >-0.374612 51.87553 0</gx:coord>
<gx:coord >-0.374546 51.875742 0</gx:coord>
<gx:coord >-0.374537 51.875965 0</gx:coord>
<gx:coord >-0.374947 51.876685 0</gx:coord>
<gx:coord >-0.375462 51.876953 0</gx:coord>
<gx:coord >-0.375977 51.877104 0</gx:coord>
<gx:coord >-0.37656 51.877281 0</gx:coord>
<gx:coord >-0.377197 51.877465 0</gx:coord>
<gx:coord >-0.377522 51.877558 0</gx:coord>
<gx:coord >-0.380058 51.879408 0</gx:coord>
<gx:coord >-0.379848 51.879734 0</gx:coord>
<gx:coord >-0.378156 51.881104 0</gx:coord>
<gx:coord >-0.378156 51.881104 0</gx:coord>
<gx:coord >-0.376579 51.881824 0</gx:coord>
<gx:coord >-0.376377 51.881897 0</gx:coord>
<gx:coord >-0.374148 51.882133 0</gx:coord>
<gx:coord >-0.373116 51.882341 0</gx:coord>
<gx:coord >-0.372719 51.882351 0</gx:coord>
<gx:coord >-0.372429 51.882236 0</gx:coord>
<gx:coord >-0.372257 51.882038 0</gx:coord>
<gx:coord >-0.372086 51.881713 0</gx:coord>
<gx:coord >-0.371809 51.881218 0</gx:coord>
<gx:coord >-0.371624 51.880749 0</gx:coord>
<gx:coord >-0.371661 51.880657 0</gx:coord>
<gx:coord >-0.371698 51.880611 0</gx:coord>
<gx:coord >-0.372028 51.880456 0</gx:coord>
<gx:coord >-0.372459 51.88036 0</gx:coord>
<gx:coord >-0.372734 51.880304 0</gx:coord>
<gx:coord >-0.373275 51.880188 0</gx:coord>
<gx:coord >-0.373424 51.880165 0</gx:coord>
<gx:coord >-0.37344 51.880165 0</gx:coord>
<gx:coord >-0.373478 51.880153 0</gx:coord>
<gx:coord >-0.373851 51.880829 0</gx:coord>
<gx:coord >-0.373851 51.880817 0</gx:coord>
<gx:coord >-0.373851 51.880817 0</gx:coord>
<gx:coord >-0.373851 51.880817 0</gx:coord>
</gx:Track>
</Placemark>
</Folder>
</Folder>
</kml>
