<?xml version="1.0" encoding="UTF-8"?>
<kml xmlns="http://www.opengis.net/kml/2.2" xmlns:gx="http://www.google.com/kml/ext/2.2"><Folder ><Folder ><name >9H-WBZ track</name>
<Placemark ><name >9H-WBZ</name>
<Style ><LineStyle ><color >ff1c1ae3</color>
<width >4</width>
</LineStyle>
<IconStyle ><Icon ><href >http://maps.google.com/mapfiles/kml/shapes/airports.png</href>
</Icon>
</IconStyle>
</Style>
<gx:Track ><extrude >0</extrude>
<when >2025-09-06T16:57:14.830Z</when>
<when >2025-09-06T16:57:14.830Z</when>
<when >2025-09-06T16:58:05.680Z</when>
<when >2025-09-06T16:59:00.830Z</when>
<when >2025-09-06T16:59:59.900Z</when>
<when >2025-09-06T17:03:10.190Z</when>
<when >2025-09-06T17:03:19.870Z</when>
<when >2025-09-06T17:03:29.720Z</when>
<when >2025-09-06T17:03:34.130Z</when>
<when >2025-09-06T17:03:38.810Z</when>
<when >2025-09-06T17:03:42.030Z</when>
<when >2025-09-06T17:03:43.400Z</when>
<when >2025-09-06T17:03:44.580Z</when>
<when >2025-09-06T17:03:48.780Z</when>
<when >2025-09-06T17:03:51.230Z</when>
<when >2025-09-06T17:03:57.700Z</when>
<when >2025-09-06T17:04:05.210Z</when>
<when >2025-09-06T17:04:12.860Z</when>
<when >2025-09-06T17:04:19.770Z</when>
<when >2025-09-06T17:04:26.100Z</when>
<when >2025-09-06T17:04:31.470Z</when>
<when >2025-09-06T17:04:37.020Z</when>
<when >2025-09-06T17:04:41.860Z</when>
<when >2025-09-06T17:04:45.950Z</when>
<when >2025-09-06T17:04:49.890Z</when>
<when >2025-09-06T17:04:55.360Z</when>
<when >2025-09-06T17:04:58.330Z</when>
<when >2025-09-06T17:05:02.270Z</when>
<when >2025-09-06T17:05:07.040Z</when>
<when >2025-09-06T17:05:11.340Z</when>
<when >2025-09-06T17:05:13.460Z</when>
<when >2025-09-06T17:05:15.230Z</when>
<when >2025-09-06T17:05:17.540Z</when>
<when >2025-09-06T17:05:18.930Z</when>
<when >2025-09-06T17:05:20.920Z</when>
<when >2025-09-06T17:05:23.340Z</when>
<when >2025-09-06T17:05:26.690Z</when>
<when >2025-09-06T17:05:34.100Z</when>
<when >2025-09-06T17:05:37.670Z</when>
<when >2025-09-06T17:05:41.790Z</when>
<when >2025-09-06T17:05:45.700Z</when>
<when >2025-09-06T17:05:50.650Z</when>
<when >2025-09-06T17:05:56.130Z</when>
<when >2025-09-06T17:05:59.740Z</when>
<when >2025-09-06T17:06:04.580Z</when>
<when >2025-09-06T17:06:09.140Z</when>
<when >2025-09-06T17:06:13.360Z</when>
<when >2025-09-06T17:06:17.790Z</when>
<when >2025-09-06T17:06:23.260Z</when>
<when >2025-09-06T17:06:26.800Z</when>
<when >2025-09-06T17:06:29.680Z</when>
<when >2025-09-06T17:06:33.940Z</when>
<when >2025-09-06T17:06:37.570Z</when>
<when >2025-09-06T17:06:40.130Z</when>
<when >2025-09-06T17:06:42.360Z</when>
<when >2025-09-06T17:06:46.290Z</when>
<when >2025-09-06T17:06:49.130Z</when>
<when >2025-09-06T17:06:52.280Z</when>
<when >2025-09-06T17:06:56.490Z</when>
<when >2025-09-06T17:06:59.610Z</when>
<when >2025-09-06T17:07:03.720Z</when>
<when >2025-09-06T17:07:09.730Z</when>
<when >2025-09-06T17:07:11.810Z</when>
<when >2025-09-06T17:07:13.700Z</when>
<when >2025-09-06T17:07:16.160Z</when>
<when >2025-09-06T17:07:17.770Z</when>
<when >2025-09-06T17:07:19.680Z</when>
<when >2025-09-06T17:07:21.050Z</when>
<when >2025-09-06T17:07:22.600Z</when>
<when >2025-09-06T17:07:24.710Z</when>
<when >2025-09-06T17:07:30.600Z</when>
<when >2025-09-06T17:07:35.700Z</when>
<when >2025-09-06T17:07:39.160Z</when>
<when >2025-09-06T17:07:42.830Z</when>
<when >2025-09-06T17:07:50.930Z</when>
<when >2025-09-06T17:07:57.010Z</when>
<when >2025-09-06T17:08:17.570Z</when>
<when >2025-09-06T17:09:15.580Z</when>
<when >2025-09-06T17:10:16.330Z</when>
<when >2025-09-06T17:10:18.160Z</when>
<when >2025-09-06T17:10:20.810Z</when>
<when >2025-09-06T17:10:21.560Z</when>
<when >2025-09-06T17:10:23.230Z</when>
<when >2025-09-06T17:10:25.330Z</when>
<when >2025-09-06T17:10:25.330Z</when>
<when >2025-09-06T17:10:27.440Z</when>
<when >2025-09-06T17:10:29.890Z</when>
<when >2025-09-06T17:10:32.460Z</when>
<when >2025-09-06T17:10:35.430Z</when>
<when >2025-09-06T17:10:35.430Z</when>
<gx:coord >20.965023 52.173717 0</gx:coord>
<gx:coord >20.965023 52.173717 0</gx:coord>
<gx:coord >20.965023 52.173717 0</gx:coord>
<gx:coord >20.965023 52.173717 0</gx:coord>
<gx:coord >20.965023 52.173717 0</gx:coord>
<gx:coord >20.964994 52.1737 0</gx:coord>
<gx:coord >20.964928 52.173626 0</gx:coord>
<gx:coord >20.964756 52.173546 0</gx:coord>
<gx:coord >20.964603 52.173489 0</gx:coord>
<gx:coord >20.964527 52.17334 0</gx:coord>
<gx:coord >20.964582 52.173234 0</gx:coord>
<gx:coord >20.964602 52.173211 0</gx:coord>
<gx:coord >20.964661 52.173157 0</gx:coord>
<gx:coord >20.964756 52.173065 0</gx:coord>
<gx:coord >20.964851 52.172916 0</gx:coord>
<gx:coord >20.965171 52.172571 0</gx:coord>
<gx:coord >20.965519 52.172184 0</gx:coord>
<gx:coord >20.965857 52.171803 0</gx:coord>
<gx:coord >20.966171 52.171419 0</gx:coord>
<gx:coord >20.966473 52.171074 0</gx:coord>
<gx:coord >20.966816 52.170685 0</gx:coord>
<gx:coord >20.967152 52.170302 0</gx:coord>
<gx:coord >20.967464 52.169952 0</gx:coord>
<gx:coord >20.967751 52.169609 0</gx:coord>
<gx:coord >20.968075 52.169231 0</gx:coord>
<gx:coord >20.968418 52.168842 0</gx:coord>
<gx:coord >20.968702 52.168533 0</gx:coord>
<gx:coord >20.968937 52.168265 0</gx:coord>
<gx:coord >20.969251 52.167904 0</gx:coord>
<gx:coord >20.969585 52.167508 0</gx:coord>
<gx:coord >20.96982 52.167229 0</gx:coord>
<gx:coord >20.969982 52.167046 0</gx:coord>
<gx:coord >20.970154 52.166857 0</gx:coord>
<gx:coord >20.970232 52.166775 0</gx:coord>
<gx:coord >20.97035 52.166717 0</gx:coord>
<gx:coord >20.970573 52.166634 0</gx:coord>
<gx:coord >20.97088 52.166554 0</gx:coord>
<gx:coord >20.971331 52.166426 0</gx:coord>
<gx:coord >20.971841 52.166286 0</gx:coord>
<gx:coord >20.97241 52.166123 0</gx:coord>
<gx:coord >20.972802 52.166007 0</gx:coord>
<gx:coord >20.973391 52.165844 0</gx:coord>
<gx:coord >20.97393 52.165695 0</gx:coord>
<gx:coord >20.974313 52.165588 0</gx:coord>
<gx:coord >20.974789 52.165455 0</gx:coord>
<gx:coord >20.975412 52.165274 0</gx:coord>
<gx:coord >20.975961 52.165123 0</gx:coord>
<gx:coord >20.976562 52.164951 0</gx:coord>
<gx:coord >20.977216 52.164773 0</gx:coord>
<gx:coord >20.977573 52.164677 0</gx:coord>
<gx:coord >20.978165 52.164505 0</gx:coord>
<gx:coord >20.978766 52.164331 0</gx:coord>
<gx:coord >20.979316 52.16418 0</gx:coord>
<gx:coord >20.979862 52.164024 0</gx:coord>
<gx:coord >20.980218 52.163924 0</gx:coord>
<gx:coord >20.980854 52.163738 0</gx:coord>
<gx:coord >20.981331 52.163612 0</gx:coord>
<gx:coord >20.981925 52.163447 0</gx:coord>
<gx:coord >20.982533 52.16328 0</gx:coord>
<gx:coord >20.983028 52.163132 0</gx:coord>
<gx:coord >20.983696 52.162949 0</gx:coord>
<gx:coord >20.98424 52.162795 0</gx:coord>
<gx:coord >20.984515 52.16269 0</gx:coord>
<gx:coord >20.984613 52.16262 0</gx:coord>
<gx:coord >20.984691 52.162504 0</gx:coord>
<gx:coord >20.984691 52.162364 0</gx:coord>
<gx:coord >20.984688 52.162296 0</gx:coord>
<gx:coord >20.984613 52.162178 0</gx:coord>
<gx:coord >20.984535 52.16209 0</gx:coord>
<gx:coord >20.984475 52.161992 0</gx:coord>
<gx:coord >20.984211 52.161621 0</gx:coord>
<gx:coord >20.984004 52.161352 0</gx:coord>
<gx:coord >20.983829 52.161152 0</gx:coord>
<gx:coord >20.983601 52.161106 0</gx:coord>
<gx:coord >20.983259 52.161235 0</gx:coord>
<gx:coord >20.98318 52.161259 0</gx:coord>
<gx:coord >20.983181 52.161255 0</gx:coord>
<gx:coord >20.983181 52.161266 0</gx:coord>
<gx:coord >20.983082 52.161282 0</gx:coord>
<gx:coord >20.982965 52.161317 0</gx:coord>
<gx:coord >20.982571 52.161415 0</gx:coord>
<gx:coord >20.982418 52.161461 0</gx:coord>
<gx:coord >20.982101 52.161561 0</gx:coord>
<gx:coord >20.981827 52.161631 0</gx:coord>
<gx:coord >20.981541 52.161713 0</gx:coord>
<gx:coord >20.980835 52.161919 0</gx:coord>
<gx:coord >20.979996 52.162148 0</gx:coord>
<gx:coord >20.978374 52.162605 0</gx:coord>
<gx:coord >20.977452 52.162865 0</gx:coord>
<gx:coord >20.977452 52.162865 0</gx:coord>
</gx:Track>
</Placemark>
<Placemark ><name >9H-WBZ</name>
<Style ><LineStyle ><color >ff1c1ae3</color>
<width >4</width>
</LineStyle>
<IconStyle ><Icon ><href >http://maps.google.com/mapfiles/kml/shapes/airports.png</href>
</Icon>
</IconStyle>
</Style>
<gx:Track ><altitudeMode >absolute</altitudeMode>
<extrude >1</extrude>
<when >2025-09-06T17:10:35.430Z</when>
<when >2025-09-06T17:10:37.620Z</when>
<when >2025-09-06T17:10:39.470Z</when>
<when >2025-09-06T17:10:41.170Z</when>
<when >2025-09-06T17:10:44.200Z</when>
<when >2025-09-06T17:10:46.020Z</when>
<when >2025-09-06T17:10:48.950Z</when>
<when >2025-09-06T17:10:52.350Z</when>
<when >2025-09-06T17:10:54.740Z</when>
<when >2025-09-06T17:10:56.390Z</when>
<when >2025-09-06T17:10:57.210Z</when>
<when >2025-09-06T17:10:59.260Z</when>
<when >2025-09-06T17:11:01.590Z</when>
<when >2025-09-06T17:11:04.080Z</when>
<when >2025-09-06T17:11:06.410Z</when>
<when >2025-09-06T17:11:08.550Z</when>
<when >2025-09-06T17:11:10.950Z</when>
<when >2025-09-06T17:11:13.190Z</when>
<when >2025-09-06T17:11:15.740Z</when>
<when >2025-09-06T17:11:18.210Z</when>
<when >2025-09-06T17:11:20.480Z</when>
<when >2025-09-06T17:11:22.680Z</when>
<when >2025-09-06T17:11:25.490Z</when>
<when >2025-09-06T17:11:27.910Z</when>
<when >2025-09-06T17:11:30.840Z</when>
<when >2025-09-06T17:11:34.080Z</when>
<when >2025-09-06T17:11:36.680Z</when>
<when >2025-09-06T17:11:39.750Z</when>
<when >2025-09-06T17:11:43.210Z</when>
<when >2025-09-06T17:11:46.070Z</when>
<when >2025-09-06T17:11:48.610Z</when>
<when >2025-09-06T17:11:52.070Z</when>
<when >2025-09-06T17:11:54.210Z</when>
<when >2025-09-06T17:11:56.790Z</when>
<when >2025-09-06T17:11:59.970Z</when>
<when >2025-09-06T17:12:02.330Z</when>
<when >2025-09-06T17:12:05.600Z</when>
<when >2025-09-06T17:12:08.120Z</when>
<when >2025-09-06T17:12:11.330Z</when>
<when >2025-09-06T17:12:13.800Z</when>
<when >2025-09-06T17:12:16.830Z</when>
<when >2025-09-06T17:12:19.750Z</when>
<when >2025-09-06T17:12:22.580Z</when>
<when >2025-09-06T17:12:25.500Z</when>
<when >2025-09-06T17:12:29.390Z</when>
<when >2025-09-06T17:12:32.140Z</when>
<when >2025-09-06T17:12:35.990Z</when>
<when >2025-09-06T17:12:38.350Z</when>
<when >2025-09-06T17:12:42.810Z</when>
<when >2025-09-06T17:12:47.390Z</when>
<when >2025-09-06T17:12:51.000Z</when>
<when >2025-09-06T17:12:52.980Z</when>
<when >2025-09-06T17:12:55.710Z</when>
<when >2025-09-06T17:12:58.640Z</when>
<when >2025-09-06T17:13:01.670Z</when>
<when >2025-09-06T17:13:04.490Z</when>
<when >2025-09-06T17:13:07.340Z</when>
<when >2025-09-06T17:13:10.360Z</when>
<when >2025-09-06T17:13:12.360Z</when>
<when >2025-09-06T17:13:16.010Z</when>
<when >2025-09-06T17:13:18.240Z</when>
<when >2025-09-06T17:13:19.780Z</when>
<when >2025-09-06T17:13:22.400Z</when>
<when >2025-09-06T17:13:25.470Z</when>
<when >2025-09-06T17:13:28.960Z</when>
<when >2025-09-06T17:13:31.760Z</when>
<when >2025-09-06T17:13:35.080Z</when>
<when >2025-09-06T17:13:37.730Z</when>
<when >2025-09-06T17:13:41.150Z</when>
<when >2025-09-06T17:13:43.670Z</when>
<when >2025-09-06T17:13:46.450Z</when>
<when >2025-09-06T17:13:48.930Z</when>
<when >2025-09-06T17:13:51.550Z</when>
<when >2025-09-06T17:13:54.170Z</when>
<when >2025-09-06T17:13:56.250Z</when>
<when >2025-09-06T17:13:58.600Z</when>
<when >2025-09-06T17:14:00.850Z</when>
<when >2025-09-06T17:14:02.830Z</when>
<when >2025-09-06T17:14:04.640Z</when>
<when >2025-09-06T17:14:06.390Z</when>
<when >2025-09-06T17:14:08.340Z</when>
<when >2025-09-06T17:14:10.340Z</when>
<when >2025-09-06T17:14:11.680Z</when>
<when >2025-09-06T17:14:13.680Z</when>
<when >2025-09-06T17:14:15.160Z</when>
<when >2025-09-06T17:14:17.400Z</when>
<when >2025-09-06T17:14:21.030Z</when>
<when >2025-09-06T17:14:25.010Z</when>
<when >2025-09-06T17:14:29.640Z</when>
<when >2025-09-06T17:14:34.220Z</when>
<when >2025-09-06T17:14:38.590Z</when>
<when >2025-09-06T17:14:42.860Z</when>
<when >2025-09-06T17:14:47.330Z</when>
<when >2025-09-06T17:14:51.810Z</when>
<when >2025-09-06T17:14:55.800Z</when>
<when >2025-09-06T17:15:00.460Z</when>
<when >2025-09-06T17:15:04.830Z</when>
<when >2025-09-06T17:15:09.090Z</when>
<when >2025-09-06T17:15:14.340Z</when>
<when >2025-09-06T17:15:18.290Z</when>
<when >2025-09-06T17:15:22.920Z</when>
<when >2025-09-06T17:15:27.940Z</when>
<when >2025-09-06T17:15:32.550Z</when>
<when >2025-09-06T17:15:34.110Z</when>
<when >2025-09-06T17:15:36.500Z</when>
<when >2025-09-06T17:15:39.550Z</when>
<when >2025-09-06T17:15:43.190Z</when>
<when >2025-09-06T17:15:45.730Z</when>
<when >2025-09-06T17:15:49.960Z</when>
<when >2025-09-06T17:15:58.100Z</when>
<when >2025-09-06T17:16:05.920Z</when>
<when >2025-09-06T17:16:12.110Z</when>
<when >2025-09-06T17:16:17.400Z</when>
<when >2025-09-06T17:16:21.890Z</when>
<when >2025-09-06T17:16:26.450Z</when>
<when >2025-09-06T17:16:30.600Z</when>
<when >2025-09-06T17:16:38.460Z</when>
<when >2025-09-06T17:16:46.230Z</when>
<when >2025-09-06T17:16:53.160Z</when>
<when >2025-09-06T17:17:02.770Z</when>
<when >2025-09-06T17:17:11.500Z</when>
<when >2025-09-06T17:17:19.430Z</when>
<when >2025-09-06T17:17:27.870Z</when>
<when >2025-09-06T17:17:37.590Z</when>
<when >2025-09-06T17:17:47.770Z</when>
<when >2025-09-06T17:17:57.900Z</when>
<when >2025-09-06T17:18:07.630Z</when>
<when >2025-09-06T17:18:19.390Z</when>
<when >2025-09-06T17:18:30.380Z</when>
<when >2025-09-06T17:18:41.470Z</when>
<when >2025-09-06T17:18:51.400Z</when>
<when >2025-09-06T17:19:02.590Z</when>
<when >2025-09-06T17:19:14.600Z</when>
<when >2025-09-06T17:19:26.440Z</when>
<when >2025-09-06T17:19:38.870Z</when>
<when >2025-09-06T17:19:52.610Z</when>
<when >2025-09-06T17:20:05.820Z</when>
<when >2025-09-06T17:20:18.150Z</when>
<when >2025-09-06T17:20:29.880Z</when>
<when >2025-09-06T17:20:42.410Z</when>
<when >2025-09-06T17:20:55.960Z</when>
<when >2025-09-06T17:21:08.680Z</when>
<when >2025-09-06T17:21:20.550Z</when>
<when >2025-09-06T17:21:32.370Z</when>
<when >2025-09-06T17:21:45.650Z</when>
<when >2025-09-06T17:21:59.290Z</when>
<when >2025-09-06T17:22:12.390Z</when>
<when >2025-09-06T17:22:18.730Z</when>
<when >2025-09-06T17:22:24.140Z</when>
<when >2025-09-06T17:22:28.610Z</when>
<when >2025-09-06T17:22:34.830Z</when>
<when >2025-09-06T17:22:48.180Z</when>
<when >2025-09-06T17:23:03.100Z</when>
<when >2025-09-06T17:23:16.660Z</when>
<when >2025-09-06T17:23:31.270Z</when>
<when >2025-09-06T17:23:45.930Z</when>
<when >2025-09-06T17:24:00.160Z</when>
<when >2025-09-06T17:24:13.470Z</when>
<when >2025-09-06T17:24:26.010Z</when>
<when >2025-09-06T17:24:38.590Z</when>
<when >2025-09-06T17:24:51.950Z</when>
<when >2025-09-06T17:24:57.810Z</when>
<when >2025-09-06T17:25:03.170Z</when>
<when >2025-09-06T17:25:07.630Z</when>
<when >2025-09-06T17:25:14.140Z</when>
<when >2025-09-06T17:25:27.610Z</when>
<when >2025-09-06T17:25:42.730Z</when>
<when >2025-09-06T17:25:57.590Z</when>
<when >2025-09-06T17:26:12.550Z</when>
<when >2025-09-06T17:26:27.250Z</when>
<when >2025-09-06T17:26:42.110Z</when>
<when >2025-09-06T17:26:56.270Z</when>
<when >2025-09-06T17:27:11.080Z</when>
<when >2025-09-06T17:27:27.460Z</when>
<when >2025-09-06T17:27:43.670Z</when>
<when >2025-09-06T17:27:59.430Z</when>
<when >2025-09-06T17:28:17.310Z</when>
<when >2025-09-06T17:28:34.290Z</when>
<when >2025-09-06T17:28:51.090Z</when>
<when >2025-09-06T17:29:09.340Z</when>
<when >2025-09-06T17:29:26.460Z</when>
<when >2025-09-06T17:29:42.970Z</when>
<when >2025-09-06T17:30:01.200Z</when>
<when >2025-09-06T17:30:16.000Z</when>
<when >2025-09-06T17:30:30.690Z</when>
<when >2025-09-06T17:30:46.290Z</when>
<when >2025-09-06T17:31:02.540Z</when>
<when >2025-09-06T17:31:15.030Z</when>
<when >2025-09-06T17:31:20.030Z</when>
<when >2025-09-06T17:31:24.980Z</when>
<when >2025-09-06T17:31:30.060Z</when>
<when >2025-09-06T17:31:34.760Z</when>
<when >2025-09-06T17:31:40.140Z</when>
<when >2025-09-06T17:31:54.730Z</when>
<when >2025-09-06T17:32:09.740Z</when>
<when >2025-09-06T17:32:27.480Z</when>
<when >2025-09-06T17:32:43.770Z</when>
<when >2025-09-06T17:32:59.320Z</when>
<when >2025-09-06T17:33:15.130Z</when>
<when >2025-09-06T17:33:34.340Z</when>
<when >2025-09-06T17:33:53.990Z</when>
<when >2025-09-06T17:34:10.590Z</when>
<when >2025-09-06T17:34:23.590Z</when>
<when >2025-09-06T17:34:29.710Z</when>
<when >2025-09-06T17:34:49.190Z</when>
<when >2025-09-06T17:35:09.070Z</when>
<when >2025-09-06T17:35:28.860Z</when>
<when >2025-09-06T17:35:48.780Z</when>
<when >2025-09-06T17:36:08.300Z</when>
<when >2025-09-06T17:36:28.170Z</when>
<when >2025-09-06T17:36:47.660Z</when>
<when >2025-09-06T17:37:06.990Z</when>
<when >2025-09-06T17:37:26.830Z</when>
<when >2025-09-06T17:37:46.290Z</when>
<when >2025-09-06T17:38:05.810Z</when>
<when >2025-09-06T17:38:25.380Z</when>
<when >2025-09-06T17:38:45.130Z</when>
<when >2025-09-06T17:39:04.610Z</when>
<when >2025-09-06T17:39:24.140Z</when>
<when >2025-09-06T17:39:44.040Z</when>
<when >2025-09-06T17:40:04.010Z</when>
<when >2025-09-06T17:40:23.680Z</when>
<when >2025-09-06T17:40:43.580Z</when>
<when >2025-09-06T17:41:03.560Z</when>
<when >2025-09-06T17:41:23.040Z</when>
<when >2025-09-06T17:41:42.690Z</when>
<when >2025-09-06T17:42:02.070Z</when>
<when >2025-09-06T17:42:21.990Z</when>
<when >2025-09-06T17:42:41.800Z</when>
<when >2025-09-06T17:43:01.690Z</when>
<when >2025-09-06T17:43:21.110Z</when>
<when >2025-09-06T17:43:40.920Z</when>
<when >2025-09-06T17:44:00.550Z</when>
<when >2025-09-06T17:44:20.420Z</when>
<when >2025-09-06T17:44:40.320Z</when>
<when >2025-09-06T17:45:00.060Z</when>
<when >2025-09-06T17:45:19.580Z</when>
<when >2025-09-06T17:45:39.210Z</when>
<when >2025-09-06T17:45:58.790Z</when>
<when >2025-09-06T17:46:18.570Z</when>
<when >2025-09-06T17:46:38.180Z</when>
<when >2025-09-06T17:46:57.820Z</when>
<when >2025-09-06T17:47:17.260Z</when>
<when >2025-09-06T17:47:36.730Z</when>
<when >2025-09-06T17:47:56.710Z</when>
<when >2025-09-06T17:48:16.400Z</when>
<when >2025-09-06T17:48:36.370Z</when>
<when >2025-09-06T17:48:56.160Z</when>
<when >2025-09-06T17:49:16.030Z</when>
<when >2025-09-06T17:49:36.010Z</when>
<when >2025-09-06T17:49:56.010Z</when>
<when >2025-09-06T17:50:15.830Z</when>
<when >2025-09-06T17:50:35.400Z</when>
<when >2025-09-06T17:50:54.870Z</when>
<when >2025-09-06T17:51:14.410Z</when>
<when >2025-09-06T17:51:34.340Z</when>
<when >2025-09-06T17:51:54.150Z</when>
<when >2025-09-06T17:52:13.830Z</when>
<when >2025-09-06T17:52:33.720Z</when>
<when >2025-09-06T17:52:52.900Z</when>
<when >2025-09-06T17:53:12.500Z</when>
<when >2025-09-06T17:53:32.030Z</when>
<when >2025-09-06T17:53:51.530Z</when>
<when >2025-09-06T17:54:11.250Z</when>
<when >2025-09-06T17:54:31.190Z</when>
<when >2025-09-06T17:54:51.140Z</when>
<when >2025-09-06T17:55:10.820Z</when>
<when >2025-09-06T17:55:30.380Z</when>
<when >2025-09-06T17:55:50.360Z</when>
<when >2025-09-06T17:56:10.350Z</when>
<when >2025-09-06T17:56:30.070Z</when>
<when >2025-09-06T17:56:49.950Z</when>
<when >2025-09-06T17:57:09.800Z</when>
<when >2025-09-06T17:57:29.210Z</when>
<when >2025-09-06T17:57:48.750Z</when>
<when >2025-09-06T17:58:08.290Z</when>
<when >2025-09-06T17:58:28.090Z</when>
<when >2025-09-06T17:58:47.920Z</when>
<when >2025-09-06T17:59:07.600Z</when>
<when >2025-09-06T17:59:27.380Z</when>
<when >2025-09-06T17:59:47.110Z</when>
<when >2025-09-06T18:00:06.970Z</when>
<when >2025-09-06T18:00:26.270Z</when>
<when >2025-09-06T18:00:45.870Z</when>
<when >2025-09-06T18:01:05.400Z</when>
<when >2025-09-06T18:01:25.130Z</when>
<when >2025-09-06T18:01:44.660Z</when>
<when >2025-09-06T18:02:04.430Z</when>
<when >2025-09-06T18:02:24.220Z</when>
<when >2025-09-06T18:02:43.790Z</when>
<when >2025-09-06T18:03:03.330Z</when>
<when >2025-09-06T18:03:22.710Z</when>
<when >2025-09-06T18:03:42.320Z</when>
<when >2025-09-06T18:04:02.210Z</when>
<when >2025-09-06T18:04:22.040Z</when>
<when >2025-09-06T18:04:41.820Z</when>
<when >2025-09-06T18:05:01.500Z</when>
<when >2025-09-06T18:05:21.180Z</when>
<when >2025-09-06T18:05:40.950Z</when>
<when >2025-09-06T18:06:00.680Z</when>
<when >2025-09-06T18:06:20.140Z</when>
<when >2025-09-06T18:06:39.910Z</when>
<when >2025-09-06T18:06:59.620Z</when>
<when >2025-09-06T18:07:18.890Z</when>
<when >2025-09-06T18:07:38.770Z</when>
<when >2025-09-06T18:07:58.040Z</when>
<when >2025-09-06T18:08:17.520Z</when>
<when >2025-09-06T18:08:37.310Z</when>
<when >2025-09-06T18:08:57.030Z</when>
<when >2025-09-06T18:09:16.990Z</when>
<when >2025-09-06T18:09:36.780Z</when>
<when >2025-09-06T18:09:56.330Z</when>
<when >2025-09-06T18:10:05.540Z</when>
<when >2025-09-06T18:10:15.180Z</when>
<when >2025-09-06T18:10:29.740Z</when>
<when >2025-09-06T18:10:49.570Z</when>
<when >2025-09-06T18:11:08.790Z</when>
<when >2025-09-06T18:11:28.780Z</when>
<when >2025-09-06T18:11:48.610Z</when>
<when >2025-09-06T18:12:08.270Z</when>
<when >2025-09-06T18:12:28.210Z</when>
<when >2025-09-06T18:12:47.830Z</when>
<when >2025-09-06T18:13:07.650Z</when>
<when >2025-09-06T18:13:27.580Z</when>
<when >2025-09-06T18:13:46.650Z</when>
<when >2025-09-06T18:14:06.440Z</when>
<when >2025-09-06T18:14:25.800Z</when>
<when >2025-09-06T18:14:45.740Z</when>
<when >2025-09-06T18:15:05.320Z</when>
<when >2025-09-06T18:15:25.140Z</when>
<when >2025-09-06T18:15:43.040Z</when>
<when >2025-09-06T18:16:02.120Z</when>
<when >2025-09-06T18:16:22.050Z</when>
<when >2025-09-06T18:16:41.840Z</when>
<when >2025-09-06T18:17:01.510Z</when>
<when >2025-09-06T18:17:21.480Z</when>
<when >2025-09-06T18:17:41.450Z</when>
<when >2025-09-06T18:18:01.030Z</when>
<when >2025-09-06T18:18:20.580Z</when>
<when >2025-09-06T18:18:39.860Z</when>
<when >2025-09-06T18:18:59.810Z</when>
<when >2025-09-06T18:19:19.350Z</when>
<when >2025-09-06T18:19:39.040Z</when>
<when >2025-09-06T18:19:58.620Z</when>
<when >2025-09-06T18:20:18.610Z</when>
<when >2025-09-06T18:20:38.430Z</when>
<when >2025-09-06T18:20:53.210Z</when>
<when >2025-09-06T18:20:58.690Z</when>
<when >2025-09-06T18:21:13.810Z</when>
<when >2025-09-06T18:21:29.880Z</when>
<when >2025-09-06T18:21:47.700Z</when>
<when >2025-09-06T18:21:54.210Z</when>
<when >2025-09-06T18:22:13.660Z</when>
<when >2025-09-06T18:22:33.480Z</when>
<when >2025-09-06T18:22:53.190Z</when>
<when >2025-09-06T18:23:13.000Z</when>
<when >2025-09-06T18:23:32.790Z</when>
<when >2025-09-06T18:23:51.770Z</when>
<when >2025-09-06T18:24:10.550Z</when>
<when >2025-09-06T18:24:30.420Z</when>
<when >2025-09-06T18:24:49.850Z</when>
<when >2025-09-06T18:25:09.450Z</when>
<when >2025-09-06T18:25:28.550Z</when>
<when >2025-09-06T18:25:48.040Z</when>
<when >2025-09-06T18:26:07.960Z</when>
<when >2025-09-06T18:26:27.830Z</when>
<when >2025-09-06T18:26:47.330Z</when>
<when >2025-09-06T18:27:06.180Z</when>
<when >2025-09-06T18:27:25.990Z</when>
<when >2025-09-06T18:27:45.420Z</when>
<when >2025-09-06T18:28:04.900Z</when>
<when >2025-09-06T18:28:23.900Z</when>
<when >2025-09-06T18:28:42.850Z</when>
<when >2025-09-06T18:29:01.860Z</when>
<when >2025-09-06T18:29:21.360Z</when>
<when >2025-09-06T18:29:41.090Z</when>
<when >2025-09-06T18:30:00.700Z</when>
<when >2025-09-06T18:30:20.520Z</when>
<when >2025-09-06T18:30:40.520Z</when>
<when >2025-09-06T18:31:00.230Z</when>
<when >2025-09-06T18:31:20.000Z</when>
<when >2025-09-06T18:31:38.830Z</when>
<when >2025-09-06T18:31:58.730Z</when>
<when >2025-09-06T18:32:18.510Z</when>
<when >2025-09-06T18:32:38.420Z</when>
<when >2025-09-06T18:32:58.290Z</when>
<when >2025-09-06T18:33:18.030Z</when>
<when >2025-09-06T18:33:37.510Z</when>
<when >2025-09-06T18:33:57.290Z</when>
<when >2025-09-06T18:34:17.150Z</when>
<when >2025-09-06T18:34:37.020Z</when>
<when >2025-09-06T18:34:56.540Z</when>
<when >2025-09-06T18:35:15.990Z</when>
<when >2025-09-06T18:35:35.840Z</when>
<when >2025-09-06T18:35:55.820Z</when>
<when >2025-09-06T18:36:15.140Z</when>
<when >2025-09-06T18:36:23.700Z</when>
<when >2025-09-06T18:36:27.570Z</when>
<when >2025-09-06T18:36:32.640Z</when>
<when >2025-09-06T18:36:37.480Z</when>
<when >2025-09-06T18:36:42.300Z</when>
<when >2025-09-06T18:36:47.150Z</when>
<when >2025-09-06T18:37:06.370Z</when>
<when >2025-09-06T18:37:21.290Z</when>
<when >2025-09-06T18:37:41.190Z</when>
<when >2025-09-06T18:38:00.770Z</when>
<when >2025-09-06T18:38:20.710Z</when>
<when >2025-09-06T18:38:39.990Z</when>
<when >2025-09-06T18:38:59.790Z</when>
<when >2025-09-06T18:39:19.530Z</when>
<when >2025-09-06T18:39:39.430Z</when>
<when >2025-09-06T18:39:58.510Z</when>
<when >2025-09-06T18:40:18.110Z</when>
<when >2025-09-06T18:40:37.830Z</when>
<when >2025-09-06T18:40:57.670Z</when>
<when >2025-09-06T18:41:17.580Z</when>
<when >2025-09-06T18:41:36.940Z</when>
<when >2025-09-06T18:41:56.030Z</when>
<when >2025-09-06T18:42:15.410Z</when>
<when >2025-09-06T18:42:35.030Z</when>
<when >2025-09-06T18:42:54.080Z</when>
<when >2025-09-06T18:43:13.120Z</when>
<when >2025-09-06T18:43:32.630Z</when>
<when >2025-09-06T18:43:51.710Z</when>
<when >2025-09-06T18:44:11.500Z</when>
<when >2025-09-06T18:44:31.390Z</when>
<when >2025-09-06T18:44:51.340Z</when>
<when >2025-09-06T18:45:11.100Z</when>
<when >2025-09-06T18:45:30.890Z</when>
<when >2025-09-06T18:45:50.120Z</when>
<when >2025-09-06T18:46:09.800Z</when>
<when >2025-09-06T18:46:29.650Z</when>
<when >2025-09-06T18:46:49.070Z</when>
<when >2025-09-06T18:47:08.290Z</when>
<when >2025-09-06T18:47:27.530Z</when>
<when >2025-09-06T18:47:47.390Z</when>
<when >2025-09-06T18:48:07.230Z</when>
<when >2025-09-06T18:48:26.380Z</when>
<when >2025-09-06T18:48:46.140Z</when>
<when >2025-09-06T18:49:05.660Z</when>
<when >2025-09-06T18:49:25.350Z</when>
<when >2025-09-06T18:49:45.180Z</when>
<when >2025-09-06T18:50:04.890Z</when>
<when >2025-09-06T18:50:24.720Z</when>
<when >2025-09-06T18:50:44.310Z</when>
<when >2025-09-06T18:51:04.090Z</when>
<when >2025-09-06T18:51:23.440Z</when>
<when >2025-09-06T18:51:43.160Z</when>
<when >2025-09-06T18:52:03.110Z</when>
<when >2025-09-06T18:52:22.960Z</when>
<when >2025-09-06T18:52:42.510Z</when>
<when >2025-09-06T18:53:02.380Z</when>
<when >2025-09-06T18:53:21.810Z</when>
<when >2025-09-06T18:53:41.780Z</when>
<when >2025-09-06T18:54:01.740Z</when>
<when >2025-09-06T18:54:21.580Z</when>
<when >2025-09-06T18:54:41.170Z</when>
<when >2025-09-06T18:55:01.130Z</when>
<when >2025-09-06T18:55:21.110Z</when>
<when >2025-09-06T18:55:40.990Z</when>
<when >2025-09-06T18:56:00.600Z</when>
<when >2025-09-06T18:56:20.590Z</when>
<when >2025-09-06T18:56:40.340Z</when>
<when >2025-09-06T18:56:59.670Z</when>
<when >2025-09-06T18:57:19.660Z</when>
<when >2025-09-06T18:57:39.420Z</when>
<when >2025-09-06T18:57:59.280Z</when>
<when >2025-09-06T18:58:18.970Z</when>
<when >2025-09-06T18:58:38.420Z</when>
<when >2025-09-06T18:58:57.890Z</when>
<when >2025-09-06T18:59:17.510Z</when>
<when >2025-09-06T18:59:37.200Z</when>
<when >2025-09-06T18:59:57.160Z</when>
<when >2025-09-06T19:00:16.990Z</when>
<when >2025-09-06T19:00:36.870Z</when>
<when >2025-09-06T19:00:56.430Z</when>
<when >2025-09-06T19:01:16.240Z</when>
<when >2025-09-06T19:01:35.990Z</when>
<when >2025-09-06T19:01:55.500Z</when>
<when >2025-09-06T19:02:14.630Z</when>
<when >2025-09-06T19:02:34.510Z</when>
<when >2025-09-06T19:02:54.290Z</when>
<when >2025-09-06T19:03:13.940Z</when>
<when >2025-09-06T19:03:33.750Z</when>
<when >2025-09-06T19:03:53.090Z</when>
<when >2025-09-06T19:04:12.920Z</when>
<when >2025-09-06T19:04:32.550Z</when>
<when >2025-09-06T19:04:52.510Z</when>
<when >2025-09-06T19:05:12.210Z</when>
<when >2025-09-06T19:05:32.200Z</when>
<when >2025-09-06T19:05:51.730Z</when>
<when >2025-09-06T19:06:11.600Z</when>
<when >2025-09-06T19:06:31.260Z</when>
<when >2025-09-06T19:06:50.520Z</when>
<when >2025-09-06T19:07:10.020Z</when>
<when >2025-09-06T19:07:29.290Z</when>
<when >2025-09-06T19:07:49.020Z</when>
<when >2025-09-06T19:08:08.660Z</when>
<when >2025-09-06T19:08:28.460Z</when>
<when >2025-09-06T19:08:48.430Z</when>
<when >2025-09-06T19:09:08.070Z</when>
<when >2025-09-06T19:09:26.860Z</when>
<when >2025-09-06T19:09:46.450Z</when>
<when >2025-09-06T19:10:05.880Z</when>
<when >2025-09-06T19:10:25.820Z</when>
<when >2025-09-06T19:10:45.600Z</when>
<when >2025-09-06T19:11:05.580Z</when>
<when >2025-09-06T19:11:25.350Z</when>
<when >2025-09-06T19:11:45.110Z</when>
<when >2025-09-06T19:12:04.640Z</when>
<when >2025-09-06T19:12:24.070Z</when>
<when >2025-09-06T19:12:43.250Z</when>
<when >2025-09-06T19:13:03.120Z</when>
<when >2025-09-06T19:13:22.930Z</when>
<when >2025-09-06T19:13:42.730Z</when>
<when >2025-09-06T19:14:02.110Z</when>
<when >2025-09-06T19:14:21.340Z</when>
<when >2025-09-06T19:14:40.950Z</when>
<when >2025-09-06T19:14:47.320Z</when>
<when >2025-09-06T19:14:53.250Z</when>
<when >2025-09-06T19:14:59.970Z</when>
<when >2025-09-06T19:15:19.760Z</when>
<when >2025-09-06T19:15:39.570Z</when>
<when >2025-09-06T19:15:59.070Z</when>
<when >2025-09-06T19:16:18.990Z</when>
<when >2025-09-06T19:16:38.580Z</when>
<when >2025-09-06T19:16:57.650Z</when>
<when >2025-09-06T19:17:17.180Z</when>
<when >2025-09-06T19:17:36.820Z</when>
<when >2025-09-06T19:17:56.710Z</when>
<when >2025-09-06T19:18:16.130Z</when>
<when >2025-09-06T19:18:35.970Z</when>
<when >2025-09-06T19:18:55.560Z</when>
<when >2025-09-06T19:19:15.530Z</when>
<when >2025-09-06T19:19:35.160Z</when>
<when >2025-09-06T19:19:54.820Z</when>
<when >2025-09-06T19:20:14.470Z</when>
<when >2025-09-06T19:20:34.220Z</when>
<when >2025-09-06T19:20:53.940Z</when>
<when >2025-09-06T19:21:13.560Z</when>
<when >2025-09-06T19:21:33.370Z</when>
<when >2025-09-06T19:21:52.900Z</when>
<when >2025-09-06T19:22:07.690Z</when>
<when >2025-09-06T19:22:16.830Z</when>
<when >2025-09-06T19:22:28.250Z</when>
<when >2025-09-06T19:22:47.880Z</when>
<when >2025-09-06T19:23:01.350Z</when>
<when >2025-09-06T19:23:06.280Z</when>
<when >2025-09-06T19:23:09.750Z</when>
<when >2025-09-06T19:23:13.900Z</when>
<when >2025-09-06T19:23:18.610Z</when>
<when >2025-09-06T19:23:27.810Z</when>
<when >2025-09-06T19:23:36.620Z</when>
<when >2025-09-06T19:23:45.150Z</when>
<when >2025-09-06T19:23:49.240Z</when>
<when >2025-09-06T19:23:55.420Z</when>
<when >2025-09-06T19:24:06.840Z</when>
<when >2025-09-06T19:24:17.770Z</when>
<when >2025-09-06T19:24:28.430Z</when>
<when >2025-09-06T19:24:32.780Z</when>
<when >2025-09-06T19:24:34.400Z</when>
<when >2025-09-06T19:24:35.580Z</when>
<when >2025-09-06T19:24:39.620Z</when>
<when >2025-09-06T19:24:44.620Z</when>
<when >2025-09-06T19:24:50.070Z</when>
<when >2025-09-06T19:24:55.740Z</when>
<when >2025-09-06T19:24:57.690Z</when>
<when >2025-09-06T19:25:00.380Z</when>
<when >2025-09-06T19:25:03.990Z</when>
<when >2025-09-06T19:25:13.760Z</when>
<when >2025-09-06T19:25:22.540Z</when>
<when >2025-09-06T19:25:32.820Z</when>
<when >2025-09-06T19:25:34.820Z</when>
<when >2025-09-06T19:25:37.360Z</when>
<when >2025-09-06T19:25:40.030Z</when>
<when >2025-09-06T19:25:44.410Z</when>
<when >2025-09-06T19:25:49.250Z</when>
<when >2025-09-06T19:25:53.820Z</when>
<when >2025-09-06T19:25:56.760Z</when>
<when >2025-09-06T19:25:58.380Z</when>
<when >2025-09-06T19:26:02.070Z</when>
<when >2025-09-06T19:26:09.310Z</when>
<when >2025-09-06T19:26:15.020Z</when>
<when >2025-09-06T19:26:16.850Z</when>
<when >2025-09-06T19:26:19.060Z</when>
<when >2025-09-06T19:26:24.560Z</when>
<when >2025-09-06T19:26:29.230Z</when>
<when >2025-09-06T19:26:32.810Z</when>
<when >2025-09-06T19:26:34.670Z</when>
<when >2025-09-06T19:26:42.850Z</when>
<when >2025-09-06T19:26:45.500Z</when>
<when >2025-09-06T19:26:47.210Z</when>
<when >2025-09-06T19:26:53.050Z</when>
<when >2025-09-06T19:26:58.490Z</when>
<when >2025-09-06T19:27:00.100Z</when>
<when >2025-09-06T19:27:02.700Z</when>
<when >2025-09-06T19:27:05.120Z</when>
<when >2025-09-06T19:27:07.240Z</when>
<when >2025-09-06T19:27:10.780Z</when>
<when >2025-09-06T19:27:20.980Z</when>
<when >2025-09-06T19:27:29.240Z</when>
<when >2025-09-06T19:27:36.980Z</when>
<when >2025-09-06T19:27:44.370Z</when>
<when >2025-09-06T19:27:52.000Z</when>
<when >2025-09-06T19:27:59.920Z</when>
<when >2025-09-06T19:28:08.510Z</when>
<when >2025-09-06T19:28:16.440Z</when>
<when >2025-09-06T19:28:22.830Z</when>
<when >2025-09-06T19:28:29.070Z</when>
<when >2025-09-06T19:28:37.030Z</when>
<when >2025-09-06T19:28:45.550Z</when>
<when >2025-09-06T19:28:53.760Z</when>
<when >2025-09-06T19:29:01.430Z</when>
<when >2025-09-06T19:29:08.690Z</when>
<when >2025-09-06T19:29:17.210Z</when>
<when >2025-09-06T19:29:26.170Z</when>
<when >2025-09-06T19:29:36.100Z</when>
<when >2025-09-06T19:29:46.260Z</when>
<when >2025-09-06T19:29:55.390Z</when>
<when >2025-09-06T19:30:02.920Z</when>
<when >2025-09-06T19:30:10.190Z</when>
<when >2025-09-06T19:30:14.830Z</when>
<when >2025-09-06T19:30:17.080Z</when>
<when >2025-09-06T19:30:26.840Z</when>
<when >2025-09-06T19:30:32.500Z</when>
<when >2025-09-06T19:30:34.390Z</when>
<when >2025-09-06T19:30:36.390Z</when>
<when >2025-09-06T19:30:43.820Z</when>
<when >2025-09-06T19:30:53.720Z</when>
<when >2025-09-06T19:31:04.890Z</when>
<when >2025-09-06T19:31:13.660Z</when>
<when >2025-09-06T19:31:19.310Z</when>
<when >2025-09-06T19:31:25.060Z</when>
<when >2025-09-06T19:31:30.410Z</when>
<when >2025-09-06T19:31:36.110Z</when>
<when >2025-09-06T19:31:41.760Z</when>
<when >2025-09-06T19:31:47.470Z</when>
<when >2025-09-06T19:31:54.310Z</when>
<when >2025-09-06T19:32:00.580Z</when>
<when >2025-09-06T19:32:06.470Z</when>
<when >2025-09-06T19:32:12.200Z</when>
<when >2025-09-06T19:32:17.680Z</when>
<when >2025-09-06T19:32:23.200Z</when>
<when >2025-09-06T19:32:28.450Z</when>
<when >2025-09-06T19:32:34.450Z</when>
<when >2025-09-06T19:32:40.840Z</when>
<when >2025-09-06T19:32:46.840Z</when>
<when >2025-09-06T19:32:52.700Z</when>
<when >2025-09-06T19:32:57.710Z</when>
<when >2025-09-06T19:33:03.940Z</when>
<when >2025-09-06T19:33:09.440Z</when>
<when >2025-09-06T19:33:16.480Z</when>
<when >2025-09-06T19:33:23.490Z</when>
<when >2025-09-06T19:33:29.430Z</when>
<when >2025-09-06T19:33:35.140Z</when>
<when >2025-09-06T19:33:41.010Z</when>
<when >2025-09-06T19:33:43.940Z</when>
<when >2025-09-06T19:33:46.160Z</when>
<when >2025-09-06T19:33:48.600Z</when>
<when >2025-09-06T19:33:51.590Z</when>
<when >2025-09-06T19:33:53.940Z</when>
<when >2025-09-06T19:33:56.530Z</when>
<when >2025-09-06T19:33:59.620Z</when>
<when >2025-09-06T19:34:02.820Z</when>
<when >2025-09-06T19:34:05.610Z</when>
<when >2025-09-06T19:34:09.030Z</when>
<when >2025-09-06T19:34:12.380Z</when>
<when >2025-09-06T19:34:17.030Z</when>
<when >2025-09-06T19:34:21.550Z</when>
<when >2025-09-06T19:34:26.470Z</when>
<when >2025-09-06T19:34:32.970Z</when>
<when >2025-09-06T19:34:37.330Z</when>
<when >2025-09-06T19:34:42.590Z</when>
<when >2025-09-06T19:34:48.970Z</when>
<when >2025-09-06T19:34:54.070Z</when>
<when >2025-09-06T19:34:56.950Z</when>
<when >2025-09-06T19:35:01.180Z</when>
<when >2025-09-06T19:35:04.990Z</when>
<when >2025-09-06T19:35:05.960Z</when>
<when >2025-09-06T19:35:09.180Z</when>
<when >2025-09-06T19:35:11.940Z</when>
<when >2025-09-06T19:35:14.640Z</when>
<when >2025-09-06T19:35:18.070Z</when>
<when >2025-09-06T19:35:21.090Z</when>
<when >2025-09-06T19:35:23.720Z</when>
<when >2025-09-06T19:35:26.210Z</when>
<when >2025-09-06T19:35:30.080Z</when>
<when >2025-09-06T19:35:31.230Z</when>
<when >2025-09-06T19:35:32.520Z</when>
<when >2025-09-06T19:35:35.570Z</when>
<when >2025-09-06T19:35:39.430Z</when>
<when >2025-09-06T19:35:42.590Z</when>
<when >2025-09-06T19:35:44.490Z</when>
<when >2025-09-06T19:35:47.530Z</when>
<when >2025-09-06T19:35:49.320Z</when>
<when >2025-09-06T19:35:51.600Z</when>
<when >2025-09-06T19:35:55.320Z</when>
<when >2025-09-06T19:35:57.380Z</when>
<when >2025-09-06T19:36:01.600Z</when>
<when >2025-09-06T19:36:05.810Z</when>
<when >2025-09-06T19:36:09.010Z</when>
<when >2025-09-06T19:36:12.150Z</when>
<when >2025-09-06T19:36:15.830Z</when>
<when >2025-09-06T19:36:19.160Z</when>
<when >2025-09-06T19:36:23.320Z</when>
<when >2025-09-06T19:36:27.200Z</when>
<when >2025-09-06T19:36:31.170Z</when>
<when >2025-09-06T19:36:34.440Z</when>
<when >2025-09-06T19:36:37.260Z</when>
<when >2025-09-06T19:36:40.080Z</when>
<when >2025-09-06T19:36:43.260Z</when>
<when >2025-09-06T19:36:45.480Z</when>
<when >2025-09-06T19:36:48.440Z</when>
<when >2025-09-06T19:36:51.190Z</when>
<when >2025-09-06T19:36:54.470Z</when>
<when >2025-09-06T19:36:56.580Z</when>
<when >2025-09-06T19:36:59.690Z</when>
<when >2025-09-06T19:37:03.100Z</when>
<when >2025-09-06T19:37:07.050Z</when>
<when >2025-09-06T19:37:11.280Z</when>
<when >2025-09-06T19:37:15.850Z</when>
<when >2025-09-06T19:37:21.600Z</when>
<when >2025-09-06T19:37:27.860Z</when>
<when >2025-09-06T19:37:33.660Z</when>
<when >2025-09-06T19:37:39.730Z</when>
<when >2025-09-06T19:37:46.720Z</when>
<when >2025-09-06T19:37:53.760Z</when>
<when >2025-09-06T19:38:00.080Z</when>
<when >2025-09-06T19:38:07.160Z</when>
<when >2025-09-06T19:38:13.910Z</when>
<when >2025-09-06T19:38:22.030Z</when>
<when >2025-09-06T19:38:29.350Z</when>
<when >2025-09-06T19:38:36.150Z</when>
<when >2025-09-06T19:38:42.790Z</when>
<when >2025-09-06T19:38:46.470Z</when>
<when >2025-09-06T19:38:51.930Z</when>
<when >2025-09-06T19:38:56.530Z</when>
<when >2025-09-06T19:39:03.420Z</when>
<when >2025-09-06T19:39:12.140Z</when>
<when >2025-09-06T19:39:20.370Z</when>
<when >2025-09-06T19:39:28.730Z</when>
<when >2025-09-06T19:39:37.250Z</when>
<when >2025-09-06T19:39:45.870Z</when>
<when >2025-09-06T19:39:52.230Z</when>
<when >2025-09-06T19:40:00.750Z</when>
<when >2025-09-06T19:40:09.150Z</when>
<when >2025-09-06T19:40:17.100Z</when>
<when >2025-09-06T19:40:25.510Z</when>
<when >2025-09-06T19:40:32.020Z</when>
<when >2025-09-06T19:40:39.860Z</when>
<when >2025-09-06T19:40:48.800Z</when>
<when >2025-09-06T19:40:57.580Z</when>
<when >2025-09-06T19:41:06.140Z</when>
<when >2025-09-06T19:41:12.720Z</when>
<when >2025-09-06T19:41:15.210Z</when>
<when >2025-09-06T19:41:18.190Z</when>
<when >2025-09-06T19:41:20.020Z</when>
<when >2025-09-06T19:41:20.530Z</when>
<when >2025-09-06T19:41:20.530Z</when>
<gx:coord >20.977173 52.162949 113</gx:coord>
<gx:coord >20.975723 52.163361 113</gx:coord>
<gx:coord >20.974705 52.163645 113</gx:coord>
<gx:coord >20.973129 52.164093 113</gx:coord>
<gx:coord >20.971069 52.164642 112</gx:coord>
<gx:coord >20.968663 52.16532 111</gx:coord>
<gx:coord >20.965424 52.166245 106</gx:coord>
<gx:coord >20.962777 52.166996 109</gx:coord>
<gx:coord >20.960007 52.167801 125</gx:coord>
<gx:coord >20.957833 52.168439 139</gx:coord>
<gx:coord >20.956813 52.168719 146</gx:coord>
<gx:coord >20.954437 52.169449 175</gx:coord>
<gx:coord >20.951691 52.170227 207</gx:coord>
<gx:coord >20.94902 52.171005 236</gx:coord>
<gx:coord >20.946847 52.171605 266</gx:coord>
<gx:coord >20.944336 52.172303 295</gx:coord>
<gx:coord >20.941772 52.173065 328</gx:coord>
<gx:coord >20.939235 52.173746 357</gx:coord>
<gx:coord >20.936737 52.174484 386</gx:coord>
<gx:coord >20.934143 52.175171 417</gx:coord>
<gx:coord >20.931388 52.175981 449</gx:coord>
<gx:coord >20.929184 52.176636 481</gx:coord>
<gx:coord >20.926052 52.177517 515</gx:coord>
<gx:coord >20.923383 52.178309 548</gx:coord>
<gx:coord >20.920558 52.179146 578</gx:coord>
<gx:coord >20.917053 52.180115 608</gx:coord>
<gx:coord >20.91428 52.180915 642</gx:coord>
<gx:coord >20.910873 52.181946 674</gx:coord>
<gx:coord >20.907288 52.182861 706</gx:coord>
<gx:coord >20.903765 52.183615 737</gx:coord>
<gx:coord >20.900548 52.183988 760</gx:coord>
<gx:coord >20.896938 52.184174 791</gx:coord>
<gx:coord >20.89372 52.184081 814</gx:coord>
<gx:coord >20.89066 52.183848 845</gx:coord>
<gx:coord >20.886893 52.183429 875</gx:coord>
<gx:coord >20.883636 52.182999 906</gx:coord>
<gx:coord >20.880144 52.182545 939</gx:coord>
<gx:coord >20.876846 52.182037 968</gx:coord>
<gx:coord >20.872955 52.181442 999</gx:coord>
<gx:coord >20.869943 52.180915 1030</gx:coord>
<gx:coord >20.866318 52.180344 1063</gx:coord>
<gx:coord >20.862959 52.179798 1092</gx:coord>
<gx:coord >20.859427 52.17924 1125</gx:coord>
<gx:coord >20.855865 52.178696 1149</gx:coord>
<gx:coord >20.850754 52.177872 1181</gx:coord>
<gx:coord >20.847656 52.177377 1199</gx:coord>
<gx:coord >20.842361 52.176498 1229</gx:coord>
<gx:coord >20.839103 52.175981 1246</gx:coord>
<gx:coord >20.832977 52.174988 1278</gx:coord>
<gx:coord >20.82695 52.174026 1309</gx:coord>
<gx:coord >20.821289 52.173095 1333</gx:coord>
<gx:coord >20.818542 52.172676 1348</gx:coord>
<gx:coord >20.814896 52.172104 1366</gx:coord>
<gx:coord >20.810165 52.171326 1380</gx:coord>
<gx:coord >20.80528 52.170581 1395</gx:coord>
<gx:coord >20.80065 52.169836 1413</gx:coord>
<gx:coord >20.796356 52.169174 1427</gx:coord>
<gx:coord >20.791469 52.168393 1452</gx:coord>
<gx:coord >20.788409 52.167927 1460</gx:coord>
<gx:coord >20.782318 52.166977 1484</gx:coord>
<gx:coord >20.777817 52.16629 1499</gx:coord>
<gx:coord >20.775223 52.165878 1507</gx:coord>
<gx:coord >20.771179 52.165237 1522</gx:coord>
<gx:coord >20.765305 52.164368 1553</gx:coord>
<gx:coord >20.759277 52.163406 1583</gx:coord>
<gx:coord >20.753645 52.162574 1606</gx:coord>
<gx:coord >20.747288 52.161643 1634</gx:coord>
<gx:coord >20.742266 52.160851 1667</gx:coord>
<gx:coord >20.736145 52.159967 1699</gx:coord>
<gx:coord >20.731354 52.159241 1730</gx:coord>
<gx:coord >20.725784 52.158234 1763</gx:coord>
<gx:coord >20.721078 52.15722 1794</gx:coord>
<gx:coord >20.716134 52.155917 1825</gx:coord>
<gx:coord >20.711517 52.154388 1855</gx:coord>
<gx:coord >20.707855 52.152924 1879</gx:coord>
<gx:coord >20.704193 52.151184 1910</gx:coord>
<gx:coord >20.701146 52.1494 1940</gx:coord>
<gx:coord >20.698399 52.147631 1972</gx:coord>
<gx:coord >20.695888 52.145815 2001</gx:coord>
<gx:coord >20.693534 52.144 2035</gx:coord>
<gx:coord >20.691605 52.142441 2068</gx:coord>
<gx:coord >20.689163 52.140381 2107</gx:coord>
<gx:coord >20.687408 52.13887 2137</gx:coord>
<gx:coord >20.685059 52.136877 2166</gx:coord>
<gx:coord >20.683441 52.135483 2196</gx:coord>
<gx:coord >20.680847 52.13324 2224</gx:coord>
<gx:coord >20.676804 52.129807 2290</gx:coord>
<gx:coord >20.671997 52.125778 2352</gx:coord>
<gx:coord >20.666504 52.121246 2414</gx:coord>
<gx:coord >20.661011 52.11676 2475</gx:coord>
<gx:coord >20.655899 52.112686 2537</gx:coord>
<gx:coord >20.650295 52.108247 2598</gx:coord>
<gx:coord >20.644802 52.103918 2664</gx:coord>
<gx:coord >20.639343 52.099686 2725</gx:coord>
<gx:coord >20.634286 52.095725 2784</gx:coord>
<gx:coord >20.628479 52.091209 2850</gx:coord>
<gx:coord >20.622635 52.086685 2916</gx:coord>
<gx:coord >20.617257 52.082504 2982</gx:coord>
<gx:coord >20.610886 52.07753 3043</gx:coord>
<gx:coord >20.605392 52.073273 3097</gx:coord>
<gx:coord >20.599442 52.068604 3161</gx:coord>
<gx:coord >20.593338 52.063843 3220</gx:coord>
<gx:coord >20.587616 52.059082 3282</gx:coord>
<gx:coord >20.585632 52.057226 3296</gx:coord>
<gx:coord >20.583043 52.05448 3313</gx:coord>
<gx:coord >20.580139 52.050751 3336</gx:coord>
<gx:coord >20.57755 52.04624 3351</gx:coord>
<gx:coord >20.576137 52.043074 3359</gx:coord>
<gx:coord >20.574254 52.037674 3389</gx:coord>
<gx:coord >20.570908 52.026489 3450</gx:coord>
<gx:coord >20.56778 52.015457 3511</gx:coord>
<gx:coord >20.565151 52.006624 3567</gx:coord>
<gx:coord >20.562897 51.999435 3629</gx:coord>
<gx:coord >20.56076 51.992706 3698</gx:coord>
<gx:coord >20.558701 51.986252 3757</gx:coord>
<gx:coord >20.556754 51.980229 3822</gx:coord>
<gx:coord >20.552979 51.96904 3938</gx:coord>
<gx:coord >20.549316 51.958282 4060</gx:coord>
<gx:coord >20.545925 51.948247 4180</gx:coord>
<gx:coord >20.541382 51.934982 4303</gx:coord>
<gx:coord >20.537214 51.922364 4417</gx:coord>
<gx:coord >20.533676 51.911682 4547</gx:coord>
<gx:coord >20.529681 51.899507 4669</gx:coord>
<gx:coord >20.524985 51.885681 4798</gx:coord>
<gx:coord >20.52002 51.87125 4912</gx:coord>
<gx:coord >20.51526 51.857208 5042</gx:coord>
<gx:coord >20.510559 51.843132 5179</gx:coord>
<gx:coord >20.504645 51.826126 5293</gx:coord>
<gx:coord >20.499191 51.810825 5408</gx:coord>
<gx:coord >20.493288 51.79422 5530</gx:coord>
<gx:coord >20.488314 51.779755 5644</gx:coord>
<gx:coord >20.482747 51.76355 5781</gx:coord>
<gx:coord >20.476586 51.745697 5903</gx:coord>
<gx:coord >20.470721 51.728165 6010</gx:coord>
<gx:coord >20.464708 51.709305 6123</gx:coord>
<gx:coord >20.458069 51.688486 6222</gx:coord>
<gx:coord >20.451431 51.668236 6329</gx:coord>
<gx:coord >20.445099 51.649103 6435</gx:coord>
<gx:coord >20.43895 51.630615 6550</gx:coord>
<gx:coord >20.432587 51.611209 6649</gx:coord>
<gx:coord >20.42544 51.589737 6755</gx:coord>
<gx:coord >20.418907 51.570099 6862</gx:coord>
<gx:coord >20.412369 51.550458 6976</gx:coord>
<gx:coord >20.406036 51.531605 7083</gx:coord>
<gx:coord >20.398865 51.510237 7189</gx:coord>
<gx:coord >20.391442 51.48793 7273</gx:coord>
<gx:coord >20.384612 51.467056 7387</gx:coord>
<gx:coord >20.380249 51.45647 7432</gx:coord>
<gx:coord >20.375671 51.447857 7466</gx:coord>
<gx:coord >20.371323 51.4412 7501</gx:coord>
<gx:coord >20.363901 51.431305 7553</gx:coord>
<gx:coord >20.348461 51.411301 7654</gx:coord>
<gx:coord >20.330963 51.388177 7737</gx:coord>
<gx:coord >20.315628 51.367322 7829</gx:coord>
<gx:coord >20.298726 51.344193 7920</gx:coord>
<gx:coord >20.282135 51.321282 8004</gx:coord>
<gx:coord >20.265961 51.29903 8096</gx:coord>
<gx:coord >20.250104 51.277176 8201</gx:coord>
<gx:coord >20.235851 51.257675 8300</gx:coord>
<gx:coord >20.221005 51.237305 8407</gx:coord>
<gx:coord >20.205565 51.215927 8505</gx:coord>
<gx:coord >20.199738 51.206484 8531</gx:coord>
<gx:coord >20.19516 51.197499 8566</gx:coord>
<gx:coord >20.19198 51.189926 8589</gx:coord>
<gx:coord >20.188194 51.178665 8635</gx:coord>
<gx:coord >20.181439 51.155319 8727</gx:coord>
<gx:coord >20.173798 51.129021 8811</gx:coord>
<gx:coord >20.165776 51.102905 8895</gx:coord>
<gx:coord >20.157685 51.076859 8986</gx:coord>
<gx:coord >20.149689 51.050906 9078</gx:coord>
<gx:coord >20.141577 51.024902 9160</gx:coord>
<gx:coord >20.133514 50.999885 9252</gx:coord>
<gx:coord >20.125172 50.973724 9351</gx:coord>
<gx:coord >20.116338 50.945114 9427</gx:coord>
<gx:coord >20.107346 50.915579 9503</gx:coord>
<gx:coord >20.098968 50.887619 9587</gx:coord>
<gx:coord >20.089188 50.855015 9656</gx:coord>
<gx:coord >20.07989 50.824402 9739</gx:coord>
<gx:coord >20.070611 50.793686 9816</gx:coord>
<gx:coord >20.060441 50.760315 9883</gx:coord>
<gx:coord >20.050735 50.728765 9959</gx:coord>
<gx:coord >20.041586 50.698288 10036</gx:coord>
<gx:coord >20.031491 50.664383 10112</gx:coord>
<gx:coord >20.023161 50.636398 10196</gx:coord>
<gx:coord >20.014777 50.60939 10287</gx:coord>
<gx:coord >20.005658 50.580217 10379</gx:coord>
<gx:coord >19.996635 50.55043 10447</gx:coord>
<gx:coord >19.989327 50.526961 10509</gx:coord>
<gx:coord >19.985615 50.517744 10529</gx:coord>
<gx:coord >19.980939 50.508713 10537</gx:coord>
<gx:coord >19.975594 50.500333 10545</gx:coord>
<gx:coord >19.969241 50.492065 10560</gx:coord>
<gx:coord >19.961267 50.482457 10591</gx:coord>
<gx:coord >19.940631 50.457784 10675</gx:coord>
<gx:coord >19.920366 50.432227 10713</gx:coord>
<gx:coord >19.896686 50.40141 10789</gx:coord>
<gx:coord >19.875424 50.373367 10873</gx:coord>
<gx:coord >19.854967 50.346571 10957</gx:coord>
<gx:coord >19.833811 50.319198 11024</gx:coord>
<gx:coord >19.808275 50.286146 11078</gx:coord>
<gx:coord >19.781997 50.252023 11139</gx:coord>
<gx:coord >19.75995 50.223208 11215</gx:coord>
<gx:coord >19.742648 50.200745 11276</gx:coord>
<gx:coord >19.73434 50.189969 11283</gx:coord>
<gx:coord >19.708678 50.156525 11291</gx:coord>
<gx:coord >19.682601 50.122189 11290</gx:coord>
<gx:coord >19.656916 50.088253 11290</gx:coord>
<gx:coord >19.630787 50.053944 11290</gx:coord>
<gx:coord >19.604813 50.019791 11290</gx:coord>
<gx:coord >19.578899 49.985791 11290</gx:coord>
<gx:coord >19.553289 49.952087 11290</gx:coord>
<gx:coord >19.528198 49.918803 11290</gx:coord>
<gx:coord >19.502539 49.884705 11290</gx:coord>
<gx:coord >19.477531 49.851517 11281</gx:coord>
<gx:coord >19.452017 49.817596 11281</gx:coord>
<gx:coord >19.426575 49.783859 11281</gx:coord>
<gx:coord >19.400988 49.749802 11289</gx:coord>
<gx:coord >19.375874 49.7163 11289</gx:coord>
<gx:coord >19.350682 49.682556 11289</gx:coord>
<gx:coord >19.324879 49.647949 11289</gx:coord>
<gx:coord >19.299193 49.61342 11289</gx:coord>
<gx:coord >19.273706 49.579102 11289</gx:coord>
<gx:coord >19.248195 49.544802 11289</gx:coord>
<gx:coord >19.222214 49.509934 11297</gx:coord>
<gx:coord >19.197091 49.476059 11289</gx:coord>
<gx:coord >19.171662 49.441828 11289</gx:coord>
<gx:coord >19.14664 49.407938 11289</gx:coord>
<gx:coord >19.120909 49.373164 11289</gx:coord>
<gx:coord >19.095576 49.33873 11289</gx:coord>
<gx:coord >19.069801 49.303757 11289</gx:coord>
<gx:coord >19.04487 49.269836 11303</gx:coord>
<gx:coord >19.019502 49.235136 11288</gx:coord>
<gx:coord >18.994375 49.20076 11288</gx:coord>
<gx:coord >18.968835 49.165727 11296</gx:coord>
<gx:coord >18.943393 49.130952 11296</gx:coord>
<gx:coord >18.918096 49.096131 11296</gx:coord>
<gx:coord >18.893015 49.061683 11296</gx:coord>
<gx:coord >18.867821 49.027039 11296</gx:coord>
<gx:coord >18.84275 48.992477 11296</gx:coord>
<gx:coord >18.817819 48.957687 11296</gx:coord>
<gx:coord >18.792607 48.922806 11296</gx:coord>
<gx:coord >18.76754 48.887996 11296</gx:coord>
<gx:coord >18.742604 48.853408 11296</gx:coord>
<gx:coord >18.717595 48.818959 11296</gx:coord>
<gx:coord >18.691936 48.783533 11303</gx:coord>
<gx:coord >18.666856 48.748712 11303</gx:coord>
<gx:coord >18.641269 48.712913 11303</gx:coord>
<gx:coord >18.616544 48.678223 11302</gx:coord>
<gx:coord >18.591262 48.642563 11302</gx:coord>
<gx:coord >18.566331 48.607407 11295</gx:coord>
<gx:coord >18.541119 48.571838 11295</gx:coord>
<gx:coord >18.516118 48.536682 11287</gx:coord>
<gx:coord >18.49158 48.502218 11287</gx:coord>
<gx:coord >18.466891 48.467468 11279</gx:coord>
<gx:coord >18.442431 48.432855 11279</gx:coord>
<gx:coord >18.417523 48.397385 11279</gx:coord>
<gx:coord >18.392381 48.361771 11287</gx:coord>
<gx:coord >18.36745 48.326523 11295</gx:coord>
<gx:coord >18.342398 48.290964 11295</gx:coord>
<gx:coord >18.318223 48.256622 11295</gx:coord>
<gx:coord >18.293537 48.221461 11310</gx:coord>
<gx:coord >18.268818 48.186128 11302</gx:coord>
<gx:coord >18.244347 48.151028 11310</gx:coord>
<gx:coord >18.219246 48.114899 11302</gx:coord>
<gx:coord >18.194275 48.079058 11302</gx:coord>
<gx:coord >18.169189 48.043076 11302</gx:coord>
<gx:coord >18.144343 48.007414 11302</gx:coord>
<gx:coord >18.119614 47.97171 11302</gx:coord>
<gx:coord >18.094412 47.935351 11310</gx:coord>
<gx:coord >18.069481 47.89918 11302</gx:coord>
<gx:coord >18.044701 47.863129 11295</gx:coord>
<gx:coord >18.019981 47.827148 11295</gx:coord>
<gx:coord >17.995056 47.790985 11295</gx:coord>
<gx:coord >17.970816 47.755613 11302</gx:coord>
<gx:coord >17.946308 47.719768 11302</gx:coord>
<gx:coord >17.921791 47.684052 11302</gx:coord>
<gx:coord >17.89694 47.647891 11310</gx:coord>
<gx:coord >17.872009 47.611542 11310</gx:coord>
<gx:coord >17.847572 47.575735 11302</gx:coord>
<gx:coord >17.822777 47.539352 11301</gx:coord>
<gx:coord >17.798264 47.503098 11301</gx:coord>
<gx:coord >17.774048 47.467175 11301</gx:coord>
<gx:coord >17.749649 47.431 11301</gx:coord>
<gx:coord >17.725314 47.395066 11301</gx:coord>
<gx:coord >17.700691 47.35881 11301</gx:coord>
<gx:coord >17.676298 47.322724 11301</gx:coord>
<gx:coord >17.65179 47.286367 11301</gx:coord>
<gx:coord >17.627423 47.250196 11301</gx:coord>
<gx:coord >17.602703 47.213326 11301</gx:coord>
<gx:coord >17.578125 47.176712 11301</gx:coord>
<gx:coord >17.553758 47.140425 11301</gx:coord>
<gx:coord >17.52951 47.104111 11301</gx:coord>
<gx:coord >17.505341 47.06781 11309</gx:coord>
<gx:coord >17.48069 47.03064 11309</gx:coord>
<gx:coord >17.455971 46.993515 11309</gx:coord>
<gx:coord >17.4315 46.956684 11309</gx:coord>
<gx:coord >17.406944 46.919586 11316</gx:coord>
<gx:coord >17.382836 46.883224 11316</gx:coord>
<gx:coord >17.358467 46.846448 11301</gx:coord>
<gx:coord >17.33388 46.809128 11301</gx:coord>
<gx:coord >17.310099 46.77301 11301</gx:coord>
<gx:coord >17.285648 46.735931 11301</gx:coord>
<gx:coord >17.26165 46.699529 11301</gx:coord>
<gx:coord >17.237686 46.662939 11301</gx:coord>
<gx:coord >17.213299 46.625656 11301</gx:coord>
<gx:coord >17.189758 46.589712 11309</gx:coord>
<gx:coord >17.16587 46.553146 11309</gx:coord>
<gx:coord >17.141418 46.515793 11309</gx:coord>
<gx:coord >17.117455 46.478825 11309</gx:coord>
<gx:coord >17.09332 46.441589 11309</gx:coord>
<gx:coord >17.069115 46.404341 11309</gx:coord>
<gx:coord >17.045082 46.367472 11309</gx:coord>
<gx:coord >17.033632 46.350723 11309</gx:coord>
<gx:coord >17.019882 46.332325 11309</gx:coord>
<gx:coord >16.999077 46.306395 11309</gx:coord>
<gx:coord >16.968246 46.268921 11309</gx:coord>
<gx:coord >16.939682 46.233541 11309</gx:coord>
<gx:coord >16.911049 46.197417 11309</gx:coord>
<gx:coord >16.882141 46.160361 11309</gx:coord>
<gx:coord >16.853439 46.122887 11309</gx:coord>
<gx:coord >16.825493 46.086064 11308</gx:coord>
<gx:coord >16.797203 46.049008 11308</gx:coord>
<gx:coord >16.768364 46.012139 11308</gx:coord>
<gx:coord >16.739319 45.974804 11315</gx:coord>
<gx:coord >16.711947 45.938828 11315</gx:coord>
<gx:coord >16.683563 45.90195 11315</gx:coord>
<gx:coord >16.655876 45.865952 11315</gx:coord>
<gx:coord >16.627396 45.828583 11315</gx:coord>
<gx:coord >16.598935 45.791702 11315</gx:coord>
<gx:coord >16.570679 45.754984 11315</gx:coord>
<gx:coord >16.54541 45.721436 11315</gx:coord>
<gx:coord >16.519217 45.686508 11315</gx:coord>
<gx:coord >16.492538 45.651266 11315</gx:coord>
<gx:coord >16.464935 45.615188 11315</gx:coord>
<gx:coord >16.437691 45.579758 11315</gx:coord>
<gx:coord >16.41056 45.54387 11315</gx:coord>
<gx:coord >16.383427 45.507431 11315</gx:coord>
<gx:coord >16.356901 45.4719 11315</gx:coord>
<gx:coord >16.330523 45.436707 11323</gx:coord>
<gx:coord >16.303776 45.401093 11323</gx:coord>
<gx:coord >16.276311 45.364609 11331</gx:coord>
<gx:coord >16.249629 45.328949 11323</gx:coord>
<gx:coord >16.222921 45.293 11323</gx:coord>
<gx:coord >16.196006 45.256805 11323</gx:coord>
<gx:coord >16.169063 45.220688 11315</gx:coord>
<gx:coord >16.142644 45.185486 11323</gx:coord>
<gx:coord >16.121325 45.15683 11308</gx:coord>
<gx:coord >16.114532 45.14771 11285</gx:coord>
<gx:coord >16.093663 45.119659 11209</gx:coord>
<gx:coord >16.071494 45.089859 11125</gx:coord>
<gx:coord >16.048148 45.058273 11049</gx:coord>
<gx:coord >16.039101 45.045994 11026</gx:coord>
<gx:coord >16.013176 45.01094 11018</gx:coord>
<gx:coord >15.986313 44.974769 11018</gx:coord>
<gx:coord >15.959473 44.938339 11018</gx:coord>
<gx:coord >15.932792 44.901901 11018</gx:coord>
<gx:coord >15.906327 44.865836 11018</gx:coord>
<gx:coord >15.880335 44.83055 11018</gx:coord>
<gx:coord >15.855348 44.796613 11018</gx:coord>
<gx:coord >15.828748 44.760086 11018</gx:coord>
<gx:coord >15.802627 44.724225 11018</gx:coord>
<gx:coord >15.776629 44.688583 11018</gx:coord>
<gx:coord >15.75071 44.653093 11018</gx:coord>
<gx:coord >15.724919 44.61776 11018</gx:coord>
<gx:coord >15.69819 44.580983 11026</gx:coord>
<gx:coord >15.671729 44.544579 11026</gx:coord>
<gx:coord >15.645469 44.508595 11027</gx:coord>
<gx:coord >15.620415 44.474099 11027</gx:coord>
<gx:coord >15.595616 44.439651 11027</gx:coord>
<gx:coord >15.568346 44.401794 11027</gx:coord>
<gx:coord >15.54264 44.366238 11027</gx:coord>
<gx:coord >15.517404 44.331299 11027</gx:coord>
<gx:coord >15.491728 44.295618 11027</gx:coord>
<gx:coord >15.466657 44.260574 11028</gx:coord>
<gx:coord >15.441284 44.224952 11028</gx:coord>
<gx:coord >15.414145 44.186965 11028</gx:coord>
<gx:coord >15.387922 44.150375 11028</gx:coord>
<gx:coord >15.361503 44.113599 11028</gx:coord>
<gx:coord >15.334551 44.075912 11028</gx:coord>
<gx:coord >15.308467 44.039301 11035</gx:coord>
<gx:coord >15.282046 44.002075 11036</gx:coord>
<gx:coord >15.257525 43.967564 11036</gx:coord>
<gx:coord >15.230255 43.928926 11036</gx:coord>
<gx:coord >15.204947 43.893081 11036</gx:coord>
<gx:coord >15.177482 43.854349 11036</gx:coord>
<gx:coord >15.151389 43.817573 11036</gx:coord>
<gx:coord >15.124512 43.779633 11036</gx:coord>
<gx:coord >15.098983 43.743256 11036</gx:coord>
<gx:coord >15.072859 43.705856 11036</gx:coord>
<gx:coord >15.046543 43.668228 11044</gx:coord>
<gx:coord >15.020035 43.630371 11044</gx:coord>
<gx:coord >14.994166 43.593613 11044</gx:coord>
<gx:coord >14.968676 43.557253 11044</gx:coord>
<gx:coord >14.942556 43.519821 11044</gx:coord>
<gx:coord >14.916687 43.482513 11044</gx:coord>
<gx:coord >14.89069 43.445251 11044</gx:coord>
<gx:coord >14.879896 43.429047 11044</gx:coord>
<gx:coord >14.875227 43.421041 11044</gx:coord>
<gx:coord >14.87057 43.411377 11044</gx:coord>
<gx:coord >14.866674 43.401077 11044</gx:coord>
<gx:coord >14.863783 43.390549 11044</gx:coord>
<gx:coord >14.861883 43.380753 11044</gx:coord>
<gx:coord >14.855049 43.339691 11052</gx:coord>
<gx:coord >14.848725 43.30806 11052</gx:coord>
<gx:coord >14.839336 43.265488 11052</gx:coord>
<gx:coord >14.830039 43.223939 11052</gx:coord>
<gx:coord >14.820622 43.180785 11052</gx:coord>
<gx:coord >14.811806 43.139786 11052</gx:coord>
<gx:coord >14.802991 43.098587 11052</gx:coord>
<gx:coord >14.794049 43.056107 11052</gx:coord>
<gx:coord >14.785113 43.013197 11052</gx:coord>
<gx:coord >14.776867 42.973938 11059</gx:coord>
<gx:coord >14.768045 42.931405 11059</gx:coord>
<gx:coord >14.759216 42.889368 11059</gx:coord>
<gx:coord >14.750519 42.847564 11059</gx:coord>
<gx:coord >14.741289 42.803665 11059</gx:coord>
<gx:coord >14.732538 42.762001 11059</gx:coord>
<gx:coord >14.724362 42.722804 11059</gx:coord>
<gx:coord >14.7155 42.680099 11058</gx:coord>
<gx:coord >14.706823 42.638077 11066</gx:coord>
<gx:coord >14.69843 42.597346 11058</gx:coord>
<gx:coord >14.689934 42.55638 11066</gx:coord>
<gx:coord >14.681247 42.514576 11066</gx:coord>
<gx:coord >14.672678 42.473373 11066</gx:coord>
<gx:coord >14.664065 42.43176 11066</gx:coord>
<gx:coord >14.655262 42.38855 11065</gx:coord>
<gx:coord >14.646564 42.346476 11065</gx:coord>
<gx:coord >14.637784 42.30368 11065</gx:coord>
<gx:coord >14.628999 42.260634 11073</gx:coord>
<gx:coord >14.620695 42.220273 11065</gx:coord>
<gx:coord >14.61188 42.177491 11072</gx:coord>
<gx:coord >14.603327 42.135452 11072</gx:coord>
<gx:coord >14.594962 42.093567 11072</gx:coord>
<gx:coord >14.586598 42.051727 11072</gx:coord>
<gx:coord >14.57841 42.010974 11071</gx:coord>
<gx:coord >14.569787 41.968611 11071</gx:coord>
<gx:coord >14.561067 41.926437 11071</gx:coord>
<gx:coord >14.55235 41.884491 11078</gx:coord>
<gx:coord >14.543727 41.843107 11078</gx:coord>
<gx:coord >14.535162 41.800735 11077</gx:coord>
<gx:coord >14.526797 41.758713 11077</gx:coord>
<gx:coord >14.518433 41.717102 11077</gx:coord>
<gx:coord >14.509682 41.673982 11077</gx:coord>
<gx:coord >14.501123 41.631573 11085</gx:coord>
<gx:coord >14.492652 41.589844 11085</gx:coord>
<gx:coord >14.484225 41.54837 11085</gx:coord>
<gx:coord >14.475765 41.506208 11085</gx:coord>
<gx:coord >14.467525 41.464544 11085</gx:coord>
<gx:coord >14.459007 41.421936 11085</gx:coord>
<gx:coord >14.450455 41.378748 11092</gx:coord>
<gx:coord >14.442215 41.337642 11092</gx:coord>
<gx:coord >14.433716 41.295227 11092</gx:coord>
<gx:coord >14.425361 41.25329 11092</gx:coord>
<gx:coord >14.416872 41.210275 11092</gx:coord>
<gx:coord >14.408508 41.167511 11092</gx:coord>
<gx:coord >14.400142 41.124899 11092</gx:coord>
<gx:coord >14.391965 41.083141 11092</gx:coord>
<gx:coord >14.383667 41.040985 11100</gx:coord>
<gx:coord >14.375111 40.997904 11100</gx:coord>
<gx:coord >14.36676 40.955154 11100</gx:coord>
<gx:coord >14.358507 40.912853 11100</gx:coord>
<gx:coord >14.350204 40.87091 11100</gx:coord>
<gx:coord >14.341858 40.828354 11100</gx:coord>
<gx:coord >14.33374 40.787109 11100</gx:coord>
<gx:coord >14.325439 40.744446 11101</gx:coord>
<gx:coord >14.317183 40.702204 11101</gx:coord>
<gx:coord >14.309068 40.661006 11101</gx:coord>
<gx:coord >14.300659 40.617874 11101</gx:coord>
<gx:coord >14.292603 40.576492 11101</gx:coord>
<gx:coord >14.284723 40.535408 11109</gx:coord>
<gx:coord >14.276671 40.493278 11109</gx:coord>
<gx:coord >14.268556 40.451753 11109</gx:coord>
<gx:coord >14.260316 40.410182 11109</gx:coord>
<gx:coord >14.252077 40.368378 11109</gx:coord>
<gx:coord >14.243774 40.326233 11110</gx:coord>
<gx:coord >14.235722 40.285236 11110</gx:coord>
<gx:coord >14.227783 40.243515 11110</gx:coord>
<gx:coord >14.21991 40.202271 11117</gx:coord>
<gx:coord >14.212189 40.161733 11117</gx:coord>
<gx:coord >14.204651 40.122116 11117</gx:coord>
<gx:coord >14.196655 40.080688 11117</gx:coord>
<gx:coord >14.188782 40.040451 11117</gx:coord>
<gx:coord >14.18104 40.000802 11118</gx:coord>
<gx:coord >14.173096 39.959564 11118</gx:coord>
<gx:coord >14.165527 39.919335 11118</gx:coord>
<gx:coord >14.158081 39.879068 11118</gx:coord>
<gx:coord >14.150391 39.837962 11118</gx:coord>
<gx:coord >14.142761 39.797555 11126</gx:coord>
<gx:coord >14.134949 39.756682 11126</gx:coord>
<gx:coord >14.127197 39.715623 11127</gx:coord>
<gx:coord >14.119507 39.675122 11127</gx:coord>
<gx:coord >14.111694 39.633877 11127</gx:coord>
<gx:coord >14.104176 39.593994 11135</gx:coord>
<gx:coord >14.096497 39.553481 11135</gx:coord>
<gx:coord >14.08901 39.513336 11127</gx:coord>
<gx:coord >14.081543 39.473784 11135</gx:coord>
<gx:coord >14.073904 39.434097 11135</gx:coord>
<gx:coord >14.06604 39.392504 11135</gx:coord>
<gx:coord >14.05835 39.351631 11135</gx:coord>
<gx:coord >14.050618 39.310547 11143</gx:coord>
<gx:coord >14.042847 39.268768 11143</gx:coord>
<gx:coord >14.035512 39.229294 11143</gx:coord>
<gx:coord >14.027929 39.18837 11143</gx:coord>
<gx:coord >14.020227 39.147629 11143</gx:coord>
<gx:coord >14.012524 39.106659 11143</gx:coord>
<gx:coord >14.004883 39.066033 11151</gx:coord>
<gx:coord >13.996765 39.022832 11151</gx:coord>
<gx:coord >13.989118 38.981415 11151</gx:coord>
<gx:coord >13.981416 38.939667 11151</gx:coord>
<gx:coord >13.973877 38.898631 11151</gx:coord>
<gx:coord >13.96637 38.858037 11151</gx:coord>
<gx:coord >13.958923 38.817863 11158</gx:coord>
<gx:coord >13.951562 38.777939 11158</gx:coord>
<gx:coord >13.943665 38.735326 11158</gx:coord>
<gx:coord >13.936157 38.694901 11158</gx:coord>
<gx:coord >13.928813 38.654755 11158</gx:coord>
<gx:coord >13.92135 38.614288 11158</gx:coord>
<gx:coord >13.914304 38.575012 11159</gx:coord>
<gx:coord >13.912513 38.559998 11164</gx:coord>
<gx:coord >13.911804 38.547301 11160</gx:coord>
<gx:coord >13.911926 38.532963 11166</gx:coord>
<gx:coord >13.913886 38.491058 11166</gx:coord>
<gx:coord >13.915319 38.448578 11166</gx:coord>
<gx:coord >13.916453 38.406108 11166</gx:coord>
<gx:coord >13.917632 38.363205 11167</gx:coord>
<gx:coord >13.91886 38.321365 11167</gx:coord>
<gx:coord >13.920087 38.279892 11167</gx:coord>
<gx:coord >13.921372 38.237595 11175</gx:coord>
<gx:coord >13.922723 38.195553 11175</gx:coord>
<gx:coord >13.924036 38.152212 11175</gx:coord>
<gx:coord >13.92529 38.110129 11175</gx:coord>
<gx:coord >13.926544 38.067487 11175</gx:coord>
<gx:coord >13.927742 38.025513 11182</gx:coord>
<gx:coord >13.929028 37.982254 11182</gx:coord>
<gx:coord >13.930366 37.940074 11182</gx:coord>
<gx:coord >13.931658 37.898209 11182</gx:coord>
<gx:coord >13.932873 37.855395 11190</gx:coord>
<gx:coord >13.934067 37.813266 11190</gx:coord>
<gx:coord >13.935381 37.770717 11190</gx:coord>
<gx:coord >13.936566 37.728378 11191</gx:coord>
<gx:coord >13.937793 37.687042 11191</gx:coord>
<gx:coord >13.938964 37.644979 11199</gx:coord>
<gx:coord >13.940217 37.613091 11199</gx:coord>
<gx:coord >13.941949 37.593632 11199</gx:coord>
<gx:coord >13.945274 37.568161 11199</gx:coord>
<gx:coord >13.951702 37.525635 11200</gx:coord>
<gx:coord >13.95598 37.496757 11192</gx:coord>
<gx:coord >13.957429 37.486862 11177</gx:coord>
<gx:coord >13.958597 37.478348 11155</gx:coord>
<gx:coord >13.959766 37.469925 11128</gx:coord>
<gx:coord >13.961227 37.459305 11078</gx:coord>
<gx:coord >13.963862 37.439405 10979</gx:coord>
<gx:coord >13.96625 37.420784 10849</gx:coord>
<gx:coord >13.968473 37.402863 10712</gx:coord>
<gx:coord >13.969654 37.393504 10652</gx:coord>
<gx:coord >13.971337 37.380066 10589</gx:coord>
<gx:coord >13.974376 37.355896 10476</gx:coord>
<gx:coord >13.977414 37.332184 10347</gx:coord>
<gx:coord >13.980219 37.309433 10226</gx:coord>
<gx:coord >13.981416 37.299748 10173</gx:coord>
<gx:coord >13.981797 37.296753 10151</gx:coord>
<gx:coord >13.982206 37.293594 10120</gx:coord>
<gx:coord >13.983141 37.285995 10063</gx:coord>
<gx:coord >13.984521 37.274377 9932</gx:coord>
<gx:coord >13.985888 37.262787 9809</gx:coord>
<gx:coord >13.987327 37.250123 9689</gx:coord>
<gx:coord >13.987805 37.245654 9654</gx:coord>
<gx:coord >13.988518 37.239853 9611</gx:coord>
<gx:coord >13.989417 37.231968 9543</gx:coord>
<gx:coord >13.991965 37.211426 9433</gx:coord>
<gx:coord >13.99442 37.191879 9296</gx:coord>
<gx:coord >13.997225 37.16954 9174</gx:coord>
<gx:coord >13.997776 37.164933 9154</gx:coord>
<gx:coord >13.998452 37.15947 9105</gx:coord>
<gx:coord >13.999149 37.1539 9048</gx:coord>
<gx:coord >14.00038 37.144363 8947</gx:coord>
<gx:coord >14.001725 37.133377 8807</gx:coord>
<gx:coord >14.002952 37.123352 8704</gx:coord>
<gx:coord >14.003653 37.117584 8640</gx:coord>
<gx:coord >14.004179 37.113144 8601</gx:coord>
<gx:coord >14.005172 37.105042 8536</gx:coord>
<gx:coord >14.00715 37.089145 8419</gx:coord>
<gx:coord >14.008583 37.077228 8338</gx:coord>
<gx:coord >14.009121 37.072759 8307</gx:coord>
<gx:coord >14.009731 37.06723 8256</gx:coord>
<gx:coord >14.011151 37.055209 8136</gx:coord>
<gx:coord >14.01236 37.0448 8033</gx:coord>
<gx:coord >14.0133 37.036914 7966</gx:coord>
<gx:coord >14.013778 37.033143 7934</gx:coord>
<gx:coord >14.015928 37.014615 7795</gx:coord>
<gx:coord >14.016644 37.008657 7742</gx:coord>
<gx:coord >14.017122 37.004607 7704</gx:coord>
<gx:coord >14.018672 36.991745 7581</gx:coord>
<gx:coord >14.020107 36.979515 7452</gx:coord>
<gx:coord >14.020525 36.97593 7424</gx:coord>
<gx:coord >14.021182 36.970204 7377</gx:coord>
<gx:coord >14.021886 36.9646 7340</gx:coord>
<gx:coord >14.022376 36.960196 7315</gx:coord>
<gx:coord >14.023391 36.952142 7275</gx:coord>
<gx:coord >14.026035 36.930496 7140</gx:coord>
<gx:coord >14.028431 36.911499 7010</gx:coord>
<gx:coord >14.030534 36.894653 6882</gx:coord>
<gx:coord >14.032467 36.878869 6773</gx:coord>
<gx:coord >14.034497 36.862529 6637</gx:coord>
<gx:coord >14.03667 36.845398 6515</gx:coord>
<gx:coord >14.038833 36.827708 6370</gx:coord>
<gx:coord >14.041214 36.810745 6255</gx:coord>
<gx:coord >14.043917 36.797077 6151</gx:coord>
<gx:coord >14.047248 36.784089 6051</gx:coord>
<gx:coord >14.052486 36.767532 5936</gx:coord>
<gx:coord >14.05798 36.750504 5791</gx:coord>
<gx:coord >14.063358 36.733749 5669</gx:coord>
<gx:coord >14.068227 36.718543 5532</gx:coord>
<gx:coord >14.072914 36.703491 5403</gx:coord>
<gx:coord >14.078178 36.686417 5288</gx:coord>
<gx:coord >14.083557 36.668701 5159</gx:coord>
<gx:coord >14.089615 36.648668 5022</gx:coord>
<gx:coord >14.095802 36.628555 4892</gx:coord>
<gx:coord >14.101124 36.611298 4763</gx:coord>
<gx:coord >14.105644 36.596466 4648</gx:coord>
<gx:coord >14.110068 36.582098 4524</gx:coord>
<gx:coord >14.112797 36.573303 4441</gx:coord>
<gx:coord >14.114042 36.569297 4408</gx:coord>
<gx:coord >14.119663 36.55101 4276</gx:coord>
<gx:coord >14.123275 36.539317 4194</gx:coord>
<gx:coord >14.12421 36.536291 4180</gx:coord>
<gx:coord >14.1255 36.531967 4158</gx:coord>
<gx:coord >14.129587 36.518555 4092</gx:coord>
<gx:coord >14.135372 36.499654 4023</gx:coord>
<gx:coord >14.141693 36.479141 3970</gx:coord>
<gx:coord >14.146385 36.463715 3917</gx:coord>
<gx:coord >14.149339 36.454033 3878</gx:coord>
<gx:coord >14.152494 36.443606 3817</gx:coord>
<gx:coord >14.155197 36.434647 3755</gx:coord>
<gx:coord >14.158163 36.424892 3684</gx:coord>
<gx:coord >14.160968 36.415395 3626</gx:coord>
<gx:coord >14.164124 36.405075 3559</gx:coord>
<gx:coord >14.167385 36.394089 3497</gx:coord>
<gx:coord >14.170704 36.383331 3429</gx:coord>
<gx:coord >14.173766 36.373219 3362</gx:coord>
<gx:coord >14.176884 36.363144 3301</gx:coord>
<gx:coord >14.179668 36.353853 3245</gx:coord>
<gx:coord >14.182415 36.344915 3172</gx:coord>
<gx:coord >14.185044 36.33621 3110</gx:coord>
<gx:coord >14.187966 36.326387 3047</gx:coord>
<gx:coord >14.19118 36.31582 2979</gx:coord>
<gx:coord >14.194044 36.30623 2912</gx:coord>
<gx:coord >14.197083 36.296265 2851</gx:coord>
<gx:coord >14.199654 36.287795 2794</gx:coord>
<gx:coord >14.202518 36.278458 2727</gx:coord>
<gx:coord >14.205265 36.269577 2676</gx:coord>
<gx:coord >14.208984 36.257446 2607</gx:coord>
<gx:coord >14.212276 36.246643 2551</gx:coord>
<gx:coord >14.215198 36.237053 2484</gx:coord>
<gx:coord >14.217911 36.227966 2417</gx:coord>
<gx:coord >14.220543 36.218994 2360</gx:coord>
<gx:coord >14.221802 36.214988 2328</gx:coord>
<gx:coord >14.223061 36.2108 2297</gx:coord>
<gx:coord >14.224262 36.206909 2264</gx:coord>
<gx:coord >14.225659 36.202232 2231</gx:coord>
<gx:coord >14.226894 36.198257 2198</gx:coord>
<gx:coord >14.228153 36.194229 2165</gx:coord>
<gx:coord >14.229641 36.189377 2133</gx:coord>
<gx:coord >14.231071 36.184662 2100</gx:coord>
<gx:coord >14.232496 36.18026 2066</gx:coord>
<gx:coord >14.234104 36.174911 2031</gx:coord>
<gx:coord >14.235592 36.170197 2015</gx:coord>
<gx:coord >14.237938 36.162643 1988</gx:coord>
<gx:coord >14.239998 36.155869 1968</gx:coord>
<gx:coord >14.242255 36.148325 1944</gx:coord>
<gx:coord >14.245235 36.138595 1912</gx:coord>
<gx:coord >14.247036 36.13266 1893</gx:coord>
<gx:coord >14.249443 36.124583 1869</gx:coord>
<gx:coord >14.252186 36.115265 1845</gx:coord>
<gx:coord >14.254235 36.10829 1821</gx:coord>
<gx:coord >14.255505 36.104141 1813</gx:coord>
<gx:coord >14.25704 36.09884 1809</gx:coord>
<gx:coord >14.258676 36.093253 1808</gx:coord>
<gx:coord >14.258995 36.092148 1808</gx:coord>
<gx:coord >14.260371 36.087574 1808</gx:coord>
<gx:coord >14.261456 36.084091 1815</gx:coord>
<gx:coord >14.262543 36.080338 1815</gx:coord>
<gx:coord >14.263819 36.076262 1815</gx:coord>
<gx:coord >14.265046 36.072351 1815</gx:coord>
<gx:coord >14.265976 36.069214 1815</gx:coord>
<gx:coord >14.266974 36.06602 1807</gx:coord>
<gx:coord >14.268435 36.061319 1807</gx:coord>
<gx:coord >14.268727 36.060248 1807</gx:coord>
<gx:coord >14.269253 36.058619 1807</gx:coord>
<gx:coord >14.270364 36.054941 1815</gx:coord>
<gx:coord >14.271584 36.050858 1815</gx:coord>
<gx:coord >14.272701 36.04726 1808</gx:coord>
<gx:coord >14.273357 36.045044 1816</gx:coord>
<gx:coord >14.274279 36.041953 1809</gx:coord>
<gx:coord >14.274747 36.040417 1803</gx:coord>
<gx:coord >14.275589 36.037537 1781</gx:coord>
<gx:coord >14.276791 36.033463 1757</gx:coord>
<gx:coord >14.27742 36.031357 1748</gx:coord>
<gx:coord >14.278564 36.02742 1732</gx:coord>
<gx:coord >14.280338 36.022797 1701</gx:coord>
<gx:coord >14.281712 36.020004 1686</gx:coord>
<gx:coord >14.2836 36.017029 1657</gx:coord>
<gx:coord >14.285889 36.014008 1631</gx:coord>
<gx:coord >14.288521 36.010986 1597</gx:coord>
<gx:coord >14.291954 36.007645 1566</gx:coord>
<gx:coord >14.295083 36.004758 1535</gx:coord>
<gx:coord >14.29842 36.001877 1508</gx:coord>
<gx:coord >14.30088 35.999817 1466</gx:coord>
<gx:coord >14.303498 35.997682 1434</gx:coord>
<gx:coord >14.305835 35.995727 1401</gx:coord>
<gx:coord >14.308205 35.99382 1372</gx:coord>
<gx:coord >14.310265 35.992126 1340</gx:coord>
<gx:coord >14.31279 35.990094 1311</gx:coord>
<gx:coord >14.315127 35.988185 1280</gx:coord>
<gx:coord >14.317582 35.98623 1249</gx:coord>
<gx:coord >14.319878 35.984344 1218</gx:coord>
<gx:coord >14.322395 35.982285 1184</gx:coord>
<gx:coord >14.324886 35.980318 1152</gx:coord>
<gx:coord >14.328276 35.977618 1120</gx:coord>
<gx:coord >14.331782 35.974778 1085</gx:coord>
<gx:coord >14.33558 35.971706 1054</gx:coord>
<gx:coord >14.340314 35.967888 1022</gx:coord>
<gx:coord >14.344997 35.964157 991</gx:coord>
<gx:coord >14.349664 35.96044 962</gx:coord>
<gx:coord >14.353981 35.95697 931</gx:coord>
<gx:coord >14.359072 35.952898 894</gx:coord>
<gx:coord >14.363995 35.949005 869</gx:coord>
<gx:coord >14.368515 35.945343 833</gx:coord>
<gx:coord >14.373273 35.94154 807</gx:coord>
<gx:coord >14.378014 35.937698 764</gx:coord>
<gx:coord >14.383278 35.933441 748</gx:coord>
<gx:coord >14.388371 35.929367 710</gx:coord>
<gx:coord >14.392908 35.925712 679</gx:coord>
<gx:coord >14.397469 35.922089 642</gx:coord>
<gx:coord >14.400037 35.919986 634</gx:coord>
<gx:coord >14.403648 35.917145 611</gx:coord>
<gx:coord >14.406338 35.914948 588</gx:coord>
<gx:coord >14.410458 35.911606 557</gx:coord>
<gx:coord >14.415816 35.907277 527</gx:coord>
<gx:coord >14.420528 35.903549 489</gx:coord>
<gx:coord >14.425507 35.899521 451</gx:coord>
<gx:coord >14.430828 35.895218 428</gx:coord>
<gx:coord >14.435635 35.891327 397</gx:coord>
<gx:coord >14.439354 35.888351 367</gx:coord>
<gx:coord >14.444389 35.884277 336</gx:coord>
<gx:coord >14.449242 35.88037 306</gx:coord>
<gx:coord >14.453859 35.876646 268</gx:coord>
<gx:coord >14.458534 35.872875 245</gx:coord>
<gx:coord >14.462391 35.869803 214</gx:coord>
<gx:coord >14.467106 35.865967 184</gx:coord>
<gx:coord >14.472091 35.861982 154</gx:coord>
<gx:coord >14.477117 35.857932 123</gx:coord>
<gx:coord >14.481149 35.854673 100</gx:coord>
<gx:coord >14.485181 35.851415 91</gx:coord>
<gx:coord >14.486292 35.85053 91</gx:coord>
<gx:coord >14.488106 35.84903 90</gx:coord>
<gx:coord >14.488921 35.848389 89</gx:coord>
<gx:coord >14.489136 35.848206 88</gx:coord>
<gx:coord >14.489136 35.848206 88</gx:coord>
</gx:Track>
</Placemark>
<Placemark ><name >9H-WBZ</name>
<Style ><LineStyle ><color >ff1c1ae3</color>
<width >4</width>
</LineStyle>
<IconStyle ><Icon ><href >http://maps.google.com/mapfiles/kml/shapes/airports.png</href>
</Icon>
</IconStyle>
</Style>
<gx:Track ><extrude >0</extrude>
<when >2025-09-06T19:41:22.270Z</when>
<when >2025-09-06T19:41:23.340Z</when>
<when >2025-09-06T19:41:25.140Z</when>
<when >2025-09-06T19:41:26.990Z</when>
<when >2025-09-06T19:41:27.570Z</when>
<when >2025-09-06T19:41:28.490Z</when>
<when >2025-09-06T19:41:29.630Z</when>
<when >2025-09-06T19:41:30.010Z</when>
<when >2025-09-06T19:41:30.810Z</when>
<when >2025-09-06T19:41:31.840Z</when>
<when >2025-09-06T19:41:32.870Z</when>
<when >2025-09-06T19:41:33.780Z</when>
<when >2025-09-06T19:41:34.580Z</when>
<when >2025-09-06T19:41:36.430Z</when>
<when >2025-09-06T19:41:37.290Z</when>
<when >2025-09-06T19:41:39.240Z</when>
<when >2025-09-06T19:41:41.450Z</when>
<when >2025-09-06T19:41:46.000Z</when>
<when >2025-09-06T19:41:50.540Z</when>
<when >2025-09-06T19:41:54.330Z</when>
<when >2025-09-06T19:41:59.110Z</when>
<when >2025-09-06T19:42:02.010Z</when>
<when >2025-09-06T19:42:04.780Z</when>
<when >2025-09-06T19:42:06.660Z</when>
<when >2025-09-06T19:42:10.660Z</when>
<when >2025-09-06T19:42:20.550Z</when>
<when >2025-09-06T19:42:22.790Z</when>
<when >2025-09-06T19:42:24.570Z</when>
<when >2025-09-06T19:42:26.350Z</when>
<when >2025-09-06T19:42:27.410Z</when>
<when >2025-09-06T19:42:28.410Z</when>
<when >2025-09-06T19:42:30.850Z</when>
<when >2025-09-06T19:42:33.330Z</when>
<when >2025-09-06T19:42:36.020Z</when>
<when >2025-09-06T19:42:39.440Z</when>
<when >2025-09-06T19:42:42.510Z</when>
<when >2025-09-06T19:42:44.670Z</when>
<when >2025-09-06T19:42:45.950Z</when>
<when >2025-09-06T19:42:47.600Z</when>
<when >2025-09-06T19:42:49.110Z</when>
<when >2025-09-06T19:42:51.930Z</when>
<when >2025-09-06T19:42:56.120Z</when>
<when >2025-09-06T19:43:01.370Z</when>
<when >2025-09-06T19:43:03.420Z</when>
<when >2025-09-06T19:43:04.660Z</when>
<when >2025-09-06T19:43:06.540Z</when>
<when >2025-09-06T19:43:08.140Z</when>
<when >2025-09-06T19:43:10.710Z</when>
<when >2025-09-06T19:43:14.020Z</when>
<when >2025-09-06T19:43:17.240Z</when>
<when >2025-09-06T19:43:20.450Z</when>
<when >2025-09-06T19:43:22.270Z</when>
<when >2025-09-06T19:43:25.750Z</when>
<when >2025-09-06T19:43:31.330Z</when>
<when >2025-09-06T19:43:37.850Z</when>
<when >2025-09-06T19:43:46.890Z</when>
<when >2025-09-06T19:43:49.380Z</when>
<when >2025-09-06T19:43:59.020Z</when>
<when >2025-09-06T19:44:02.100Z</when>
<when >2025-09-06T19:44:11.910Z</when>
<when >2025-09-06T19:44:16.400Z</when>
<when >2025-09-06T19:44:18.600Z</when>
<when >2025-09-06T19:44:19.710Z</when>
<when >2025-09-06T19:44:21.260Z</when>
<when >2025-09-06T19:44:22.670Z</when>
<when >2025-09-06T19:44:24.160Z</when>
<when >2025-09-06T19:44:25.620Z</when>
<when >2025-09-06T19:44:27.200Z</when>
<when >2025-09-06T19:44:28.900Z</when>
<when >2025-09-06T19:44:30.630Z</when>
<when >2025-09-06T19:44:33.850Z</when>
<when >2025-09-06T19:44:53.230Z</when>
<when >2025-09-06T19:45:07.320Z</when>
<when >2025-09-06T19:45:07.320Z</when>
<gx:coord >14.489408 35.848 0</gx:coord>
<gx:coord >14.489851 35.847645 0</gx:coord>
<gx:coord >14.490572 35.847074 0</gx:coord>
<gx:coord >14.49104 35.846701 0</gx:coord>
<gx:coord >14.491347 35.846445 0</gx:coord>
<gx:coord >14.491595 35.846247 0</gx:coord>
<gx:coord >14.491829 35.846049 0</gx:coord>
<gx:coord >14.492068 35.84586 0</gx:coord>
<gx:coord >14.492269 35.845699 0</gx:coord>
<gx:coord >14.49244 35.845573 0</gx:coord>
<gx:coord >14.492588 35.845456 0</gx:coord>
<gx:coord >14.492705 35.845363 0</gx:coord>
<gx:coord >14.492793 35.845293 0</gx:coord>
<gx:coord >14.492941 35.845207 0</gx:coord>
<gx:coord >14.493012 35.845177 0</gx:coord>
<gx:coord >14.493127 35.845116 0</gx:coord>
<gx:coord >14.493319 35.845049 0</gx:coord>
<gx:coord >14.493713 35.844921 0</gx:coord>
<gx:coord >14.494152 35.844781 0</gx:coord>
<gx:coord >14.494429 35.844692 0</gx:coord>
<gx:coord >14.494824 35.844606 0</gx:coord>
<gx:coord >14.495058 35.844566 0</gx:coord>
<gx:coord >14.495233 35.84456 0</gx:coord>
<gx:coord >14.495306 35.844571 0</gx:coord>
<gx:coord >14.495487 35.844635 0</gx:coord>
<gx:coord >14.495773 35.845002 0</gx:coord>
<gx:coord >14.495803 35.845083 0</gx:coord>
<gx:coord >14.495803 35.845107 0</gx:coord>
<gx:coord >14.495788 35.84523 0</gx:coord>
<gx:coord >14.495759 35.84527 0</gx:coord>
<gx:coord >14.495745 35.845322 0</gx:coord>
<gx:coord >14.495673 35.845402 0</gx:coord>
<gx:coord >14.495554 35.845479 0</gx:coord>
<gx:coord >14.495452 35.845572 0</gx:coord>
<gx:coord >14.495364 35.845665 0</gx:coord>
<gx:coord >14.495301 35.845802 0</gx:coord>
<gx:coord >14.49532 35.845886 0</gx:coord>
<gx:coord >14.49535 35.845968 0</gx:coord>
<gx:coord >14.495393 35.846026 0</gx:coord>
<gx:coord >14.495437 35.846061 0</gx:coord>
<gx:coord >14.495554 35.846154 0</gx:coord>
<gx:coord >14.495671 35.846247 0</gx:coord>
<gx:coord >14.495816 35.846386 0</gx:coord>
<gx:coord >14.495845 35.846455 0</gx:coord>
<gx:coord >14.495846 35.846515 0</gx:coord>
<gx:coord >14.495845 35.846569 0</gx:coord>
<gx:coord >14.495832 35.846643 0</gx:coord>
<gx:coord >14.495803 35.846713 0</gx:coord>
<gx:coord >14.495759 35.846809 0</gx:coord>
<gx:coord >14.4957 35.846934 0</gx:coord>
<gx:coord >14.495642 35.847015 0</gx:coord>
<gx:coord >14.495602 35.847084 0</gx:coord>
<gx:coord >14.49551 35.84719 0</gx:coord>
<gx:coord >14.495306 35.847365 0</gx:coord>
<gx:coord >14.495072 35.847551 0</gx:coord>
<gx:coord >14.494809 35.84776 0</gx:coord>
<gx:coord >14.494692 35.847853 0</gx:coord>
<gx:coord >14.494457 35.848045 0</gx:coord>
<gx:coord >14.4944 35.848091 0</gx:coord>
<gx:coord >14.494122 35.848319 0</gx:coord>
<gx:coord >14.493999 35.848412 0</gx:coord>
<gx:coord >14.493928 35.848423 0</gx:coord>
<gx:coord >14.493885 35.848412 0</gx:coord>
<gx:coord >14.493871 35.8484 0</gx:coord>
<gx:coord >14.493801 35.848365 0</gx:coord>
<gx:coord >14.493772 35.84833 0</gx:coord>
<gx:coord >14.493756 35.848309 0</gx:coord>
<gx:coord >14.493728 35.848274 0</gx:coord>
<gx:coord >14.493684 35.848237 0</gx:coord>
<gx:coord >14.493642 35.848194 0</gx:coord>
<gx:coord >14.493582 35.848133 0</gx:coord>
<gx:coord >14.493319 35.8479 0</gx:coord>
<gx:coord >14.493299 35.847885 0</gx:coord>
<gx:coord >14.493299 35.847885 0</gx:coord>
</gx:Track>
</Placemark>
</Folder>
</Folder>
</kml>
