<?xml version="1.0" encoding="UTF-8"?>
<kml xmlns="http://www.opengis.net/kml/2.2">
    <Document>
        <name>Edited Path</name>
        <description>Path edited with KML Path Editor</description>
        <Style id="pathStyle">
            <LineStyle>
                <color>ff0000ff</color>
                <width>3</width>
            </LineStyle>
        </Style>
        <Placemark>
            <name>Edited Path</name>
            <description>Total points: 314</description>
            <styleUrl>#pathStyle</styleUrl>
            <LineString>
                <tessellate>1</tessellate>
                <coordinates>16.91244108506008,58.78848776311016,0 16.819046229723842,58.782794193520225,0 16.76994572721629,58.7799470585818,0 16.737431,58.777034,0 16.72641,58.77719,0 16.719865,58.776375,0 16.707437,58.775054,0 16.69885,58.775204,0 16.69386,58.774721,0 16.689089,58.774388,0 16.676556,58.773658,0 16.63843,58.77046,0 16.629865,58.770007,0 16.620714,58.769065,0 16.612674,58.767586,0 16.606657,58.766017,0 16.599736,58.764176,0 16.584226,58.758131,0 16.576111,58.753133,0 16.56848,58.747972,0 16.565543,58.743953,0 16.56178,58.736318,0 16.56044,58.731213,0 16.5625,58.723352,0 16.563958,58.7185,0 16.565536,58.713261,0 16.566506,58.710122,0 16.567124,58.705991,0 16.568651,58.702448,0 16.570292,58.696974,0 16.571335,58.690488,0 16.573076,58.68266,0 16.574249,58.677878,0 16.575506,58.672355,0 16.576143,58.667966,0 16.576367,58.665126,0 16.577129,58.661273,0 16.578244,58.65406,0 16.579234,58.647992,0 16.58019,58.642674,0 16.581463,58.638002,0 16.582618,58.631483,0 16.58453,58.622069,0 16.585081,58.620246,0 16.585176,58.619375,0 16.585496,58.614198,0 16.587689,58.606932,0 16.588788,58.598639,0 16.58974,58.594068,0 16.590774,58.587727,0 16.592459,58.583719,0 16.597939,58.554511,0 16.603682,58.526593,0 16.605484,58.517783,0 16.608516,58.503464,0 16.610142,58.495504,0 16.613799,58.480875,0 16.616449,58.467871,0 16.621054,58.455135,0 16.622009,58.440947,0 16.623382,58.428724,0 16.626529,58.420962,0 16.628689,58.409532,0 16.632158,58.393735,0 16.634587,58.383042,0 16.636217,58.375585,0 16.763473,57.744459,0 16.764766,57.732776,0 16.767188,57.722702,0 16.77678,57.684253,0 16.77852,57.66565,0 16.784055,57.64211,0 16.786989,57.622946,0 16.791701,57.602243,0 16.793767,57.591899,0 16.79742,57.573101,0 16.799865,57.558319,0 16.802254,57.548463,0 16.812568,57.497637,0 16.813929,57.488974,0 16.817315,57.468621,0 16.81957,57.459789,0 16.822697,57.441291,0 16.826754,57.423181,0 16.8295,57.412327,0 16.833249,57.396025,0 16.835975,57.378805,0 16.838793,57.365045,0 16.842183,57.347956,0 16.844938,57.334058,0 16.849842,57.312457,0 16.853186,57.297113,0 16.902809,57.042123,0 16.905703,57.024388,0 16.909311,57.00908,0 16.913356,56.989097,0 16.915648,56.97426,0 16.91947,56.954266,0 16.921011,56.943321,0 16.924698,56.923702,0 16.92783,56.901907,0 16.963715,56.719627,0 16.965379,56.706954,0 16.967132,56.700294,0 16.969742,56.684336,0 16.974414,56.669,0 16.970607,56.662562,0 16.977431,56.638489,0 16.983522,56.627145,0 16.983485,56.609086,0 16.989433,56.590728,0 16.989257,56.572312,0 16.992008,56.561814,0 17.055608,56.215016,0 17.058273,56.200935,0 17.060375,56.189142,0 17.062032,56.179193,0 17.063724,56.166757,0 17.068477,56.153694,0 17.069359,56.142517,0 17.085607,56.129589,0 17.097638,56.116079,0 17.110138,56.103,0 17.123732,56.090042,0 17.135479,56.07628,0 17.147147,56.064175,0 17.16101,56.048523,0 17.476247,55.67581,0 17.497215,55.655603,0 17.491381,55.666598,0 17.513867,55.649013,0 17.539761,55.611021,0 17.550064,55.592907,0 17.567987,55.575956,0 17.595352,55.547251,0 17.612603,55.521003,0 17.631754,55.501359,0 18.134304,54.898007,0 18.148581,54.872056,0 18.164402,54.850344,0 18.176593,54.837736,0 18.187448,54.825037,0 18.203847,54.815176,0 18.199907,54.813552,0 18.384052,54.575142,0 18.401783,54.557864,0 18.413217,54.544093,0 18.421224,54.534032,0 18.429447,54.523358,0 18.436199,54.5159,0 18.450732,54.496493,0 18.465148,54.478608,0 18.475664,54.465089,0 18.486227,54.451829,0 18.495932,54.439349,0 18.740835,54.13139,0 18.746146,54.122327,0 18.757151,54.109162,0 18.770565,54.091164,0 18.785442,54.073337,0 18.798631,54.055645,0 18.81353,54.037287,0 18.823008,54.023939,0 18.838898,54.005968,0 18.897624,53.928728,0 18.911692,53.910829,0 18.925136,53.892386,0 18.938406,53.875999,0 19.099507,53.665434,0 19.107016,53.654083,0 19.12481,53.640242,0 19.131894,53.632351,0 19.138212,53.625029,0 19.150627,53.617547,0 19.351467,53.457519,0 19.366693,53.445674,0 19.376372,53.437248,0 19.389901,53.428016,0 19.508215,53.328607,0 19.522212,53.319124,0 19.537025,53.307963,0 19.54965,53.29905,0 19.560411,53.289479,0 19.575145,53.277203,0 19.585987,53.268123,0 19.644674,53.220916,0 19.661242,53.207795,0 19.671644,53.197323,0 19.688792,53.183973,0 19.705507,53.170035,0 19.719328,53.159101,0 19.735374,53.146152,0 19.749946,53.134214,0 19.768673,53.119153,0 19.787688,53.104186,0 19.798787,53.091651,0 19.821703,53.074386,0 19.913536,52.996362,0 19.928524,52.985765,0 19.943778,52.974213,0 19.946793,52.970817,0 19.967192,52.954705,0 19.979482,52.94348,0 19.992305,52.932095,0 20.010696,52.917386,0 20.023597,52.906341,0 20.040597,52.893039,0 20.054769,52.880223,0 20.073616,52.86591,0 20.0915,52.852719,0 20.099749,52.843975,0 20.726471,52.221268,0 20.729141,52.220673,0 20.732346,52.21994,0 20.734863,52.219391,0 20.740738,52.217972,0 20.747299,52.216507,0 20.754037,52.215085,0 20.761414,52.213623,0 20.769026,52.212105,0 20.772478,52.211593,0 20.776596,52.211243,0 20.784225,52.210693,0 20.788269,52.21019,0 20.792332,52.209499,0 20.797119,52.208521,0 20.804653,52.206752,0 20.8125,52.204797,0 20.820269,52.202888,0 20.828018,52.200943,0 20.835571,52.199024,0 20.843353,52.19696,0 20.851109,52.195021,0 20.859035,52.193019,0 20.865705,52.191343,0 20.873239,52.189435,0 20.880929,52.187572,0 20.888463,52.185757,0 20.895604,52.184034,0 20.90298,52.182405,0 20.910043,52.180822,0 20.917262,52.179286,0 20.923462,52.177917,0 20.929871,52.17627,0 20.936737,52.174347,0 20.943909,52.172333,0 20.950771,52.170395,0 20.958099,52.16835,0 20.958775,52.16816,0 20.960312,52.167709,0 20.961679,52.167276,0 20.961679,52.167276,0 20.96366,52.166752,0 20.965838,52.166135,0 20.966838,52.165844,0 20.967407,52.165684,0 20.968628,52.165352,0 20.968971,52.16526,0 20.969546,52.165099,0 20.970287,52.164894,0 20.970802,52.164745,0 20.971241,52.164608,0 20.97147,52.164539,0 20.972292,52.16432,0 20.972996,52.164139,0 20.973842,52.163994,0 20.974411,52.163924,0 20.975018,52.163864,0 20.975549,52.163854,0 20.976079,52.163854,0 20.977197,52.163912,0 20.977707,52.163936,0 20.977864,52.16397,0 20.977955,52.164013,0 20.978031,52.16407,0 20.978088,52.164127,0 20.978139,52.164192,0 20.978158,52.164261,0 20.978158,52.164343,0 20.978139,52.164389,0 20.977955,52.164574,0 20.977859,52.164597,0 20.977766,52.164634,0 20.97765,52.164654,0 20.977452,52.164704,0 20.976804,52.164878,0 20.976162,52.165066,0 20.975552,52.165237,0 20.97496,52.165409,0 20.974331,52.165581,0 20.973705,52.165751,0 20.973509,52.165844,0 20.97343,52.165891,0 20.973263,52.166039,0 20.973206,52.166119,0 20.972998,52.166345,0 20.972724,52.166659,0 20.972385,52.167057,0 20.972061,52.167446,0 20.971743,52.167788,0 20.971606,52.167962,0 20.971317,52.168007,0 20.97126,52.167995,0 20.971213,52.167974,0 20.971154,52.167951,0 20.971107,52.167927,0 20.970978,52.167881,0 20.970707,52.167847,0 20.970573,52.167858,0 20.97044,52.167858,0 20.970364,52.16787,0 20.970232,52.167881,0 20.970115,52.167892,0 20.970115,52.167892,0</coordinates>
            </LineString>
        </Placemark>
    </Document>
</kml>