<?xml version="1.0" encoding="UTF-8"?>
<kml xmlns="http://www.opengis.net/kml/2.2" xmlns:gx="http://www.google.com/kml/ext/2.2"><Folder ><Folder ><name >9H-WAS track</name>
<Placemark ><name >9H-WAS</name>
<Style ><LineStyle ><color >ff1c1ae3</color>
<width >4</width>
</LineStyle>
<IconStyle ><Icon ><href >http://maps.google.com/mapfiles/kml/shapes/airports.png</href>
</Icon>
</IconStyle>
</Style>
<gx:Track ><extrude >0</extrude>
<when >2025-08-13T12:01:14.890Z</when>
<when >2025-08-13T12:01:14.890Z</when>
<when >2025-08-13T12:01:39.090Z</when>
<when >2025-08-13T12:01:59.700Z</when>
<when >2025-08-13T12:02:09.510Z</when>
<when >2025-08-13T12:02:15.690Z</when>
<when >2025-08-13T12:02:27.510Z</when>
<when >2025-08-13T12:02:31.070Z</when>
<when >2025-08-13T12:02:34.000Z</when>
<when >2025-08-13T12:02:37.380Z</when>
<when >2025-08-13T12:02:41.670Z</when>
<when >2025-08-13T12:02:44.420Z</when>
<when >2025-08-13T12:02:46.820Z</when>
<when >2025-08-13T12:02:50.000Z</when>
<when >2025-08-13T12:02:52.940Z</when>
<when >2025-08-13T12:02:55.900Z</when>
<when >2025-08-13T12:02:58.020Z</when>
<when >2025-08-13T12:03:01.260Z</when>
<when >2025-08-13T12:03:04.010Z</when>
<when >2025-08-13T12:03:06.580Z</when>
<when >2025-08-13T12:03:11.430Z</when>
<when >2025-08-13T12:03:18.220Z</when>
<when >2025-08-13T12:03:23.890Z</when>
<when >2025-08-13T12:03:27.330Z</when>
<when >2025-08-13T12:03:33.360Z</when>
<when >2025-08-13T12:03:39.660Z</when>
<when >2025-08-13T12:03:51.400Z</when>
<when >2025-08-13T12:08:48.490Z</when>
<when >2025-08-13T12:08:55.290Z</when>
<when >2025-08-13T12:08:57.870Z</when>
<when >2025-08-13T12:09:06.990Z</when>
<when >2025-08-13T12:09:16.270Z</when>
<when >2025-08-13T12:09:28.400Z</when>
<when >2025-08-13T12:09:34.380Z</when>
<when >2025-08-13T12:09:36.990Z</when>
<when >2025-08-13T12:10:04.530Z</when>
<when >2025-08-13T12:10:12.030Z</when>
<when >2025-08-13T12:10:14.670Z</when>
<when >2025-08-13T12:10:17.000Z</when>
<when >2025-08-13T12:10:18.610Z</when>
<when >2025-08-13T12:10:21.850Z</when>
<when >2025-08-13T12:10:23.850Z</when>
<when >2025-08-13T12:10:25.990Z</when>
<when >2025-08-13T12:11:04.160Z</when>
<when >2025-08-13T12:11:13.330Z</when>
<when >2025-08-13T12:11:15.730Z</when>
<when >2025-08-13T12:11:17.780Z</when>
<when >2025-08-13T12:11:21.210Z</when>
<when >2025-08-13T12:11:24.340Z</when>
<when >2025-08-13T12:11:26.370Z</when>
<when >2025-08-13T12:11:29.330Z</when>
<when >2025-08-13T12:11:45.960Z</when>
<when >2025-08-13T12:11:55.510Z</when>
<when >2025-08-13T12:12:03.140Z</when>
<when >2025-08-13T12:12:03.140Z</when>
<when >2025-08-13T12:12:23.680Z</when>
<when >2025-08-13T12:12:42.680Z</when>
<when >2025-08-13T12:12:49.890Z</when>
<when >2025-08-13T12:12:54.770Z</when>
<when >2025-08-13T12:13:01.640Z</when>
<when >2025-08-13T12:13:04.260Z</when>
<when >2025-08-13T12:13:23.380Z</when>
<when >2025-08-13T12:13:23.380Z</when>
<gx:coord >20.966358 52.176395 0</gx:coord>
<gx:coord >20.966358 52.176395 0</gx:coord>
<gx:coord >20.966358 52.176395 0</gx:coord>
<gx:coord >20.966367 52.1764 0</gx:coord>
<gx:coord >20.966377 52.176395 0</gx:coord>
<gx:coord >20.966396 52.176407 0</gx:coord>
<gx:coord >20.966524 52.176458 0</gx:coord>
<gx:coord >20.966568 52.176464 0</gx:coord>
<gx:coord >20.966606 52.176476 0</gx:coord>
<gx:coord >20.966642 52.176493 0</gx:coord>
<gx:coord >20.966702 52.176498 0</gx:coord>
<gx:coord >20.966721 52.176516 0</gx:coord>
<gx:coord >20.96674 52.176516 0</gx:coord>
<gx:coord >20.966799 52.17654 0</gx:coord>
<gx:coord >20.966816 52.176556 0</gx:coord>
<gx:coord >20.966854 52.176567 0</gx:coord>
<gx:coord >20.966897 52.176586 0</gx:coord>
<gx:coord >20.966917 52.176598 0</gx:coord>
<gx:coord >20.966956 52.176621 0</gx:coord>
<gx:coord >20.966988 52.176647 0</gx:coord>
<gx:coord >20.967007 52.17667 0</gx:coord>
<gx:coord >20.966995 52.176726 0</gx:coord>
<gx:coord >20.967007 52.176785 0</gx:coord>
<gx:coord >20.967015 52.176819 0</gx:coord>
<gx:coord >20.966995 52.176865 0</gx:coord>
<gx:coord >20.966976 52.1769 0</gx:coord>
<gx:coord >20.966917 52.17697 0</gx:coord>
<gx:coord >20.967007 52.176876 0</gx:coord>
<gx:coord >20.967113 52.176784 0</gx:coord>
<gx:coord >20.967172 52.176714 0</gx:coord>
<gx:coord >20.967464 52.176453 0</gx:coord>
<gx:coord >20.967662 52.17626 0</gx:coord>
<gx:coord >20.967274 52.175846 0</gx:coord>
<gx:coord >20.966917 52.175725 0</gx:coord>
<gx:coord >20.966799 52.175678 0</gx:coord>
<gx:coord >20.964366 52.174666 0</gx:coord>
<gx:coord >20.963758 52.174468 0</gx:coord>
<gx:coord >20.963516 52.174473 0</gx:coord>
<gx:coord >20.963459 52.174496 0</gx:coord>
<gx:coord >20.963405 52.174573 0</gx:coord>
<gx:coord >20.963327 52.174643 0</gx:coord>
<gx:coord >20.963287 52.174724 0</gx:coord>
<gx:coord >20.963209 52.174817 0</gx:coord>
<gx:coord >20.962208 52.175783 0</gx:coord>
<gx:coord >20.9616 52.175841 0</gx:coord>
<gx:coord >20.961463 52.175818 0</gx:coord>
<gx:coord >20.961365 52.175806 0</gx:coord>
<gx:coord >20.961227 52.175783 0</gx:coord>
<gx:coord >20.961075 52.175743 0</gx:coord>
<gx:coord >20.960992 52.175713 0</gx:coord>
<gx:coord >20.960903 52.175663 0</gx:coord>
<gx:coord >20.960617 52.175365 0</gx:coord>
<gx:coord >20.960443 52.175155 0</gx:coord>
<gx:coord >20.960331 52.175011 0</gx:coord>
<gx:coord >20.960325 52.174992 0</gx:coord>
<gx:coord >20.959933 52.174503 0</gx:coord>
<gx:coord >20.959873 52.174072 0</gx:coord>
<gx:coord >20.960007 52.173935 0</gx:coord>
<gx:coord >20.960083 52.17382 0</gx:coord>
<gx:coord >20.960236 52.173649 0</gx:coord>
<gx:coord >20.960312 52.173557 0</gx:coord>
<gx:coord >20.96365 52.169769 0</gx:coord>
<gx:coord >20.96365 52.169769 0</gx:coord>
</gx:Track>
</Placemark>
<Placemark ><name >9H-WAS</name>
<Style ><LineStyle ><color >ff1c1ae3</color>
<width >4</width>
</LineStyle>
<IconStyle ><Icon ><href >http://maps.google.com/mapfiles/kml/shapes/airports.png</href>
</Icon>
</IconStyle>
</Style>
<gx:Track ><altitudeMode >absolute</altitudeMode>
<extrude >1</extrude>
<when >2025-08-13T12:13:25.930Z</when>
<when >2025-08-13T12:13:34.070Z</when>
<when >2025-08-13T12:13:37.880Z</when>
<when >2025-08-13T12:13:41.240Z</when>
<when >2025-08-13T12:13:45.850Z</when>
<when >2025-08-13T12:13:48.900Z</when>
<when >2025-08-13T12:13:49.560Z</when>
<when >2025-08-13T12:13:50.110Z</when>
<when >2025-08-13T12:13:53.240Z</when>
<when >2025-08-13T12:13:55.630Z</when>
<when >2025-08-13T12:13:57.880Z</when>
<when >2025-08-13T12:14:00.710Z</when>
<when >2025-08-13T12:14:02.950Z</when>
<when >2025-08-13T12:14:05.700Z</when>
<when >2025-08-13T12:14:07.660Z</when>
<when >2025-08-13T12:14:09.630Z</when>
<when >2025-08-13T12:14:11.920Z</when>
<when >2025-08-13T12:14:14.440Z</when>
<when >2025-08-13T12:14:17.040Z</when>
<when >2025-08-13T12:14:18.910Z</when>
<when >2025-08-13T12:14:21.510Z</when>
<when >2025-08-13T12:14:23.710Z</when>
<when >2025-08-13T12:14:26.390Z</when>
<when >2025-08-13T12:14:28.250Z</when>
<when >2025-08-13T12:14:30.610Z</when>
<when >2025-08-13T12:14:33.210Z</when>
<when >2025-08-13T12:14:35.770Z</when>
<when >2025-08-13T12:14:38.390Z</when>
<when >2025-08-13T12:14:41.610Z</when>
<when >2025-08-13T12:14:44.610Z</when>
<when >2025-08-13T12:14:47.180Z</when>
<when >2025-08-13T12:14:49.270Z</when>
<when >2025-08-13T12:14:51.320Z</when>
<when >2025-08-13T12:14:53.420Z</when>
<when >2025-08-13T12:14:55.840Z</when>
<when >2025-08-13T12:14:58.410Z</when>
<when >2025-08-13T12:15:01.180Z</when>
<when >2025-08-13T12:15:03.890Z</when>
<when >2025-08-13T12:15:06.660Z</when>
<when >2025-08-13T12:15:09.300Z</when>
<when >2025-08-13T12:15:12.740Z</when>
<when >2025-08-13T12:15:17.310Z</when>
<when >2025-08-13T12:15:19.600Z</when>
<when >2025-08-13T12:15:22.820Z</when>
<when >2025-08-13T12:15:23.790Z</when>
<when >2025-08-13T12:15:25.900Z</when>
<when >2025-08-13T12:15:28.000Z</when>
<when >2025-08-13T12:15:30.560Z</when>
<when >2025-08-13T12:15:34.100Z</when>
<when >2025-08-13T12:15:34.580Z</when>
<when >2025-08-13T12:15:36.740Z</when>
<when >2025-08-13T12:15:38.990Z</when>
<when >2025-08-13T12:15:40.560Z</when>
<when >2025-08-13T12:15:44.000Z</when>
<when >2025-08-13T12:15:46.660Z</when>
<when >2025-08-13T12:15:48.190Z</when>
<when >2025-08-13T12:15:50.500Z</when>
<when >2025-08-13T12:15:52.860Z</when>
<when >2025-08-13T12:15:55.100Z</when>
<when >2025-08-13T12:15:58.430Z</when>
<when >2025-08-13T12:16:02.250Z</when>
<when >2025-08-13T12:16:04.890Z</when>
<when >2025-08-13T12:16:06.330Z</when>
<when >2025-08-13T12:16:08.900Z</when>
<when >2025-08-13T12:16:11.500Z</when>
<when >2025-08-13T12:16:14.960Z</when>
<when >2025-08-13T12:16:17.930Z</when>
<when >2025-08-13T12:16:20.850Z</when>
<when >2025-08-13T12:16:23.730Z</when>
<when >2025-08-13T12:16:26.680Z</when>
<when >2025-08-13T12:16:30.370Z</when>
<when >2025-08-13T12:16:33.600Z</when>
<when >2025-08-13T12:16:36.500Z</when>
<when >2025-08-13T12:16:38.870Z</when>
<when >2025-08-13T12:16:41.670Z</when>
<when >2025-08-13T12:16:43.390Z</when>
<when >2025-08-13T12:16:44.890Z</when>
<when >2025-08-13T12:16:45.950Z</when>
<when >2025-08-13T12:16:47.740Z</when>
<when >2025-08-13T12:16:49.170Z</when>
<when >2025-08-13T12:16:51.010Z</when>
<when >2025-08-13T12:16:52.550Z</when>
<when >2025-08-13T12:16:54.130Z</when>
<when >2025-08-13T12:16:56.010Z</when>
<when >2025-08-13T12:16:57.550Z</when>
<when >2025-08-13T12:16:59.520Z</when>
<when >2025-08-13T12:17:01.080Z</when>
<when >2025-08-13T12:17:02.690Z</when>
<when >2025-08-13T12:17:04.810Z</when>
<when >2025-08-13T12:17:08.820Z</when>
<when >2025-08-13T12:17:12.850Z</when>
<when >2025-08-13T12:17:16.920Z</when>
<when >2025-08-13T12:17:21.120Z</when>
<when >2025-08-13T12:17:24.900Z</when>
<when >2025-08-13T12:17:28.870Z</when>
<when >2025-08-13T12:17:32.430Z</when>
<when >2025-08-13T12:17:36.120Z</when>
<when >2025-08-13T12:17:40.090Z</when>
<when >2025-08-13T12:17:43.680Z</when>
<when >2025-08-13T12:17:47.020Z</when>
<when >2025-08-13T12:17:51.120Z</when>
<when >2025-08-13T12:17:55.490Z</when>
<when >2025-08-13T12:18:00.110Z</when>
<when >2025-08-13T12:18:04.790Z</when>
<when >2025-08-13T12:18:09.520Z</when>
<when >2025-08-13T12:18:13.630Z</when>
<when >2025-08-13T12:18:15.340Z</when>
<when >2025-08-13T12:18:17.430Z</when>
<when >2025-08-13T12:18:25.680Z</when>
<when >2025-08-13T12:18:34.660Z</when>
<when >2025-08-13T12:18:43.090Z</when>
<when >2025-08-13T12:18:50.670Z</when>
<when >2025-08-13T12:18:54.050Z</when>
<when >2025-08-13T12:18:56.250Z</when>
<when >2025-08-13T12:18:57.620Z</when>
<when >2025-08-13T12:18:59.240Z</when>
<when >2025-08-13T12:19:03.150Z</when>
<when >2025-08-13T12:19:06.650Z</when>
<when >2025-08-13T12:19:10.070Z</when>
<when >2025-08-13T12:19:17.540Z</when>
<when >2025-08-13T12:19:20.910Z</when>
<when >2025-08-13T12:19:26.240Z</when>
<when >2025-08-13T12:19:36.350Z</when>
<when >2025-08-13T12:19:46.570Z</when>
<when >2025-08-13T12:19:56.320Z</when>
<when >2025-08-13T12:20:06.510Z</when>
<when >2025-08-13T12:20:16.540Z</when>
<when >2025-08-13T12:20:28.360Z</when>
<when >2025-08-13T12:20:39.880Z</when>
<when >2025-08-13T12:20:51.370Z</when>
<when >2025-08-13T12:21:00.470Z</when>
<when >2025-08-13T12:21:09.230Z</when>
<when >2025-08-13T12:21:17.700Z</when>
<when >2025-08-13T12:21:26.660Z</when>
<when >2025-08-13T12:21:37.200Z</when>
<when >2025-08-13T12:21:47.970Z</when>
<when >2025-08-13T12:21:59.120Z</when>
<when >2025-08-13T12:22:11.070Z</when>
<when >2025-08-13T12:22:22.810Z</when>
<when >2025-08-13T12:22:34.400Z</when>
<when >2025-08-13T12:22:45.360Z</when>
<when >2025-08-13T12:22:50.800Z</when>
<when >2025-08-13T12:23:04.290Z</when>
<when >2025-08-13T12:23:18.090Z</when>
<when >2025-08-13T12:23:26.820Z</when>
<when >2025-08-13T12:23:37.810Z</when>
<when >2025-08-13T12:23:48.800Z</when>
<when >2025-08-13T12:23:57.960Z</when>
<when >2025-08-13T12:24:11.660Z</when>
<when >2025-08-13T12:24:24.720Z</when>
<when >2025-08-13T12:24:37.860Z</when>
<when >2025-08-13T12:24:50.350Z</when>
<when >2025-08-13T12:25:02.370Z</when>
<when >2025-08-13T12:25:15.670Z</when>
<when >2025-08-13T12:25:29.040Z</when>
<when >2025-08-13T12:25:41.410Z</when>
<when >2025-08-13T12:25:52.840Z</when>
<when >2025-08-13T12:26:05.350Z</when>
<when >2025-08-13T12:26:20.000Z</when>
<when >2025-08-13T12:26:35.140Z</when>
<when >2025-08-13T12:26:49.750Z</when>
<when >2025-08-13T12:27:03.520Z</when>
<when >2025-08-13T12:27:17.110Z</when>
<when >2025-08-13T12:27:29.960Z</when>
<when >2025-08-13T12:27:44.180Z</when>
<when >2025-08-13T12:27:59.240Z</when>
<when >2025-08-13T12:28:08.610Z</when>
<when >2025-08-13T12:28:17.010Z</when>
<when >2025-08-13T12:28:25.700Z</when>
<when >2025-08-13T12:28:32.780Z</when>
<when >2025-08-13T12:28:41.060Z</when>
<when >2025-08-13T12:28:58.290Z</when>
<when >2025-08-13T12:29:12.600Z</when>
<when >2025-08-13T12:29:27.480Z</when>
<when >2025-08-13T12:29:43.510Z</when>
<when >2025-08-13T12:30:01.310Z</when>
<when >2025-08-13T12:30:17.060Z</when>
<when >2025-08-13T12:30:31.200Z</when>
<when >2025-08-13T12:30:47.600Z</when>
<when >2025-08-13T12:31:03.650Z</when>
<when >2025-08-13T12:31:18.810Z</when>
<when >2025-08-13T12:31:35.190Z</when>
<when >2025-08-13T12:31:54.470Z</when>
<when >2025-08-13T12:32:10.810Z</when>
<when >2025-08-13T12:32:30.240Z</when>
<when >2025-08-13T12:32:50.080Z</when>
<when >2025-08-13T12:33:05.430Z</when>
<when >2025-08-13T12:33:21.940Z</when>
<when >2025-08-13T12:33:36.530Z</when>
<when >2025-08-13T12:33:53.300Z</when>
<when >2025-08-13T12:34:09.700Z</when>
<when >2025-08-13T12:34:25.280Z</when>
<when >2025-08-13T12:34:37.550Z</when>
<when >2025-08-13T12:34:48.540Z</when>
<when >2025-08-13T12:35:08.270Z</when>
<when >2025-08-13T12:35:28.020Z</when>
<when >2025-08-13T12:35:48.000Z</when>
<when >2025-08-13T12:36:07.450Z</when>
<when >2025-08-13T12:36:27.090Z</when>
<when >2025-08-13T12:36:46.730Z</when>
<when >2025-08-13T12:37:06.390Z</when>
<when >2025-08-13T12:37:25.960Z</when>
<when >2025-08-13T12:37:45.680Z</when>
<when >2025-08-13T12:38:05.570Z</when>
<when >2025-08-13T12:38:25.060Z</when>
<when >2025-08-13T12:38:44.310Z</when>
<when >2025-08-13T12:39:03.960Z</when>
<when >2025-08-13T12:39:23.440Z</when>
<when >2025-08-13T12:39:42.960Z</when>
<when >2025-08-13T12:40:02.650Z</when>
<when >2025-08-13T12:40:22.410Z</when>
<when >2025-08-13T12:40:41.950Z</when>
<when >2025-08-13T12:41:01.450Z</when>
<when >2025-08-13T12:41:21.090Z</when>
<when >2025-08-13T12:41:40.710Z</when>
<when >2025-08-13T12:42:00.170Z</when>
<when >2025-08-13T12:42:19.770Z</when>
<when >2025-08-13T12:42:39.620Z</when>
<when >2025-08-13T12:42:59.310Z</when>
<when >2025-08-13T12:43:19.210Z</when>
<when >2025-08-13T12:43:39.060Z</when>
<when >2025-08-13T12:43:59.050Z</when>
<when >2025-08-13T12:44:18.890Z</when>
<when >2025-08-13T12:44:38.870Z</when>
<when >2025-08-13T12:44:58.610Z</when>
<when >2025-08-13T12:45:18.530Z</when>
<when >2025-08-13T12:45:38.130Z</when>
<when >2025-08-13T12:45:57.870Z</when>
<when >2025-08-13T12:46:17.860Z</when>
<when >2025-08-13T12:46:37.610Z</when>
<when >2025-08-13T12:46:57.610Z</when>
<when >2025-08-13T12:47:17.520Z</when>
<when >2025-08-13T12:47:37.210Z</when>
<when >2025-08-13T12:47:57.070Z</when>
<when >2025-08-13T12:48:16.750Z</when>
<when >2025-08-13T12:48:36.280Z</when>
<when >2025-08-13T12:48:55.960Z</when>
<when >2025-08-13T12:49:11.710Z</when>
<when >2025-08-13T12:49:24.170Z</when>
<when >2025-08-13T12:49:44.100Z</when>
<when >2025-08-13T12:50:03.910Z</when>
<when >2025-08-13T12:50:23.840Z</when>
<when >2025-08-13T12:50:43.590Z</when>
<when >2025-08-13T12:51:03.390Z</when>
<when >2025-08-13T12:51:23.020Z</when>
<when >2025-08-13T12:51:42.820Z</when>
<when >2025-08-13T12:52:02.360Z</when>
<when >2025-08-13T12:52:22.100Z</when>
<when >2025-08-13T12:52:41.710Z</when>
<when >2025-08-13T12:53:01.230Z</when>
<when >2025-08-13T12:53:20.830Z</when>
<when >2025-08-13T12:53:40.420Z</when>
<when >2025-08-13T12:54:00.160Z</when>
<when >2025-08-13T12:54:20.020Z</when>
<when >2025-08-13T12:54:39.660Z</when>
<when >2025-08-13T12:54:59.510Z</when>
<when >2025-08-13T12:55:19.240Z</when>
<when >2025-08-13T12:55:39.020Z</when>
<when >2025-08-13T12:55:58.490Z</when>
<when >2025-08-13T12:56:18.220Z</when>
<when >2025-08-13T12:56:37.760Z</when>
<when >2025-08-13T12:56:57.590Z</when>
<when >2025-08-13T12:57:17.130Z</when>
<when >2025-08-13T12:57:37.040Z</when>
<when >2025-08-13T12:57:56.980Z</when>
<when >2025-08-13T12:58:16.700Z</when>
<when >2025-08-13T12:58:36.600Z</when>
<when >2025-08-13T12:58:56.190Z</when>
<when >2025-08-13T12:59:15.780Z</when>
<when >2025-08-13T12:59:35.710Z</when>
<when >2025-08-13T12:59:55.240Z</when>
<when >2025-08-13T13:00:15.230Z</when>
<when >2025-08-13T13:00:35.210Z</when>
<when >2025-08-13T13:00:55.030Z</when>
<when >2025-08-13T13:01:14.690Z</when>
<when >2025-08-13T13:01:34.440Z</when>
<when >2025-08-13T13:01:53.990Z</when>
<when >2025-08-13T13:02:13.510Z</when>
<when >2025-08-13T13:02:33.010Z</when>
<when >2025-08-13T13:02:52.650Z</when>
<when >2025-08-13T13:03:12.620Z</when>
<when >2025-08-13T13:03:32.540Z</when>
<when >2025-08-13T13:03:52.190Z</when>
<when >2025-08-13T13:04:11.750Z</when>
<when >2025-08-13T13:04:31.450Z</when>
<when >2025-08-13T13:04:51.370Z</when>
<when >2025-08-13T13:05:11.250Z</when>
<when >2025-08-13T13:05:30.800Z</when>
<when >2025-08-13T13:05:50.480Z</when>
<when >2025-08-13T13:06:10.180Z</when>
<when >2025-08-13T13:06:29.620Z</when>
<when >2025-08-13T13:06:49.510Z</when>
<when >2025-08-13T13:07:09.220Z</when>
<when >2025-08-13T13:07:29.210Z</when>
<when >2025-08-13T13:07:48.890Z</when>
<when >2025-08-13T13:08:06.140Z</when>
<when >2025-08-13T13:08:26.100Z</when>
<when >2025-08-13T13:08:45.970Z</when>
<when >2025-08-13T13:09:05.860Z</when>
<when >2025-08-13T13:09:25.730Z</when>
<when >2025-08-13T13:09:40.540Z</when>
<when >2025-08-13T13:09:46.850Z</when>
<when >2025-08-13T13:09:55.690Z</when>
<when >2025-08-13T13:10:15.060Z</when>
<when >2025-08-13T13:10:34.900Z</when>
<when >2025-08-13T13:10:54.810Z</when>
<when >2025-08-13T13:11:14.250Z</when>
<when >2025-08-13T13:11:34.010Z</when>
<when >2025-08-13T13:11:53.650Z</when>
<when >2025-08-13T13:12:13.240Z</when>
<when >2025-08-13T13:12:33.230Z</when>
<when >2025-08-13T13:12:53.010Z</when>
<when >2025-08-13T13:13:12.810Z</when>
<when >2025-08-13T13:13:32.290Z</when>
<when >2025-08-13T13:13:52.120Z</when>
<when >2025-08-13T13:14:12.040Z</when>
<when >2025-08-13T13:14:31.860Z</when>
<when >2025-08-13T13:14:51.440Z</when>
<when >2025-08-13T13:15:11.090Z</when>
<when >2025-08-13T13:15:30.950Z</when>
<when >2025-08-13T13:15:50.320Z</when>
<when >2025-08-13T13:16:09.650Z</when>
<when >2025-08-13T13:16:29.260Z</when>
<when >2025-08-13T13:16:48.520Z</when>
<when >2025-08-13T13:17:08.520Z</when>
<when >2025-08-13T13:17:28.480Z</when>
<when >2025-08-13T13:17:48.080Z</when>
<when >2025-08-13T13:18:07.740Z</when>
<when >2025-08-13T13:18:27.180Z</when>
<when >2025-08-13T13:18:45.710Z</when>
<when >2025-08-13T13:19:05.270Z</when>
<when >2025-08-13T13:19:25.080Z</when>
<when >2025-08-13T13:19:44.670Z</when>
<when >2025-08-13T13:20:04.390Z</when>
<when >2025-08-13T13:20:24.110Z</when>
<when >2025-08-13T13:20:43.690Z</when>
<when >2025-08-13T13:21:03.460Z</when>
<when >2025-08-13T13:21:23.250Z</when>
<when >2025-08-13T13:21:33.300Z</when>
<when >2025-08-13T13:21:43.050Z</when>
<when >2025-08-13T13:22:03.050Z</when>
<when >2025-08-13T13:22:22.700Z</when>
<when >2025-08-13T13:22:42.470Z</when>
<when >2025-08-13T13:23:01.930Z</when>
<when >2025-08-13T13:23:21.660Z</when>
<when >2025-08-13T13:23:41.570Z</when>
<when >2025-08-13T13:24:00.970Z</when>
<when >2025-08-13T13:24:09.530Z</when>
<when >2025-08-13T13:24:15.570Z</when>
<when >2025-08-13T13:24:22.700Z</when>
<when >2025-08-13T13:24:42.030Z</when>
<when >2025-08-13T13:25:01.900Z</when>
<when >2025-08-13T13:25:21.360Z</when>
<when >2025-08-13T13:25:41.280Z</when>
<when >2025-08-13T13:26:01.080Z</when>
<when >2025-08-13T13:26:21.020Z</when>
<when >2025-08-13T13:26:40.310Z</when>
<when >2025-08-13T13:26:59.950Z</when>
<when >2025-08-13T13:27:19.780Z</when>
<when >2025-08-13T13:27:39.410Z</when>
<when >2025-08-13T13:27:59.390Z</when>
<when >2025-08-13T13:28:19.250Z</when>
<when >2025-08-13T13:28:39.220Z</when>
<when >2025-08-13T13:28:58.790Z</when>
<when >2025-08-13T13:29:18.350Z</when>
<when >2025-08-13T13:29:38.030Z</when>
<when >2025-08-13T13:29:57.860Z</when>
<when >2025-08-13T13:30:17.680Z</when>
<when >2025-08-13T13:30:37.680Z</when>
<when >2025-08-13T13:30:57.570Z</when>
<when >2025-08-13T13:31:17.220Z</when>
<when >2025-08-13T13:31:36.960Z</when>
<when >2025-08-13T13:31:56.910Z</when>
<when >2025-08-13T13:32:16.840Z</when>
<when >2025-08-13T13:32:36.730Z</when>
<when >2025-08-13T13:32:56.560Z</when>
<when >2025-08-13T13:33:16.090Z</when>
<when >2025-08-13T13:33:33.250Z</when>
<when >2025-08-13T13:33:52.890Z</when>
<when >2025-08-13T13:34:12.570Z</when>
<when >2025-08-13T13:34:32.130Z</when>
<when >2025-08-13T13:34:51.680Z</when>
<when >2025-08-13T13:35:11.340Z</when>
<when >2025-08-13T13:35:31.280Z</when>
<when >2025-08-13T13:35:51.180Z</when>
<when >2025-08-13T13:36:10.980Z</when>
<when >2025-08-13T13:36:30.670Z</when>
<when >2025-08-13T13:36:50.290Z</when>
<when >2025-08-13T13:37:09.810Z</when>
<when >2025-08-13T13:37:29.780Z</when>
<when >2025-08-13T13:37:49.700Z</when>
<when >2025-08-13T13:38:09.630Z</when>
<when >2025-08-13T13:38:28.940Z</when>
<when >2025-08-13T13:38:48.920Z</when>
<when >2025-08-13T13:39:08.400Z</when>
<when >2025-08-13T13:39:28.270Z</when>
<when >2025-08-13T13:39:48.070Z</when>
<when >2025-08-13T13:40:07.830Z</when>
<when >2025-08-13T13:40:27.450Z</when>
<when >2025-08-13T13:40:47.240Z</when>
<when >2025-08-13T13:41:00.450Z</when>
<when >2025-08-13T13:41:06.920Z</when>
<when >2025-08-13T13:41:13.650Z</when>
<when >2025-08-13T13:41:19.120Z</when>
<when >2025-08-13T13:41:38.850Z</when>
<when >2025-08-13T13:41:58.710Z</when>
<when >2025-08-13T13:42:18.390Z</when>
<when >2025-08-13T13:42:37.930Z</when>
<when >2025-08-13T13:42:57.580Z</when>
<when >2025-08-13T13:43:17.420Z</when>
<when >2025-08-13T13:43:37.220Z</when>
<when >2025-08-13T13:43:56.890Z</when>
<when >2025-08-13T13:44:16.870Z</when>
<when >2025-08-13T13:44:36.460Z</when>
<when >2025-08-13T13:44:55.980Z</when>
<when >2025-08-13T13:45:15.900Z</when>
<when >2025-08-13T13:45:35.400Z</when>
<when >2025-08-13T13:45:55.290Z</when>
<when >2025-08-13T13:46:15.280Z</when>
<when >2025-08-13T13:46:34.900Z</when>
<when >2025-08-13T13:46:54.670Z</when>
<when >2025-08-13T13:47:14.310Z</when>
<when >2025-08-13T13:47:33.870Z</when>
<when >2025-08-13T13:47:53.510Z</when>
<when >2025-08-13T13:48:13.320Z</when>
<when >2025-08-13T13:48:33.030Z</when>
<when >2025-08-13T13:48:53.000Z</when>
<when >2025-08-13T13:49:12.620Z</when>
<when >2025-08-13T13:49:31.940Z</when>
<when >2025-08-13T13:49:51.810Z</when>
<when >2025-08-13T13:50:11.460Z</when>
<when >2025-08-13T13:50:31.090Z</when>
<when >2025-08-13T13:50:50.810Z</when>
<when >2025-08-13T13:51:10.510Z</when>
<when >2025-08-13T13:51:24.390Z</when>
<when >2025-08-13T13:51:29.870Z</when>
<when >2025-08-13T13:51:34.970Z</when>
<when >2025-08-13T13:51:41.070Z</when>
<when >2025-08-13T13:51:45.060Z</when>
<when >2025-08-13T13:51:49.710Z</when>
<when >2025-08-13T13:52:03.080Z</when>
<when >2025-08-13T13:52:23.020Z</when>
<when >2025-08-13T13:52:42.620Z</when>
<when >2025-08-13T13:53:02.070Z</when>
<when >2025-08-13T13:53:21.950Z</when>
<when >2025-08-13T13:53:41.420Z</when>
<when >2025-08-13T13:54:01.400Z</when>
<when >2025-08-13T13:54:21.220Z</when>
<when >2025-08-13T13:54:40.900Z</when>
<when >2025-08-13T13:55:00.640Z</when>
<when >2025-08-13T13:55:20.450Z</when>
<when >2025-08-13T13:55:26.690Z</when>
<when >2025-08-13T13:55:31.730Z</when>
<when >2025-08-13T13:55:36.020Z</when>
<when >2025-08-13T13:55:40.450Z</when>
<when >2025-08-13T13:55:44.630Z</when>
<when >2025-08-13T13:55:48.540Z</when>
<when >2025-08-13T13:55:52.620Z</when>
<when >2025-08-13T13:55:59.350Z</when>
<when >2025-08-13T13:56:18.850Z</when>
<when >2025-08-13T13:56:34.980Z</when>
<when >2025-08-13T13:56:54.880Z</when>
<when >2025-08-13T13:57:14.610Z</when>
<when >2025-08-13T13:57:34.180Z</when>
<when >2025-08-13T13:57:54.130Z</when>
<when >2025-08-13T13:58:13.850Z</when>
<when >2025-08-13T13:58:33.810Z</when>
<when >2025-08-13T13:58:53.710Z</when>
<when >2025-08-13T13:59:13.150Z</when>
<when >2025-08-13T13:59:33.070Z</when>
<when >2025-08-13T13:59:52.780Z</when>
<when >2025-08-13T14:00:12.680Z</when>
<when >2025-08-13T14:00:32.210Z</when>
<when >2025-08-13T14:00:52.110Z</when>
<when >2025-08-13T14:01:12.090Z</when>
<when >2025-08-13T14:01:31.800Z</when>
<when >2025-08-13T14:01:51.700Z</when>
<when >2025-08-13T14:02:11.610Z</when>
<when >2025-08-13T14:02:31.220Z</when>
<when >2025-08-13T14:02:50.830Z</when>
<when >2025-08-13T14:03:10.510Z</when>
<when >2025-08-13T14:03:30.410Z</when>
<when >2025-08-13T14:03:49.650Z</when>
<when >2025-08-13T14:04:09.330Z</when>
<when >2025-08-13T14:04:29.110Z</when>
<when >2025-08-13T14:04:48.650Z</when>
<when >2025-08-13T14:04:54.280Z</when>
<when >2025-08-13T14:04:59.300Z</when>
<when >2025-08-13T14:05:04.570Z</when>
<when >2025-08-13T14:05:09.690Z</when>
<when >2025-08-13T14:05:14.540Z</when>
<when >2025-08-13T14:05:18.460Z</when>
<when >2025-08-13T14:05:23.690Z</when>
<when >2025-08-13T14:05:30.780Z</when>
<when >2025-08-13T14:05:50.680Z</when>
<when >2025-08-13T14:06:10.340Z</when>
<when >2025-08-13T14:06:29.790Z</when>
<when >2025-08-13T14:06:49.140Z</when>
<when >2025-08-13T14:07:08.590Z</when>
<when >2025-08-13T14:07:28.150Z</when>
<when >2025-08-13T14:07:48.070Z</when>
<when >2025-08-13T14:08:07.820Z</when>
<when >2025-08-13T14:08:27.470Z</when>
<when >2025-08-13T14:08:47.270Z</when>
<when >2025-08-13T14:09:06.460Z</when>
<when >2025-08-13T14:09:26.120Z</when>
<when >2025-08-13T14:09:45.640Z</when>
<when >2025-08-13T14:10:05.260Z</when>
<when >2025-08-13T14:10:25.110Z</when>
<when >2025-08-13T14:10:44.410Z</when>
<when >2025-08-13T14:11:04.000Z</when>
<when >2025-08-13T14:11:23.510Z</when>
<when >2025-08-13T14:11:43.130Z</when>
<when >2025-08-13T14:12:03.120Z</when>
<when >2025-08-13T14:12:22.920Z</when>
<when >2025-08-13T14:12:42.110Z</when>
<when >2025-08-13T14:12:55.250Z</when>
<when >2025-08-13T14:13:00.450Z</when>
<when >2025-08-13T14:13:05.620Z</when>
<when >2025-08-13T14:13:10.630Z</when>
<when >2025-08-13T14:13:15.590Z</when>
<when >2025-08-13T14:13:19.970Z</when>
<when >2025-08-13T14:13:24.940Z</when>
<when >2025-08-13T14:13:32.590Z</when>
<when >2025-08-13T14:13:46.180Z</when>
<when >2025-08-13T14:14:05.970Z</when>
<when >2025-08-13T14:14:25.730Z</when>
<when >2025-08-13T14:14:38.900Z</when>
<when >2025-08-13T14:14:58.400Z</when>
<when >2025-08-13T14:15:18.140Z</when>
<when >2025-08-13T14:15:37.520Z</when>
<when >2025-08-13T14:15:57.300Z</when>
<when >2025-08-13T14:16:16.660Z</when>
<when >2025-08-13T14:16:36.510Z</when>
<when >2025-08-13T14:16:56.120Z</when>
<when >2025-08-13T14:17:16.100Z</when>
<when >2025-08-13T14:17:35.770Z</when>
<when >2025-08-13T14:17:55.660Z</when>
<when >2025-08-13T14:18:15.370Z</when>
<when >2025-08-13T14:18:35.030Z</when>
<when >2025-08-13T14:18:54.540Z</when>
<when >2025-08-13T14:19:14.430Z</when>
<when >2025-08-13T14:19:34.140Z</when>
<when >2025-08-13T14:19:54.140Z</when>
<when >2025-08-13T14:20:13.700Z</when>
<when >2025-08-13T14:20:33.600Z</when>
<when >2025-08-13T14:20:53.000Z</when>
<when >2025-08-13T14:21:12.240Z</when>
<when >2025-08-13T14:21:31.940Z</when>
<when >2025-08-13T14:21:51.170Z</when>
<when >2025-08-13T14:22:10.420Z</when>
<when >2025-08-13T14:22:29.990Z</when>
<when >2025-08-13T14:22:49.620Z</when>
<when >2025-08-13T14:23:08.880Z</when>
<when >2025-08-13T14:23:28.580Z</when>
<when >2025-08-13T14:23:48.560Z</when>
<when >2025-08-13T14:24:08.220Z</when>
<when >2025-08-13T14:24:27.750Z</when>
<when >2025-08-13T14:24:47.510Z</when>
<when >2025-08-13T14:25:06.750Z</when>
<when >2025-08-13T14:25:26.380Z</when>
<when >2025-08-13T14:25:45.750Z</when>
<when >2025-08-13T14:26:05.160Z</when>
<when >2025-08-13T14:26:24.950Z</when>
<when >2025-08-13T14:26:44.060Z</when>
<when >2025-08-13T14:27:04.040Z</when>
<when >2025-08-13T14:27:23.980Z</when>
<when >2025-08-13T14:27:43.140Z</when>
<when >2025-08-13T14:28:02.990Z</when>
<when >2025-08-13T14:28:22.680Z</when>
<when >2025-08-13T14:28:42.530Z</when>
<when >2025-08-13T14:29:01.960Z</when>
<when >2025-08-13T14:29:21.360Z</when>
<when >2025-08-13T14:29:41.250Z</when>
<when >2025-08-13T14:30:00.790Z</when>
<when >2025-08-13T14:30:20.250Z</when>
<when >2025-08-13T14:30:39.860Z</when>
<when >2025-08-13T14:30:59.440Z</when>
<when >2025-08-13T14:31:18.930Z</when>
<when >2025-08-13T14:31:38.350Z</when>
<when >2025-08-13T14:31:57.780Z</when>
<when >2025-08-13T14:32:17.480Z</when>
<when >2025-08-13T14:32:37.150Z</when>
<when >2025-08-13T14:32:57.120Z</when>
<when >2025-08-13T14:33:16.770Z</when>
<when >2025-08-13T14:33:36.250Z</when>
<when >2025-08-13T14:33:55.870Z</when>
<when >2025-08-13T14:34:15.090Z</when>
<when >2025-08-13T14:34:31.430Z</when>
<when >2025-08-13T14:34:37.520Z</when>
<when >2025-08-13T14:34:42.260Z</when>
<when >2025-08-13T14:34:47.180Z</when>
<when >2025-08-13T14:34:51.990Z</when>
<when >2025-08-13T14:34:56.850Z</when>
<when >2025-08-13T14:35:02.590Z</when>
<when >2025-08-13T14:35:07.240Z</when>
<when >2025-08-13T14:35:12.650Z</when>
<when >2025-08-13T14:35:17.620Z</when>
<when >2025-08-13T14:35:24.970Z</when>
<when >2025-08-13T14:35:44.340Z</when>
<when >2025-08-13T14:36:04.170Z</when>
<when >2025-08-13T14:36:23.610Z</when>
<when >2025-08-13T14:36:43.160Z</when>
<when >2025-08-13T14:37:02.890Z</when>
<when >2025-08-13T14:37:22.030Z</when>
<when >2025-08-13T14:37:41.040Z</when>
<when >2025-08-13T14:38:00.970Z</when>
<when >2025-08-13T14:38:20.950Z</when>
<when >2025-08-13T14:38:40.210Z</when>
<when >2025-08-13T14:38:59.860Z</when>
<when >2025-08-13T14:39:19.610Z</when>
<when >2025-08-13T14:39:39.490Z</when>
<when >2025-08-13T14:39:56.780Z</when>
<when >2025-08-13T14:40:15.820Z</when>
<when >2025-08-13T14:40:35.550Z</when>
<when >2025-08-13T14:40:55.490Z</when>
<when >2025-08-13T14:41:14.890Z</when>
<when >2025-08-13T14:41:34.820Z</when>
<when >2025-08-13T14:41:53.910Z</when>
<when >2025-08-13T14:41:59.240Z</when>
<when >2025-08-13T14:42:03.610Z</when>
<when >2025-08-13T14:42:07.330Z</when>
<when >2025-08-13T14:42:10.830Z</when>
<when >2025-08-13T14:42:14.550Z</when>
<when >2025-08-13T14:42:18.790Z</when>
<when >2025-08-13T14:42:22.120Z</when>
<when >2025-08-13T14:42:26.650Z</when>
<when >2025-08-13T14:42:32.350Z</when>
<when >2025-08-13T14:42:50.190Z</when>
<when >2025-08-13T14:43:02.830Z</when>
<when >2025-08-13T14:43:21.900Z</when>
<when >2025-08-13T14:43:40.910Z</when>
<when >2025-08-13T14:43:59.910Z</when>
<when >2025-08-13T14:44:18.980Z</when>
<when >2025-08-13T14:44:38.050Z</when>
<when >2025-08-13T14:44:57.840Z</when>
<when >2025-08-13T14:45:16.800Z</when>
<when >2025-08-13T14:45:35.250Z</when>
<when >2025-08-13T14:45:54.590Z</when>
<when >2025-08-13T14:46:14.290Z</when>
<when >2025-08-13T14:46:33.340Z</when>
<when >2025-08-13T14:46:53.100Z</when>
<when >2025-08-13T14:47:11.770Z</when>
<when >2025-08-13T14:47:31.520Z</when>
<when >2025-08-13T14:47:50.750Z</when>
<when >2025-08-13T14:48:10.270Z</when>
<when >2025-08-13T14:48:29.620Z</when>
<when >2025-08-13T14:48:49.230Z</when>
<when >2025-08-13T14:49:09.110Z</when>
<when >2025-08-13T14:49:28.850Z</when>
<when >2025-08-13T14:49:48.420Z</when>
<when >2025-08-13T14:50:08.290Z</when>
<when >2025-08-13T14:50:28.170Z</when>
<when >2025-08-13T14:50:48.040Z</when>
<when >2025-08-13T14:51:07.180Z</when>
<when >2025-08-13T14:51:17.200Z</when>
<when >2025-08-13T14:51:26.460Z</when>
<when >2025-08-13T14:51:45.680Z</when>
<when >2025-08-13T14:52:05.540Z</when>
<when >2025-08-13T14:52:25.140Z</when>
<when >2025-08-13T14:52:45.060Z</when>
<when >2025-08-13T14:53:04.590Z</when>
<when >2025-08-13T14:53:23.730Z</when>
<when >2025-08-13T14:53:43.240Z</when>
<when >2025-08-13T14:54:03.180Z</when>
<when >2025-08-13T14:54:22.960Z</when>
<when >2025-08-13T14:54:42.420Z</when>
<when >2025-08-13T14:55:02.010Z</when>
<when >2025-08-13T14:55:21.140Z</when>
<when >2025-08-13T14:55:40.610Z</when>
<when >2025-08-13T14:56:00.490Z</when>
<when >2025-08-13T14:56:19.920Z</when>
<when >2025-08-13T14:56:39.720Z</when>
<when >2025-08-13T14:56:59.480Z</when>
<when >2025-08-13T14:57:17.660Z</when>
<when >2025-08-13T14:57:37.520Z</when>
<when >2025-08-13T14:57:57.290Z</when>
<when >2025-08-13T14:58:16.960Z</when>
<when >2025-08-13T14:58:36.900Z</when>
<when >2025-08-13T14:58:56.890Z</when>
<when >2025-08-13T14:59:16.430Z</when>
<when >2025-08-13T14:59:36.290Z</when>
<when >2025-08-13T14:59:56.090Z</when>
<when >2025-08-13T15:00:15.800Z</when>
<when >2025-08-13T15:00:35.520Z</when>
<when >2025-08-13T15:00:55.300Z</when>
<when >2025-08-13T15:01:14.900Z</when>
<when >2025-08-13T15:01:34.650Z</when>
<when >2025-08-13T15:01:53.920Z</when>
<when >2025-08-13T15:02:11.940Z</when>
<when >2025-08-13T15:02:31.640Z</when>
<when >2025-08-13T15:02:51.360Z</when>
<when >2025-08-13T15:03:10.900Z</when>
<when >2025-08-13T15:03:30.490Z</when>
<when >2025-08-13T15:03:50.250Z</when>
<when >2025-08-13T15:04:09.150Z</when>
<when >2025-08-13T15:04:29.110Z</when>
<when >2025-08-13T15:04:48.980Z</when>
<when >2025-08-13T15:05:08.110Z</when>
<when >2025-08-13T15:05:27.780Z</when>
<when >2025-08-13T15:05:46.540Z</when>
<when >2025-08-13T15:06:06.460Z</when>
<when >2025-08-13T15:06:25.790Z</when>
<when >2025-08-13T15:06:45.430Z</when>
<when >2025-08-13T15:06:58.190Z</when>
<when >2025-08-13T15:07:07.230Z</when>
<when >2025-08-13T15:07:15.600Z</when>
<when >2025-08-13T15:07:23.780Z</when>
<when >2025-08-13T15:07:32.470Z</when>
<when >2025-08-13T15:07:42.570Z</when>
<when >2025-08-13T15:07:50.740Z</when>
<when >2025-08-13T15:08:00.510Z</when>
<when >2025-08-13T15:08:11.070Z</when>
<when >2025-08-13T15:08:20.250Z</when>
<when >2025-08-13T15:08:28.850Z</when>
<when >2025-08-13T15:08:38.100Z</when>
<when >2025-08-13T15:08:47.910Z</when>
<when >2025-08-13T15:08:55.700Z</when>
<when >2025-08-13T15:09:06.610Z</when>
<when >2025-08-13T15:09:15.760Z</when>
<when >2025-08-13T15:09:28.390Z</when>
<when >2025-08-13T15:09:34.700Z</when>
<when >2025-08-13T15:09:40.460Z</when>
<when >2025-08-13T15:09:45.600Z</when>
<when >2025-08-13T15:09:49.350Z</when>
<when >2025-08-13T15:09:53.450Z</when>
<when >2025-08-13T15:09:58.580Z</when>
<when >2025-08-13T15:10:04.270Z</when>
<when >2025-08-13T15:10:10.020Z</when>
<when >2025-08-13T15:10:15.390Z</when>
<when >2025-08-13T15:10:19.730Z</when>
<when >2025-08-13T15:10:24.870Z</when>
<when >2025-08-13T15:10:44.510Z</when>
<when >2025-08-13T15:11:04.480Z</when>
<when >2025-08-13T15:11:24.310Z</when>
<when >2025-08-13T15:11:43.690Z</when>
<when >2025-08-13T15:12:03.380Z</when>
<when >2025-08-13T15:12:23.110Z</when>
<when >2025-08-13T15:12:42.850Z</when>
<when >2025-08-13T15:13:02.320Z</when>
<when >2025-08-13T15:13:21.940Z</when>
<when >2025-08-13T15:13:41.800Z</when>
<when >2025-08-13T15:14:01.800Z</when>
<when >2025-08-13T15:14:21.470Z</when>
<when >2025-08-13T15:14:41.160Z</when>
<when >2025-08-13T15:15:00.720Z</when>
<when >2025-08-13T15:15:19.920Z</when>
<when >2025-08-13T15:15:39.730Z</when>
<when >2025-08-13T15:15:59.720Z</when>
<when >2025-08-13T15:16:19.290Z</when>
<when >2025-08-13T15:16:38.890Z</when>
<when >2025-08-13T15:16:57.860Z</when>
<when >2025-08-13T15:17:17.370Z</when>
<when >2025-08-13T15:17:37.240Z</when>
<when >2025-08-13T15:17:56.610Z</when>
<when >2025-08-13T15:18:16.280Z</when>
<when >2025-08-13T15:18:35.780Z</when>
<when >2025-08-13T15:18:55.690Z</when>
<when >2025-08-13T15:19:15.420Z</when>
<when >2025-08-13T15:19:34.180Z</when>
<when >2025-08-13T15:19:53.930Z</when>
<when >2025-08-13T15:20:13.710Z</when>
<when >2025-08-13T15:20:33.130Z</when>
<when >2025-08-13T15:20:51.640Z</when>
<when >2025-08-13T15:20:56.150Z</when>
<when >2025-08-13T15:21:00.850Z</when>
<when >2025-08-13T15:21:06.320Z</when>
<when >2025-08-13T15:21:09.420Z</when>
<when >2025-08-13T15:21:15.160Z</when>
<when >2025-08-13T15:21:19.040Z</when>
<when >2025-08-13T15:21:38.110Z</when>
<when >2025-08-13T15:21:51.290Z</when>
<when >2025-08-13T15:22:11.090Z</when>
<when >2025-08-13T15:22:30.160Z</when>
<when >2025-08-13T15:22:49.970Z</when>
<when >2025-08-13T15:23:09.140Z</when>
<when >2025-08-13T15:23:28.970Z</when>
<when >2025-08-13T15:23:48.870Z</when>
<when >2025-08-13T15:24:08.620Z</when>
<when >2025-08-13T15:24:17.520Z</when>
<when >2025-08-13T15:24:21.360Z</when>
<when >2025-08-13T15:24:24.070Z</when>
<when >2025-08-13T15:24:28.450Z</when>
<when >2025-08-13T15:24:33.200Z</when>
<when >2025-08-13T15:24:38.010Z</when>
<when >2025-08-13T15:24:57.220Z</when>
<when >2025-08-13T15:25:03.800Z</when>
<when >2025-08-13T15:25:09.660Z</when>
<when >2025-08-13T15:25:13.100Z</when>
<when >2025-08-13T15:25:17.420Z</when>
<when >2025-08-13T15:25:19.620Z</when>
<when >2025-08-13T15:25:29.490Z</when>
<when >2025-08-13T15:25:41.010Z</when>
<when >2025-08-13T15:25:50.300Z</when>
<when >2025-08-13T15:25:57.120Z</when>
<when >2025-08-13T15:26:05.190Z</when>
<when >2025-08-13T15:26:16.210Z</when>
<when >2025-08-13T15:26:16.400Z</when>
<when >2025-08-13T15:26:29.450Z</when>
<when >2025-08-13T15:26:36.140Z</when>
<when >2025-08-13T15:26:46.460Z</when>
<when >2025-08-13T15:26:52.730Z</when>
<when >2025-08-13T15:27:04.520Z</when>
<when >2025-08-13T15:27:14.030Z</when>
<when >2025-08-13T15:27:25.010Z</when>
<when >2025-08-13T15:27:36.630Z</when>
<when >2025-08-13T15:27:51.010Z</when>
<when >2025-08-13T15:28:01.390Z</when>
<when >2025-08-13T15:28:14.770Z</when>
<when >2025-08-13T15:28:16.950Z</when>
<when >2025-08-13T15:28:25.590Z</when>
<when >2025-08-13T15:28:35.610Z</when>
<when >2025-08-13T15:28:46.740Z</when>
<when >2025-08-13T15:28:55.290Z</when>
<when >2025-08-13T15:29:05.440Z</when>
<when >2025-08-13T15:29:14.470Z</when>
<when >2025-08-13T15:29:25.460Z</when>
<when >2025-08-13T15:29:37.600Z</when>
<when >2025-08-13T15:29:48.310Z</when>
<when >2025-08-13T15:29:59.280Z</when>
<when >2025-08-13T15:30:11.290Z</when>
<when >2025-08-13T15:30:23.650Z</when>
<when >2025-08-13T15:30:34.550Z</when>
<when >2025-08-13T15:30:46.210Z</when>
<when >2025-08-13T15:30:57.420Z</when>
<when >2025-08-13T15:31:08.680Z</when>
<when >2025-08-13T15:31:20.520Z</when>
<when >2025-08-13T15:31:31.000Z</when>
<when >2025-08-13T15:31:40.340Z</when>
<when >2025-08-13T15:31:52.300Z</when>
<when >2025-08-13T15:31:56.690Z</when>
<when >2025-08-13T15:32:27.080Z</when>
<when >2025-08-13T15:32:30.850Z</when>
<when >2025-08-13T15:32:54.550Z</when>
<when >2025-08-13T15:34:23.990Z</when>
<when >2025-08-13T15:34:36.450Z</when>
<when >2025-08-13T15:35:02.210Z</when>
<when >2025-08-13T15:35:28.360Z</when>
<when >2025-08-13T15:35:29.820Z</when>
<when >2025-08-13T15:35:56.120Z</when>
<when >2025-08-13T15:36:06.120Z</when>
<when >2025-08-13T15:36:23.390Z</when>
<when >2025-08-13T15:36:34.050Z</when>
<when >2025-08-13T15:36:43.730Z</when>
<when >2025-08-13T15:37:02.180Z</when>
<when >2025-08-13T15:37:05.310Z</when>
<when >2025-08-13T15:37:32.410Z</when>
<when >2025-08-13T15:37:52.130Z</when>
<when >2025-08-13T15:37:58.390Z</when>
<when >2025-08-13T15:38:06.800Z</when>
<when >2025-08-13T15:38:15.480Z</when>
<when >2025-08-13T15:38:29.020Z</when>
<when >2025-08-13T15:38:35.180Z</when>
<when >2025-08-13T15:38:42.080Z</when>
<when >2025-08-13T15:38:49.930Z</when>
<when >2025-08-13T15:38:56.550Z</when>
<when >2025-08-13T15:39:04.850Z</when>
<when >2025-08-13T15:39:13.040Z</when>
<when >2025-08-13T15:39:19.250Z</when>
<when >2025-08-13T15:39:25.150Z</when>
<when >2025-08-13T15:39:32.470Z</when>
<when >2025-08-13T15:39:40.240Z</when>
<when >2025-08-13T15:39:50.880Z</when>
<when >2025-08-13T15:39:54.430Z</when>
<when >2025-08-13T15:40:02.360Z</when>
<when >2025-08-13T15:40:10.050Z</when>
<when >2025-08-13T15:40:12.890Z</when>
<when >2025-08-13T15:40:17.110Z</when>
<when >2025-08-13T15:40:21.190Z</when>
<when >2025-08-13T15:40:23.080Z</when>
<when >2025-08-13T15:40:25.820Z</when>
<when >2025-08-13T15:40:32.440Z</when>
<when >2025-08-13T15:40:38.960Z</when>
<when >2025-08-13T15:40:45.870Z</when>
<when >2025-08-13T15:40:54.220Z</when>
<when >2025-08-13T15:40:55.380Z</when>
<when >2025-08-13T15:40:59.320Z</when>
<when >2025-08-13T15:41:06.100Z</when>
<when >2025-08-13T15:41:12.960Z</when>
<when >2025-08-13T15:41:16.110Z</when>
<when >2025-08-13T15:41:21.840Z</when>
<when >2025-08-13T15:41:25.620Z</when>
<when >2025-08-13T15:41:29.500Z</when>
<when >2025-08-13T15:41:33.010Z</when>
<when >2025-08-13T15:41:37.510Z</when>
<when >2025-08-13T15:41:44.060Z</when>
<when >2025-08-13T15:41:47.000Z</when>
<when >2025-08-13T15:41:49.090Z</when>
<when >2025-08-13T15:41:52.960Z</when>
<when >2025-08-13T15:41:57.340Z</when>
<when >2025-08-13T15:42:01.750Z</when>
<when >2025-08-13T15:42:05.450Z</when>
<when >2025-08-13T15:42:09.430Z</when>
<when >2025-08-13T15:42:14.040Z</when>
<when >2025-08-13T15:42:18.020Z</when>
<when >2025-08-13T15:42:20.010Z</when>
<when >2025-08-13T15:42:22.900Z</when>
<when >2025-08-13T15:42:28.040Z</when>
<when >2025-08-13T15:42:29.090Z</when>
<when >2025-08-13T15:42:35.810Z</when>
<when >2025-08-13T15:42:37.670Z</when>
<when >2025-08-13T15:42:42.550Z</when>
<when >2025-08-13T15:42:46.050Z</when>
<when >2025-08-13T15:42:48.550Z</when>
<when >2025-08-13T15:42:52.090Z</when>
<when >2025-08-13T15:42:54.440Z</when>
<when >2025-08-13T15:42:57.250Z</when>
<when >2025-08-13T15:43:01.140Z</when>
<when >2025-08-13T15:43:12.560Z</when>
<when >2025-08-13T15:43:17.010Z</when>
<when >2025-08-13T15:43:29.190Z</when>
<when >2025-08-13T15:43:33.000Z</when>
<when >2025-08-13T15:43:36.100Z</when>
<when >2025-08-13T15:43:40.900Z</when>
<when >2025-08-13T15:43:44.570Z</when>
<when >2025-08-13T15:43:45.730Z</when>
<when >2025-08-13T15:43:48.570Z</when>
<when >2025-08-13T15:43:56.680Z</when>
<when >2025-08-13T15:44:01.480Z</when>
<when >2025-08-13T15:44:02.800Z</when>
<when >2025-08-13T15:44:12.400Z</when>
<when >2025-08-13T15:44:17.750Z</when>
<when >2025-08-13T15:44:19.420Z</when>
<when >2025-08-13T15:44:21.750Z</when>
<when >2025-08-13T15:44:25.950Z</when>
<when >2025-08-13T15:44:27.400Z</when>
<when >2025-08-13T15:44:29.560Z</when>
<when >2025-08-13T15:44:32.860Z</when>
<when >2025-08-13T15:44:36.060Z</when>
<when >2025-08-13T15:44:40.170Z</when>
<when >2025-08-13T15:44:43.240Z</when>
<when >2025-08-13T15:44:45.210Z</when>
<when >2025-08-13T15:44:49.060Z</when>
<when >2025-08-13T15:44:50.320Z</when>
<when >2025-08-13T15:44:52.090Z</when>
<when >2025-08-13T15:44:55.530Z</when>
<when >2025-08-13T15:44:58.080Z</when>
<when >2025-08-13T15:45:01.220Z</when>
<when >2025-08-13T15:45:04.670Z</when>
<when >2025-08-13T15:45:07.350Z</when>
<when >2025-08-13T15:45:09.200Z</when>
<when >2025-08-13T15:45:14.810Z</when>
<when >2025-08-13T15:45:22.260Z</when>
<when >2025-08-13T15:45:24.010Z</when>
<when >2025-08-13T15:45:33.960Z</when>
<when >2025-08-13T15:45:46.600Z</when>
<when >2025-08-13T15:45:49.250Z</when>
<when >2025-08-13T15:45:54.810Z</when>
<when >2025-08-13T15:46:01.320Z</when>
<when >2025-08-13T15:46:07.070Z</when>
<when >2025-08-13T15:46:11.400Z</when>
<when >2025-08-13T15:46:19.890Z</when>
<when >2025-08-13T15:46:23.920Z</when>
<when >2025-08-13T15:46:28.070Z</when>
<when >2025-08-13T15:46:35.180Z</when>
<when >2025-08-13T15:46:39.580Z</when>
<when >2025-08-13T15:46:46.080Z</when>
<when >2025-08-13T15:46:48.300Z</when>
<when >2025-08-13T15:46:51.680Z</when>
<when >2025-08-13T15:46:55.000Z</when>
<when >2025-08-13T15:47:07.960Z</when>
<when >2025-08-13T15:47:07.960Z</when>
<when >2025-08-13T15:47:26.550Z</when>
<when >2025-08-13T15:47:35.430Z</when>
<when >2025-08-13T15:47:39.200Z</when>
<when >2025-08-13T15:47:51.250Z</when>
<when >2025-08-13T15:47:57.180Z</when>
<when >2025-08-13T15:48:03.040Z</when>
<when >2025-08-13T15:48:03.040Z</when>
<gx:coord >20.964268 52.169091 113</gx:coord>
<gx:coord >20.967789 52.165009 114</gx:coord>
<gx:coord >20.970075 52.162434 115</gx:coord>
<gx:coord >20.971645 52.160665 110</gx:coord>
<gx:coord >20.97374 52.158234 111</gx:coord>
<gx:coord >20.976039 52.155731 142</gx:coord>
<gx:coord >20.976868 52.154755 149</gx:coord>
<gx:coord >20.977216 52.154381 156</gx:coord>
<gx:coord >20.97908 52.152237 189</gx:coord>
<gx:coord >20.980591 52.150563 219</gx:coord>
<gx:coord >20.982056 52.148849 251</gx:coord>
<gx:coord >20.983651 52.147025 284</gx:coord>
<gx:coord >20.985064 52.145443 316</gx:coord>
<gx:coord >20.986557 52.143677 345</gx:coord>
<gx:coord >20.987778 52.142258 377</gx:coord>
<gx:coord >20.989066 52.140787 408</gx:coord>
<gx:coord >20.9904 52.139251 443</gx:coord>
<gx:coord >20.99197 52.137529 473</gx:coord>
<gx:coord >20.993423 52.135803 507</gx:coord>
<gx:coord >20.994568 52.134476 538</gx:coord>
<gx:coord >20.996129 52.132687 570</gx:coord>
<gx:coord >20.997306 52.131291 602</gx:coord>
<gx:coord >20.99884 52.129532 635</gx:coord>
<gx:coord >21.000137 52.128067 667</gx:coord>
<gx:coord >21.001543 52.126449 698</gx:coord>
<gx:coord >21.003036 52.124725 729</gx:coord>
<gx:coord >21.004368 52.123051 760</gx:coord>
<gx:coord >21.005781 52.121189 791</gx:coord>
<gx:coord >21.006927 52.119003 822</gx:coord>
<gx:coord >21.007664 52.116766 853</gx:coord>
<gx:coord >21.007996 52.114517 885</gx:coord>
<gx:coord >21.007843 52.112961 908</gx:coord>
<gx:coord >21.007507 52.111366 933</gx:coord>
<gx:coord >21.006927 52.109802 957</gx:coord>
<gx:coord >21.006012 52.108017 981</gx:coord>
<gx:coord >21.004639 52.106323 1012</gx:coord>
<gx:coord >21.002884 52.104401 1044</gx:coord>
<gx:coord >21.001151 52.102801 1076</gx:coord>
<gx:coord >20.999032 52.100892 1110</gx:coord>
<gx:coord >20.997238 52.099319 1143</gx:coord>
<gx:coord >20.994559 52.096982 1173</gx:coord>
<gx:coord >20.991211 52.094147 1205</gx:coord>
<gx:coord >20.989144 52.092513 1223</gx:coord>
<gx:coord >20.985927 52.090464 1239</gx:coord>
<gx:coord >20.984985 52.089906 1240</gx:coord>
<gx:coord >20.982666 52.088837 1248</gx:coord>
<gx:coord >20.980042 52.087811 1263</gx:coord>
<gx:coord >20.976667 52.08674 1279</gx:coord>
<gx:coord >20.971723 52.085763 1303</gx:coord>
<gx:coord >20.971095 52.085623 1304</gx:coord>
<gx:coord >20.967564 52.085251 1321</gx:coord>
<gx:coord >20.964127 52.084946 1336</gx:coord>
<gx:coord >20.961679 52.084785 1352</gx:coord>
<gx:coord >20.956107 52.084506 1384</gx:coord>
<gx:coord >20.951869 52.08432 1407</gx:coord>
<gx:coord >20.949402 52.084259 1415</gx:coord>
<gx:coord >20.945358 52.084167 1431</gx:coord>
<gx:coord >20.941315 52.084076 1438</gx:coord>
<gx:coord >20.937576 52.083984 1446</gx:coord>
<gx:coord >20.931702 52.083901 1469</gx:coord>
<gx:coord >20.924911 52.083801 1485</gx:coord>
<gx:coord >20.92041 52.08371 1500</gx:coord>
<gx:coord >20.917587 52.083664 1508</gx:coord>
<gx:coord >20.912857 52.083572 1525</gx:coord>
<gx:coord >20.907822 52.083481 1547</gx:coord>
<gx:coord >20.901803 52.083342 1577</gx:coord>
<gx:coord >20.895682 52.083249 1608</gx:coord>
<gx:coord >20.889664 52.083115 1639</gx:coord>
<gx:coord >20.884068 52.08297 1670</gx:coord>
<gx:coord >20.878026 52.08283 1703</gx:coord>
<gx:coord >20.870743 52.082657 1735</gx:coord>
<gx:coord >20.86445 52.082457 1767</gx:coord>
<gx:coord >20.85825 52.082271 1798</gx:coord>
<gx:coord >20.853306 52.082132 1831</gx:coord>
<gx:coord >20.847656 52.081945 1860</gx:coord>
<gx:coord >20.843497 52.081852 1891</gx:coord>
<gx:coord >20.84053 52.081741 1915</gx:coord>
<gx:coord >20.838165 52.08165 1930</gx:coord>
<gx:coord >20.834708 52.081573 1962</gx:coord>
<gx:coord >20.831726 52.08148 1992</gx:coord>
<gx:coord >20.827567 52.08134 2023</gx:coord>
<gx:coord >20.824585 52.081201 2055</gx:coord>
<gx:coord >20.821381 52.0811 2087</gx:coord>
<gx:coord >20.817184 52.080963 2116</gx:coord>
<gx:coord >20.814285 52.080872 2149</gx:coord>
<gx:coord >20.810089 52.080688 2179</gx:coord>
<gx:coord >20.806885 52.080597 2203</gx:coord>
<gx:coord >20.803452 52.08046 2233</gx:coord>
<gx:coord >20.799238 52.08027 2264</gx:coord>
<gx:coord >20.791155 52.079944 2329</gx:coord>
<gx:coord >20.782623 52.07959 2392</gx:coord>
<gx:coord >20.774048 52.079245 2454</gx:coord>
<gx:coord >20.765457 52.078857 2521</gx:coord>
<gx:coord >20.757333 52.078547 2586</gx:coord>
<gx:coord >20.749054 52.078171 2647</gx:coord>
<gx:coord >20.741717 52.077849 2713</gx:coord>
<gx:coord >20.733948 52.077476 2779</gx:coord>
<gx:coord >20.7261 52.077151 2845</gx:coord>
<gx:coord >20.718765 52.076843 2901</gx:coord>
<gx:coord >20.711823 52.076523 2963</gx:coord>
<gx:coord >20.703278 52.076157 3029</gx:coord>
<gx:coord >20.69424 52.0758 3091</gx:coord>
<gx:coord >20.684745 52.075382 3153</gx:coord>
<gx:coord >20.674744 52.075012 3215</gx:coord>
<gx:coord >20.665207 52.0746 3278</gx:coord>
<gx:coord >20.656887 52.074311 3329</gx:coord>
<gx:coord >20.653434 52.074171 3345</gx:coord>
<gx:coord >20.648193 52.073959 3363</gx:coord>
<gx:coord >20.630519 52.07324 3420</gx:coord>
<gx:coord >20.610657 52.072495 3466</gx:coord>
<gx:coord >20.59089 52.071704 3519</gx:coord>
<gx:coord >20.57312 52.07103 3565</gx:coord>
<gx:coord >20.56488 52.070709 3596</gx:coord>
<gx:coord >20.559845 52.070526 3619</gx:coord>
<gx:coord >20.556183 52.070389 3642</gx:coord>
<gx:coord >20.552438 52.070214 3656</gx:coord>
<gx:coord >20.543492 52.069888 3723</gx:coord>
<gx:coord >20.534973 52.069519 3785</gx:coord>
<gx:coord >20.526934 52.06919 3838</gx:coord>
<gx:coord >20.509277 52.068119 3956</gx:coord>
<gx:coord >20.50087 52.067322 4006</gx:coord>
<gx:coord >20.488434 52.065811 4073</gx:coord>
<gx:coord >20.464704 52.0623 4189</gx:coord>
<gx:coord >20.440826 52.058716 4327</gx:coord>
<gx:coord >20.417228 52.055224 4449</gx:coord>
<gx:coord >20.39345 52.05178 4570</gx:coord>
<gx:coord >20.369359 52.048288 4700</gx:coord>
<gx:coord >20.340637 52.044238 4814</gx:coord>
<gx:coord >20.312701 52.040281 4929</gx:coord>
<gx:coord >20.284293 52.036278 5043</gx:coord>
<gx:coord >20.261143 52.033019 5150</gx:coord>
<gx:coord >20.239639 52.029922 5272</gx:coord>
<gx:coord >20.218375 52.026874 5401</gx:coord>
<gx:coord >20.195853 52.023662 5523</gx:coord>
<gx:coord >20.170441 52.020035 5660</gx:coord>
<gx:coord >20.144424 52.016281 5782</gx:coord>
<gx:coord >20.11581 52.012164 5896</gx:coord>
<gx:coord >20.086441 52.00795 6011</gx:coord>
<gx:coord >20.056798 52.003691 6117</gx:coord>
<gx:coord >20.027618 51.999527 6231</gx:coord>
<gx:coord >19.999619 51.995499 6346</gx:coord>
<gx:coord >19.985657 51.993484 6389</gx:coord>
<gx:coord >19.951564 51.988562 6490</gx:coord>
<gx:coord >19.915231 51.983301 6581</gx:coord>
<gx:coord >19.89212 51.979935 6665</gx:coord>
<gx:coord >19.863674 51.975806 6772</gx:coord>
<gx:coord >19.834366 51.971558 6901</gx:coord>
<gx:coord >19.810257 51.968033 6970</gx:coord>
<gx:coord >19.774057 51.962772 7069</gx:coord>
<gx:coord >19.738743 51.957604 7168</gx:coord>
<gx:coord >19.704056 51.952515 7267</gx:coord>
<gx:coord >19.669495 51.947388 7374</gx:coord>
<gx:coord >19.637277 51.942661 7480</gx:coord>
<gx:coord >19.601669 51.937363 7587</gx:coord>
<gx:coord >19.564743 51.931915 7678</gx:coord>
<gx:coord >19.531937 51.927063 7778</gx:coord>
<gx:coord >19.499869 51.922318 7899</gx:coord>
<gx:coord >19.466324 51.917313 8006</gx:coord>
<gx:coord >19.426575 51.911362 8105</gx:coord>
<gx:coord >19.384984 51.90514 8189</gx:coord>
<gx:coord >19.344491 51.898995 8273</gx:coord>
<gx:coord >19.30617 51.893234 8372</gx:coord>
<gx:coord >19.268494 51.887497 8456</gx:coord>
<gx:coord >19.232384 51.881973 8562</gx:coord>
<gx:coord >19.193268 51.875998 8654</gx:coord>
<gx:coord >19.150803 51.869568 8745</gx:coord>
<gx:coord >19.124673 51.865173 8805</gx:coord>
<gx:coord >19.10202 51.860776 8866</gx:coord>
<gx:coord >19.077606 51.855422 8935</gx:coord>
<gx:coord >19.058533 51.85112 8988</gx:coord>
<gx:coord >19.035797 51.846065 9026</gx:coord>
<gx:coord >18.988266 51.835591 9102</gx:coord>
<gx:coord >18.948441 51.826886 9194</gx:coord>
<gx:coord >18.907619 51.817978 9285</gx:coord>
<gx:coord >18.862932 51.808136 9361</gx:coord>
<gx:coord >18.81238 51.796967 9430</gx:coord>
<gx:coord >18.76836 51.78717 9521</gx:coord>
<gx:coord >18.728256 51.778285 9612</gx:coord>
<gx:coord >18.681793 51.767997 9688</gx:coord>
<gx:coord >18.635633 51.757828 9780</gx:coord>
<gx:coord >18.592758 51.748305 9863</gx:coord>
<gx:coord >18.545516 51.737732 9940</gx:coord>
<gx:coord >18.489914 51.725216 10016</gx:coord>
<gx:coord >18.442927 51.714661 10092</gx:coord>
<gx:coord >18.386307 51.701893 10160</gx:coord>
<gx:coord >18.3284 51.688812 10228</gx:coord>
<gx:coord >18.282623 51.678431 10320</gx:coord>
<gx:coord >18.234484 51.667603 10396</gx:coord>
<gx:coord >18.191299 51.657761 10480</gx:coord>
<gx:coord >18.141768 51.646545 10556</gx:coord>
<gx:coord >18.094334 51.635742 10646</gx:coord>
<gx:coord >18.048533 51.625305 10730</gx:coord>
<gx:coord >18.013 51.617121 10783</gx:coord>
<gx:coord >17.981033 51.609813 10799</gx:coord>
<gx:coord >17.92366 51.596731 10806</gx:coord>
<gx:coord >17.866665 51.583511 10806</gx:coord>
<gx:coord >17.809219 51.57015 10813</gx:coord>
<gx:coord >17.752914 51.557115 10813</gx:coord>
<gx:coord >17.695931 51.543823 10813</gx:coord>
<gx:coord >17.639313 51.530581 10813</gx:coord>
<gx:coord >17.581614 51.51709 10813</gx:coord>
<gx:coord >17.524752 51.503815 10813</gx:coord>
<gx:coord >17.467651 51.490453 10820</gx:coord>
<gx:coord >17.409592 51.476813 10820</gx:coord>
<gx:coord >17.351913 51.463266 10820</gx:coord>
<gx:coord >17.295609 51.450045 10820</gx:coord>
<gx:coord >17.238541 51.436359 10827</gx:coord>
<gx:coord >17.181281 51.42247 10827</gx:coord>
<gx:coord >17.12471 51.408847 10835</gx:coord>
<gx:coord >17.067409 51.395142 10835</gx:coord>
<gx:coord >17.009879 51.381454 10826</gx:coord>
<gx:coord >16.953983 51.367996 10826</gx:coord>
<gx:coord >16.897583 51.35452 10826</gx:coord>
<gx:coord >16.841373 51.34108 10819</gx:coord>
<gx:coord >16.785402 51.327576 10819</gx:coord>
<gx:coord >16.72966 51.314066 10819</gx:coord>
<gx:coord >16.674423 51.300659 10811</gx:coord>
<gx:coord >16.617712 51.28688 10811</gx:coord>
<gx:coord >16.562038 51.273285 10810</gx:coord>
<gx:coord >16.505622 51.25946 10810</gx:coord>
<gx:coord >16.44928 51.245495 10810</gx:coord>
<gx:coord >16.392789 51.231308 10825</gx:coord>
<gx:coord >16.336521 51.217117 10833</gx:coord>
<gx:coord >16.279882 51.203018 10833</gx:coord>
<gx:coord >16.223466 51.189102 10840</gx:coord>
<gx:coord >16.166611 51.175294 10840</gx:coord>
<gx:coord >16.110708 51.161499 10839</gx:coord>
<gx:coord >16.05423 51.147223 10839</gx:coord>
<gx:coord >15.997543 51.132792 10839</gx:coord>
<gx:coord >15.941086 51.118407 10839</gx:coord>
<gx:coord >15.884152 51.104004 10839</gx:coord>
<gx:coord >15.827637 51.089638 10839</gx:coord>
<gx:coord >15.771637 51.075393 10839</gx:coord>
<gx:coord >15.714645 51.061101 10839</gx:coord>
<gx:coord >15.658798 51.047089 10832</gx:coord>
<gx:coord >15.603027 51.032891 10839</gx:coord>
<gx:coord >15.546875 51.01846 10831</gx:coord>
<gx:coord >15.502548 51.006682 10838</gx:coord>
<gx:coord >15.467529 50.99658 10838</gx:coord>
<gx:coord >15.412674 50.98024 10831</gx:coord>
<gx:coord >15.356445 50.963714 10831</gx:coord>
<gx:coord >15.300466 50.94754 10831</gx:coord>
<gx:coord >15.245238 50.931702 10838</gx:coord>
<gx:coord >15.189133 50.915486 10838</gx:coord>
<gx:coord >15.133519 50.899658 10838</gx:coord>
<gx:coord >15.077896 50.883691 10846</gx:coord>
<gx:coord >15.022542 50.867569 10846</gx:coord>
<gx:coord >14.966868 50.851273 10846</gx:coord>
<gx:coord >14.911652 50.835183 10846</gx:coord>
<gx:coord >14.856415 50.819123 10846</gx:coord>
<gx:coord >14.801256 50.803116 10838</gx:coord>
<gx:coord >14.745712 50.787002 10838</gx:coord>
<gx:coord >14.69028 50.770752 10838</gx:coord>
<gx:coord >14.634933 50.754043 10838</gx:coord>
<gx:coord >14.579773 50.737284 10846</gx:coord>
<gx:coord >14.523697 50.720618 10837</gx:coord>
<gx:coord >14.468384 50.704092 10837</gx:coord>
<gx:coord >14.412578 50.687668 10845</gx:coord>
<gx:coord >14.357424 50.671509 10845</gx:coord>
<gx:coord >14.302789 50.655352 10845</gx:coord>
<gx:coord >14.246449 50.638504 10845</gx:coord>
<gx:coord >14.190847 50.621928 10845</gx:coord>
<gx:coord >14.135322 50.605308 10845</gx:coord>
<gx:coord >14.079648 50.588503 10845</gx:coord>
<gx:coord >14.02286 50.571605 10845</gx:coord>
<gx:coord >13.967409 50.55466 10845</gx:coord>
<gx:coord >13.911655 50.537201 10844</gx:coord>
<gx:coord >13.856868 50.520126 10844</gx:coord>
<gx:coord >13.801864 50.503189 10844</gx:coord>
<gx:coord >13.74553 50.486042 10852</gx:coord>
<gx:coord >13.690078 50.469143 10852</gx:coord>
<gx:coord >13.634322 50.45224 10852</gx:coord>
<gx:coord >13.577511 50.434937 10852</gx:coord>
<gx:coord >13.521351 50.417633 10852</gx:coord>
<gx:coord >13.46613 50.400604 10852</gx:coord>
<gx:coord >13.41062 50.383392 10851</gx:coord>
<gx:coord >13.355366 50.36617 10851</gx:coord>
<gx:coord >13.300685 50.349152 10851</gx:coord>
<gx:coord >13.245681 50.332123 10858</gx:coord>
<gx:coord >13.190646 50.315055 10858</gx:coord>
<gx:coord >13.13512 50.297877 10858</gx:coord>
<gx:coord >13.079149 50.279908 10851</gx:coord>
<gx:coord >13.024663 50.26273 10851</gx:coord>
<gx:coord >12.970372 50.245743 10858</gx:coord>
<gx:coord >12.915839 50.228375 10851</gx:coord>
<gx:coord >12.860943 50.21077 10858</gx:coord>
<gx:coord >12.806199 50.193135 10857</gx:coord>
<gx:coord >12.752529 50.175957 10850</gx:coord>
<gx:coord >12.698562 50.15864 10850</gx:coord>
<gx:coord >12.644744 50.141415 10850</gx:coord>
<gx:coord >12.590838 50.124161 10842</gx:coord>
<gx:coord >12.536123 50.106674 10842</gx:coord>
<gx:coord >12.481914 50.089279 10850</gx:coord>
<gx:coord >12.426694 50.071564 10850</gx:coord>
<gx:coord >12.372702 50.054123 10850</gx:coord>
<gx:coord >12.324879 50.038162 10857</gx:coord>
<gx:coord >12.270318 50.019448 10857</gx:coord>
<gx:coord >12.216426 50.000874 10857</gx:coord>
<gx:coord >12.161359 49.982071 10865</gx:coord>
<gx:coord >12.106717 49.963303 10865</gx:coord>
<gx:coord >12.066551 49.949201 10865</gx:coord>
<gx:coord >12.049906 49.94252 10865</gx:coord>
<gx:coord >12.026392 49.932349 10872</gx:coord>
<gx:coord >11.976434 49.910516 10872</gx:coord>
<gx:coord >11.924864 49.888367 10872</gx:coord>
<gx:coord >11.873771 49.866524 10880</gx:coord>
<gx:coord >11.821809 49.844226 10880</gx:coord>
<gx:coord >11.770694 49.822266 10872</gx:coord>
<gx:coord >11.71981 49.800385 10872</gx:coord>
<gx:coord >11.669432 49.778641 10872</gx:coord>
<gx:coord >11.617608 49.756119 10865</gx:coord>
<gx:coord >11.566896 49.734083 10865</gx:coord>
<gx:coord >11.516202 49.712036 10865</gx:coord>
<gx:coord >11.465867 49.690091 10857</gx:coord>
<gx:coord >11.415662 49.668182 10857</gx:coord>
<gx:coord >11.364995 49.646027 10857</gx:coord>
<gx:coord >11.313765 49.623615 10850</gx:coord>
<gx:coord >11.264401 49.601921 10857</gx:coord>
<gx:coord >11.214078 49.579834 10857</gx:coord>
<gx:coord >11.163627 49.557587 10857</gx:coord>
<gx:coord >11.114304 49.535817 10865</gx:coord>
<gx:coord >11.065184 49.514053 10857</gx:coord>
<gx:coord >11.015456 49.492035 10865</gx:coord>
<gx:coord >10.96636 49.470132 10865</gx:coord>
<gx:coord >10.915495 49.447449 10857</gx:coord>
<gx:coord >10.864828 49.424883 10865</gx:coord>
<gx:coord >10.814378 49.402352 10857</gx:coord>
<gx:coord >10.763638 49.379774 10857</gx:coord>
<gx:coord >10.71326 49.357243 10872</gx:coord>
<gx:coord >10.665339 49.335782 10871</gx:coord>
<gx:coord >10.614694 49.313095 10879</gx:coord>
<gx:coord >10.563425 49.29007 10887</gx:coord>
<gx:coord >10.51286 49.267227 10887</gx:coord>
<gx:coord >10.46202 49.244214 10887</gx:coord>
<gx:coord >10.411025 49.22113 10887</gx:coord>
<gx:coord >10.3606 49.198334 10887</gx:coord>
<gx:coord >10.310235 49.17541 10879</gx:coord>
<gx:coord >10.259188 49.151917 10871</gx:coord>
<gx:coord >10.233483 49.139648 10871</gx:coord>
<gx:coord >10.209551 49.127275 10871</gx:coord>
<gx:coord >10.161227 49.101334 10871</gx:coord>
<gx:coord >10.113204 49.076021 10871</gx:coord>
<gx:coord >10.065308 49.050842 10871</gx:coord>
<gx:coord >10.017724 49.025651 10871</gx:coord>
<gx:coord >9.969298 48.999908 10864</gx:coord>
<gx:coord >9.920654 48.974118 10864</gx:coord>
<gx:coord >9.873329 48.948944 10864</gx:coord>
<gx:coord >9.853652 48.937807 10864</gx:coord>
<gx:coord >9.839269 48.928683 10864</gx:coord>
<gx:coord >9.823657 48.917976 10864</gx:coord>
<gx:coord >9.781735 48.888741 10871</gx:coord>
<gx:coord >9.738042 48.858948 10864</gx:coord>
<gx:coord >9.695646 48.830154 10871</gx:coord>
<gx:coord >9.651489 48.800034 10871</gx:coord>
<gx:coord >9.608248 48.77037 10879</gx:coord>
<gx:coord >9.564514 48.74025 10879</gx:coord>
<gx:coord >9.522472 48.711284 10879</gx:coord>
<gx:coord >9.479466 48.68163 10879</gx:coord>
<gx:coord >9.435918 48.651443 10879</gx:coord>
<gx:coord >9.393099 48.621735 10879</gx:coord>
<gx:coord >9.349582 48.591505 10879</gx:coord>
<gx:coord >9.306504 48.561572 10887</gx:coord>
<gx:coord >9.262531 48.531143 10887</gx:coord>
<gx:coord >9.219149 48.500931 10878</gx:coord>
<gx:coord >9.176692 48.4714 10878</gx:coord>
<gx:coord >9.133325 48.441095 10878</gx:coord>
<gx:coord >9.090391 48.411022 10878</gx:coord>
<gx:coord >9.04753 48.380996 10878</gx:coord>
<gx:coord >9.003296 48.34996 10878</gx:coord>
<gx:coord >8.960055 48.319656 10878</gx:coord>
<gx:coord >8.917574 48.289707 10878</gx:coord>
<gx:coord >8.874496 48.259355 10893</gx:coord>
<gx:coord >8.831318 48.228745 10954</gx:coord>
<gx:coord >8.788006 48.197937 11000</gx:coord>
<gx:coord >8.745189 48.1676 11046</gx:coord>
<gx:coord >8.702477 48.137787 11107</gx:coord>
<gx:coord >8.660396 48.109131 11160</gx:coord>
<gx:coord >8.623444 48.084 11191</gx:coord>
<gx:coord >8.581009 48.054749 11191</gx:coord>
<gx:coord >8.538912 48.02557 11191</gx:coord>
<gx:coord >8.497009 47.996381 11191</gx:coord>
<gx:coord >8.455009 47.96727 11191</gx:coord>
<gx:coord >8.412992 47.938377 11191</gx:coord>
<gx:coord >8.369591 47.908539 11191</gx:coord>
<gx:coord >8.32695 47.879013 11198</gx:coord>
<gx:coord >8.284653 47.850037 11191</gx:coord>
<gx:coord >8.242218 47.820694 11191</gx:coord>
<gx:coord >8.20066 47.791365 11191</gx:coord>
<gx:coord >8.159743 47.76227 11183</gx:coord>
<gx:coord >8.116905 47.732117 11191</gx:coord>
<gx:coord >8.074529 47.702357 11191</gx:coord>
<gx:coord >8.032555 47.67275 11191</gx:coord>
<gx:coord >7.991427 47.643422 11191</gx:coord>
<gx:coord >7.949383 47.613443 11191</gx:coord>
<gx:coord >7.907822 47.584167 11191</gx:coord>
<gx:coord >7.865524 47.554367 11191</gx:coord>
<gx:coord >7.82309 47.524704 11192</gx:coord>
<gx:coord >7.780926 47.495153 11192</gx:coord>
<gx:coord >7.739319 47.465286 11191</gx:coord>
<gx:coord >7.697571 47.435349 11198</gx:coord>
<gx:coord >7.669302 47.415503 11198</gx:coord>
<gx:coord >7.654724 47.406235 11198</gx:coord>
<gx:coord >7.639019 47.397207 11198</gx:coord>
<gx:coord >7.62561 47.390121 11198</gx:coord>
<gx:coord >7.577339 47.36499 11206</gx:coord>
<gx:coord >7.529068 47.339264 11213</gx:coord>
<gx:coord >7.48183 47.313739 11206</gx:coord>
<gx:coord >7.435135 47.288406 11206</gx:coord>
<gx:coord >7.387756 47.262817 11198</gx:coord>
<gx:coord >7.340584 47.23732 11191</gx:coord>
<gx:coord >7.29245 47.211182 11191</gx:coord>
<gx:coord >7.245343 47.185628 11191</gx:coord>
<gx:coord >7.197383 47.159558 11191</gx:coord>
<gx:coord >7.150314 47.133957 11191</gx:coord>
<gx:coord >7.103966 47.108643 11198</gx:coord>
<gx:coord >7.056244 47.08255 11198</gx:coord>
<gx:coord >7.009136 47.056818 11206</gx:coord>
<gx:coord >6.961881 47.030934 11206</gx:coord>
<gx:coord >6.914908 47.005191 11206</gx:coord>
<gx:coord >6.868172 46.979416 11205</gx:coord>
<gx:coord >6.821274 46.953644 11205</gx:coord>
<gx:coord >6.774445 46.927917 11205</gx:coord>
<gx:coord >6.728577 46.902557 11197</gx:coord>
<gx:coord >6.682575 46.877079 11197</gx:coord>
<gx:coord >6.637015 46.851654 11190</gx:coord>
<gx:coord >6.590122 46.825562 11182</gx:coord>
<gx:coord >6.5438 46.79971 11182</gx:coord>
<gx:coord >6.497795 46.774059 11182</gx:coord>
<gx:coord >6.452751 46.749014 11182</gx:coord>
<gx:coord >6.406101 46.722931 11182</gx:coord>
<gx:coord >6.360347 46.69725 11182</gx:coord>
<gx:coord >6.314873 46.671831 11197</gx:coord>
<gx:coord >6.269005 46.646134 11197</gx:coord>
<gx:coord >6.223274 46.620483 11205</gx:coord>
<gx:coord >6.19162 46.602421 11205</gx:coord>
<gx:coord >6.179192 46.594368 11205</gx:coord>
<gx:coord >6.169225 46.587158 11205</gx:coord>
<gx:coord >6.157435 46.577316 11205</gx:coord>
<gx:coord >6.150602 46.570908 11205</gx:coord>
<gx:coord >6.142429 46.562531 11205</gx:coord>
<gx:coord >6.121528 46.53978 11212</gx:coord>
<gx:coord >6.089516 46.504661 11205</gx:coord>
<gx:coord >6.058625 46.470886 11205</gx:coord>
<gx:coord >6.027718 46.436974 11205</gx:coord>
<gx:coord >5.996407 46.403084 11212</gx:coord>
<gx:coord >5.965911 46.369904 11205</gx:coord>
<gx:coord >5.934334 46.335677 11205</gx:coord>
<gx:coord >5.903611 46.302109 11197</gx:coord>
<gx:coord >5.873222 46.268921 11190</gx:coord>
<gx:coord >5.842323 46.235543 11182</gx:coord>
<gx:coord >5.811081 46.202351 11182</gx:coord>
<gx:coord >5.800644 46.192017 11182</gx:coord>
<gx:coord >5.791443 46.184196 11182</gx:coord>
<gx:coord >5.783297 46.178146 11182</gx:coord>
<gx:coord >5.774139 46.172139 11182</gx:coord>
<gx:coord >5.765009 46.16684 11183</gx:coord>
<gx:coord >5.755943 46.162223 11183</gx:coord>
<gx:coord >5.745582 46.157501 11183</gx:coord>
<gx:coord >5.728499 46.150543 11191</gx:coord>
<gx:coord >5.679588 46.130847 11191</gx:coord>
<gx:coord >5.639336 46.113922 11198</gx:coord>
<gx:coord >5.590835 46.092773 11198</gx:coord>
<gx:coord >5.542328 46.071446 11191</gx:coord>
<gx:coord >5.49504 46.050613 11206</gx:coord>
<gx:coord >5.445854 46.028991 11206</gx:coord>
<gx:coord >5.398338 46.008042 11206</gx:coord>
<gx:coord >5.349605 45.986252 11213</gx:coord>
<gx:coord >5.300836 45.964462 11213</gx:coord>
<gx:coord >5.254349 45.943754 11213</gx:coord>
<gx:coord >5.205528 45.922014 11213</gx:coord>
<gx:coord >5.157143 45.900421 11206</gx:coord>
<gx:coord >5.110771 45.879744 11213</gx:coord>
<gx:coord >5.062569 45.858237 11206</gx:coord>
<gx:coord >5.014321 45.836655 11206</gx:coord>
<gx:coord >4.966782 45.815316 11206</gx:coord>
<gx:coord >4.919197 45.793995 11197</gx:coord>
<gx:coord >4.871566 45.772522 11205</gx:coord>
<gx:coord >4.823534 45.750778 11197</gx:coord>
<gx:coord >4.776512 45.729613 11205</gx:coord>
<gx:coord >4.730232 45.708758 11205</gx:coord>
<gx:coord >4.683197 45.687437 11205</gx:coord>
<gx:coord >4.63575 45.665883 11205</gx:coord>
<gx:coord >4.589676 45.644981 11204</gx:coord>
<gx:coord >4.542847 45.623611 11204</gx:coord>
<gx:coord >4.495605 45.602014 11204</gx:coord>
<gx:coord >4.449051 45.580506 11204</gx:coord>
<gx:coord >4.435936 45.573756 11204</gx:coord>
<gx:coord >4.424675 45.567192 11204</gx:coord>
<gx:coord >4.414238 45.560303 11211</gx:coord>
<gx:coord >4.404513 45.55307 11211</gx:coord>
<gx:coord >4.395402 45.545453 11211</gx:coord>
<gx:coord >4.388368 45.538796 11211</gx:coord>
<gx:coord >4.379994 45.529951 11211</gx:coord>
<gx:coord >4.369485 45.517868 11211</gx:coord>
<gx:coord >4.340908 45.483902 11211</gx:coord>
<gx:coord >4.311732 45.449788 11210</gx:coord>
<gx:coord >4.282968 45.416199 11210</gx:coord>
<gx:coord >4.254259 45.383194 11210</gx:coord>
<gx:coord >4.225551 45.350098 11203</gx:coord>
<gx:coord >4.197301 45.316681 11203</gx:coord>
<gx:coord >4.168776 45.282526 11203</gx:coord>
<gx:coord >4.140015 45.248245 11195</gx:coord>
<gx:coord >4.112091 45.215149 11195</gx:coord>
<gx:coord >4.083096 45.180809 11194</gx:coord>
<gx:coord >4.055328 45.147675 11202</gx:coord>
<gx:coord >4.027628 45.114472 11194</gx:coord>
<gx:coord >3.999626 45.081094 11202</gx:coord>
<gx:coord >3.970754 45.047018 11194</gx:coord>
<gx:coord >3.942551 45.0135 11194</gx:coord>
<gx:coord >3.913945 44.979538 11202</gx:coord>
<gx:coord >3.885563 44.946213 11209</gx:coord>
<gx:coord >3.857072 44.912761 11209</gx:coord>
<gx:coord >3.828343 44.879105 11202</gx:coord>
<gx:coord >3.799308 44.844681 11209</gx:coord>
<gx:coord >3.77032 44.810719 11209</gx:coord>
<gx:coord >3.742118 44.777573 11209</gx:coord>
<gx:coord >3.722557 44.754996 11209</gx:coord>
<gx:coord >3.714116 44.74657 11209</gx:coord>
<gx:coord >3.705139 44.738563 11209</gx:coord>
<gx:coord >3.69556 44.731021 11202</gx:coord>
<gx:coord >3.686175 44.72438 11210</gx:coord>
<gx:coord >3.676235 44.718109 11211</gx:coord>
<gx:coord >3.66528 44.711935 11215</gx:coord>
<gx:coord >3.647595 44.703183 11209</gx:coord>
<gx:coord >3.615483 44.687988 11217</gx:coord>
<gx:coord >3.569772 44.666611 11217</gx:coord>
<gx:coord >3.522726 44.64462 11209</gx:coord>
<gx:coord >3.491509 44.630934 11202</gx:coord>
<gx:coord >3.44408 44.61101 11202</gx:coord>
<gx:coord >3.397187 44.591039 11194</gx:coord>
<gx:coord >3.350897 44.570881 11194</gx:coord>
<gx:coord >3.303092 44.549927 11194</gx:coord>
<gx:coord >3.256989 44.529648 11194</gx:coord>
<gx:coord >3.210419 44.5092 11187</gx:coord>
<gx:coord >3.162924 44.488437 11194</gx:coord>
<gx:coord >3.115016 44.467484 11194</gx:coord>
<gx:coord >3.067195 44.446494 11203</gx:coord>
<gx:coord >3.019298 44.425406 11210</gx:coord>
<gx:coord >2.972783 44.404816 11218</gx:coord>
<gx:coord >2.925445 44.383788 11218</gx:coord>
<gx:coord >2.880428 44.363817 11218</gx:coord>
<gx:coord >2.83186 44.34231 11218</gx:coord>
<gx:coord >2.784838 44.321411 11195</gx:coord>
<gx:coord >2.738538 44.30072 11188</gx:coord>
<gx:coord >2.69152 44.279663 11188</gx:coord>
<gx:coord >2.644021 44.258469 11188</gx:coord>
<gx:coord >2.59807 44.238007 11195</gx:coord>
<gx:coord >2.553651 44.218109 11203</gx:coord>
<gx:coord >2.506893 44.196974 11204</gx:coord>
<gx:coord >2.461321 44.176437 11204</gx:coord>
<gx:coord >2.41514 44.155609 11211</gx:coord>
<gx:coord >2.369023 44.134781 11211</gx:coord>
<gx:coord >2.322586 44.11377 11211</gx:coord>
<gx:coord >2.276851 44.093116 11211</gx:coord>
<gx:coord >2.230288 44.072021 11211</gx:coord>
<gx:coord >2.183206 44.050614 11211</gx:coord>
<gx:coord >2.136841 44.029587 11211</gx:coord>
<gx:coord >2.090149 44.008391 11211</gx:coord>
<gx:coord >2.044287 43.987518 11211</gx:coord>
<gx:coord >1.999054 43.96682 11211</gx:coord>
<gx:coord >1.952885 43.945731 11212</gx:coord>
<gx:coord >1.907828 43.925062 11212</gx:coord>
<gx:coord >1.862248 43.904114 11197</gx:coord>
<gx:coord >1.81664 43.883102 11197</gx:coord>
<gx:coord >1.772248 43.862549 11197</gx:coord>
<gx:coord >1.72675 43.841501 11190</gx:coord>
<gx:coord >1.680516 43.82004 11197</gx:coord>
<gx:coord >1.636388 43.799606 11197</gx:coord>
<gx:coord >1.590598 43.778423 11197</gx:coord>
<gx:coord >1.545559 43.757629 11198</gx:coord>
<gx:coord >1.500336 43.736618 11198</gx:coord>
<gx:coord >1.455752 43.715836 11191</gx:coord>
<gx:coord >1.411612 43.695234 11183</gx:coord>
<gx:coord >1.366098 43.67396 11183</gx:coord>
<gx:coord >1.321629 43.653151 11183</gx:coord>
<gx:coord >1.276964 43.632249 11198</gx:coord>
<gx:coord >1.232193 43.611237 11198</gx:coord>
<gx:coord >1.187545 43.590179 11206</gx:coord>
<gx:coord >1.144558 43.569946 11213</gx:coord>
<gx:coord >1.098952 43.548477 11206</gx:coord>
<gx:coord >1.054622 43.527553 11206</gx:coord>
<gx:coord >1.010231 43.506638 11206</gx:coord>
<gx:coord >0.966143 43.485795 11206</gx:coord>
<gx:coord >0.920759 43.464288 11206</gx:coord>
<gx:coord >0.876287 43.443192 11206</gx:coord>
<gx:coord >0.832149 43.422205 11205</gx:coord>
<gx:coord >0.788461 43.401398 11212</gx:coord>
<gx:coord >0.74622 43.381192 11205</gx:coord>
<gx:coord >0.710151 43.363678 11197</gx:coord>
<gx:coord >0.69629 43.356033 11190</gx:coord>
<gx:coord >0.688242 43.350952 11190</gx:coord>
<gx:coord >0.678013 43.343718 11190</gx:coord>
<gx:coord >0.66997 43.337247 11190</gx:coord>
<gx:coord >0.661011 43.329147 11190</gx:coord>
<gx:coord >0.652792 43.320511 11190</gx:coord>
<gx:coord >0.64597 43.312342 11190</gx:coord>
<gx:coord >0.639823 43.303776 11190</gx:coord>
<gx:coord >0.634526 43.29521 11190</gx:coord>
<gx:coord >0.627307 43.282059 11190</gx:coord>
<gx:coord >0.6084 43.246674 11196</gx:coord>
<gx:coord >0.589273 43.211789 11196</gx:coord>
<gx:coord >0.570395 43.177368 11196</gx:coord>
<gx:coord >0.551605 43.142845 11189</gx:coord>
<gx:coord >0.532706 43.107558 11188</gx:coord>
<gx:coord >0.513994 43.072357 11195</gx:coord>
<gx:coord >0.495662 43.037842 11195</gx:coord>
<gx:coord >0.476401 43.002025 11195</gx:coord>
<gx:coord >0.457018 42.966293 11203</gx:coord>
<gx:coord >0.437729 42.930542 11209</gx:coord>
<gx:coord >0.418502 42.895111 11209</gx:coord>
<gx:coord >0.399085 42.85936 11217</gx:coord>
<gx:coord >0.379475 42.823059 11217</gx:coord>
<gx:coord >0.363173 42.791428 11217</gx:coord>
<gx:coord >0.345632 42.756134 11217</gx:coord>
<gx:coord >0.328154 42.719696 11209</gx:coord>
<gx:coord >0.311113 42.68367 11202</gx:coord>
<gx:coord >0.295162 42.649252 11202</gx:coord>
<gx:coord >0.277967 42.611526 11202</gx:coord>
<gx:coord >0.261756 42.576956 11202</gx:coord>
<gx:coord >0.25693 42.56781 11202</gx:coord>
<gx:coord >0.251999 42.56012 11202</gx:coord>
<gx:coord >0.247068 42.553574 11202</gx:coord>
<gx:coord >0.243697 42.549545 11202</gx:coord>
<gx:coord >0.236909 42.542461 11202</gx:coord>
<gx:coord >0.229372 42.535711 11202</gx:coord>
<gx:coord >0.223559 42.531056 11202</gx:coord>
<gx:coord >0.215544 42.52533 11202</gx:coord>
<gx:coord >0.204205 42.518114 11202</gx:coord>
<gx:coord >0.169726 42.496262 11202</gx:coord>
<gx:coord >0.145122 42.479569 11195</gx:coord>
<gx:coord >0.109676 42.454834 11195</gx:coord>
<gx:coord >0.075371 42.430782 11188</gx:coord>
<gx:coord >0.039014 42.40567 11180</gx:coord>
<gx:coord >0.003513 42.38125 11180</gx:coord>
<gx:coord >-0.031024 42.357468 11188</gx:coord>
<gx:coord >-0.06809 42.331719 11195</gx:coord>
<gx:coord >-0.10437 42.306674 11196</gx:coord>
<gx:coord >-0.139826 42.282166 11196</gx:coord>
<gx:coord >-0.174759 42.257887 11196</gx:coord>
<gx:coord >-0.210784 42.232982 11196</gx:coord>
<gx:coord >-0.249683 42.206121 11196</gx:coord>
<gx:coord >-0.286986 42.180331 11196</gx:coord>
<gx:coord >-0.321542 42.156357 11196</gx:coord>
<gx:coord >-0.358908 42.130427 11189</gx:coord>
<gx:coord >-0.395125 42.105196 11181</gx:coord>
<gx:coord >-0.431533 42.079778 11181</gx:coord>
<gx:coord >-0.467481 42.054565 11181</gx:coord>
<gx:coord >-0.50456 42.028656 11182</gx:coord>
<gx:coord >-0.540889 42.003296 11182</gx:coord>
<gx:coord >-0.579654 41.976196 11182</gx:coord>
<gx:coord >-0.616384 41.950503 11174</gx:coord>
<gx:coord >-0.654645 41.923735 11182</gx:coord>
<gx:coord >-0.692266 41.897154 11182</gx:coord>
<gx:coord >-0.730271 41.870386 11190</gx:coord>
<gx:coord >-0.767545 41.843903 11197</gx:coord>
<gx:coord >-0.785906 41.829979 11205</gx:coord>
<gx:coord >-0.803001 41.816299 11205</gx:coord>
<gx:coord >-0.834642 41.789851 11205</gx:coord>
<gx:coord >-0.872455 41.758195 11205</gx:coord>
<gx:coord >-0.907969 41.7291 11205</gx:coord>
<gx:coord >-0.941953 41.701538 11205</gx:coord>
<gx:coord >-0.979763 41.671189 11190</gx:coord>
<gx:coord >-1.013863 41.643677 11190</gx:coord>
<gx:coord >-1.048492 41.615652 11190</gx:coord>
<gx:coord >-1.084708 41.586231 11197</gx:coord>
<gx:coord >-1.120855 41.556885 11197</gx:coord>
<gx:coord >-1.15497 41.529251 11190</gx:coord>
<gx:coord >-1.190739 41.50011 11182</gx:coord>
<gx:coord >-1.224848 41.472271 11173</gx:coord>
<gx:coord >-1.259212 41.44434 11181</gx:coord>
<gx:coord >-1.293896 41.416036 11173</gx:coord>
<gx:coord >-1.329026 41.38736 11173</gx:coord>
<gx:coord >-1.364427 41.358451 11173</gx:coord>
<gx:coord >-1.39917 41.329926 11173</gx:coord>
<gx:coord >-1.431219 41.303473 11173</gx:coord>
<gx:coord >-1.466492 41.274399 11189</gx:coord>
<gx:coord >-1.501194 41.245888 11189</gx:coord>
<gx:coord >-1.535901 41.217351 11195</gx:coord>
<gx:coord >-1.571981 41.187465 11195</gx:coord>
<gx:coord >-1.607187 41.158323 11195</gx:coord>
<gx:coord >-1.642144 41.129507 11195</gx:coord>
<gx:coord >-1.676976 41.100831 11195</gx:coord>
<gx:coord >-1.712119 41.071783 11210</gx:coord>
<gx:coord >-1.746015 41.043805 11210</gx:coord>
<gx:coord >-1.781555 41.014297 11217</gx:coord>
<gx:coord >-1.816833 40.985001 11217</gx:coord>
<gx:coord >-1.850697 40.956752 11217</gx:coord>
<gx:coord >-1.884949 40.928055 11217</gx:coord>
<gx:coord >-1.919361 40.899539 11225</gx:coord>
<gx:coord >-1.950378 40.873672 11217</gx:coord>
<gx:coord >-1.984497 40.845108 11225</gx:coord>
<gx:coord >-2.018066 40.817001 11217</gx:coord>
<gx:coord >-2.05151 40.788978 11217</gx:coord>
<gx:coord >-2.084656 40.761154 11209</gx:coord>
<gx:coord >-2.117115 40.733813 11202</gx:coord>
<gx:coord >-2.148926 40.706909 11194</gx:coord>
<gx:coord >-2.182922 40.67807 11194</gx:coord>
<gx:coord >-2.215698 40.650375 11194</gx:coord>
<gx:coord >-2.247453 40.623671 11202</gx:coord>
<gx:coord >-2.281598 40.594948 11209</gx:coord>
<gx:coord >-2.314209 40.567245 11209</gx:coord>
<gx:coord >-2.348328 40.538154 11209</gx:coord>
<gx:coord >-2.381592 40.509888 11209</gx:coord>
<gx:coord >-2.415244 40.4815 11209</gx:coord>
<gx:coord >-2.437622 40.463058 11209</gx:coord>
<gx:coord >-2.453509 40.451055 11209</gx:coord>
<gx:coord >-2.469421 40.439896 11209</gx:coord>
<gx:coord >-2.485345 40.429548 11217</gx:coord>
<gx:coord >-2.502014 40.419434 11217</gx:coord>
<gx:coord >-2.521799 40.40818 11209</gx:coord>
<gx:coord >-2.539795 40.398697 11225</gx:coord>
<gx:coord >-2.561375 40.388116 11225</gx:coord>
<gx:coord >-2.584034 40.377875 11225</gx:coord>
<gx:coord >-2.604384 40.369495 11225</gx:coord>
<gx:coord >-2.624084 40.36203 11226</gx:coord>
<gx:coord >-2.644165 40.355026 11226</gx:coord>
<gx:coord >-2.666748 40.347931 11218</gx:coord>
<gx:coord >-2.685595 40.342495 11226</gx:coord>
<gx:coord >-2.711243 40.335983 11218</gx:coord>
<gx:coord >-2.733348 40.330997 11226</gx:coord>
<gx:coord >-2.763733 40.324402 11226</gx:coord>
<gx:coord >-2.777544 40.320616 11226</gx:coord>
<gx:coord >-2.791027 40.316147 11226</gx:coord>
<gx:coord >-2.802575 40.311538 11226</gx:coord>
<gx:coord >-2.811314 40.307581 11226</gx:coord>
<gx:coord >-2.81958 40.303391 11226</gx:coord>
<gx:coord >-2.830383 40.297256 11226</gx:coord>
<gx:coord >-2.841187 40.290207 11226</gx:coord>
<gx:coord >-2.851951 40.282163 11233</gx:coord>
<gx:coord >-2.860877 40.274482 11233</gx:coord>
<gx:coord >-2.867869 40.267779 11233</gx:coord>
<gx:coord >-2.875921 40.25926 11233</gx:coord>
<gx:coord >-2.90451 40.227325 11226</gx:coord>
<gx:coord >-2.933655 40.194855 11218</gx:coord>
<gx:coord >-2.961914 40.163635 11218</gx:coord>
<gx:coord >-2.989967 40.132777 11218</gx:coord>
<gx:coord >-3.018677 40.101151 11218</gx:coord>
<gx:coord >-3.047607 40.069199 11218</gx:coord>
<gx:coord >-3.07536 40.038649 11218</gx:coord>
<gx:coord >-3.104675 40.00621 11226</gx:coord>
<gx:coord >-3.132789 39.974732 11226</gx:coord>
<gx:coord >-3.160879 39.943124 11226</gx:coord>
<gx:coord >-3.189941 39.910444 11233</gx:coord>
<gx:coord >-3.217979 39.878723 11233</gx:coord>
<gx:coord >-3.246643 39.846248 11232</gx:coord>
<gx:coord >-3.27506 39.813904 11232</gx:coord>
<gx:coord >-3.302526 39.782501 11232</gx:coord>
<gx:coord >-3.331177 39.749652 11232</gx:coord>
<gx:coord >-3.359619 39.71688 11240</gx:coord>
<gx:coord >-3.387133 39.68486 11240</gx:coord>
<gx:coord >-3.415375 39.652084 11240</gx:coord>
<gx:coord >-3.441766 39.621368 11240</gx:coord>
<gx:coord >-3.46965 39.588547 11232</gx:coord>
<gx:coord >-3.496948 39.556228 11232</gx:coord>
<gx:coord >-3.524231 39.524153 11232</gx:coord>
<gx:coord >-3.552246 39.491381 11225</gx:coord>
<gx:coord >-3.579752 39.460052 11225</gx:coord>
<gx:coord >-3.608459 39.427604 11232</gx:coord>
<gx:coord >-3.634033 39.39823 11240</gx:coord>
<gx:coord >-3.662925 39.364563 11239</gx:coord>
<gx:coord >-3.689914 39.332932 11239</gx:coord>
<gx:coord >-3.716003 39.302332 11231</gx:coord>
<gx:coord >-3.744812 39.268582 11231</gx:coord>
<gx:coord >-3.770221 39.238953 11224</gx:coord>
<gx:coord >-3.7771 39.231759 11224</gx:coord>
<gx:coord >-3.784241 39.225241 11224</gx:coord>
<gx:coord >-3.792134 39.218948 11224</gx:coord>
<gx:coord >-3.799988 39.213557 11224</gx:coord>
<gx:coord >-3.809748 39.207733 11224</gx:coord>
<gx:coord >-3.818227 39.203293 11224</gx:coord>
<gx:coord >-3.858154 39.183717 11239</gx:coord>
<gx:coord >-3.883789 39.17031 11239</gx:coord>
<gx:coord >-3.924567 39.148041 11239</gx:coord>
<gx:coord >-3.962341 39.127389 11239</gx:coord>
<gx:coord >-4.001292 39.106247 11239</gx:coord>
<gx:coord >-4.041715 39.084503 11246</gx:coord>
<gx:coord >-4.08154 39.06308 11254</gx:coord>
<gx:coord >-4.122023 39.041336 11254</gx:coord>
<gx:coord >-4.160534 39.020599 11262</gx:coord>
<gx:coord >-4.176819 39.01138 11262</gx:coord>
<gx:coord >-4.184448 39.006492 11262</gx:coord>
<gx:coord >-4.190369 39.002256 11262</gx:coord>
<gx:coord >-4.198688 38.99556 11262</gx:coord>
<gx:coord >-4.205853 38.988876 11262</gx:coord>
<gx:coord >-4.213684 38.980749 11262</gx:coord>
<gx:coord >-4.243591 38.948395 11262</gx:coord>
<gx:coord >-4.252319 38.939271 11246</gx:coord>
<gx:coord >-4.261047 38.93038 11224</gx:coord>
<gx:coord >-4.266636 38.924744 11193</gx:coord>
<gx:coord >-4.273438 38.917857 11155</gx:coord>
<gx:coord >-4.277025 38.914261 11132</gx:coord>
<gx:coord >-4.292669 38.898651 11003</gx:coord>
<gx:coord >-4.307983 38.883408 10888</gx:coord>
<gx:coord >-4.322344 38.869034 10781</gx:coord>
<gx:coord >-4.33551 38.855849 10660</gx:coord>
<gx:coord >-4.348257 38.843079 10545</gx:coord>
<gx:coord >-4.361095 38.830124 10439</gx:coord>
<gx:coord >-4.365991 38.825226 10401</gx:coord>
<gx:coord >-4.385437 38.80548 10271</gx:coord>
<gx:coord >-4.394054 38.796707 10210</gx:coord>
<gx:coord >-4.406891 38.783615 10081</gx:coord>
<gx:coord >-4.42041 38.769821 9965</gx:coord>
<gx:coord >-4.43573 38.754179 9837</gx:coord>
<gx:coord >-4.451294 38.738258 9745</gx:coord>
<gx:coord >-4.467773 38.721453 9608</gx:coord>
<gx:coord >-4.484989 38.703873 9501</gx:coord>
<gx:coord >-4.503601 38.684863 9380</gx:coord>
<gx:coord >-4.519592 38.668477 9265</gx:coord>
<gx:coord >-4.536458 38.65123 9157</gx:coord>
<gx:coord >-4.54225 38.645325 9115</gx:coord>
<gx:coord >-4.554669 38.632599 8991</gx:coord>
<gx:coord >-4.567932 38.619038 8877</gx:coord>
<gx:coord >-4.58524 38.601151 8770</gx:coord>
<gx:coord >-4.596863 38.589198 8679</gx:coord>
<gx:coord >-4.61084 38.57486 8572</gx:coord>
<gx:coord >-4.623751 38.5616 8465</gx:coord>
<gx:coord >-4.63855 38.54637 8320</gx:coord>
<gx:coord >-4.652527 38.532032 8198</gx:coord>
<gx:coord >-4.669495 38.514668 8093</gx:coord>
<gx:coord >-4.685012 38.498749 7978</gx:coord>
<gx:coord >-4.700562 38.482733 7841</gx:coord>
<gx:coord >-4.715702 38.467072 7735</gx:coord>
<gx:coord >-4.732062 38.450272 7590</gx:coord>
<gx:coord >-4.746512 38.435394 7476</gx:coord>
<gx:coord >-4.760722 38.420792 7361</gx:coord>
<gx:coord >-4.776423 38.404633 7232</gx:coord>
<gx:coord >-4.791771 38.388744 7110</gx:coord>
<gx:coord >-4.804548 38.375477 7011</gx:coord>
<gx:coord >-4.816968 38.362582 6881</gx:coord>
<gx:coord >-4.833751 38.345215 6759</gx:coord>
<gx:coord >-4.837666 38.341187 6736</gx:coord>
<gx:coord >-4.874228 38.302995 6470</gx:coord>
<gx:coord >-4.879449 38.297516 6424</gx:coord>
<gx:coord >-4.910596 38.265106 6157</gx:coord>
<gx:coord >-5.015139 38.156402 5296</gx:coord>
<gx:coord >-5.030544 38.140295 5190</gx:coord>
<gx:coord >-5.061592 38.108081 4953</gx:coord>
<gx:coord >-5.093357 38.074889 4923</gx:coord>
<gx:coord >-5.094442 38.073715 4830</gx:coord>
<gx:coord >-5.127809 38.038765 4610</gx:coord>
<gx:coord >-5.13903 38.026932 4565</gx:coord>
<gx:coord >-5.159074 38.005966 4473</gx:coord>
<gx:coord >-5.171989 37.992508 4420</gx:coord>
<gx:coord >-5.177249 37.986969 4382</gx:coord>
<gx:coord >-5.201967 37.961209 4276</gx:coord>
<gx:coord >-5.204892 37.958136 4261</gx:coord>
<gx:coord >-5.239284 37.922058 4246</gx:coord>
<gx:coord >-5.26175 37.898529 3956</gx:coord>
<gx:coord >-5.269616 37.890309 3926</gx:coord>
<gx:coord >-5.278811 37.880673 3872</gx:coord>
<gx:coord >-5.280662 37.878765 3865</gx:coord>
<gx:coord >-5.302423 37.855957 3705</gx:coord>
<gx:coord >-5.308442 37.84964 3661</gx:coord>
<gx:coord >-5.316666 37.840918 3628</gx:coord>
<gx:coord >-5.324309 37.832864 3537</gx:coord>
<gx:coord >-5.33281 37.823914 3476</gx:coord>
<gx:coord >-5.341147 37.815081 3415</gx:coord>
<gx:coord >-5.348998 37.806793 3362</gx:coord>
<gx:coord >-5.354783 37.800705 3309</gx:coord>
<gx:coord >-5.361854 37.793152 3249</gx:coord>
<gx:coord >-5.370328 37.784225 3188</gx:coord>
<gx:coord >-5.377866 37.77626 3142</gx:coord>
<gx:coord >-5.384411 37.769348 3094</gx:coord>
<gx:coord >-5.39195 37.761978 3037</gx:coord>
<gx:coord >-5.401751 37.753213 2959</gx:coord>
<gx:coord >-5.411304 37.744741 2900</gx:coord>
<gx:coord >-5.413931 37.742041 2887</gx:coord>
<gx:coord >-5.418051 37.737246 2877</gx:coord>
<gx:coord >-5.420559 37.733801 2864</gx:coord>
<gx:coord >-5.422922 37.730118 2856</gx:coord>
<gx:coord >-5.42438 37.727563 2839</gx:coord>
<gx:coord >-5.429175 37.718994 2784</gx:coord>
<gx:coord >-5.433674 37.710754 2723</gx:coord>
<gx:coord >-5.438232 37.702378 2669</gx:coord>
<gx:coord >-5.443258 37.693314 2615</gx:coord>
<gx:coord >-5.444323 37.691438 2602</gx:coord>
<gx:coord >-5.44695 37.686643 2556</gx:coord>
<gx:coord >-5.451368 37.678869 2494</gx:coord>
<gx:coord >-5.455428 37.671747 2431</gx:coord>
<gx:coord >-5.457342 37.668457 2404</gx:coord>
<gx:coord >-5.462075 37.660217 2341</gx:coord>
<gx:coord >-5.46528 37.654802 2304</gx:coord>
<gx:coord >-5.467802 37.650375 2278</gx:coord>
<gx:coord >-5.470081 37.646484 2261</gx:coord>
<gx:coord >-5.472923 37.641721 2216</gx:coord>
<gx:coord >-5.476505 37.635715 2188</gx:coord>
<gx:coord >-5.479314 37.630966 2163</gx:coord>
<gx:coord >-5.482236 37.625931 2119</gx:coord>
<gx:coord >-5.4851 37.621216 2086</gx:coord>
<gx:coord >-5.488208 37.615884 2054</gx:coord>
<gx:coord >-5.491119 37.610825 2023</gx:coord>
<gx:coord >-5.493701 37.606248 1992</gx:coord>
<gx:coord >-5.496269 37.601732 1969</gx:coord>
<gx:coord >-5.498716 37.597458 1938</gx:coord>
<gx:coord >-5.500866 37.593586 1910</gx:coord>
<gx:coord >-5.502956 37.589815 1890</gx:coord>
<gx:coord >-5.505378 37.585602 1850</gx:coord>
<gx:coord >-5.508358 37.5802 1814</gx:coord>
<gx:coord >-5.509405 37.578316 1800</gx:coord>
<gx:coord >-5.513734 37.570724 1761</gx:coord>
<gx:coord >-5.514786 37.568939 1755</gx:coord>
<gx:coord >-5.517346 37.56449 1727</gx:coord>
<gx:coord >-5.519929 37.560013 1700</gx:coord>
<gx:coord >-5.522617 37.555344 1661</gx:coord>
<gx:coord >-5.525013 37.551178 1625</gx:coord>
<gx:coord >-5.526422 37.548663 1607</gx:coord>
<gx:coord >-5.528577 37.544952 1589</gx:coord>
<gx:coord >-5.531499 37.539871 1561</gx:coord>
<gx:coord >-5.53896 37.527109 1489</gx:coord>
<gx:coord >-5.541349 37.523152 1466</gx:coord>
<gx:coord >-5.550725 37.507141 1349</gx:coord>
<gx:coord >-5.552946 37.503387 1319</gx:coord>
<gx:coord >-5.555167 37.499588 1289</gx:coord>
<gx:coord >-5.55735 37.495872 1261</gx:coord>
<gx:coord >-5.559024 37.493042 1230</gx:coord>
<gx:coord >-5.561888 37.488098 1192</gx:coord>
<gx:coord >-5.56288 37.48645 1181</gx:coord>
<gx:coord >-5.568994 37.475762 1085</gx:coord>
<gx:coord >-5.572755 37.469198 1053</gx:coord>
<gx:coord >-5.573113 37.468546 1051</gx:coord>
<gx:coord >-5.578666 37.458631 1017</gx:coord>
<gx:coord >-5.582249 37.45202 1004</gx:coord>
<gx:coord >-5.583562 37.449786 1004</gx:coord>
<gx:coord >-5.585905 37.445526 1003</gx:coord>
<gx:coord >-5.588301 37.44136 995</gx:coord>
<gx:coord >-5.589175 37.439823 995</gx:coord>
<gx:coord >-5.590931 37.43692 995</gx:coord>
<gx:coord >-5.592801 37.434448 995</gx:coord>
<gx:coord >-5.595026 37.43191 995</gx:coord>
<gx:coord >-5.59993 37.42804 995</gx:coord>
<gx:coord >-5.602012 37.426835 995</gx:coord>
<gx:coord >-5.604938 37.425346 995</gx:coord>
<gx:coord >-5.609163 37.423691 995</gx:coord>
<gx:coord >-5.611566 37.422878 995</gx:coord>
<gx:coord >-5.613897 37.422272 1003</gx:coord>
<gx:coord >-5.61863 37.421265 1003</gx:coord>
<gx:coord >-5.621537 37.420784 1003</gx:coord>
<gx:coord >-5.625358 37.420318 1003</gx:coord>
<gx:coord >-5.628273 37.419983 1003</gx:coord>
<gx:coord >-5.63115 37.419666 1003</gx:coord>
<gx:coord >-5.634494 37.419434 1003</gx:coord>
<gx:coord >-5.640345 37.419015 1003</gx:coord>
<gx:coord >-5.646853 37.418782 1010</gx:coord>
<gx:coord >-5.649062 37.418689 1003</gx:coord>
<gx:coord >-5.661348 37.418518 1003</gx:coord>
<gx:coord >-5.675215 37.418503 995</gx:coord>
<gx:coord >-5.676887 37.418503 995</gx:coord>
<gx:coord >-5.683514 37.418503 964</gx:coord>
<gx:coord >-5.692028 37.418518 933</gx:coord>
<gx:coord >-5.697605 37.418549 897</gx:coord>
<gx:coord >-5.703934 37.418503 866</gx:coord>
<gx:coord >-5.711159 37.418456 833</gx:coord>
<gx:coord >-5.715876 37.418456 801</gx:coord>
<gx:coord >-5.721369 37.418456 770</gx:coord>
<gx:coord >-5.726206 37.418456 758</gx:coord>
<gx:coord >-5.731591 37.418381 736</gx:coord>
<gx:coord >-5.734983 37.418363 718</gx:coord>
<gx:coord >-5.741467 37.418381 704</gx:coord>
<gx:coord >-5.743746 37.418381 674</gx:coord>
<gx:coord >-5.747427 37.418381 650</gx:coord>
<gx:coord >-5.75606 37.418409 621</gx:coord>
<gx:coord >-5.759173 37.418381 605</gx:coord>
<gx:coord >-5.773674 37.418316 590</gx:coord>
<gx:coord >-5.779227 37.418316 508</gx:coord>
<gx:coord >-5.782331 37.418316 497</gx:coord>
<gx:coord >-5.793009 37.418289 437</gx:coord>
<gx:coord >-5.797976 37.418289 416</gx:coord>
<gx:coord >-5.802692 37.41827 392</gx:coord>
<gx:coord >-5.802692 37.41827 392</gx:coord>
</gx:Track>
</Placemark>
</Folder>
</Folder>
</kml>
