<?xml version="1.0" encoding="UTF-8"?>
<kml xmlns="http://www.opengis.net/kml/2.2" xmlns:gx="http://www.google.com/kml/ext/2.2"><Folder ><Folder ><name >HA-LZK track</name>
<Placemark ><name >HA-LZK</name>
<Style ><LineStyle ><color >ff1c1ae3</color>
<width >4</width>
</LineStyle>
<IconStyle ><Icon ><href >http://maps.google.com/mapfiles/kml/shapes/airports.png</href>
</Icon>
</IconStyle>
</Style>
<gx:Track ><extrude >0</extrude>
<when >2025-08-17T11:49:16.830Z</when>
<when >2025-08-17T11:49:16.830Z</when>
<when >2025-08-17T11:49:26.870Z</when>
<when >2025-08-17T11:49:41.940Z</when>
<when >2025-08-17T11:50:02.500Z</when>
<when >2025-08-17T11:50:07.060Z</when>
<when >2025-08-17T11:50:22.410Z</when>
<when >2025-08-17T11:51:41.960Z</when>
<when >2025-08-17T11:51:52.130Z</when>
<when >2025-08-17T11:52:12.290Z</when>
<when >2025-08-17T11:52:22.220Z</when>
<when >2025-08-17T11:52:37.330Z</when>
<when >2025-08-17T11:52:58.050Z</when>
<when >2025-08-17T11:53:17.580Z</when>
<when >2025-08-17T11:53:38.140Z</when>
<when >2025-08-17T11:53:53.330Z</when>
<when >2025-08-17T11:55:13.030Z</when>
<when >2025-08-17T11:55:37.610Z</when>
<when >2025-08-17T11:55:41.750Z</when>
<when >2025-08-17T11:55:45.880Z</when>
<when >2025-08-17T11:55:48.150Z</when>
<when >2025-08-17T11:55:51.540Z</when>
<when >2025-08-17T11:55:54.660Z</when>
<when >2025-08-17T11:55:56.490Z</when>
<when >2025-08-17T11:55:57.750Z</when>
<when >2025-08-17T11:55:58.900Z</when>
<when >2025-08-17T11:56:00.590Z</when>
<when >2025-08-17T11:56:03.060Z</when>
<when >2025-08-17T11:56:04.560Z</when>
<when >2025-08-17T11:56:05.840Z</when>
<when >2025-08-17T11:56:11.350Z</when>
<when >2025-08-17T11:56:15.260Z</when>
<when >2025-08-17T11:56:21.330Z</when>
<when >2025-08-17T11:56:26.630Z</when>
<when >2025-08-17T11:56:33.740Z</when>
<when >2025-08-17T11:56:35.520Z</when>
<when >2025-08-17T11:56:40.480Z</when>
<when >2025-08-17T11:56:47.000Z</when>
<when >2025-08-17T11:56:53.860Z</when>
<when >2025-08-17T11:57:00.560Z</when>
<when >2025-08-17T11:57:05.690Z</when>
<when >2025-08-17T11:57:10.140Z</when>
<when >2025-08-17T11:57:15.710Z</when>
<when >2025-08-17T11:57:20.830Z</when>
<when >2025-08-17T11:57:25.650Z</when>
<when >2025-08-17T11:57:34.200Z</when>
<when >2025-08-17T11:57:38.950Z</when>
<when >2025-08-17T11:57:42.560Z</when>
<when >2025-08-17T11:57:47.020Z</when>
<when >2025-08-17T11:57:51.070Z</when>
<when >2025-08-17T11:57:55.070Z</when>
<when >2025-08-17T11:57:59.070Z</when>
<when >2025-08-17T11:58:03.680Z</when>
<when >2025-08-17T11:58:08.590Z</when>
<when >2025-08-17T11:58:14.190Z</when>
<when >2025-08-17T11:58:15.950Z</when>
<when >2025-08-17T11:58:24.640Z</when>
<when >2025-08-17T11:58:31.650Z</when>
<when >2025-08-17T11:58:38.390Z</when>
<when >2025-08-17T11:58:41.920Z</when>
<when >2025-08-17T11:58:47.530Z</when>
<when >2025-08-17T11:58:53.060Z</when>
<when >2025-08-17T11:58:57.320Z</when>
<when >2025-08-17T11:59:00.180Z</when>
<when >2025-08-17T11:59:05.890Z</when>
<when >2025-08-17T11:59:12.430Z</when>
<when >2025-08-17T11:59:14.040Z</when>
<when >2025-08-17T11:59:18.020Z</when>
<when >2025-08-17T11:59:24.720Z</when>
<when >2025-08-17T11:59:30.040Z</when>
<when >2025-08-17T11:59:32.500Z</when>
<when >2025-08-17T11:59:34.310Z</when>
<when >2025-08-17T11:59:35.970Z</when>
<when >2025-08-17T11:59:38.180Z</when>
<when >2025-08-17T11:59:39.190Z</when>
<when >2025-08-17T11:59:40.730Z</when>
<when >2025-08-17T11:59:43.640Z</when>
<when >2025-08-17T11:59:46.260Z</when>
<when >2025-08-17T11:59:49.360Z</when>
<when >2025-08-17T11:59:51.190Z</when>
<when >2025-08-17T11:59:52.070Z</when>
<when >2025-08-17T11:59:53.970Z</when>
<when >2025-08-17T11:59:56.220Z</when>
<when >2025-08-17T11:59:56.680Z</when>
<when >2025-08-17T11:59:58.010Z</when>
<when >2025-08-17T11:59:58.380Z</when>
<when >2025-08-17T11:59:59.380Z</when>
<when >2025-08-17T12:00:00.830Z</when>
<when >2025-08-17T12:00:02.260Z</when>
<when >2025-08-17T12:00:02.260Z</when>
<gx:coord >20.966225 52.172974 0</gx:coord>
<gx:coord >20.966225 52.172974 0</gx:coord>
<gx:coord >20.96623 52.172978 0</gx:coord>
<gx:coord >20.966225 52.172974 0</gx:coord>
<gx:coord >20.966225 52.172974 0</gx:coord>
<gx:coord >20.966211 52.172978 0</gx:coord>
<gx:coord >20.966211 52.172978 0</gx:coord>
<gx:coord >20.966225 52.172974 0</gx:coord>
<gx:coord >20.966211 52.172978 0</gx:coord>
<gx:coord >20.96623 52.172978 0</gx:coord>
<gx:coord >20.966225 52.172974 0</gx:coord>
<gx:coord >20.96623 52.172978 0</gx:coord>
<gx:coord >20.966225 52.172974 0</gx:coord>
<gx:coord >20.96623 52.172978 0</gx:coord>
<gx:coord >20.96623 52.172978 0</gx:coord>
<gx:coord >20.966225 52.172974 0</gx:coord>
<gx:coord >20.96623 52.172967 0</gx:coord>
<gx:coord >20.966282 52.173042 0</gx:coord>
<gx:coord >20.966358 52.1731 0</gx:coord>
<gx:coord >20.966466 52.173153 0</gx:coord>
<gx:coord >20.966568 52.173191 0</gx:coord>
<gx:coord >20.966721 52.173234 0</gx:coord>
<gx:coord >20.966816 52.17326 0</gx:coord>
<gx:coord >20.966892 52.17326 0</gx:coord>
<gx:coord >20.966936 52.173246 0</gx:coord>
<gx:coord >20.966995 52.173234 0</gx:coord>
<gx:coord >20.967034 52.173199 0</gx:coord>
<gx:coord >20.967083 52.173168 0</gx:coord>
<gx:coord >20.967102 52.173122 0</gx:coord>
<gx:coord >20.967133 52.173095 0</gx:coord>
<gx:coord >20.967211 52.17299 0</gx:coord>
<gx:coord >20.96727 52.172908 0</gx:coord>
<gx:coord >20.967388 52.17278 0</gx:coord>
<gx:coord >20.967522 52.17263 0</gx:coord>
<gx:coord >20.967721 52.172396 0</gx:coord>
<gx:coord >20.967789 52.172333 0</gx:coord>
<gx:coord >20.967957 52.17214 0</gx:coord>
<gx:coord >20.968212 52.171838 0</gx:coord>
<gx:coord >20.968506 52.171524 0</gx:coord>
<gx:coord >20.9688 52.171174 0</gx:coord>
<gx:coord >20.969094 52.170825 0</gx:coord>
<gx:coord >20.969369 52.170523 0</gx:coord>
<gx:coord >20.969696 52.170135 0</gx:coord>
<gx:coord >20.970039 52.169758 0</gx:coord>
<gx:coord >20.97035 52.169394 0</gx:coord>
<gx:coord >20.970899 52.168754 0</gx:coord>
<gx:coord >20.97126 52.16835 0</gx:coord>
<gx:coord >20.971508 52.168076 0</gx:coord>
<gx:coord >20.971802 52.16773 0</gx:coord>
<gx:coord >20.972096 52.167404 0</gx:coord>
<gx:coord >20.972312 52.167148 0</gx:coord>
<gx:coord >20.972614 52.166794 0</gx:coord>
<gx:coord >20.972939 52.166439 0</gx:coord>
<gx:coord >20.973225 52.166107 0</gx:coord>
<gx:coord >20.973511 52.165855 0</gx:coord>
<gx:coord >20.973626 52.165786 0</gx:coord>
<gx:coord >20.974312 52.165581 0</gx:coord>
<gx:coord >20.974921 52.165414 0</gx:coord>
<gx:coord >20.97551 52.165251 0</gx:coord>
<gx:coord >20.975857 52.165146 0</gx:coord>
<gx:coord >20.976412 52.164995 0</gx:coord>
<gx:coord >20.97706 52.164808 0</gx:coord>
<gx:coord >20.97753 52.16468 0</gx:coord>
<gx:coord >20.977821 52.164597 0</gx:coord>
<gx:coord >20.978119 52.164366 0</gx:coord>
<gx:coord >20.978031 52.164059 0</gx:coord>
<gx:coord >20.977962 52.163959 0</gx:coord>
<gx:coord >20.977821 52.163784 0</gx:coord>
<gx:coord >20.977554 52.163441 0</gx:coord>
<gx:coord >20.977354 52.163179 0</gx:coord>
<gx:coord >20.977135 52.163063 0</gx:coord>
<gx:coord >20.97704 52.163039 0</gx:coord>
<gx:coord >20.976868 52.163029 0</gx:coord>
<gx:coord >20.976734 52.163052 0</gx:coord>
<gx:coord >20.976601 52.163086 0</gx:coord>
<gx:coord >20.976524 52.163097 0</gx:coord>
<gx:coord >20.976353 52.163155 0</gx:coord>
<gx:coord >20.976086 52.163235 0</gx:coord>
<gx:coord >20.975761 52.163326 0</gx:coord>
<gx:coord >20.975513 52.163395 0</gx:coord>
<gx:coord >20.975342 52.163441 0</gx:coord>
<gx:coord >20.975039 52.163528 0</gx:coord>
<gx:coord >20.974503 52.163681 0</gx:coord>
<gx:coord >20.974136 52.163784 0</gx:coord>
<gx:coord >20.973607 52.163936 0</gx:coord>
<gx:coord >20.973358 52.164001 0</gx:coord>
<gx:coord >20.97294 52.164122 0</gx:coord>
<gx:coord >20.972404 52.164276 0</gx:coord>
<gx:coord >20.971566 52.164506 0</gx:coord>
<gx:coord >20.971566 52.164506 0</gx:coord>
</gx:Track>
</Placemark>
<Placemark ><name >HA-LZK</name>
<Style ><LineStyle ><color >ff1c1ae3</color>
<width >4</width>
</LineStyle>
<IconStyle ><Icon ><href >http://maps.google.com/mapfiles/kml/shapes/airports.png</href>
</Icon>
</IconStyle>
</Style>
<gx:Track ><altitudeMode >absolute</altitudeMode>
<extrude >1</extrude>
<when >2025-08-17T12:00:03.100Z</when>
<when >2025-08-17T12:00:04.760Z</when>
<when >2025-08-17T12:00:05.650Z</when>
<when >2025-08-17T12:00:06.820Z</when>
<when >2025-08-17T12:00:07.710Z</when>
<when >2025-08-17T12:00:09.430Z</when>
<when >2025-08-17T12:00:09.960Z</when>
<when >2025-08-17T12:00:12.210Z</when>
<when >2025-08-17T12:00:13.020Z</when>
<when >2025-08-17T12:00:15.000Z</when>
<when >2025-08-17T12:00:17.270Z</when>
<when >2025-08-17T12:00:18.530Z</when>
<when >2025-08-17T12:00:20.240Z</when>
<when >2025-08-17T12:00:22.760Z</when>
<when >2025-08-17T12:00:24.930Z</when>
<when >2025-08-17T12:00:26.200Z</when>
<when >2025-08-17T12:00:28.370Z</when>
<when >2025-08-17T12:00:30.970Z</when>
<when >2025-08-17T12:00:32.490Z</when>
<when >2025-08-17T12:00:34.690Z</when>
<when >2025-08-17T12:00:36.250Z</when>
<when >2025-08-17T12:00:37.890Z</when>
<when >2025-08-17T12:00:39.880Z</when>
<when >2025-08-17T12:00:41.630Z</when>
<when >2025-08-17T12:00:43.210Z</when>
<when >2025-08-17T12:00:45.200Z</when>
<when >2025-08-17T12:00:46.890Z</when>
<when >2025-08-17T12:00:48.710Z</when>
<when >2025-08-17T12:00:50.390Z</when>
<when >2025-08-17T12:00:52.540Z</when>
<when >2025-08-17T12:00:54.200Z</when>
<when >2025-08-17T12:00:56.120Z</when>
<when >2025-08-17T12:00:57.570Z</when>
<when >2025-08-17T12:00:59.240Z</when>
<when >2025-08-17T12:01:01.040Z</when>
<when >2025-08-17T12:01:03.200Z</when>
<when >2025-08-17T12:01:04.790Z</when>
<when >2025-08-17T12:01:06.690Z</when>
<when >2025-08-17T12:01:08.550Z</when>
<when >2025-08-17T12:01:10.680Z</when>
<when >2025-08-17T12:01:13.040Z</when>
<when >2025-08-17T12:01:14.920Z</when>
<when >2025-08-17T12:01:17.430Z</when>
<when >2025-08-17T12:01:19.320Z</when>
<when >2025-08-17T12:01:22.250Z</when>
<when >2025-08-17T12:01:24.990Z</when>
<when >2025-08-17T12:01:27.730Z</when>
<when >2025-08-17T12:01:31.410Z</when>
<when >2025-08-17T12:01:34.280Z</when>
<when >2025-08-17T12:01:37.580Z</when>
<when >2025-08-17T12:01:40.680Z</when>
<when >2025-08-17T12:01:43.760Z</when>
<when >2025-08-17T12:01:47.080Z</when>
<when >2025-08-17T12:01:49.110Z</when>
<when >2025-08-17T12:01:52.360Z</when>
<when >2025-08-17T12:01:55.780Z</when>
<when >2025-08-17T12:01:59.480Z</when>
<when >2025-08-17T12:02:03.100Z</when>
<when >2025-08-17T12:02:05.430Z</when>
<when >2025-08-17T12:02:09.310Z</when>
<when >2025-08-17T12:02:12.330Z</when>
<when >2025-08-17T12:02:16.310Z</when>
<when >2025-08-17T12:02:19.210Z</when>
<when >2025-08-17T12:02:21.350Z</when>
<when >2025-08-17T12:02:24.170Z</when>
<when >2025-08-17T12:02:27.100Z</when>
<when >2025-08-17T12:02:31.310Z</when>
<when >2025-08-17T12:02:35.280Z</when>
<when >2025-08-17T12:02:38.820Z</when>
<when >2025-08-17T12:02:42.440Z</when>
<when >2025-08-17T12:02:46.170Z</when>
<when >2025-08-17T12:02:49.180Z</when>
<when >2025-08-17T12:02:51.680Z</when>
<when >2025-08-17T12:02:53.850Z</when>
<when >2025-08-17T12:02:56.420Z</when>
<when >2025-08-17T12:02:59.180Z</when>
<when >2025-08-17T12:03:01.720Z</when>
<when >2025-08-17T12:03:04.160Z</when>
<when >2025-08-17T12:03:06.170Z</when>
<when >2025-08-17T12:03:08.360Z</when>
<when >2025-08-17T12:03:11.010Z</when>
<when >2025-08-17T12:03:13.420Z</when>
<when >2025-08-17T12:03:16.400Z</when>
<when >2025-08-17T12:03:18.890Z</when>
<when >2025-08-17T12:03:21.350Z</when>
<when >2025-08-17T12:03:22.880Z</when>
<when >2025-08-17T12:03:24.930Z</when>
<when >2025-08-17T12:03:26.670Z</when>
<when >2025-08-17T12:03:28.840Z</when>
<when >2025-08-17T12:03:32.350Z</when>
<when >2025-08-17T12:03:37.260Z</when>
<when >2025-08-17T12:03:42.090Z</when>
<when >2025-08-17T12:03:46.670Z</when>
<when >2025-08-17T12:03:52.130Z</when>
<when >2025-08-17T12:03:56.830Z</when>
<when >2025-08-17T12:04:01.030Z</when>
<when >2025-08-17T12:04:05.570Z</when>
<when >2025-08-17T12:04:10.810Z</when>
<when >2025-08-17T12:04:15.470Z</when>
<when >2025-08-17T12:04:19.970Z</when>
<when >2025-08-17T12:04:23.820Z</when>
<when >2025-08-17T12:04:28.220Z</when>
<when >2025-08-17T12:04:32.300Z</when>
<when >2025-08-17T12:04:36.730Z</when>
<when >2025-08-17T12:04:41.140Z</when>
<when >2025-08-17T12:04:43.600Z</when>
<when >2025-08-17T12:04:45.160Z</when>
<when >2025-08-17T12:04:47.570Z</when>
<when >2025-08-17T12:04:55.670Z</when>
<when >2025-08-17T12:05:04.050Z</when>
<when >2025-08-17T12:05:13.000Z</when>
<when >2025-08-17T12:05:21.640Z</when>
<when >2025-08-17T12:05:31.050Z</when>
<when >2025-08-17T12:05:40.400Z</when>
<when >2025-08-17T12:05:49.570Z</when>
<when >2025-08-17T12:05:59.580Z</when>
<when >2025-08-17T12:06:08.020Z</when>
<when >2025-08-17T12:06:18.290Z</when>
<when >2025-08-17T12:06:28.430Z</when>
<when >2025-08-17T12:06:35.150Z</when>
<when >2025-08-17T12:06:41.980Z</when>
<when >2025-08-17T12:06:53.350Z</when>
<when >2025-08-17T12:07:04.450Z</when>
<when >2025-08-17T12:07:13.750Z</when>
<when >2025-08-17T12:07:26.350Z</when>
<when >2025-08-17T12:07:38.970Z</when>
<when >2025-08-17T12:07:51.100Z</when>
<when >2025-08-17T12:08:02.620Z</when>
<when >2025-08-17T12:08:08.640Z</when>
<when >2025-08-17T12:08:23.080Z</when>
<when >2025-08-17T12:08:33.470Z</when>
<when >2025-08-17T12:08:44.900Z</when>
<when >2025-08-17T12:08:56.510Z</when>
<when >2025-08-17T12:09:08.410Z</when>
<when >2025-08-17T12:09:20.160Z</when>
<when >2025-08-17T12:09:31.950Z</when>
<when >2025-08-17T12:09:43.270Z</when>
<when >2025-08-17T12:09:55.620Z</when>
<when >2025-08-17T12:10:06.460Z</when>
<when >2025-08-17T12:10:16.030Z</when>
<when >2025-08-17T12:10:21.940Z</when>
<when >2025-08-17T12:10:28.790Z</when>
<when >2025-08-17T12:10:37.000Z</when>
<when >2025-08-17T12:10:51.670Z</when>
<when >2025-08-17T12:11:04.240Z</when>
<when >2025-08-17T12:11:16.880Z</when>
<when >2025-08-17T12:11:30.600Z</when>
<when >2025-08-17T12:11:44.450Z</when>
<when >2025-08-17T12:11:57.070Z</when>
<when >2025-08-17T12:12:05.450Z</when>
<when >2025-08-17T12:12:21.620Z</when>
<when >2025-08-17T12:12:37.130Z</when>
<when >2025-08-17T12:12:51.180Z</when>
<when >2025-08-17T12:13:06.100Z</when>
<when >2025-08-17T12:13:21.260Z</when>
<when >2025-08-17T12:13:34.130Z</when>
<when >2025-08-17T12:13:46.980Z</when>
<when >2025-08-17T12:13:54.010Z</when>
<when >2025-08-17T12:14:13.000Z</when>
<when >2025-08-17T12:14:30.770Z</when>
<when >2025-08-17T12:14:50.630Z</when>
<when >2025-08-17T12:15:10.540Z</when>
<when >2025-08-17T12:15:26.760Z</when>
<when >2025-08-17T12:15:42.900Z</when>
<when >2025-08-17T12:16:01.400Z</when>
<when >2025-08-17T12:16:18.420Z</when>
<when >2025-08-17T12:16:35.120Z</when>
<when >2025-08-17T12:16:52.220Z</when>
<when >2025-08-17T12:17:08.320Z</when>
<when >2025-08-17T12:17:25.100Z</when>
<when >2025-08-17T12:17:44.800Z</when>
<when >2025-08-17T12:18:00.880Z</when>
<when >2025-08-17T12:18:02.300Z</when>
<when >2025-08-17T12:18:05.410Z</when>
<when >2025-08-17T12:18:16.310Z</when>
<when >2025-08-17T12:18:21.280Z</when>
<when >2025-08-17T12:18:24.400Z</when>
<when >2025-08-17T12:18:29.470Z</when>
<when >2025-08-17T12:18:46.070Z</when>
<when >2025-08-17T12:18:47.080Z</when>
<when >2025-08-17T12:18:50.760Z</when>
<when >2025-08-17T12:19:00.360Z</when>
<when >2025-08-17T12:19:04.780Z</when>
<when >2025-08-17T12:19:07.490Z</when>
<when >2025-08-17T12:19:14.040Z</when>
<when >2025-08-17T12:19:33.980Z</when>
<when >2025-08-17T12:19:53.920Z</when>
<when >2025-08-17T12:20:11.940Z</when>
<when >2025-08-17T12:20:18.230Z</when>
<when >2025-08-17T12:20:20.190Z</when>
<when >2025-08-17T12:20:31.650Z</when>
<when >2025-08-17T12:20:40.760Z</when>
<when >2025-08-17T12:20:45.110Z</when>
<when >2025-08-17T12:20:50.210Z</when>
<when >2025-08-17T12:21:09.890Z</when>
<when >2025-08-17T12:21:27.150Z</when>
<when >2025-08-17T12:21:41.540Z</when>
<when >2025-08-17T12:21:47.610Z</when>
<when >2025-08-17T12:21:48.550Z</when>
<when >2025-08-17T12:21:50.140Z</when>
<when >2025-08-17T12:21:51.670Z</when>
<when >2025-08-17T12:21:52.670Z</when>
<when >2025-08-17T12:21:59.680Z</when>
<when >2025-08-17T12:22:06.240Z</when>
<when >2025-08-17T12:22:11.800Z</when>
<when >2025-08-17T12:22:22.550Z</when>
<when >2025-08-17T12:22:34.080Z</when>
<when >2025-08-17T12:22:44.700Z</when>
<when >2025-08-17T12:23:02.920Z</when>
<when >2025-08-17T12:23:20.810Z</when>
<when >2025-08-17T12:23:38.780Z</when>
<when >2025-08-17T12:23:58.390Z</when>
<when >2025-08-17T12:24:18.360Z</when>
<when >2025-08-17T12:24:38.060Z</when>
<when >2025-08-17T12:24:58.010Z</when>
<when >2025-08-17T12:25:17.600Z</when>
<when >2025-08-17T12:25:37.360Z</when>
<when >2025-08-17T12:25:57.130Z</when>
<when >2025-08-17T12:26:16.700Z</when>
<when >2025-08-17T12:26:36.230Z</when>
<when >2025-08-17T12:26:56.230Z</when>
<when >2025-08-17T12:27:15.860Z</when>
<when >2025-08-17T12:27:35.720Z</when>
<when >2025-08-17T12:27:55.670Z</when>
<when >2025-08-17T12:28:15.330Z</when>
<when >2025-08-17T12:28:35.050Z</when>
<when >2025-08-17T12:28:55.030Z</when>
<when >2025-08-17T12:29:14.480Z</when>
<when >2025-08-17T12:29:34.460Z</when>
<when >2025-08-17T12:29:54.300Z</when>
<when >2025-08-17T12:30:14.290Z</when>
<when >2025-08-17T12:30:33.910Z</when>
<when >2025-08-17T12:30:53.540Z</when>
<when >2025-08-17T12:31:13.040Z</when>
<when >2025-08-17T12:31:32.570Z</when>
<when >2025-08-17T12:31:52.190Z</when>
<when >2025-08-17T12:32:11.800Z</when>
<when >2025-08-17T12:32:31.450Z</when>
<when >2025-08-17T12:32:51.400Z</when>
<when >2025-08-17T12:33:11.380Z</when>
<when >2025-08-17T12:33:30.900Z</when>
<when >2025-08-17T12:33:48.700Z</when>
<when >2025-08-17T12:34:00.660Z</when>
<when >2025-08-17T12:34:20.240Z</when>
<when >2025-08-17T12:34:40.230Z</when>
<when >2025-08-17T12:34:59.760Z</when>
<when >2025-08-17T12:35:19.420Z</when>
<when >2025-08-17T12:35:39.210Z</when>
<when >2025-08-17T12:35:59.000Z</when>
<when >2025-08-17T12:36:18.810Z</when>
<when >2025-08-17T12:36:38.390Z</when>
<when >2025-08-17T12:36:58.360Z</when>
<when >2025-08-17T12:37:17.920Z</when>
<when >2025-08-17T12:37:37.760Z</when>
<when >2025-08-17T12:37:57.660Z</when>
<when >2025-08-17T12:38:17.510Z</when>
<when >2025-08-17T12:38:37.350Z</when>
<when >2025-08-17T12:38:56.870Z</when>
<when >2025-08-17T12:39:16.800Z</when>
<when >2025-08-17T12:39:36.290Z</when>
<when >2025-08-17T12:39:55.950Z</when>
<when >2025-08-17T12:40:15.910Z</when>
<when >2025-08-17T12:40:35.870Z</when>
<when >2025-08-17T12:40:55.390Z</when>
<when >2025-08-17T12:41:15.170Z</when>
<when >2025-08-17T12:41:34.800Z</when>
<when >2025-08-17T12:41:54.660Z</when>
<when >2025-08-17T12:42:14.390Z</when>
<when >2025-08-17T12:42:34.380Z</when>
<when >2025-08-17T12:42:54.150Z</when>
<when >2025-08-17T12:43:13.870Z</when>
<when >2025-08-17T12:43:33.790Z</when>
<when >2025-08-17T12:43:53.760Z</when>
<when >2025-08-17T12:44:13.600Z</when>
<when >2025-08-17T12:44:32.950Z</when>
<when >2025-08-17T12:44:52.460Z</when>
<when >2025-08-17T12:45:12.450Z</when>
<when >2025-08-17T12:45:32.130Z</when>
<when >2025-08-17T12:45:51.540Z</when>
<when >2025-08-17T12:46:11.510Z</when>
<when >2025-08-17T12:46:31.180Z</when>
<when >2025-08-17T12:46:50.830Z</when>
<when >2025-08-17T12:47:10.490Z</when>
<when >2025-08-17T12:47:30.270Z</when>
<when >2025-08-17T12:47:49.820Z</when>
<when >2025-08-17T12:48:09.490Z</when>
<when >2025-08-17T12:48:29.270Z</when>
<when >2025-08-17T12:48:49.250Z</when>
<when >2025-08-17T12:49:09.040Z</when>
<when >2025-08-17T12:49:28.940Z</when>
<when >2025-08-17T12:49:48.940Z</when>
<when >2025-08-17T12:50:08.520Z</when>
<when >2025-08-17T12:50:28.090Z</when>
<when >2025-08-17T12:50:47.910Z</when>
<when >2025-08-17T12:51:07.740Z</when>
<when >2025-08-17T12:51:27.470Z</when>
<when >2025-08-17T12:51:47.460Z</when>
<when >2025-08-17T12:52:07.310Z</when>
<when >2025-08-17T12:52:26.640Z</when>
<when >2025-08-17T12:52:46.010Z</when>
<when >2025-08-17T12:53:05.810Z</when>
<when >2025-08-17T12:53:25.670Z</when>
<when >2025-08-17T12:53:45.370Z</when>
<when >2025-08-17T12:54:05.130Z</when>
<when >2025-08-17T12:54:24.990Z</when>
<when >2025-08-17T12:54:44.490Z</when>
<when >2025-08-17T12:55:04.350Z</when>
<when >2025-08-17T12:55:24.290Z</when>
<when >2025-08-17T12:55:43.970Z</when>
<when >2025-08-17T12:56:03.600Z</when>
<when >2025-08-17T12:56:23.500Z</when>
<when >2025-08-17T12:56:43.360Z</when>
<when >2025-08-17T12:57:03.140Z</when>
<when >2025-08-17T12:57:22.680Z</when>
<when >2025-08-17T12:57:42.670Z</when>
<when >2025-08-17T12:58:02.410Z</when>
<when >2025-08-17T12:58:15.120Z</when>
<when >2025-08-17T12:58:20.220Z</when>
<when >2025-08-17T12:58:25.400Z</when>
<when >2025-08-17T12:58:30.780Z</when>
<when >2025-08-17T12:58:36.010Z</when>
<when >2025-08-17T12:58:44.360Z</when>
<when >2025-08-17T12:59:04.220Z</when>
<when >2025-08-17T12:59:23.380Z</when>
<when >2025-08-17T12:59:43.090Z</when>
<when >2025-08-17T13:00:02.690Z</when>
<when >2025-08-17T13:00:22.440Z</when>
<when >2025-08-17T13:00:42.040Z</when>
<when >2025-08-17T13:01:01.600Z</when>
<when >2025-08-17T13:01:21.240Z</when>
<when >2025-08-17T13:01:41.040Z</when>
<when >2025-08-17T13:02:00.530Z</when>
<when >2025-08-17T13:02:20.320Z</when>
<when >2025-08-17T13:02:39.890Z</when>
<when >2025-08-17T13:02:59.750Z</when>
<when >2025-08-17T13:03:19.380Z</when>
<when >2025-08-17T13:03:39.170Z</when>
<when >2025-08-17T13:03:59.050Z</when>
<when >2025-08-17T13:04:19.010Z</when>
<when >2025-08-17T13:04:38.490Z</when>
<when >2025-08-17T13:04:58.490Z</when>
<when >2025-08-17T13:05:18.040Z</when>
<when >2025-08-17T13:05:37.670Z</when>
<when >2025-08-17T13:05:57.420Z</when>
<when >2025-08-17T13:06:17.060Z</when>
<when >2025-08-17T13:06:36.700Z</when>
<when >2025-08-17T13:06:56.570Z</when>
<when >2025-08-17T13:07:16.360Z</when>
<when >2025-08-17T13:07:35.790Z</when>
<when >2025-08-17T13:07:55.570Z</when>
<when >2025-08-17T13:08:15.540Z</when>
<when >2025-08-17T13:08:35.050Z</when>
<when >2025-08-17T13:08:54.470Z</when>
<when >2025-08-17T13:09:13.950Z</when>
<when >2025-08-17T13:09:33.710Z</when>
<when >2025-08-17T13:09:53.450Z</when>
<when >2025-08-17T13:10:12.880Z</when>
<when >2025-08-17T13:10:32.590Z</when>
<when >2025-08-17T13:10:52.380Z</when>
<when >2025-08-17T13:11:01.560Z</when>
<when >2025-08-17T13:11:21.400Z</when>
<when >2025-08-17T13:11:41.210Z</when>
<when >2025-08-17T13:12:00.740Z</when>
<when >2025-08-17T13:12:20.100Z</when>
<when >2025-08-17T13:12:39.850Z</when>
<when >2025-08-17T13:12:59.420Z</when>
<when >2025-08-17T13:13:19.110Z</when>
<when >2025-08-17T13:13:38.960Z</when>
<when >2025-08-17T13:13:58.830Z</when>
<when >2025-08-17T13:14:18.830Z</when>
<when >2025-08-17T13:14:38.430Z</when>
<when >2025-08-17T13:14:58.220Z</when>
<when >2025-08-17T13:15:17.740Z</when>
<when >2025-08-17T13:15:37.580Z</when>
<when >2025-08-17T13:15:57.250Z</when>
<when >2025-08-17T13:16:17.130Z</when>
<when >2025-08-17T13:16:25.710Z</when>
<when >2025-08-17T13:16:35.300Z</when>
<when >2025-08-17T13:16:48.720Z</when>
<when >2025-08-17T13:17:08.710Z</when>
<when >2025-08-17T13:17:28.600Z</when>
<when >2025-08-17T13:17:48.320Z</when>
<when >2025-08-17T13:18:08.020Z</when>
<when >2025-08-17T13:18:27.970Z</when>
<when >2025-08-17T13:18:47.820Z</when>
<when >2025-08-17T13:19:07.650Z</when>
<when >2025-08-17T13:19:27.290Z</when>
<when >2025-08-17T13:19:47.140Z</when>
<when >2025-08-17T13:20:07.140Z</when>
<when >2025-08-17T13:20:26.530Z</when>
<when >2025-08-17T13:20:46.320Z</when>
<when >2025-08-17T13:21:06.200Z</when>
<when >2025-08-17T13:21:26.180Z</when>
<when >2025-08-17T13:21:45.790Z</when>
<when >2025-08-17T13:22:05.390Z</when>
<when >2025-08-17T13:22:25.180Z</when>
<when >2025-08-17T13:22:45.130Z</when>
<when >2025-08-17T13:23:04.880Z</when>
<when >2025-08-17T13:23:24.580Z</when>
<when >2025-08-17T13:23:36.040Z</when>
<when >2025-08-17T13:23:43.060Z</when>
<when >2025-08-17T13:23:49.980Z</when>
<when >2025-08-17T13:23:59.780Z</when>
<when >2025-08-17T13:24:06.650Z</when>
<when >2025-08-17T13:24:12.170Z</when>
<when >2025-08-17T13:24:18.570Z</when>
<when >2025-08-17T13:24:31.310Z</when>
<when >2025-08-17T13:24:51.250Z</when>
<when >2025-08-17T13:25:10.980Z</when>
<when >2025-08-17T13:25:30.870Z</when>
<when >2025-08-17T13:25:50.420Z</when>
<when >2025-08-17T13:26:09.980Z</when>
<when >2025-08-17T13:26:29.900Z</when>
<when >2025-08-17T13:26:49.870Z</when>
<when >2025-08-17T13:27:09.570Z</when>
<when >2025-08-17T13:27:29.400Z</when>
<when >2025-08-17T13:27:37.290Z</when>
<when >2025-08-17T13:27:43.820Z</when>
<when >2025-08-17T13:27:50.020Z</when>
<when >2025-08-17T13:28:09.770Z</when>
<when >2025-08-17T13:28:29.190Z</when>
<when >2025-08-17T13:28:49.020Z</when>
<when >2025-08-17T13:29:08.690Z</when>
<when >2025-08-17T13:29:28.630Z</when>
<when >2025-08-17T13:29:48.030Z</when>
<when >2025-08-17T13:30:07.570Z</when>
<when >2025-08-17T13:30:27.280Z</when>
<when >2025-08-17T13:30:47.120Z</when>
<when >2025-08-17T13:31:06.590Z</when>
<when >2025-08-17T13:31:26.220Z</when>
<when >2025-08-17T13:31:45.660Z</when>
<when >2025-08-17T13:32:05.520Z</when>
<when >2025-08-17T13:32:25.410Z</when>
<when >2025-08-17T13:32:44.930Z</when>
<when >2025-08-17T13:33:04.510Z</when>
<when >2025-08-17T13:33:14.820Z</when>
<when >2025-08-17T13:33:21.430Z</when>
<when >2025-08-17T13:33:27.110Z</when>
<when >2025-08-17T13:33:32.520Z</when>
<when >2025-08-17T13:33:41.100Z</when>
<when >2025-08-17T13:34:00.910Z</when>
<when >2025-08-17T13:34:20.450Z</when>
<when >2025-08-17T13:34:40.030Z</when>
<when >2025-08-17T13:34:59.930Z</when>
<when >2025-08-17T13:35:19.720Z</when>
<when >2025-08-17T13:35:39.240Z</when>
<when >2025-08-17T13:35:58.870Z</when>
<when >2025-08-17T13:36:18.690Z</when>
<when >2025-08-17T13:36:38.110Z</when>
<when >2025-08-17T13:36:58.110Z</when>
<when >2025-08-17T13:37:17.120Z</when>
<when >2025-08-17T13:37:36.580Z</when>
<when >2025-08-17T13:37:56.530Z</when>
<when >2025-08-17T13:38:16.060Z</when>
<when >2025-08-17T13:38:35.740Z</when>
<when >2025-08-17T13:38:55.440Z</when>
<when >2025-08-17T13:39:15.200Z</when>
<when >2025-08-17T13:39:34.820Z</when>
<when >2025-08-17T13:39:54.420Z</when>
<when >2025-08-17T13:40:14.160Z</when>
<when >2025-08-17T13:40:33.990Z</when>
<when >2025-08-17T13:40:53.770Z</when>
<when >2025-08-17T13:41:13.030Z</when>
<when >2025-08-17T13:41:31.550Z</when>
<when >2025-08-17T13:41:51.340Z</when>
<when >2025-08-17T13:42:10.850Z</when>
<when >2025-08-17T13:42:30.740Z</when>
<when >2025-08-17T13:42:50.420Z</when>
<when >2025-08-17T13:43:10.390Z</when>
<when >2025-08-17T13:43:29.970Z</when>
<when >2025-08-17T13:43:49.900Z</when>
<when >2025-08-17T13:44:09.720Z</when>
<when >2025-08-17T13:44:29.530Z</when>
<when >2025-08-17T13:44:49.010Z</when>
<when >2025-08-17T13:45:08.710Z</when>
<when >2025-08-17T13:45:28.060Z</when>
<when >2025-08-17T13:45:47.820Z</when>
<when >2025-08-17T13:46:07.680Z</when>
<when >2025-08-17T13:46:27.150Z</when>
<when >2025-08-17T13:46:47.030Z</when>
<when >2025-08-17T13:47:07.010Z</when>
<when >2025-08-17T13:47:26.570Z</when>
<when >2025-08-17T13:47:45.630Z</when>
<when >2025-08-17T13:48:05.410Z</when>
<when >2025-08-17T13:48:24.290Z</when>
<when >2025-08-17T13:48:43.240Z</when>
<when >2025-08-17T13:49:02.660Z</when>
<when >2025-08-17T13:49:22.260Z</when>
<when >2025-08-17T13:49:42.110Z</when>
<when >2025-08-17T13:49:48.980Z</when>
<when >2025-08-17T13:49:54.870Z</when>
<when >2025-08-17T13:50:00.150Z</when>
<when >2025-08-17T13:50:05.370Z</when>
<when >2025-08-17T13:50:12.790Z</when>
<when >2025-08-17T13:50:32.700Z</when>
<when >2025-08-17T13:50:52.570Z</when>
<when >2025-08-17T13:51:12.140Z</when>
<when >2025-08-17T13:51:31.720Z</when>
<when >2025-08-17T13:51:51.460Z</when>
<when >2025-08-17T13:52:10.850Z</when>
<when >2025-08-17T13:52:30.760Z</when>
<when >2025-08-17T13:52:50.600Z</when>
<when >2025-08-17T13:53:10.080Z</when>
<when >2025-08-17T13:53:30.080Z</when>
<when >2025-08-17T13:53:49.790Z</when>
<when >2025-08-17T13:54:09.340Z</when>
<when >2025-08-17T13:54:29.240Z</when>
<when >2025-08-17T13:54:48.380Z</when>
<when >2025-08-17T13:55:07.940Z</when>
<when >2025-08-17T13:55:27.320Z</when>
<when >2025-08-17T13:55:47.240Z</when>
<when >2025-08-17T13:56:07.190Z</when>
<when >2025-08-17T13:56:27.110Z</when>
<when >2025-08-17T13:56:47.090Z</when>
<when >2025-08-17T13:57:07.010Z</when>
<when >2025-08-17T13:57:26.650Z</when>
<when >2025-08-17T13:57:46.420Z</when>
<when >2025-08-17T13:58:05.810Z</when>
<when >2025-08-17T13:58:24.620Z</when>
<when >2025-08-17T13:58:43.960Z</when>
<when >2025-08-17T13:59:03.640Z</when>
<when >2025-08-17T13:59:23.480Z</when>
<when >2025-08-17T13:59:43.060Z</when>
<when >2025-08-17T14:00:02.920Z</when>
<when >2025-08-17T14:00:22.540Z</when>
<when >2025-08-17T14:00:42.390Z</when>
<when >2025-08-17T14:01:02.140Z</when>
<when >2025-08-17T14:01:21.140Z</when>
<when >2025-08-17T14:01:39.530Z</when>
<when >2025-08-17T14:01:58.760Z</when>
<when >2025-08-17T14:02:18.190Z</when>
<when >2025-08-17T14:02:38.160Z</when>
<when >2025-08-17T14:02:58.110Z</when>
<when >2025-08-17T14:03:17.970Z</when>
<when >2025-08-17T14:03:32.610Z</when>
<when >2025-08-17T14:03:37.820Z</when>
<when >2025-08-17T14:03:42.650Z</when>
<when >2025-08-17T14:03:47.530Z</when>
<when >2025-08-17T14:03:51.780Z</when>
<when >2025-08-17T14:03:56.230Z</when>
<when >2025-08-17T14:04:04.020Z</when>
<when >2025-08-17T14:04:20.650Z</when>
<when >2025-08-17T14:04:37.620Z</when>
<when >2025-08-17T14:04:57.050Z</when>
<when >2025-08-17T14:05:16.660Z</when>
<when >2025-08-17T14:05:36.370Z</when>
<when >2025-08-17T14:05:56.190Z</when>
<when >2025-08-17T14:06:15.620Z</when>
<when >2025-08-17T14:06:35.320Z</when>
<when >2025-08-17T14:06:55.060Z</when>
<when >2025-08-17T14:07:14.220Z</when>
<when >2025-08-17T14:07:33.560Z</when>
<when >2025-08-17T14:07:52.590Z</when>
<when >2025-08-17T14:08:12.570Z</when>
<when >2025-08-17T14:08:31.640Z</when>
<when >2025-08-17T14:08:51.110Z</when>
<when >2025-08-17T14:09:10.890Z</when>
<when >2025-08-17T14:09:30.340Z</when>
<when >2025-08-17T14:09:50.170Z</when>
<when >2025-08-17T14:10:09.470Z</when>
<when >2025-08-17T14:10:28.530Z</when>
<when >2025-08-17T14:10:48.340Z</when>
<when >2025-08-17T14:11:08.260Z</when>
<when >2025-08-17T14:11:27.510Z</when>
<when >2025-08-17T14:11:47.180Z</when>
<when >2025-08-17T14:12:06.780Z</when>
<when >2025-08-17T14:12:26.100Z</when>
<when >2025-08-17T14:12:45.360Z</when>
<when >2025-08-17T14:13:04.800Z</when>
<when >2025-08-17T14:13:24.220Z</when>
<when >2025-08-17T14:13:44.160Z</when>
<when >2025-08-17T14:14:04.030Z</when>
<when >2025-08-17T14:14:23.810Z</when>
<when >2025-08-17T14:14:42.790Z</when>
<when >2025-08-17T14:15:02.250Z</when>
<when >2025-08-17T14:15:21.850Z</when>
<when >2025-08-17T14:15:41.730Z</when>
<when >2025-08-17T14:16:01.270Z</when>
<when >2025-08-17T14:16:20.860Z</when>
<when >2025-08-17T14:16:40.830Z</when>
<when >2025-08-17T14:17:00.020Z</when>
<when >2025-08-17T14:17:19.860Z</when>
<when >2025-08-17T14:17:39.540Z</when>
<when >2025-08-17T14:17:59.090Z</when>
<when >2025-08-17T14:18:13.120Z</when>
<when >2025-08-17T14:18:32.570Z</when>
<when >2025-08-17T14:18:52.120Z</when>
<when >2025-08-17T14:19:11.880Z</when>
<when >2025-08-17T14:19:30.910Z</when>
<when >2025-08-17T14:19:50.310Z</when>
<when >2025-08-17T14:20:09.920Z</when>
<when >2025-08-17T14:20:29.570Z</when>
<when >2025-08-17T14:20:49.430Z</when>
<when >2025-08-17T14:21:09.050Z</when>
<when >2025-08-17T14:21:28.500Z</when>
<when >2025-08-17T14:21:48.500Z</when>
<when >2025-08-17T14:22:08.000Z</when>
<when >2025-08-17T14:22:27.440Z</when>
<when >2025-08-17T14:22:47.180Z</when>
<when >2025-08-17T14:23:07.020Z</when>
<when >2025-08-17T14:23:27.010Z</when>
<when >2025-08-17T14:23:46.430Z</when>
<when >2025-08-17T14:24:05.970Z</when>
<when >2025-08-17T14:24:25.820Z</when>
<when >2025-08-17T14:24:45.790Z</when>
<when >2025-08-17T14:25:05.050Z</when>
<when >2025-08-17T14:25:24.970Z</when>
<when >2025-08-17T14:25:44.320Z</when>
<when >2025-08-17T14:26:03.450Z</when>
<when >2025-08-17T14:26:22.660Z</when>
<when >2025-08-17T14:26:41.690Z</when>
<when >2025-08-17T14:27:00.980Z</when>
<when >2025-08-17T14:27:20.720Z</when>
<when >2025-08-17T14:27:40.570Z</when>
<when >2025-08-17T14:28:00.430Z</when>
<when >2025-08-17T14:28:20.420Z</when>
<when >2025-08-17T14:28:40.340Z</when>
<when >2025-08-17T14:28:59.860Z</when>
<when >2025-08-17T14:29:19.390Z</when>
<when >2025-08-17T14:29:38.610Z</when>
<when >2025-08-17T14:29:58.090Z</when>
<when >2025-08-17T14:30:17.310Z</when>
<when >2025-08-17T14:30:36.670Z</when>
<when >2025-08-17T14:30:56.280Z</when>
<when >2025-08-17T14:31:15.860Z</when>
<when >2025-08-17T14:31:35.690Z</when>
<when >2025-08-17T14:31:55.380Z</when>
<when >2025-08-17T14:32:15.300Z</when>
<when >2025-08-17T14:32:35.290Z</when>
<when >2025-08-17T14:32:54.960Z</when>
<when >2025-08-17T14:33:14.490Z</when>
<when >2025-08-17T14:33:33.260Z</when>
<when >2025-08-17T14:33:53.150Z</when>
<when >2025-08-17T14:34:12.450Z</when>
<when >2025-08-17T14:34:32.070Z</when>
<when >2025-08-17T14:34:50.940Z</when>
<when >2025-08-17T14:35:10.850Z</when>
<when >2025-08-17T14:35:30.780Z</when>
<when >2025-08-17T14:35:50.440Z</when>
<when >2025-08-17T14:36:09.300Z</when>
<when >2025-08-17T14:36:28.510Z</when>
<when >2025-08-17T14:36:48.060Z</when>
<when >2025-08-17T14:37:07.960Z</when>
<when >2025-08-17T14:37:27.220Z</when>
<when >2025-08-17T14:37:46.460Z</when>
<when >2025-08-17T14:38:06.440Z</when>
<when >2025-08-17T14:38:26.010Z</when>
<when >2025-08-17T14:38:35.970Z</when>
<when >2025-08-17T14:38:44.760Z</when>
<when >2025-08-17T14:38:52.890Z</when>
<when >2025-08-17T14:39:12.790Z</when>
<when >2025-08-17T14:39:32.440Z</when>
<when >2025-08-17T14:39:52.190Z</when>
<when >2025-08-17T14:40:12.120Z</when>
<when >2025-08-17T14:40:31.840Z</when>
<when >2025-08-17T14:40:51.680Z</when>
<when >2025-08-17T14:41:11.400Z</when>
<when >2025-08-17T14:41:30.490Z</when>
<when >2025-08-17T14:41:50.320Z</when>
<when >2025-08-17T14:42:10.290Z</when>
<when >2025-08-17T14:42:30.160Z</when>
<when >2025-08-17T14:42:50.120Z</when>
<when >2025-08-17T14:43:09.570Z</when>
<when >2025-08-17T14:43:29.520Z</when>
<when >2025-08-17T14:43:49.250Z</when>
<when >2025-08-17T14:44:07.960Z</when>
<when >2025-08-17T14:44:26.680Z</when>
<when >2025-08-17T14:44:46.140Z</when>
<when >2025-08-17T14:45:04.890Z</when>
<when >2025-08-17T14:45:24.440Z</when>
<when >2025-08-17T14:45:44.120Z</when>
<when >2025-08-17T14:46:03.590Z</when>
<when >2025-08-17T14:46:23.180Z</when>
<when >2025-08-17T14:46:42.730Z</when>
<when >2025-08-17T14:46:51.680Z</when>
<when >2025-08-17T14:46:57.430Z</when>
<when >2025-08-17T14:47:02.600Z</when>
<when >2025-08-17T14:47:07.640Z</when>
<when >2025-08-17T14:47:15.010Z</when>
<when >2025-08-17T14:47:34.570Z</when>
<when >2025-08-17T14:47:54.330Z</when>
<when >2025-08-17T14:48:14.200Z</when>
<when >2025-08-17T14:48:34.120Z</when>
<when >2025-08-17T14:48:53.960Z</when>
<when >2025-08-17T14:49:13.920Z</when>
<when >2025-08-17T14:49:33.290Z</when>
<when >2025-08-17T14:49:53.020Z</when>
<when >2025-08-17T14:50:12.690Z</when>
<when >2025-08-17T14:50:32.210Z</when>
<when >2025-08-17T14:50:51.880Z</when>
<when >2025-08-17T14:51:01.120Z</when>
<when >2025-08-17T14:51:06.680Z</when>
<when >2025-08-17T14:51:11.300Z</when>
<when >2025-08-17T14:51:15.000Z</when>
<when >2025-08-17T14:51:19.960Z</when>
<when >2025-08-17T14:51:27.570Z</when>
<when >2025-08-17T14:51:47.560Z</when>
<when >2025-08-17T14:52:07.140Z</when>
<when >2025-08-17T14:52:26.800Z</when>
<when >2025-08-17T14:52:46.110Z</when>
<when >2025-08-17T14:53:05.860Z</when>
<when >2025-08-17T14:53:24.970Z</when>
<when >2025-08-17T14:53:44.710Z</when>
<when >2025-08-17T14:54:04.450Z</when>
<when >2025-08-17T14:54:23.770Z</when>
<when >2025-08-17T14:54:43.400Z</when>
<when >2025-08-17T14:55:03.170Z</when>
<when >2025-08-17T14:55:22.930Z</when>
<when >2025-08-17T14:55:42.680Z</when>
<when >2025-08-17T14:56:01.340Z</when>
<when >2025-08-17T14:56:21.190Z</when>
<when >2025-08-17T14:56:40.550Z</when>
<when >2025-08-17T14:56:47.870Z</when>
<when >2025-08-17T14:57:03.170Z</when>
<when >2025-08-17T14:57:17.070Z</when>
<when >2025-08-17T14:57:32.010Z</when>
<when >2025-08-17T14:57:45.690Z</when>
<when >2025-08-17T14:57:59.620Z</when>
<when >2025-08-17T14:58:13.380Z</when>
<when >2025-08-17T14:58:26.680Z</when>
<when >2025-08-17T14:58:39.080Z</when>
<when >2025-08-17T14:58:53.240Z</when>
<when >2025-08-17T14:59:06.580Z</when>
<when >2025-08-17T14:59:19.530Z</when>
<when >2025-08-17T14:59:27.460Z</when>
<when >2025-08-17T14:59:34.680Z</when>
<when >2025-08-17T14:59:40.440Z</when>
<when >2025-08-17T14:59:51.010Z</when>
<when >2025-08-17T15:00:04.660Z</when>
<when >2025-08-17T15:00:18.680Z</when>
<when >2025-08-17T15:00:31.350Z</when>
<when >2025-08-17T15:00:36.540Z</when>
<when >2025-08-17T15:00:41.800Z</when>
<when >2025-08-17T15:00:46.870Z</when>
<when >2025-08-17T15:00:53.270Z</when>
<when >2025-08-17T15:00:59.680Z</when>
<when >2025-08-17T15:01:05.830Z</when>
<when >2025-08-17T15:01:06.780Z</when>
<when >2025-08-17T15:01:07.220Z</when>
<when >2025-08-17T15:01:09.630Z</when>
<when >2025-08-17T15:01:13.310Z</when>
<when >2025-08-17T15:01:20.670Z</when>
<when >2025-08-17T15:01:25.500Z</when>
<when >2025-08-17T15:01:29.930Z</when>
<when >2025-08-17T15:01:34.360Z</when>
<when >2025-08-17T15:01:41.010Z</when>
<when >2025-08-17T15:01:49.730Z</when>
<when >2025-08-17T15:01:56.230Z</when>
<when >2025-08-17T15:02:05.600Z</when>
<when >2025-08-17T15:02:14.480Z</when>
<when >2025-08-17T15:02:22.740Z</when>
<when >2025-08-17T15:02:30.370Z</when>
<when >2025-08-17T15:02:38.680Z</when>
<when >2025-08-17T15:02:58.100Z</when>
<when >2025-08-17T15:03:17.910Z</when>
<when >2025-08-17T15:03:37.820Z</when>
<when >2025-08-17T15:03:57.090Z</when>
<when >2025-08-17T15:04:16.530Z</when>
<when >2025-08-17T15:04:24.190Z</when>
<when >2025-08-17T15:04:29.960Z</when>
<when >2025-08-17T15:04:33.280Z</when>
<when >2025-08-17T15:04:36.070Z</when>
<when >2025-08-17T15:04:38.550Z</when>
<when >2025-08-17T15:04:40.540Z</when>
<when >2025-08-17T15:04:42.140Z</when>
<when >2025-08-17T15:04:49.140Z</when>
<when >2025-08-17T15:04:57.390Z</when>
<when >2025-08-17T15:05:03.140Z</when>
<when >2025-08-17T15:05:08.180Z</when>
<when >2025-08-17T15:05:19.810Z</when>
<when >2025-08-17T15:05:31.710Z</when>
<when >2025-08-17T15:05:42.370Z</when>
<when >2025-08-17T15:05:54.490Z</when>
<when >2025-08-17T15:06:06.600Z</when>
<when >2025-08-17T15:06:18.960Z</when>
<when >2025-08-17T15:06:31.420Z</when>
<when >2025-08-17T15:06:43.980Z</when>
<when >2025-08-17T15:06:54.670Z</when>
<when >2025-08-17T15:07:06.400Z</when>
<when >2025-08-17T15:07:12.310Z</when>
<when >2025-08-17T15:07:13.600Z</when>
<when >2025-08-17T15:07:15.640Z</when>
<when >2025-08-17T15:07:18.840Z</when>
<when >2025-08-17T15:07:26.110Z</when>
<when >2025-08-17T15:07:31.860Z</when>
<when >2025-08-17T15:07:37.260Z</when>
<when >2025-08-17T15:07:40.510Z</when>
<when >2025-08-17T15:07:41.780Z</when>
<when >2025-08-17T15:07:45.650Z</when>
<when >2025-08-17T15:07:46.120Z</when>
<when >2025-08-17T15:07:49.640Z</when>
<when >2025-08-17T15:08:01.070Z</when>
<when >2025-08-17T15:08:05.560Z</when>
<when >2025-08-17T15:08:08.700Z</when>
<when >2025-08-17T15:08:11.840Z</when>
<when >2025-08-17T15:08:15.610Z</when>
<when >2025-08-17T15:08:19.460Z</when>
<when >2025-08-17T15:08:22.940Z</when>
<when >2025-08-17T15:08:27.110Z</when>
<when >2025-08-17T15:08:31.480Z</when>
<when >2025-08-17T15:08:42.320Z</when>
<when >2025-08-17T15:08:45.710Z</when>
<when >2025-08-17T15:08:46.990Z</when>
<when >2025-08-17T15:08:49.250Z</when>
<when >2025-08-17T15:08:52.370Z</when>
<when >2025-08-17T15:09:03.090Z</when>
<when >2025-08-17T15:09:13.690Z</when>
<when >2025-08-17T15:09:23.050Z</when>
<when >2025-08-17T15:09:29.480Z</when>
<when >2025-08-17T15:09:32.600Z</when>
<when >2025-08-17T15:09:35.930Z</when>
<when >2025-08-17T15:09:38.890Z</when>
<when >2025-08-17T15:09:42.530Z</when>
<when >2025-08-17T15:09:46.180Z</when>
<when >2025-08-17T15:09:49.000Z</when>
<when >2025-08-17T15:09:53.060Z</when>
<when >2025-08-17T15:09:56.040Z</when>
<when >2025-08-17T15:10:00.450Z</when>
<when >2025-08-17T15:10:08.490Z</when>
<when >2025-08-17T15:10:19.350Z</when>
<when >2025-08-17T15:10:29.700Z</when>
<when >2025-08-17T15:10:41.960Z</when>
<when >2025-08-17T15:10:53.670Z</when>
<when >2025-08-17T15:11:05.190Z</when>
<when >2025-08-17T15:11:16.020Z</when>
<when >2025-08-17T15:11:26.950Z</when>
<when >2025-08-17T15:11:39.760Z</when>
<when >2025-08-17T15:11:51.140Z</when>
<when >2025-08-17T15:12:03.360Z</when>
<when >2025-08-17T15:12:10.140Z</when>
<when >2025-08-17T15:12:11.590Z</when>
<when >2025-08-17T15:12:13.070Z</when>
<when >2025-08-17T15:12:17.430Z</when>
<when >2025-08-17T15:12:18.560Z</when>
<when >2025-08-17T15:12:20.850Z</when>
<when >2025-08-17T15:12:26.350Z</when>
<when >2025-08-17T15:12:27.340Z</when>
<when >2025-08-17T15:12:34.720Z</when>
<when >2025-08-17T15:12:41.440Z</when>
<when >2025-08-17T15:12:49.840Z</when>
<when >2025-08-17T15:12:57.220Z</when>
<when >2025-08-17T15:13:05.430Z</when>
<when >2025-08-17T15:13:17.250Z</when>
<when >2025-08-17T15:13:21.450Z</when>
<when >2025-08-17T15:13:26.430Z</when>
<when >2025-08-17T15:13:28.490Z</when>
<when >2025-08-17T15:13:32.810Z</when>
<when >2025-08-17T15:13:35.910Z</when>
<when >2025-08-17T15:13:38.560Z</when>
<when >2025-08-17T15:13:41.860Z</when>
<when >2025-08-17T15:13:45.780Z</when>
<when >2025-08-17T15:13:54.490Z</when>
<when >2025-08-17T15:14:00.620Z</when>
<when >2025-08-17T15:14:09.170Z</when>
<when >2025-08-17T15:14:17.370Z</when>
<when >2025-08-17T15:14:21.610Z</when>
<when >2025-08-17T15:14:26.750Z</when>
<when >2025-08-17T15:14:28.810Z</when>
<when >2025-08-17T15:14:32.850Z</when>
<when >2025-08-17T15:14:36.750Z</when>
<when >2025-08-17T15:14:37.010Z</when>
<when >2025-08-17T15:14:45.940Z</when>
<when >2025-08-17T15:14:54.720Z</when>
<when >2025-08-17T15:15:09.420Z</when>
<when >2025-08-17T15:15:11.900Z</when>
<when >2025-08-17T15:15:11.900Z</when>
<when >2025-08-17T15:15:20.820Z</when>
<when >2025-08-17T15:15:30.380Z</when>
<when >2025-08-17T15:15:37.080Z</when>
<when >2025-08-17T15:15:39.600Z</when>
<when >2025-08-17T15:15:41.380Z</when>
<when >2025-08-17T15:15:44.570Z</when>
<when >2025-08-17T15:15:46.130Z</when>
<when >2025-08-17T15:15:50.900Z</when>
<when >2025-08-17T15:15:59.620Z</when>
<when >2025-08-17T15:16:08.540Z</when>
<when >2025-08-17T15:16:15.580Z</when>
<when >2025-08-17T15:16:20.660Z</when>
<when >2025-08-17T15:16:27.900Z</when>
<when >2025-08-17T15:16:32.710Z</when>
<when >2025-08-17T15:16:36.550Z</when>
<when >2025-08-17T15:16:40.050Z</when>
<when >2025-08-17T15:16:43.840Z</when>
<when >2025-08-17T15:16:49.780Z</when>
<when >2025-08-17T15:16:56.770Z</when>
<when >2025-08-17T15:17:02.210Z</when>
<when >2025-08-17T15:17:07.160Z</when>
<when >2025-08-17T15:17:13.000Z</when>
<when >2025-08-17T15:17:16.670Z</when>
<when >2025-08-17T15:17:22.070Z</when>
<when >2025-08-17T15:17:26.150Z</when>
<when >2025-08-17T15:17:29.330Z</when>
<when >2025-08-17T15:17:32.990Z</when>
<when >2025-08-17T15:17:37.150Z</when>
<when >2025-08-17T15:17:41.810Z</when>
<when >2025-08-17T15:17:45.790Z</when>
<when >2025-08-17T15:17:48.460Z</when>
<when >2025-08-17T15:17:53.790Z</when>
<when >2025-08-17T15:17:55.720Z</when>
<when >2025-08-17T15:17:59.770Z</when>
<when >2025-08-17T15:18:03.140Z</when>
<when >2025-08-17T15:18:08.070Z</when>
<when >2025-08-17T15:18:14.540Z</when>
<when >2025-08-17T15:18:22.550Z</when>
<when >2025-08-17T15:18:27.660Z</when>
<when >2025-08-17T15:18:34.230Z</when>
<when >2025-08-17T15:18:40.440Z</when>
<when >2025-08-17T15:18:45.210Z</when>
<when >2025-08-17T15:18:50.080Z</when>
<when >2025-08-17T15:18:53.650Z</when>
<when >2025-08-17T15:18:57.890Z</when>
<when >2025-08-17T15:19:01.590Z</when>
<when >2025-08-17T15:19:05.610Z</when>
<when >2025-08-17T15:19:10.290Z</when>
<when >2025-08-17T15:19:12.500Z</when>
<when >2025-08-17T15:19:14.420Z</when>
<when >2025-08-17T15:19:17.590Z</when>
<when >2025-08-17T15:19:21.220Z</when>
<when >2025-08-17T15:19:26.670Z</when>
<when >2025-08-17T15:19:32.960Z</when>
<when >2025-08-17T15:19:36.020Z</when>
<when >2025-08-17T15:19:38.000Z</when>
<when >2025-08-17T15:19:42.880Z</when>
<when >2025-08-17T15:19:47.780Z</when>
<when >2025-08-17T15:19:51.470Z</when>
<when >2025-08-17T15:19:56.810Z</when>
<when >2025-08-17T15:20:00.890Z</when>
<when >2025-08-17T15:20:03.320Z</when>
<when >2025-08-17T15:20:07.620Z</when>
<when >2025-08-17T15:20:08.990Z</when>
<when >2025-08-17T15:20:14.160Z</when>
<when >2025-08-17T15:20:19.980Z</when>
<when >2025-08-17T15:20:26.400Z</when>
<when >2025-08-17T15:20:29.560Z</when>
<when >2025-08-17T15:20:34.780Z</when>
<when >2025-08-17T15:20:39.210Z</when>
<when >2025-08-17T15:20:44.240Z</when>
<when >2025-08-17T15:20:49.740Z</when>
<when >2025-08-17T15:20:57.470Z</when>
<when >2025-08-17T15:20:58.820Z</when>
<when >2025-08-17T15:21:03.260Z</when>
<when >2025-08-17T15:21:07.000Z</when>
<when >2025-08-17T15:21:10.880Z</when>
<when >2025-08-17T15:21:15.940Z</when>
<when >2025-08-17T15:21:18.130Z</when>
<when >2025-08-17T15:21:21.310Z</when>
<when >2025-08-17T15:21:28.510Z</when>
<when >2025-08-17T15:21:35.840Z</when>
<when >2025-08-17T15:21:45.850Z</when>
<when >2025-08-17T15:21:53.270Z</when>
<when >2025-08-17T15:22:02.690Z</when>
<when >2025-08-17T15:22:11.450Z</when>
<when >2025-08-17T15:22:19.900Z</when>
<when >2025-08-17T15:22:29.060Z</when>
<when >2025-08-17T15:22:38.780Z</when>
<when >2025-08-17T15:22:42.870Z</when>
<when >2025-08-17T15:22:49.110Z</when>
<when >2025-08-17T15:22:57.730Z</when>
<when >2025-08-17T15:23:01.240Z</when>
<when >2025-08-17T15:23:11.700Z</when>
<when >2025-08-17T15:23:11.700Z</when>
<gx:coord >20.971017 52.164669 105</gx:coord>
<gx:coord >20.969761 52.165041 113</gx:coord>
<gx:coord >20.969315 52.165146 113</gx:coord>
<gx:coord >20.968399 52.165421 113</gx:coord>
<gx:coord >20.967941 52.165512 113</gx:coord>
<gx:coord >20.966309 52.165972 113</gx:coord>
<gx:coord >20.965916 52.166112 113</gx:coord>
<gx:coord >20.963719 52.166717 112</gx:coord>
<gx:coord >20.963248 52.166857 112</gx:coord>
<gx:coord >20.961286 52.167369 107</gx:coord>
<gx:coord >20.95871 52.168121 101</gx:coord>
<gx:coord >20.957441 52.168486 110</gx:coord>
<gx:coord >20.955811 52.168945 118</gx:coord>
<gx:coord >20.952606 52.169861 149</gx:coord>
<gx:coord >20.950165 52.170547 163</gx:coord>
<gx:coord >20.94826 52.171093 179</gx:coord>
<gx:coord >20.945892 52.171783 209</gx:coord>
<gx:coord >20.942766 52.172629 241</gx:coord>
<gx:coord >20.940805 52.173188 274</gx:coord>
<gx:coord >20.93845 52.173886 306</gx:coord>
<gx:coord >20.936432 52.174438 328</gx:coord>
<gx:coord >20.934527 52.174957 360</gx:coord>
<gx:coord >20.932016 52.175655 391</gx:coord>
<gx:coord >20.930023 52.176224 421</gx:coord>
<gx:coord >20.928116 52.176773 451</gx:coord>
<gx:coord >20.925659 52.177471 482</gx:coord>
<gx:coord >20.923619 52.178029 514</gx:coord>
<gx:coord >20.921173 52.178741 545</gx:coord>
<gx:coord >20.919342 52.179291 576</gx:coord>
<gx:coord >20.916713 52.179984 606</gx:coord>
<gx:coord >20.914751 52.180543 637</gx:coord>
<gx:coord >20.912319 52.181241 669</gx:coord>
<gx:coord >20.910592 52.181707 694</gx:coord>
<gx:coord >20.908709 52.182219 725</gx:coord>
<gx:coord >20.906433 52.182778 755</gx:coord>
<gx:coord >20.903931 52.183319 787</gx:coord>
<gx:coord >20.902117 52.183615 811</gx:coord>
<gx:coord >20.899527 52.183941 840</gx:coord>
<gx:coord >20.897173 52.184128 872</gx:coord>
<gx:coord >20.894584 52.184221 902</gx:coord>
<gx:coord >20.891953 52.184235 935</gx:coord>
<gx:coord >20.889483 52.184128 966</gx:coord>
<gx:coord >20.886383 52.184006 997</gx:coord>
<gx:coord >20.884018 52.183914 1028</gx:coord>
<gx:coord >20.880432 52.183731 1061</gx:coord>
<gx:coord >20.877241 52.183522 1091</gx:coord>
<gx:coord >20.873788 52.18329 1123</gx:coord>
<gx:coord >20.869393 52.18301 1153</gx:coord>
<gx:coord >20.86586 52.182816 1170</gx:coord>
<gx:coord >20.861435 52.182449 1194</gx:coord>
<gx:coord >20.857544 52.182129 1217</gx:coord>
<gx:coord >20.853424 52.181763 1233</gx:coord>
<gx:coord >20.848912 52.181334 1249</gx:coord>
<gx:coord >20.846165 52.181102 1257</gx:coord>
<gx:coord >20.841599 52.180756 1280</gx:coord>
<gx:coord >20.836513 52.180543 1299</gx:coord>
<gx:coord >20.83102 52.180683 1314</gx:coord>
<gx:coord >20.825919 52.181102 1329</gx:coord>
<gx:coord >20.82222 52.181442 1350</gx:coord>
<gx:coord >20.816116 52.182175 1380</gx:coord>
<gx:coord >20.811386 52.18277 1396</gx:coord>
<gx:coord >20.805206 52.183594 1422</gx:coord>
<gx:coord >20.800494 52.184221 1430</gx:coord>
<gx:coord >20.796967 52.184692 1445</gx:coord>
<gx:coord >20.792018 52.185384 1461</gx:coord>
<gx:coord >20.787354 52.186066 1476</gx:coord>
<gx:coord >20.779877 52.187119 1506</gx:coord>
<gx:coord >20.772871 52.188131 1526</gx:coord>
<gx:coord >20.766514 52.189016 1551</gx:coord>
<gx:coord >20.759735 52.190002 1579</gx:coord>
<gx:coord >20.752938 52.190924 1612</gx:coord>
<gx:coord >20.747375 52.191742 1643</gx:coord>
<gx:coord >20.742501 52.19246 1672</gx:coord>
<gx:coord >20.738602 52.192978 1702</gx:coord>
<gx:coord >20.73349 52.19371 1735</gx:coord>
<gx:coord >20.728219 52.194462 1766</gx:coord>
<gx:coord >20.723354 52.195114 1799</gx:coord>
<gx:coord >20.718842 52.195679 1828</gx:coord>
<gx:coord >20.714879 52.196091 1859</gx:coord>
<gx:coord >20.710526 52.196365 1889</gx:coord>
<gx:coord >20.705338 52.196548 1921</gx:coord>
<gx:coord >20.700302 52.196457 1950</gx:coord>
<gx:coord >20.694351 52.195999 1981</gx:coord>
<gx:coord >20.689468 52.195404 2011</gx:coord>
<gx:coord >20.684509 52.194489 2042</gx:coord>
<gx:coord >20.681381 52.193848 2073</gx:coord>
<gx:coord >20.677338 52.192978 2103</gx:coord>
<gx:coord >20.67421 52.192291 2132</gx:coord>
<gx:coord >20.670306 52.191343 2161</gx:coord>
<gx:coord >20.663376 52.189682 2209</gx:coord>
<gx:coord >20.653983 52.187386 2271</gx:coord>
<gx:coord >20.644836 52.185196 2336</gx:coord>
<gx:coord >20.636063 52.18309 2398</gx:coord>
<gx:coord >20.625183 52.180543 2460</gx:coord>
<gx:coord >20.615688 52.178309 2521</gx:coord>
<gx:coord >20.607452 52.176407 2583</gx:coord>
<gx:coord >20.598502 52.174398 2649</gx:coord>
<gx:coord >20.588065 52.172024 2711</gx:coord>
<gx:coord >20.578491 52.169883 2773</gx:coord>
<gx:coord >20.569534 52.167847 2836</gx:coord>
<gx:coord >20.561905 52.166153 2901</gx:coord>
<gx:coord >20.552979 52.164185 2967</gx:coord>
<gx:coord >20.544904 52.162388 3026</gx:coord>
<gx:coord >20.535965 52.160385 3091</gx:coord>
<gx:coord >20.527326 52.158477 3151</gx:coord>
<gx:coord >20.522147 52.157313 3184</gx:coord>
<gx:coord >20.519244 52.156708 3200</gx:coord>
<gx:coord >20.5143 52.155591 3218</gx:coord>
<gx:coord >20.497585 52.151867 3267</gx:coord>
<gx:coord >20.479928 52.147956 3313</gx:coord>
<gx:coord >20.460388 52.143953 3351</gx:coord>
<gx:coord >20.440534 52.140136 3405</gx:coord>
<gx:coord >20.418876 52.136179 3458</gx:coord>
<gx:coord >20.396347 52.132095 3504</gx:coord>
<gx:coord >20.373439 52.127939 3549</gx:coord>
<gx:coord >20.348129 52.123352 3588</gx:coord>
<gx:coord >20.32608 52.119278 3633</gx:coord>
<gx:coord >20.299125 52.11416 3687</gx:coord>
<gx:coord >20.271659 52.108899 3732</gx:coord>
<gx:coord >20.253531 52.105361 3770</gx:coord>
<gx:coord >20.234541 52.101684 3824</gx:coord>
<gx:coord >20.203018 52.09552 3946</gx:coord>
<gx:coord >20.171997 52.08944 4060</gx:coord>
<gx:coord >20.145787 52.08432 4174</gx:coord>
<gx:coord >20.110626 52.077438 4289</gx:coord>
<gx:coord >20.074234 52.070343 4380</gx:coord>
<gx:coord >20.039291 52.063614 4494</gx:coord>
<gx:coord >20.005875 52.057205 4601</gx:coord>
<gx:coord >19.988403 52.053818 4639</gx:coord>
<gx:coord >19.945679 52.045542 4738</gx:coord>
<gx:coord >19.914551 52.03949 4845</gx:coord>
<gx:coord >19.880676 52.032669 4951</gx:coord>
<gx:coord >19.845703 52.025198 5043</gx:coord>
<gx:coord >19.810562 52.017426 5164</gx:coord>
<gx:coord >19.775234 52.00951 5278</gx:coord>
<gx:coord >19.739838 52.001587 5400</gx:coord>
<gx:coord >19.705627 51.993962 5514</gx:coord>
<gx:coord >19.668352 51.985722 5613</gx:coord>
<gx:coord >19.63555 51.978506 5735</gx:coord>
<gx:coord >19.606594 51.972175 5858</gx:coord>
<gx:coord >19.588858 51.968265 5932</gx:coord>
<gx:coord >19.568481 51.963821 5994</gx:coord>
<gx:coord >19.543839 51.95842 6055</gx:coord>
<gx:coord >19.499712 51.948806 6147</gx:coord>
<gx:coord >19.461212 51.940384 6246</gx:coord>
<gx:coord >19.422913 51.931915 6360</gx:coord>
<gx:coord >19.380981 51.922644 6459</gx:coord>
<gx:coord >19.338608 51.913284 6551</gx:coord>
<gx:coord >19.299774 51.904633 6665</gx:coord>
<gx:coord >19.273834 51.898911 6734</gx:coord>
<gx:coord >19.224777 51.888009 6817</gx:coord>
<gx:coord >19.175893 51.877121 6901</gx:coord>
<gx:coord >19.132542 51.867371 6992</gx:coord>
<gx:coord >19.086075 51.857005 7083</gx:coord>
<gx:coord >19.038696 51.846577 7175</gx:coord>
<gx:coord >18.998032 51.837732 7274</gx:coord>
<gx:coord >18.958171 51.829102 7381</gx:coord>
<gx:coord >18.93605 51.824295 7426</gx:coord>
<gx:coord >18.876961 51.811295 7502</gx:coord>
<gx:coord >18.820801 51.798908 7571</gx:coord>
<gx:coord >18.758011 51.784989 7639</gx:coord>
<gx:coord >18.694458 51.770883 7699</gx:coord>
<gx:coord >18.64212 51.759292 7776</gx:coord>
<gx:coord >18.590164 51.747747 7852</gx:coord>
<gx:coord >18.531115 51.734528 7928</gx:coord>
<gx:coord >18.475723 51.722097 8004</gx:coord>
<gx:coord >18.421783 51.709993 8088</gx:coord>
<gx:coord >18.366394 51.69754 8163</gx:coord>
<gx:coord >18.314362 51.685786 8247</gx:coord>
<gx:coord >18.260193 51.673543 8285</gx:coord>
<gx:coord >18.195957 51.658997 8331</gx:coord>
<gx:coord >18.143624 51.647049 8381</gx:coord>
<gx:coord >18.138576 51.645905 8395</gx:coord>
<gx:coord >18.128586 51.64361 8416</gx:coord>
<gx:coord >18.093443 51.635513 8535</gx:coord>
<gx:coord >18.077393 51.631832 8585</gx:coord>
<gx:coord >18.06778 51.629597 8610</gx:coord>
<gx:coord >18.051071 51.625733 8642</gx:coord>
<gx:coord >17.998204 51.613632 8711</gx:coord>
<gx:coord >17.994863 51.612854 8726</gx:coord>
<gx:coord >17.98306 51.610153 8756</gx:coord>
<gx:coord >17.953219 51.603333 8865</gx:coord>
<gx:coord >17.939263 51.600128 8900</gx:coord>
<gx:coord >17.930222 51.598035 8915</gx:coord>
<gx:coord >17.910004 51.593426 8939</gx:coord>
<gx:coord >17.846473 51.578751 8993</gx:coord>
<gx:coord >17.783432 51.564145 9045</gx:coord>
<gx:coord >17.725601 51.550738 9114</gx:coord>
<gx:coord >17.705765 51.546129 9144</gx:coord>
<gx:coord >17.699568 51.544693 9159</gx:coord>
<gx:coord >17.662972 51.53627 9266</gx:coord>
<gx:coord >17.634467 51.529633 9350</gx:coord>
<gx:coord >17.620808 51.526474 9373</gx:coord>
<gx:coord >17.6047 51.52272 9396</gx:coord>
<gx:coord >17.543013 51.508255 9434</gx:coord>
<gx:coord >17.488174 51.495434 9495</gx:coord>
<gx:coord >17.442206 51.484589 9585</gx:coord>
<gx:coord >17.423277 51.480103 9629</gx:coord>
<gx:coord >17.419891 51.479327 9644</gx:coord>
<gx:coord >17.415314 51.478256 9659</gx:coord>
<gx:coord >17.410202 51.476999 9681</gx:coord>
<gx:coord >17.407074 51.476254 9695</gx:coord>
<gx:coord >17.385642 51.471176 9807</gx:coord>
<gx:coord >17.365525 51.466415 9913</gx:coord>
<gx:coord >17.349167 51.462568 9988</gx:coord>
<gx:coord >17.317051 51.454971 10103</gx:coord>
<gx:coord >17.283325 51.447019 10218</gx:coord>
<gx:coord >17.252841 51.439774 10278</gx:coord>
<gx:coord >17.199616 51.427139 10362</gx:coord>
<gx:coord >17.147505 51.414642 10431</gx:coord>
<gx:coord >17.094879 51.402097 10499</gx:coord>
<gx:coord >17.037506 51.388364 10567</gx:coord>
<gx:coord >16.97885 51.374176 10620</gx:coord>
<gx:coord >16.921005 51.360246 10636</gx:coord>
<gx:coord >16.861191 51.345861 10643</gx:coord>
<gx:coord >16.801733 51.331467 10643</gx:coord>
<gx:coord >16.742273 51.316956 10643</gx:coord>
<gx:coord >16.682587 51.302335 10643</gx:coord>
<gx:coord >16.62323 51.28795 10651</gx:coord>
<gx:coord >16.564042 51.27356 10650</gx:coord>
<gx:coord >16.503618 51.258774 10650</gx:coord>
<gx:coord >16.443935 51.24408 10650</gx:coord>
<gx:coord >16.38351 51.229156 10650</gx:coord>
<gx:coord >16.322556 51.214025 10650</gx:coord>
<gx:coord >16.262817 51.199175 10657</gx:coord>
<gx:coord >16.203003 51.184232 10657</gx:coord>
<gx:coord >16.142405 51.169144 10656</gx:coord>
<gx:coord >16.083069 51.154345 10656</gx:coord>
<gx:coord >16.022372 51.139069 10656</gx:coord>
<gx:coord >15.962219 51.123854 10656</gx:coord>
<gx:coord >15.901151 51.10849 10664</gx:coord>
<gx:coord >15.841469 51.093475 10664</gx:coord>
<gx:coord >15.782166 51.078558 10672</gx:coord>
<gx:coord >15.723114 51.063522 10672</gx:coord>
<gx:coord >15.66391 51.048346 10672</gx:coord>
<gx:coord >15.604891 51.033142 10664</gx:coord>
<gx:coord >15.545959 51.017947 10671</gx:coord>
<gx:coord >15.486374 51.002678 10671</gx:coord>
<gx:coord >15.426941 50.987363 10663</gx:coord>
<gx:coord >15.366898 50.971954 10671</gx:coord>
<gx:coord >15.30777 50.956685 10671</gx:coord>
<gx:coord >15.254669 50.942766 10671</gx:coord>
<gx:coord >15.218959 50.932709 10678</gx:coord>
<gx:coord >15.161504 50.915543 10686</gx:coord>
<gx:coord >15.102787 50.897919 10701</gx:coord>
<gx:coord >15.045554 50.88089 10701</gx:coord>
<gx:coord >14.988251 50.863953 10694</gx:coord>
<gx:coord >14.930865 50.847061 10694</gx:coord>
<gx:coord >14.873123 50.830063 10686</gx:coord>
<gx:coord >14.816208 50.813304 10678</gx:coord>
<gx:coord >14.759018 50.796295 10686</gx:coord>
<gx:coord >14.701233 50.779181 10678</gx:coord>
<gx:coord >14.64485 50.762421 10678</gx:coord>
<gx:coord >14.587543 50.745438 10678</gx:coord>
<gx:coord >14.529953 50.728253 10677</gx:coord>
<gx:coord >14.472186 50.710968 10685</gx:coord>
<gx:coord >14.415028 50.693848 10685</gx:coord>
<gx:coord >14.357869 50.676682 10693</gx:coord>
<gx:coord >14.299597 50.659123 10693</gx:coord>
<gx:coord >14.242401 50.641846 10708</gx:coord>
<gx:coord >14.185012 50.624451 10708</gx:coord>
<gx:coord >14.126339 50.606705 10715</gx:coord>
<gx:coord >14.067559 50.588791 10723</gx:coord>
<gx:coord >14.010241 50.571279 10731</gx:coord>
<gx:coord >13.951894 50.553403 10731</gx:coord>
<gx:coord >13.893919 50.535666 10730</gx:coord>
<gx:coord >13.835424 50.517651 10730</gx:coord>
<gx:coord >13.776783 50.499619 10722</gx:coord>
<gx:coord >13.718165 50.481537 10722</gx:coord>
<gx:coord >13.660163 50.46365 10730</gx:coord>
<gx:coord >13.602188 50.445727 10722</gx:coord>
<gx:coord >13.543693 50.427525 10722</gx:coord>
<gx:coord >13.485718 50.409348 10722</gx:coord>
<gx:coord >13.426883 50.390854 10722</gx:coord>
<gx:coord >13.37 50.373047 10729</gx:coord>
<gx:coord >13.312466 50.354919 10721</gx:coord>
<gx:coord >13.253559 50.33638 10729</gx:coord>
<gx:coord >13.195545 50.318221 10729</gx:coord>
<gx:coord >13.138238 50.300158 10721</gx:coord>
<gx:coord >13.079372 50.281538 10729</gx:coord>
<gx:coord >13.021248 50.263103 10729</gx:coord>
<gx:coord >12.963125 50.244529 10729</gx:coord>
<gx:coord >12.905372 50.22614 10729</gx:coord>
<gx:coord >12.846415 50.207291 10736</gx:coord>
<gx:coord >12.789098 50.18898 10735</gx:coord>
<gx:coord >12.731058 50.170303 10735</gx:coord>
<gx:coord >12.672729 50.151443 10735</gx:coord>
<gx:coord >12.613606 50.132309 10735</gx:coord>
<gx:coord >12.555349 50.113449 10735</gx:coord>
<gx:coord >12.496874 50.094351 10735</gx:coord>
<gx:coord >12.437785 50.075125 10735</gx:coord>
<gx:coord >12.38033 50.056411 10743</gx:coord>
<gx:coord >12.322757 50.037323 10743</gx:coord>
<gx:coord >12.264899 50.017493 10743</gx:coord>
<gx:coord >12.207072 49.997569 10743</gx:coord>
<gx:coord >12.14984 49.977877 10743</gx:coord>
<gx:coord >12.091611 49.958038 10743</gx:coord>
<gx:coord >12.033518 49.938168 10743</gx:coord>
<gx:coord >11.976953 49.918756 10743</gx:coord>
<gx:coord >11.921057 49.89953 10751</gx:coord>
<gx:coord >11.863676 49.879745 10751</gx:coord>
<gx:coord >11.805403 49.859681 10751</gx:coord>
<gx:coord >11.748022 49.839803 10751</gx:coord>
<gx:coord >11.690537 49.819702 10743</gx:coord>
<gx:coord >11.632642 49.799652 10743</gx:coord>
<gx:coord >11.575804 49.779891 10751</gx:coord>
<gx:coord >11.518153 49.759781 10743</gx:coord>
<gx:coord >11.459631 49.739344 10751</gx:coord>
<gx:coord >11.402101 49.719233 10751</gx:coord>
<gx:coord >11.344685 49.699036 10766</gx:coord>
<gx:coord >11.286934 49.678711 10766</gx:coord>
<gx:coord >11.228695 49.65811 10766</gx:coord>
<gx:coord >11.171578 49.637833 10766</gx:coord>
<gx:coord >11.114452 49.61747 10766</gx:coord>
<gx:coord >11.056403 49.596754 10758</gx:coord>
<gx:coord >10.998977 49.576309 10758</gx:coord>
<gx:coord >10.962187 49.563034 10758</gx:coord>
<gx:coord >10.947659 49.557083 10758</gx:coord>
<gx:coord >10.933709 49.550629 10758</gx:coord>
<gx:coord >10.919816 49.543266 10758</gx:coord>
<gx:coord >10.906677 49.535339 10758</gx:coord>
<gx:coord >10.88709 49.522522 10758</gx:coord>
<gx:coord >10.840615 49.491943 10766</gx:coord>
<gx:coord >10.794661 49.46273 10758</gx:coord>
<gx:coord >10.746633 49.432844 10758</gx:coord>
<gx:coord >10.699238 49.403469 10758</gx:coord>
<gx:coord >10.651896 49.373862 10757</gx:coord>
<gx:coord >10.604626 49.343929 10757</gx:coord>
<gx:coord >10.557644 49.314229 10765</gx:coord>
<gx:coord >10.510736 49.284482 10765</gx:coord>
<gx:coord >10.463351 49.25441 10765</gx:coord>
<gx:coord >10.416941 49.224838 10765</gx:coord>
<gx:coord >10.369756 49.194763 10765</gx:coord>
<gx:coord >10.323416 49.165237 10772</gx:coord>
<gx:coord >10.27677 49.135421 10772</gx:coord>
<gx:coord >10.229211 49.10493 10772</gx:coord>
<gx:coord >10.182636 49.075058 10772</gx:coord>
<gx:coord >10.135662 49.044937 10765</gx:coord>
<gx:coord >10.088629 49.014572 10772</gx:coord>
<gx:coord >10.043053 48.985107 10765</gx:coord>
<gx:coord >9.996402 48.954938 10765</gx:coord>
<gx:coord >9.950505 48.925285 10765</gx:coord>
<gx:coord >9.904879 48.89566 10772</gx:coord>
<gx:coord >9.858856 48.865744 10757</gx:coord>
<gx:coord >9.813397 48.836014 10765</gx:coord>
<gx:coord >9.76755 48.806076 10765</gx:coord>
<gx:coord >9.721599 48.775992 10765</gx:coord>
<gx:coord >9.675856 48.745926 10765</gx:coord>
<gx:coord >9.630432 48.716125 10772</gx:coord>
<gx:coord >9.584797 48.686142 10772</gx:coord>
<gx:coord >9.538457 48.655701 10780</gx:coord>
<gx:coord >9.492621 48.625535 10780</gx:coord>
<gx:coord >9.447736 48.595881 10780</gx:coord>
<gx:coord >9.402996 48.566227 10780</gx:coord>
<gx:coord >9.357533 48.536015 10780</gx:coord>
<gx:coord >9.31211 48.505829 10780</gx:coord>
<gx:coord >9.26732 48.47612 10772</gx:coord>
<gx:coord >9.222177 48.445953 10772</gx:coord>
<gx:coord >9.177126 48.41591 10771</gx:coord>
<gx:coord >9.155514 48.401432 10779</gx:coord>
<gx:coord >9.110413 48.371267 10832</gx:coord>
<gx:coord >9.064495 48.340439 10878</gx:coord>
<gx:coord >9.019848 48.310469 10924</gx:coord>
<gx:coord >8.975689 48.280701 10985</gx:coord>
<gx:coord >8.930584 48.250324 11023</gx:coord>
<gx:coord >8.886277 48.220344 11069</gx:coord>
<gx:coord >8.841248 48.189835 11084</gx:coord>
<gx:coord >8.796478 48.159485 11084</gx:coord>
<gx:coord >8.751228 48.12886 11084</gx:coord>
<gx:coord >8.706242 48.098377 11084</gx:coord>
<gx:coord >8.661621 48.067978 11084</gx:coord>
<gx:coord >8.616943 48.037347 11084</gx:coord>
<gx:coord >8.572357 48.006866 11084</gx:coord>
<gx:coord >8.527363 47.976224 11084</gx:coord>
<gx:coord >8.483628 47.946245 11084</gx:coord>
<gx:coord >8.438768 47.915101 11084</gx:coord>
<gx:coord >8.420528 47.901601 11084</gx:coord>
<gx:coord >8.400316 47.885354 11084</gx:coord>
<gx:coord >8.373299 47.86235 11084</gx:coord>
<gx:coord >8.333954 47.828293 11091</gx:coord>
<gx:coord >8.294128 47.794464 11091</gx:coord>
<gx:coord >8.253822 47.760956 11084</gx:coord>
<gx:coord >8.213997 47.728226 11084</gx:coord>
<gx:coord >8.173279 47.69458 11084</gx:coord>
<gx:coord >8.132629 47.661072 11085</gx:coord>
<gx:coord >8.092529 47.62793 11092</gx:coord>
<gx:coord >8.052635 47.594925 11085</gx:coord>
<gx:coord >8.012466 47.561325 11092</gx:coord>
<gx:coord >7.97206 47.5276 11092</gx:coord>
<gx:coord >7.933228 47.495178 11085</gx:coord>
<gx:coord >7.892509 47.461258 11092</gx:coord>
<gx:coord >7.852135 47.427887 11092</gx:coord>
<gx:coord >7.81135 47.393856 11092</gx:coord>
<gx:coord >7.7717 47.360478 11100</gx:coord>
<gx:coord >7.73204 47.326859 11100</gx:coord>
<gx:coord >7.692402 47.293349 11100</gx:coord>
<gx:coord >7.65184 47.259109 11108</gx:coord>
<gx:coord >7.611671 47.225464 11100</gx:coord>
<gx:coord >7.572739 47.192505 11099</gx:coord>
<gx:coord >7.549599 47.173187 11099</gx:coord>
<gx:coord >7.534767 47.162064 11099</gx:coord>
<gx:coord >7.51918 47.151398 11099</gx:coord>
<gx:coord >7.496933 47.13739 11099</gx:coord>
<gx:coord >7.481346 47.126953 11099</gx:coord>
<gx:coord >7.469604 47.118027 11099</gx:coord>
<gx:coord >7.456336 47.106861 11099</gx:coord>
<gx:coord >7.431496 47.084656 11107</gx:coord>
<gx:coord >7.393524 47.049957 11107</gx:coord>
<gx:coord >7.354995 47.015386 11107</gx:coord>
<gx:coord >7.31612 46.981263 11107</gx:coord>
<gx:coord >7.277104 46.947513 11107</gx:coord>
<gx:coord >7.23823 46.914042 11107</gx:coord>
<gx:coord >7.198723 46.879807 11107</gx:coord>
<gx:coord >7.159447 46.845796 11107</gx:coord>
<gx:coord >7.120614 46.812012 11114</gx:coord>
<gx:coord >7.082229 46.778641 11107</gx:coord>
<gx:coord >7.066621 46.764404 11114</gx:coord>
<gx:coord >7.055366 46.752914 11107</gx:coord>
<gx:coord >7.044849 46.741104 11114</gx:coord>
<gx:coord >7.013096 46.703888 11114</gx:coord>
<gx:coord >6.981056 46.667175 11114</gx:coord>
<gx:coord >6.948049 46.630005 11106</gx:coord>
<gx:coord >6.915894 46.59343 11106</gx:coord>
<gx:coord >6.88327 46.556076 11106</gx:coord>
<gx:coord >6.851717 46.519913 11106</gx:coord>
<gx:coord >6.81983 46.483337 11113</gx:coord>
<gx:coord >6.787608 46.446442 11113</gx:coord>
<gx:coord >6.755219 46.409136 11113</gx:coord>
<gx:coord >6.723289 46.372267 11121</gx:coord>
<gx:coord >6.691635 46.33577 11121</gx:coord>
<gx:coord >6.659569 46.298807 11121</gx:coord>
<gx:coord >6.627101 46.261185 11121</gx:coord>
<gx:coord >6.594811 46.223602 11129</gx:coord>
<gx:coord >6.562991 46.186707 11129</gx:coord>
<gx:coord >6.531104 46.149582 11129</gx:coord>
<gx:coord >6.514692 46.129898 11129</gx:coord>
<gx:coord >6.50528 46.117114 11129</gx:coord>
<gx:coord >6.49781 46.105591 11121</gx:coord>
<gx:coord >6.491312 46.094055 11121</gx:coord>
<gx:coord >6.482537 46.076752 11136</gx:coord>
<gx:coord >6.461678 46.03481 11136</gx:coord>
<gx:coord >6.440186 45.993099 11136</gx:coord>
<gx:coord >6.418561 45.951874 11136</gx:coord>
<gx:coord >6.39679 45.910217 11136</gx:coord>
<gx:coord >6.375298 45.869037 11136</gx:coord>
<gx:coord >6.353983 45.827911 11129</gx:coord>
<gx:coord >6.33252 45.786314 11129</gx:coord>
<gx:coord >6.310976 45.74469 11129</gx:coord>
<gx:coord >6.289948 45.703963 11136</gx:coord>
<gx:coord >6.26837 45.662292 11136</gx:coord>
<gx:coord >6.247871 45.622467 11136</gx:coord>
<gx:coord >6.227257 45.582275 11129</gx:coord>
<gx:coord >6.205902 45.540573 11121</gx:coord>
<gx:coord >6.185035 45.499692 11121</gx:coord>
<gx:coord >6.164134 45.458772 11112</gx:coord>
<gx:coord >6.142898 45.417061 11112</gx:coord>
<gx:coord >6.121997 45.376142 11112</gx:coord>
<gx:coord >6.100896 45.334431 11120</gx:coord>
<gx:coord >6.079995 45.293279 11120</gx:coord>
<gx:coord >6.058698 45.251495 11120</gx:coord>
<gx:coord >6.037389 45.209578 11128</gx:coord>
<gx:coord >6.015752 45.166936 11134</gx:coord>
<gx:coord >5.994918 45.125738 11142</gx:coord>
<gx:coord >5.974352 45.086448 11142</gx:coord>
<gx:coord >5.951385 45.044403 11149</gx:coord>
<gx:coord >5.928799 45.003166 11149</gx:coord>
<gx:coord >5.905936 44.960999 11157</gx:coord>
<gx:coord >5.88416 44.920258 11157</gx:coord>
<gx:coord >5.861141 44.877045 11157</gx:coord>
<gx:coord >5.839032 44.835484 11149</gx:coord>
<gx:coord >5.816457 44.793075 11149</gx:coord>
<gx:coord >5.794149 44.751178 11142</gx:coord>
<gx:coord >5.772138 44.709824 11142</gx:coord>
<gx:coord >5.75007 44.668129 11134</gx:coord>
<gx:coord >5.728128 44.626236 11142</gx:coord>
<gx:coord >5.70694 44.585999 11142</gx:coord>
<gx:coord >5.684822 44.544067 11134</gx:coord>
<gx:coord >5.662514 44.502077 11134</gx:coord>
<gx:coord >5.641145 44.461437 11134</gx:coord>
<gx:coord >5.618853 44.418732 11142</gx:coord>
<gx:coord >5.596749 44.376434 11134</gx:coord>
<gx:coord >5.575104 44.335098 11143</gx:coord>
<gx:coord >5.55379 44.294408 11150</gx:coord>
<gx:coord >5.531884 44.252371 11150</gx:coord>
<gx:coord >5.510983 44.212243 11150</gx:coord>
<gx:coord >5.489829 44.171556 11150</gx:coord>
<gx:coord >5.468509 44.130753 11150</gx:coord>
<gx:coord >5.4466 44.088547 11150</gx:coord>
<gx:coord >5.42463 44.046098 11150</gx:coord>
<gx:coord >5.416325 44.031434 11158</gx:coord>
<gx:coord >5.408212 44.01915 11158</gx:coord>
<gx:coord >5.400419 44.008804 11158</gx:coord>
<gx:coord >5.391671 43.998615 11158</gx:coord>
<gx:coord >5.378702 43.984863 11166</gx:coord>
<gx:coord >5.343188 43.948425 11159</gx:coord>
<gx:coord >5.308097 43.910864 11159</gx:coord>
<gx:coord >5.274353 43.874041 11167</gx:coord>
<gx:coord >5.240217 43.836613 11174</gx:coord>
<gx:coord >5.205923 43.799332 11167</gx:coord>
<gx:coord >5.172141 43.762595 11167</gx:coord>
<gx:coord >5.137678 43.72512 11167</gx:coord>
<gx:coord >5.103215 43.687599 11167</gx:coord>
<gx:coord >5.069994 43.651428 11167</gx:coord>
<gx:coord >5.035187 43.613617 11151</gx:coord>
<gx:coord >5.001134 43.576339 11167</gx:coord>
<gx:coord >4.96739 43.539237 11167</gx:coord>
<gx:coord >4.933372 43.501968 11167</gx:coord>
<gx:coord >4.90003 43.46553 11167</gx:coord>
<gx:coord >4.866241 43.42836 11159</gx:coord>
<gx:coord >4.83309 43.391739 11159</gx:coord>
<gx:coord >4.798998 43.354146 11174</gx:coord>
<gx:coord >4.764797 43.316485 11174</gx:coord>
<gx:coord >4.730956 43.279129 11167</gx:coord>
<gx:coord >4.696786 43.241396 11174</gx:coord>
<gx:coord >4.662192 43.202991 11174</gx:coord>
<gx:coord >4.628885 43.16597 11174</gx:coord>
<gx:coord >4.594968 43.128159 11174</gx:coord>
<gx:coord >4.561945 43.091354 11182</gx:coord>
<gx:coord >4.530095 43.055792 11190</gx:coord>
<gx:coord >4.497943 43.01976 11190</gx:coord>
<gx:coord >4.4647 42.982519 11182</gx:coord>
<gx:coord >4.431003 42.94455 11191</gx:coord>
<gx:coord >4.398063 42.907523 11191</gx:coord>
<gx:coord >4.364702 42.870026 11183</gx:coord>
<gx:coord >4.332637 42.833862 11183</gx:coord>
<gx:coord >4.299088 42.796234 11183</gx:coord>
<gx:coord >4.266592 42.759627 11183</gx:coord>
<gx:coord >4.234527 42.723363 11191</gx:coord>
<gx:coord >4.204762 42.689566 11198</gx:coord>
<gx:coord >4.17262 42.653137 11191</gx:coord>
<gx:coord >4.140824 42.617131 11183</gx:coord>
<gx:coord >4.10795 42.579758 11175</gx:coord>
<gx:coord >4.075678 42.543045 11175</gx:coord>
<gx:coord >4.043544 42.506197 11176</gx:coord>
<gx:coord >4.018952 42.478638 11176</gx:coord>
<gx:coord >4.009885 42.469803 11176</gx:coord>
<gx:coord >4.001021 42.462112 11176</gx:coord>
<gx:coord >3.990534 42.454102 11176</gx:coord>
<gx:coord >3.980755 42.447494 11176</gx:coord>
<gx:coord >3.971058 42.441605 11184</gx:coord>
<gx:coord >3.95297 42.431527 11184</gx:coord>
<gx:coord >3.914441 42.409927 11184</gx:coord>
<gx:coord >3.874678 42.386536 11192</gx:coord>
<gx:coord >3.830396 42.359929 11192</gx:coord>
<gx:coord >3.786101 42.333389 11199</gx:coord>
<gx:coord >3.741094 42.306519 11207</gx:coord>
<gx:coord >3.695838 42.27951 11198</gx:coord>
<gx:coord >3.650457 42.252411 11198</gx:coord>
<gx:coord >3.606262 42.225999 11198</gx:coord>
<gx:coord >3.56072 42.198812 11206</gx:coord>
<gx:coord >3.516749 42.172394 11213</gx:coord>
<gx:coord >3.472893 42.145929 11213</gx:coord>
<gx:coord >3.430169 42.120163 11213</gx:coord>
<gx:coord >3.385662 42.09343 11213</gx:coord>
<gx:coord >3.339906 42.065964 11221</gx:coord>
<gx:coord >3.295711 42.039322 11213</gx:coord>
<gx:coord >3.251079 42.012222 11206</gx:coord>
<gx:coord >3.207561 41.985882 11206</gx:coord>
<gx:coord >3.162082 41.95823 11206</gx:coord>
<gx:coord >3.118557 41.931793 11205</gx:coord>
<gx:coord >3.07586 41.905838 11212</gx:coord>
<gx:coord >3.03129 41.878601 11212</gx:coord>
<gx:coord >2.986748 41.851393 11220</gx:coord>
<gx:coord >2.942463 41.824402 11220</gx:coord>
<gx:coord >2.897769 41.797119 11220</gx:coord>
<gx:coord >2.853948 41.770294 11220</gx:coord>
<gx:coord >2.810378 41.743607 11228</gx:coord>
<gx:coord >2.767533 41.717229 11228</gx:coord>
<gx:coord >2.723174 41.689911 11228</gx:coord>
<gx:coord >2.680352 41.663544 11228</gx:coord>
<gx:coord >2.635888 41.636182 11220</gx:coord>
<gx:coord >2.592212 41.609161 11220</gx:coord>
<gx:coord >2.548329 41.581924 11212</gx:coord>
<gx:coord >2.507757 41.556764 11220</gx:coord>
<gx:coord >2.463684 41.529236 11220</gx:coord>
<gx:coord >2.421611 41.503098 11220</gx:coord>
<gx:coord >2.377167 41.475494 11220</gx:coord>
<gx:coord >2.334339 41.448763 11221</gx:coord>
<gx:coord >2.291648 41.422073 11221</gx:coord>
<gx:coord >2.247279 41.394343 11221</gx:coord>
<gx:coord >2.204773 41.367737 11221</gx:coord>
<gx:coord >2.161685 41.340668 11229</gx:coord>
<gx:coord >2.118301 41.313389 11236</gx:coord>
<gx:coord >2.076233 41.286758 11244</gx:coord>
<gx:coord >2.045892 41.266557 11236</gx:coord>
<gx:coord >2.005066 41.238464 11244</gx:coord>
<gx:coord >1.963369 41.20981 11244</gx:coord>
<gx:coord >1.921143 41.180878 11244</gx:coord>
<gx:coord >1.880554 41.15332 11244</gx:coord>
<gx:coord >1.840332 41.125992 11244</gx:coord>
<gx:coord >1.797763 41.096967 11244</gx:coord>
<gx:coord >1.756348 41.06868 11244</gx:coord>
<gx:coord >1.714242 41.040034 11236</gx:coord>
<gx:coord >1.673293 41.012242 11236</gx:coord>
<gx:coord >1.632406 40.984311 11236</gx:coord>
<gx:coord >1.591553 40.956299 11236</gx:coord>
<gx:coord >1.549509 40.927471 11229</gx:coord>
<gx:coord >1.508545 40.899399 11229</gx:coord>
<gx:coord >1.46836 40.871748 11229</gx:coord>
<gx:coord >1.426147 40.842728 11229</gx:coord>
<gx:coord >1.384777 40.814116 11236</gx:coord>
<gx:coord >1.344265 40.786138 11236</gx:coord>
<gx:coord >1.303628 40.758067 11236</gx:coord>
<gx:coord >1.26239 40.729523 11243</gx:coord>
<gx:coord >1.221667 40.701227 11243</gx:coord>
<gx:coord >1.18103 40.673016 11250</gx:coord>
<gx:coord >1.141205 40.645457 11250</gx:coord>
<gx:coord >1.100281 40.617004 11243</gx:coord>
<gx:coord >1.06093 40.589594 11243</gx:coord>
<gx:coord >1.02073 40.56157 11243</gx:coord>
<gx:coord >0.981812 40.53447 11243</gx:coord>
<gx:coord >0.942202 40.506778 11250</gx:coord>
<gx:coord >0.90194 40.478567 11250</gx:coord>
<gx:coord >0.860779 40.449738 11250</gx:coord>
<gx:coord >0.820042 40.421075 11243</gx:coord>
<gx:coord >0.779114 40.392242 11243</gx:coord>
<gx:coord >0.738706 40.363723 11243</gx:coord>
<gx:coord >0.698069 40.335047 11250</gx:coord>
<gx:coord >0.658752 40.307236 11250</gx:coord>
<gx:coord >0.617676 40.278168 11250</gx:coord>
<gx:coord >0.577157 40.24953 11258</gx:coord>
<gx:coord >0.538147 40.221954 11258</gx:coord>
<gx:coord >0.498474 40.193848 11250</gx:coord>
<gx:coord >0.457431 40.164619 11250</gx:coord>
<gx:coord >0.416809 40.135712 11258</gx:coord>
<gx:coord >0.376094 40.106615 11250</gx:coord>
<gx:coord >0.335144 40.077347 11258</gx:coord>
<gx:coord >0.29301 40.047354 11257</gx:coord>
<gx:coord >0.252373 40.018212 11265</gx:coord>
<gx:coord >0.2108 39.988372 11265</gx:coord>
<gx:coord >0.170912 39.959743 11265</gx:coord>
<gx:coord >0.131337 39.931253 11265</gx:coord>
<gx:coord >0.09016 39.901566 11265</gx:coord>
<gx:coord >0.050513 39.873047 11280</gx:coord>
<gx:coord >0.010742 39.844433 11272</gx:coord>
<gx:coord >-0.028687 39.816036 11272</gx:coord>
<gx:coord >-0.068844 39.786942 11257</gx:coord>
<gx:coord >-0.109497 39.75738 11257</gx:coord>
<gx:coord >-0.148499 39.728983 11265</gx:coord>
<gx:coord >-0.187186 39.70079 11257</gx:coord>
<gx:coord >-0.225936 39.672592 11257</gx:coord>
<gx:coord >-0.265224 39.643982 11257</gx:coord>
<gx:coord >-0.305886 39.61441 11265</gx:coord>
<gx:coord >-0.344577 39.586304 11265</gx:coord>
<gx:coord >-0.383728 39.557764 11257</gx:coord>
<gx:coord >-0.422974 39.529134 11257</gx:coord>
<gx:coord >-0.462402 39.500272 11265</gx:coord>
<gx:coord >-0.481934 39.486679 11265</gx:coord>
<gx:coord >-0.500854 39.474482 11272</gx:coord>
<gx:coord >-0.519043 39.463589 11272</gx:coord>
<gx:coord >-0.562134 39.438823 11265</gx:coord>
<gx:coord >-0.605084 39.413818 11265</gx:coord>
<gx:coord >-0.647477 39.388962 11265</gx:coord>
<gx:coord >-0.691223 39.363176 11257</gx:coord>
<gx:coord >-0.733521 39.33827 11265</gx:coord>
<gx:coord >-0.777701 39.312241 11265</gx:coord>
<gx:coord >-0.820332 39.287018 11265</gx:coord>
<gx:coord >-0.862248 39.262161 11280</gx:coord>
<gx:coord >-0.905715 39.236389 11280</gx:coord>
<gx:coord >-0.948853 39.21095 11279</gx:coord>
<gx:coord >-0.992352 39.185074 11287</gx:coord>
<gx:coord >-1.035461 39.159556 11287</gx:coord>
<gx:coord >-1.077795 39.134491 11294</gx:coord>
<gx:coord >-1.121826 39.108256 11294</gx:coord>
<gx:coord >-1.164856 39.082652 11287</gx:coord>
<gx:coord >-1.205451 39.058365 11279</gx:coord>
<gx:coord >-1.245993 39.034103 11279</gx:coord>
<gx:coord >-1.288147 39.008789 11279</gx:coord>
<gx:coord >-1.32851 38.984619 11279</gx:coord>
<gx:coord >-1.370425 38.959534 11271</gx:coord>
<gx:coord >-1.412781 38.934104 11271</gx:coord>
<gx:coord >-1.453918 38.909291 11271</gx:coord>
<gx:coord >-1.49646 38.883641 11271</gx:coord>
<gx:coord >-1.538444 38.858276 11279</gx:coord>
<gx:coord >-1.555847 38.847377 11286</gx:coord>
<gx:coord >-1.568955 38.838043 11274</gx:coord>
<gx:coord >-1.578674 38.830246 11286</gx:coord>
<gx:coord >-1.587891 38.822006 11286</gx:coord>
<gx:coord >-1.600525 38.809577 11287</gx:coord>
<gx:coord >-1.633057 38.776059 11287</gx:coord>
<gx:coord >-1.665921 38.742371 11294</gx:coord>
<gx:coord >-1.699 38.708771 11294</gx:coord>
<gx:coord >-1.731541 38.675858 11287</gx:coord>
<gx:coord >-1.765933 38.641205 11287</gx:coord>
<gx:coord >-1.798706 38.607959 11287</gx:coord>
<gx:coord >-1.831851 38.574188 11287</gx:coord>
<gx:coord >-1.86499 38.540132 11287</gx:coord>
<gx:coord >-1.897411 38.506943 11279</gx:coord>
<gx:coord >-1.93031 38.473206 11287</gx:coord>
<gx:coord >-1.963257 38.439347 11287</gx:coord>
<gx:coord >-1.978882 38.423845 11287</gx:coord>
<gx:coord >-1.989197 38.414953 11287</gx:coord>
<gx:coord >-1.998019 38.408296 11287</gx:coord>
<gx:coord >-2.00608 38.402943 11287</gx:coord>
<gx:coord >-2.016576 38.396713 11287</gx:coord>
<gx:coord >-2.033665 38.387534 11302</gx:coord>
<gx:coord >-2.077849 38.364072 11294</gx:coord>
<gx:coord >-2.122511 38.339352 11302</gx:coord>
<gx:coord >-2.164891 38.31546 11294</gx:coord>
<gx:coord >-2.208192 38.290985 11293</gx:coord>
<gx:coord >-2.250853 38.2668 11293</gx:coord>
<gx:coord >-2.292636 38.243317 11293</gx:coord>
<gx:coord >-2.336406 38.218735 11293</gx:coord>
<gx:coord >-2.379316 38.194621 11293</gx:coord>
<gx:coord >-2.421843 38.170486 11293</gx:coord>
<gx:coord >-2.464736 38.146133 11293</gx:coord>
<gx:coord >-2.50874 38.121231 11293</gx:coord>
<gx:coord >-2.552112 38.096722 11294</gx:coord>
<gx:coord >-2.593669 38.07312 11294</gx:coord>
<gx:coord >-2.635644 38.049192 11294</gx:coord>
<gx:coord >-2.679846 38.024002 11294</gx:coord>
<gx:coord >-2.722213 37.999878 11286</gx:coord>
<gx:coord >-2.737875 37.990997 11256</gx:coord>
<gx:coord >-2.771068 37.972092 11165</gx:coord>
<gx:coord >-2.801394 37.954738 11082</gx:coord>
<gx:coord >-2.833995 37.936024 10983</gx:coord>
<gx:coord >-2.864028 37.918799 10891</gx:coord>
<gx:coord >-2.894956 37.901001 10792</gx:coord>
<gx:coord >-2.924993 37.883789 10708</gx:coord>
<gx:coord >-2.95427 37.867035 10602</gx:coord>
<gx:coord >-2.982012 37.851159 10495</gx:coord>
<gx:coord >-3.013299 37.833236 10388</gx:coord>
<gx:coord >-3.042138 37.816664 10297</gx:coord>
<gx:coord >-3.070971 37.800064 10191</gx:coord>
<gx:coord >-3.091424 37.789215 10130</gx:coord>
<gx:coord >-3.103936 37.7831 10086</gx:coord>
<gx:coord >-3.121908 37.774953 10030</gx:coord>
<gx:coord >-3.147875 37.764221 9947</gx:coord>
<gx:coord >-3.180423 37.751211 9856</gx:coord>
<gx:coord >-3.212904 37.738316 9757</gx:coord>
<gx:coord >-3.246752 37.724991 9649</gx:coord>
<gx:coord >-3.258581 37.720301 9598</gx:coord>
<gx:coord >-3.271062 37.715378 9528</gx:coord>
<gx:coord >-3.283181 37.710571 9459</gx:coord>
<gx:coord >-3.301033 37.703495 9325</gx:coord>
<gx:coord >-3.316118 37.697479 9221</gx:coord>
<gx:coord >-3.331485 37.691345 9095</gx:coord>
<gx:coord >-3.333933 37.690368 9079</gx:coord>
<gx:coord >-3.335402 37.689789 9064</gx:coord>
<gx:coord >-3.340428 37.687775 9028</gx:coord>
<gx:coord >-3.349099 37.684316 8982</gx:coord>
<gx:coord >-3.36719 37.677147 8894</gx:coord>
<gx:coord >-3.377945 37.672852 8850</gx:coord>
<gx:coord >-3.390238 37.667976 8814</gx:coord>
<gx:coord >-3.401463 37.6636 8790</gx:coord>
<gx:coord >-3.417917 37.65715 8774</gx:coord>
<gx:coord >-3.437586 37.649448 8759</gx:coord>
<gx:coord >-3.453389 37.643234 8759</gx:coord>
<gx:coord >-3.475023 37.634691 8759</gx:coord>
<gx:coord >-3.494608 37.62701 8759</gx:coord>
<gx:coord >-3.512119 37.620071 8759</gx:coord>
<gx:coord >-3.527985 37.613789 8759</gx:coord>
<gx:coord >-3.545604 37.606842 8751</gx:coord>
<gx:coord >-3.584815 37.591232 8760</gx:coord>
<gx:coord >-3.62507 37.574965 8760</gx:coord>
<gx:coord >-3.662806 37.559649 8760</gx:coord>
<gx:coord >-3.701676 37.543961 8760</gx:coord>
<gx:coord >-3.741195 37.528198 8752</gx:coord>
<gx:coord >-3.756155 37.522202 8737</gx:coord>
<gx:coord >-3.767142 37.517807 8707</gx:coord>
<gx:coord >-3.77452 37.514866 8685</gx:coord>
<gx:coord >-3.779297 37.512957 8656</gx:coord>
<gx:coord >-3.78485 37.510723 8627</gx:coord>
<gx:coord >-3.788705 37.509155 8597</gx:coord>
<gx:coord >-3.790761 37.508348 8585</gx:coord>
<gx:coord >-3.805711 37.50238 8455</gx:coord>
<gx:coord >-3.822526 37.495733 8317</gx:coord>
<gx:coord >-3.834408 37.491077 8240</gx:coord>
<gx:coord >-3.843603 37.487446 8182</gx:coord>
<gx:coord >-3.868023 37.477764 8066</gx:coord>
<gx:coord >-3.892374 37.468048 7960</gx:coord>
<gx:coord >-3.913521 37.459655 7861</gx:coord>
<gx:coord >-3.937138 37.450287 7732</gx:coord>
<gx:coord >-3.960688 37.440903 7633</gx:coord>
<gx:coord >-3.986246 37.430606 7503</gx:coord>
<gx:coord >-4.010428 37.420877 7404</gx:coord>
<gx:coord >-4.033268 37.411697 7290</gx:coord>
<gx:coord >-4.053537 37.403513 7176</gx:coord>
<gx:coord >-4.076746 37.394165 7063</gx:coord>
<gx:coord >-4.087511 37.38978 7003</gx:coord>
<gx:coord >-4.090303 37.388672 6982</gx:coord>
<gx:coord >-4.094796 37.386847 6960</gx:coord>
<gx:coord >-4.100587 37.384519 6904</gx:coord>
<gx:coord >-4.113544 37.379259 6756</gx:coord>
<gx:coord >-4.125844 37.374371 6630</gx:coord>
<gx:coord >-4.136119 37.370316 6554</gx:coord>
<gx:coord >-4.143248 37.367523 6497</gx:coord>
<gx:coord >-4.1443 37.367111 6496</gx:coord>
<gx:coord >-4.152235 37.36399 6458</gx:coord>
<gx:coord >-4.153416 37.363495 6450</gx:coord>
<gx:coord >-4.16113 37.360474 6424</gx:coord>
<gx:coord >-4.181193 37.352538 6374</gx:coord>
<gx:coord >-4.190568 37.348162 6347</gx:coord>
<gx:coord >-4.196777 37.344764 6323</gx:coord>
<gx:coord >-4.201628 37.341705 6308</gx:coord>
<gx:coord >-4.207704 37.337269 6292</gx:coord>
<gx:coord >-4.212848 37.332825 6276</gx:coord>
<gx:coord >-4.217464 37.328293 6261</gx:coord>
<gx:coord >-4.22173 37.323349 6244</gx:coord>
<gx:coord >-4.22693 37.316227 6225</gx:coord>
<gx:coord >-4.237041 37.301422 6197</gx:coord>
<gx:coord >-4.240245 37.296768 6186</gx:coord>
<gx:coord >-4.241738 37.294627 6179</gx:coord>
<gx:coord >-4.243703 37.291855 6166</gx:coord>
<gx:coord >-4.246742 37.287552 6147</gx:coord>
<gx:coord >-4.256545 37.273958 6019</gx:coord>
<gx:coord >-4.267312 37.259445 5897</gx:coord>
<gx:coord >-4.276548 37.247097 5751</gx:coord>
<gx:coord >-4.282856 37.239349 5671</gx:coord>
<gx:coord >-4.287181 37.234955 5627</gx:coord>
<gx:coord >-4.291654 37.231176 5590</gx:coord>
<gx:coord >-4.296531 37.227676 5542</gx:coord>
<gx:coord >-4.30255 37.224106 5499</gx:coord>
<gx:coord >-4.308277 37.221313 5458</gx:coord>
<gx:coord >-4.312791 37.219538 5426</gx:coord>
<gx:coord >-4.320254 37.217211 5386</gx:coord>
<gx:coord >-4.324971 37.216047 5362</gx:coord>
<gx:coord >-4.333347 37.214355 5320</gx:coord>
<gx:coord >-4.348833 37.211655 5257</gx:coord>
<gx:coord >-4.367722 37.208505 5127</gx:coord>
<gx:coord >-4.387343 37.205154 5005</gx:coord>
<gx:coord >-4.40955 37.201447 4891</gx:coord>
<gx:coord >-4.430237 37.197938 4769</gx:coord>
<gx:coord >-4.450632 37.194534 4647</gx:coord>
<gx:coord >-4.470301 37.191188 4533</gx:coord>
<gx:coord >-4.489493 37.187988 4395</gx:coord>
<gx:coord >-4.510005 37.184601 4296</gx:coord>
<gx:coord >-4.532159 37.180993 4167</gx:coord>
<gx:coord >-4.551385 37.177874 4052</gx:coord>
<gx:coord >-4.56517 37.175629 3966</gx:coord>
<gx:coord >-4.567029 37.175314 3958</gx:coord>
<gx:coord >-4.56882 37.175034 3957</gx:coord>
<gx:coord >-4.57688 37.173684 3925</gx:coord>
<gx:coord >-4.579312 37.173294 3917</gx:coord>
<gx:coord >-4.581708 37.172928 3902</gx:coord>
<gx:coord >-4.591409 37.171326 3839</gx:coord>
<gx:coord >-4.592344 37.171188 3833</gx:coord>
<gx:coord >-4.605003 37.169169 3771</gx:coord>
<gx:coord >-4.618348 37.167068 3710</gx:coord>
<gx:coord >-4.630976 37.165072 3641</gx:coord>
<gx:coord >-4.643009 37.163177 3580</gx:coord>
<gx:coord >-4.657443 37.160843 3519</gx:coord>
<gx:coord >-4.676653 37.157251 3417</gx:coord>
<gx:coord >-4.683039 37.15535 3386</gx:coord>
<gx:coord >-4.692156 37.151459 3344</gx:coord>
<gx:coord >-4.694924 37.149896 3309</gx:coord>
<gx:coord >-4.69988 37.146451 3255</gx:coord>
<gx:coord >-4.704358 37.142587 3213</gx:coord>
<gx:coord >-4.707583 37.139145 3196</gx:coord>
<gx:coord >-4.710388 37.135437 3179</gx:coord>
<gx:coord >-4.713314 37.13081 3155</gx:coord>
<gx:coord >-4.718747 37.121639 3099</gx:coord>
<gx:coord >-4.7243 37.112422 3040</gx:coord>
<gx:coord >-4.730749 37.10204 2993</gx:coord>
<gx:coord >-4.735585 37.094499 2931</gx:coord>
<gx:coord >-4.739944 37.087935 2899</gx:coord>
<gx:coord >-4.744516 37.081009 2828</gx:coord>
<gx:coord >-4.746328 37.078262 2791</gx:coord>
<gx:coord >-4.749249 37.073822 2762</gx:coord>
<gx:coord >-4.752405 37.069016 2729</gx:coord>
<gx:coord >-4.752873 37.068375 2722</gx:coord>
<gx:coord >-4.759886 37.057955 2650</gx:coord>
<gx:coord >-4.766395 37.048273 2612</gx:coord>
<gx:coord >-4.77762 37.03184 2577</gx:coord>
<gx:coord >-4.77952 37.029053 2578</gx:coord>
<gx:coord >-4.780008 37.028395 2570</gx:coord>
<gx:coord >-4.787352 37.017455 2513</gx:coord>
<gx:coord >-4.793562 37.007958 2483</gx:coord>
<gx:coord >-4.797025 37.001907 2451</gx:coord>
<gx:coord >-4.798995 36.996879 2428</gx:coord>
<gx:coord >-4.799623 36.9944 2419</gx:coord>
<gx:coord >-4.80001 36.991851 2413</gx:coord>
<gx:coord >-4.800249 36.988593 2397</gx:coord>
<gx:coord >-4.800266 36.983231 2385</gx:coord>
<gx:coord >-4.799891 36.972486 2353</gx:coord>
<gx:coord >-4.799564 36.96286 2322</gx:coord>
<gx:coord >-4.799234 36.955028 2285</gx:coord>
<gx:coord >-4.799115 36.949256 2254</gx:coord>
<gx:coord >-4.798922 36.941574 2222</gx:coord>
<gx:coord >-4.798571 36.935349 2187</gx:coord>
<gx:coord >-4.797861 36.931008 2170</gx:coord>
<gx:coord >-4.796547 36.926632 2146</gx:coord>
<gx:coord >-4.795065 36.922852 2126</gx:coord>
<gx:coord >-4.792069 36.915785 2094</gx:coord>
<gx:coord >-4.789455 36.909851 2062</gx:coord>
<gx:coord >-4.786397 36.902983 2019</gx:coord>
<gx:coord >-4.78371 36.896885 1991</gx:coord>
<gx:coord >-4.781322 36.891624 1951</gx:coord>
<gx:coord >-4.77917 36.886734 1923</gx:coord>
<gx:coord >-4.776832 36.881424 1887</gx:coord>
<gx:coord >-4.775488 36.878311 1870</gx:coord>
<gx:coord >-4.773501 36.873871 1835</gx:coord>
<gx:coord >-4.771456 36.869705 1801</gx:coord>
<gx:coord >-4.768962 36.865276 1772</gx:coord>
<gx:coord >-4.766335 36.861086 1738</gx:coord>
<gx:coord >-4.763588 36.856943 1710</gx:coord>
<gx:coord >-4.762223 36.854965 1694</gx:coord>
<gx:coord >-4.759468 36.850845 1658</gx:coord>
<gx:coord >-4.757372 36.847726 1634</gx:coord>
<gx:coord >-4.754162 36.843018 1598</gx:coord>
<gx:coord >-4.751996 36.839812 1564</gx:coord>
<gx:coord >-4.748548 36.834737 1535</gx:coord>
<gx:coord >-4.744457 36.828779 1500</gx:coord>
<gx:coord >-4.739513 36.821411 1470</gx:coord>
<gx:coord >-4.735851 36.81601 1444</gx:coord>
<gx:coord >-4.732069 36.810344 1401</gx:coord>
<gx:coord >-4.727898 36.804108 1369</gx:coord>
<gx:coord >-4.724693 36.799393 1338</gx:coord>
<gx:coord >-4.722017 36.795401 1305</gx:coord>
<gx:coord >-4.719388 36.79149 1279</gx:coord>
<gx:coord >-4.71674 36.787537 1242</gx:coord>
<gx:coord >-4.714304 36.783996 1211</gx:coord>
<gx:coord >-4.711849 36.780597 1190</gx:coord>
<gx:coord >-4.70953 36.778061 1159</gx:coord>
<gx:coord >-4.706211 36.775314 1129</gx:coord>
<gx:coord >-4.704077 36.773894 1112</gx:coord>
<gx:coord >-4.700045 36.771706 1080</gx:coord>
<gx:coord >-4.695428 36.769564 1056</gx:coord>
<gx:coord >-4.690189 36.767395 1019</gx:coord>
<gx:coord >-4.68339 36.76463 985</gx:coord>
<gx:coord >-4.677887 36.762405 950</gx:coord>
<gx:coord >-4.676611 36.761883 948</gx:coord>
<gx:coord >-4.670592 36.759323 925</gx:coord>
<gx:coord >-4.664669 36.756866 889</gx:coord>
<gx:coord >-4.659519 36.754715 854</gx:coord>
<gx:coord >-4.653454 36.752197 821</gx:coord>
<gx:coord >-4.649506 36.750504 805</gx:coord>
<gx:coord >-4.64716 36.749542 797</gx:coord>
<gx:coord >-4.642067 36.747437 764</gx:coord>
<gx:coord >-4.640438 36.746754 755</gx:coord>
<gx:coord >-4.635201 36.744553 722</gx:coord>
<gx:coord >-4.62951 36.742145 685</gx:coord>
<gx:coord >-4.622726 36.739288 653</gx:coord>
<gx:coord >-4.620277 36.738235 645</gx:coord>
<gx:coord >-4.615427 36.736233 613</gx:coord>
<gx:coord >-4.610538 36.734161 587</gx:coord>
<gx:coord >-4.606486 36.732462 563</gx:coord>
<gx:coord >-4.601051 36.730181 538</gx:coord>
<gx:coord >-4.594688 36.727524 510</gx:coord>
<gx:coord >-4.593805 36.727155 503</gx:coord>
<gx:coord >-4.590123 36.725619 484</gx:coord>
<gx:coord >-4.587552 36.724548 466</gx:coord>
<gx:coord >-4.584104 36.723152 445</gx:coord>
<gx:coord >-4.581007 36.721895 425</gx:coord>
<gx:coord >-4.578838 36.720978 417</gx:coord>
<gx:coord >-4.577808 36.72052 409</gx:coord>
<gx:coord >-4.572601 36.718323 379</gx:coord>
<gx:coord >-4.567451 36.716171 348</gx:coord>
<gx:coord >-4.561547 36.713655 333</gx:coord>
<gx:coord >-4.556287 36.711421 295</gx:coord>
<gx:coord >-4.550514 36.708984 257</gx:coord>
<gx:coord >-4.545827 36.707045 234</gx:coord>
<gx:coord >-4.539642 36.704453 203</gx:coord>
<gx:coord >-4.533348 36.701797 165</gx:coord>
<gx:coord >-4.527855 36.699554 148</gx:coord>
<gx:coord >-4.524879 36.698318 129</gx:coord>
<gx:coord >-4.520473 36.696442 97</gx:coord>
<gx:coord >-4.515038 36.694153 74</gx:coord>
<gx:coord >-4.511991 36.692846 59</gx:coord>
<gx:coord >-4.505271 36.690053 21</gx:coord>
<gx:coord >-4.505271 36.690053 21</gx:coord>
</gx:Track>
</Placemark>
<Placemark ><name >HA-LZK</name>
<Style ><LineStyle ><color >ff1c1ae3</color>
<width >4</width>
</LineStyle>
<IconStyle ><Icon ><href >http://maps.google.com/mapfiles/kml/shapes/airports.png</href>
</Icon>
</IconStyle>
</Style>
<gx:Track ><extrude >0</extrude>
<when >2025-08-17T15:23:28.680Z</when>
<when >2025-08-17T15:23:31.180Z</when>
<when >2025-08-17T15:23:55.730Z</when>
<when >2025-08-17T15:23:58.160Z</when>
<when >2025-08-17T15:24:09.190Z</when>
<when >2025-08-17T15:24:22.620Z</when>
<when >2025-08-17T15:24:31.510Z</when>
<when >2025-08-17T15:24:32.520Z</when>
<when >2025-08-17T15:25:15.610Z</when>
<when >2025-08-17T15:25:42.610Z</when>
<when >2025-08-17T15:26:00.680Z</when>
<when >2025-08-17T15:26:07.730Z</when>
<when >2025-08-17T15:26:13.750Z</when>
<when >2025-08-17T15:26:19.800Z</when>
<when >2025-08-17T15:26:23.950Z</when>
<when >2025-08-17T15:27:00.170Z</when>
<when >2025-08-17T15:27:11.180Z</when>
<when >2025-08-17T15:27:17.860Z</when>
<when >2025-08-17T15:27:34.030Z</when>
<when >2025-08-17T15:28:04.410Z</when>
<when >2025-08-17T15:28:04.410Z</when>
<gx:coord >-4.496067 36.686154 0</gx:coord>
<gx:coord >-4.495497 36.68591 0</gx:coord>
<gx:coord >-4.489946 36.68335 0</gx:coord>
<gx:coord >-4.489617 36.683075 0</gx:coord>
<gx:coord >-4.488959 36.682343 0</gx:coord>
<gx:coord >-4.488573 36.681667 0</gx:coord>
<gx:coord >-4.488945 36.681381 0</gx:coord>
<gx:coord >-4.489031 36.68137 0</gx:coord>
<gx:coord >-4.491787 36.6825 0</gx:coord>
<gx:coord >-4.491786 36.682499 0</gx:coord>
<gx:coord >-4.494467 36.681679 0</gx:coord>
<gx:coord >-4.494781 36.681404 0</gx:coord>
<gx:coord >-4.495074 36.681138 0</gx:coord>
<gx:coord >-4.49538 36.680859 0</gx:coord>
<gx:coord >-4.495585 36.680684 0</gx:coord>
<gx:coord >-4.496484 36.67947 0</gx:coord>
<gx:coord >-4.496226 36.679321 0</gx:coord>
<gx:coord >-4.496067 36.679195 0</gx:coord>
<gx:coord >-4.49584 36.679024 0</gx:coord>
<gx:coord >-4.49557 36.678834 0</gx:coord>
<gx:coord >-4.49557 36.678834 0</gx:coord>
</gx:Track>
</Placemark>
</Folder>
</Folder>
</kml>
