<?xml version="1.0" encoding="UTF-8"?>
<kml xmlns="http://www.opengis.net/kml/2.2" xmlns:gx="http://www.google.com/kml/ext/2.2"><Folder ><Folder ><name >HA-LVE track</name>
<Placemark ><name >HA-LVE</name>
<Style ><LineStyle ><color >ff1c1ae3</color>
<width >4</width>
</LineStyle>
<IconStyle ><Icon ><href >http://maps.google.com/mapfiles/kml/shapes/airports.png</href>
</Icon>
</IconStyle>
</Style>
<gx:Track ><extrude >0</extrude>
<when >2025-08-28T03:55:09.812Z</when>
<when >2025-08-28T03:55:09.812Z</when>
<when >2025-08-28T03:55:14.842Z</when>
<when >2025-08-28T03:55:44.912Z</when>
<when >2025-08-28T03:56:04.702Z</when>
<when >2025-08-28T03:56:34.962Z</when>
<when >2025-08-28T03:56:54.892Z</when>
<when >2025-08-28T03:57:04.642Z</when>
<when >2025-08-28T03:57:44.362Z</when>
<when >2025-08-28T03:57:54.362Z</when>
<when >2025-08-28T03:58:14.192Z</when>
<when >2025-08-28T03:58:54.182Z</when>
<when >2025-08-28T03:59:54.882Z</when>
<when >2025-08-28T03:59:59.812Z</when>
<when >2025-08-28T04:00:30.062Z</when>
<when >2025-08-28T04:00:49.722Z</when>
<when >2025-08-28T04:00:54.832Z</when>
<when >2025-08-28T04:01:06.662Z</when>
<when >2025-08-28T04:01:12.772Z</when>
<when >2025-08-28T04:01:16.532Z</when>
<when >2025-08-28T04:01:22.172Z</when>
<when >2025-08-28T04:01:25.662Z</when>
<when >2025-08-28T04:01:28.592Z</when>
<when >2025-08-28T04:01:30.572Z</when>
<when >2025-08-28T04:01:32.062Z</when>
<when >2025-08-28T04:01:35.052Z</when>
<when >2025-08-28T04:01:36.472Z</when>
<when >2025-08-28T04:01:38.542Z</when>
<when >2025-08-28T04:01:40.822Z</when>
<when >2025-08-28T04:01:46.742Z</when>
<when >2025-08-28T04:01:56.652Z</when>
<when >2025-08-28T04:02:05.822Z</when>
<when >2025-08-28T04:02:13.822Z</when>
<when >2025-08-28T04:02:22.402Z</when>
<when >2025-08-28T04:02:28.982Z</when>
<when >2025-08-28T04:02:31.682Z</when>
<when >2025-08-28T04:02:33.852Z</when>
<when >2025-08-28T04:02:35.822Z</when>
<when >2025-08-28T04:02:37.362Z</when>
<when >2025-08-28T04:02:42.302Z</when>
<when >2025-08-28T04:02:44.632Z</when>
<when >2025-08-28T04:02:48.532Z</when>
<when >2025-08-28T04:02:51.982Z</when>
<when >2025-08-28T04:02:56.432Z</when>
<when >2025-08-28T04:03:02.692Z</when>
<when >2025-08-28T04:03:05.642Z</when>
<when >2025-08-28T04:03:07.682Z</when>
<when >2025-08-28T04:03:10.242Z</when>
<when >2025-08-28T04:03:13.732Z</when>
<when >2025-08-28T04:03:18.782Z</when>
<when >2025-08-28T04:04:02.482Z</when>
<when >2025-08-28T04:04:08.132Z</when>
<when >2025-08-28T04:04:12.282Z</when>
<when >2025-08-28T04:04:15.842Z</when>
<when >2025-08-28T04:04:18.672Z</when>
<when >2025-08-28T04:04:21.932Z</when>
<when >2025-08-28T04:04:25.332Z</when>
<when >2025-08-28T04:04:38.462Z</when>
<when >2025-08-28T04:04:43.132Z</when>
<when >2025-08-28T04:04:56.982Z</when>
<when >2025-08-28T04:05:06.742Z</when>
<when >2025-08-28T04:05:14.082Z</when>
<when >2025-08-28T04:05:23.112Z</when>
<when >2025-08-28T04:05:25.172Z</when>
<when >2025-08-28T04:05:27.102Z</when>
<when >2025-08-28T04:05:28.632Z</when>
<when >2025-08-28T04:05:30.752Z</when>
<when >2025-08-28T04:05:32.342Z</when>
<when >2025-08-28T04:05:35.202Z</when>
<when >2025-08-28T04:05:35.202Z</when>
<gx:coord >20.965023 52.173717 0</gx:coord>
<gx:coord >20.965023 52.173717 0</gx:coord>
<gx:coord >20.965033 52.173723 0</gx:coord>
<gx:coord >20.965033 52.173723 0</gx:coord>
<gx:coord >20.965023 52.173717 0</gx:coord>
<gx:coord >20.965023 52.173717 0</gx:coord>
<gx:coord >20.965023 52.173717 0</gx:coord>
<gx:coord >20.965023 52.173717 0</gx:coord>
<gx:coord >20.965023 52.173717 0</gx:coord>
<gx:coord >20.965033 52.173723 0</gx:coord>
<gx:coord >20.965023 52.173717 0</gx:coord>
<gx:coord >20.965023 52.173717 0</gx:coord>
<gx:coord >20.965023 52.173717 0</gx:coord>
<gx:coord >20.965023 52.173717 0</gx:coord>
<gx:coord >20.965033 52.173723 0</gx:coord>
<gx:coord >20.965033 52.173711 0</gx:coord>
<gx:coord >20.965004 52.173695 0</gx:coord>
<gx:coord >20.964975 52.173653 0</gx:coord>
<gx:coord >20.964928 52.173603 0</gx:coord>
<gx:coord >20.964876 52.17356 0</gx:coord>
<gx:coord >20.964737 52.1735 0</gx:coord>
<gx:coord >20.964603 52.173466 0</gx:coord>
<gx:coord >20.96447 52.173466 0</gx:coord>
<gx:coord >20.964375 52.173489 0</gx:coord>
<gx:coord >20.964298 52.173512 0</gx:coord>
<gx:coord >20.964203 52.173615 0</gx:coord>
<gx:coord >20.964184 52.17366 0</gx:coord>
<gx:coord >20.964127 52.173729 0</gx:coord>
<gx:coord >20.964072 52.173816 0</gx:coord>
<gx:coord >20.963896 52.174014 0</gx:coord>
<gx:coord >20.963582 52.174386 0</gx:coord>
<gx:coord >20.963248 52.174759 0</gx:coord>
<gx:coord >20.962934 52.175108 0</gx:coord>
<gx:coord >20.962601 52.175492 0</gx:coord>
<gx:coord >20.962424 52.175667 0</gx:coord>
<gx:coord >20.962334 52.175732 0</gx:coord>
<gx:coord >20.962248 52.175771 0</gx:coord>
<gx:coord >20.962169 52.175795 0</gx:coord>
<gx:coord >20.962086 52.175812 0</gx:coord>
<gx:coord >20.961836 52.175841 0</gx:coord>
<gx:coord >20.961704 52.175846 0</gx:coord>
<gx:coord >20.961533 52.175823 0</gx:coord>
<gx:coord >20.961404 52.175806 0</gx:coord>
<gx:coord >20.961246 52.175777 0</gx:coord>
<gx:coord >20.961037 52.175755 0</gx:coord>
<gx:coord >20.960953 52.175725 0</gx:coord>
<gx:coord >20.960922 52.175697 0</gx:coord>
<gx:coord >20.960884 52.175663 0</gx:coord>
<gx:coord >20.960855 52.175632 0</gx:coord>
<gx:coord >20.960846 52.175617 0</gx:coord>
<gx:coord >20.960789 52.175594 0</gx:coord>
<gx:coord >20.960751 52.17556 0</gx:coord>
<gx:coord >20.960732 52.175537 0</gx:coord>
<gx:coord >20.960698 52.175504 0</gx:coord>
<gx:coord >20.960678 52.17548 0</gx:coord>
<gx:coord >20.960658 52.175446 0</gx:coord>
<gx:coord >20.960639 52.175411 0</gx:coord>
<gx:coord >20.960502 52.175213 0</gx:coord>
<gx:coord >20.960426 52.175125 0</gx:coord>
<gx:coord >20.960188 52.17484 0</gx:coord>
<gx:coord >20.960011 52.174608 0</gx:coord>
<gx:coord >20.959892 52.17445 0</gx:coord>
<gx:coord >20.959815 52.174235 0</gx:coord>
<gx:coord >20.959835 52.174165 0</gx:coord>
<gx:coord >20.959854 52.174095 0</gx:coord>
<gx:coord >20.959893 52.174049 0</gx:coord>
<gx:coord >20.959952 52.173968 0</gx:coord>
<gx:coord >20.960007 52.173889 0</gx:coord>
<gx:coord >20.960159 52.173706 0</gx:coord>
<gx:coord >20.960159 52.173706 0</gx:coord>
</gx:Track>
</Placemark>
<Placemark ><name >HA-LVE</name>
<Style ><LineStyle ><color >ff1c1ae3</color>
<width >4</width>
</LineStyle>
<IconStyle ><Icon ><href >http://maps.google.com/mapfiles/kml/shapes/airports.png</href>
</Icon>
</IconStyle>
</Style>
<gx:Track ><altitudeMode >absolute</altitudeMode>
<extrude >1</extrude>
<when >2025-08-28T04:05:57.932Z</when>
<when >2025-08-28T04:06:01.492Z</when>
<when >2025-08-28T04:06:02.112Z</when>
<when >2025-08-28T04:06:05.012Z</when>
<when >2025-08-28T04:06:07.302Z</when>
<when >2025-08-28T04:06:09.392Z</when>
<when >2025-08-28T04:06:10.152Z</when>
<when >2025-08-28T04:06:11.762Z</when>
<when >2025-08-28T04:06:14.832Z</when>
<when >2025-08-28T04:06:15.432Z</when>
<when >2025-08-28T04:06:16.352Z</when>
<when >2025-08-28T04:06:17.442Z</when>
<when >2025-08-28T04:06:18.372Z</when>
<when >2025-08-28T04:06:20.882Z</when>
<when >2025-08-28T04:06:23.332Z</when>
<when >2025-08-28T04:06:25.422Z</when>
<when >2025-08-28T04:06:27.382Z</when>
<when >2025-08-28T04:06:30.062Z</when>
<when >2025-08-28T04:06:32.102Z</when>
<when >2025-08-28T04:06:34.412Z</when>
<when >2025-08-28T04:06:36.952Z</when>
<when >2025-08-28T04:06:39.242Z</when>
<when >2025-08-28T04:06:42.052Z</when>
<when >2025-08-28T04:06:44.792Z</when>
<when >2025-08-28T04:06:47.172Z</when>
<when >2025-08-28T04:06:50.222Z</when>
<when >2025-08-28T04:06:53.252Z</when>
<when >2025-08-28T04:06:56.392Z</when>
<when >2025-08-28T04:06:58.822Z</when>
<when >2025-08-28T04:07:01.922Z</when>
<when >2025-08-28T04:07:04.572Z</when>
<when >2025-08-28T04:07:07.212Z</when>
<when >2025-08-28T04:07:09.992Z</when>
<when >2025-08-28T04:07:13.202Z</when>
<when >2025-08-28T04:07:15.542Z</when>
<when >2025-08-28T04:07:17.582Z</when>
<when >2025-08-28T04:07:20.202Z</when>
<when >2025-08-28T04:07:22.662Z</when>
<when >2025-08-28T04:07:25.282Z</when>
<when >2025-08-28T04:07:27.712Z</when>
<when >2025-08-28T04:07:30.282Z</when>
<when >2025-08-28T04:07:33.472Z</when>
<when >2025-08-28T04:07:36.482Z</when>
<when >2025-08-28T04:07:39.602Z</when>
<when >2025-08-28T04:07:42.622Z</when>
<when >2025-08-28T04:07:46.112Z</when>
<when >2025-08-28T04:07:50.082Z</when>
<when >2025-08-28T04:07:53.792Z</when>
<when >2025-08-28T04:07:57.762Z</when>
<when >2025-08-28T04:08:01.572Z</when>
<when >2025-08-28T04:08:05.132Z</when>
<when >2025-08-28T04:08:08.792Z</when>
<when >2025-08-28T04:08:12.742Z</when>
<when >2025-08-28T04:08:16.032Z</when>
<when >2025-08-28T04:08:20.182Z</when>
<when >2025-08-28T04:08:24.692Z</when>
<when >2025-08-28T04:08:28.362Z</when>
<when >2025-08-28T04:08:31.782Z</when>
<when >2025-08-28T04:08:35.522Z</when>
<when >2025-08-28T04:08:38.422Z</when>
<when >2025-08-28T04:08:41.942Z</when>
<when >2025-08-28T04:08:43.302Z</when>
<when >2025-08-28T04:08:46.662Z</when>
<when >2025-08-28T04:08:49.082Z</when>
<when >2025-08-28T04:08:52.692Z</when>
<when >2025-08-28T04:08:54.852Z</when>
<when >2025-08-28T04:08:57.882Z</when>
<when >2025-08-28T04:09:00.532Z</when>
<when >2025-08-28T04:09:03.582Z</when>
<when >2025-08-28T04:09:06.502Z</when>
<when >2025-08-28T04:09:09.872Z</when>
<when >2025-08-28T04:09:12.792Z</when>
<when >2025-08-28T04:09:17.872Z</when>
<when >2025-08-28T04:09:24.332Z</when>
<when >2025-08-28T04:09:30.272Z</when>
<when >2025-08-28T04:09:36.322Z</when>
<when >2025-08-28T04:09:42.302Z</when>
<when >2025-08-28T04:09:49.372Z</when>
<when >2025-08-28T04:09:59.562Z</when>
<when >2025-08-28T04:10:06.902Z</when>
<when >2025-08-28T04:10:13.182Z</when>
<when >2025-08-28T04:10:15.762Z</when>
<when >2025-08-28T04:10:17.832Z</when>
<when >2025-08-28T04:10:20.512Z</when>
<when >2025-08-28T04:10:23.192Z</when>
<when >2025-08-28T04:10:25.632Z</when>
<when >2025-08-28T04:10:27.732Z</when>
<when >2025-08-28T04:10:29.632Z</when>
<when >2025-08-28T04:10:31.172Z</when>
<when >2025-08-28T04:10:33.382Z</when>
<when >2025-08-28T04:10:37.192Z</when>
<when >2025-08-28T04:10:40.802Z</when>
<when >2025-08-28T04:10:44.722Z</when>
<when >2025-08-28T04:10:48.082Z</when>
<when >2025-08-28T04:10:51.312Z</when>
<when >2025-08-28T04:10:55.142Z</when>
<when >2025-08-28T04:10:58.152Z</when>
<when >2025-08-28T04:11:02.002Z</when>
<when >2025-08-28T04:11:06.002Z</when>
<when >2025-08-28T04:11:09.802Z</when>
<when >2025-08-28T04:11:14.262Z</when>
<when >2025-08-28T04:11:18.312Z</when>
<when >2025-08-28T04:11:22.832Z</when>
<when >2025-08-28T04:11:26.672Z</when>
<when >2025-08-28T04:11:31.042Z</when>
<when >2025-08-28T04:11:35.552Z</when>
<when >2025-08-28T04:11:39.822Z</when>
<when >2025-08-28T04:11:46.162Z</when>
<when >2025-08-28T04:11:52.872Z</when>
<when >2025-08-28T04:12:00.462Z</when>
<when >2025-08-28T04:12:08.002Z</when>
<when >2025-08-28T04:12:16.712Z</when>
<when >2025-08-28T04:12:25.112Z</when>
<when >2025-08-28T04:12:33.612Z</when>
<when >2025-08-28T04:12:41.082Z</when>
<when >2025-08-28T04:12:47.702Z</when>
<when >2025-08-28T04:12:58.022Z</when>
<when >2025-08-28T04:13:07.532Z</when>
<when >2025-08-28T04:13:17.292Z</when>
<when >2025-08-28T04:13:26.262Z</when>
<when >2025-08-28T04:13:35.832Z</when>
<when >2025-08-28T04:13:45.702Z</when>
<when >2025-08-28T04:13:56.042Z</when>
<when >2025-08-28T04:14:06.522Z</when>
<when >2025-08-28T04:14:15.592Z</when>
<when >2025-08-28T04:14:28.982Z</when>
<when >2025-08-28T04:14:40.582Z</when>
<when >2025-08-28T04:14:52.212Z</when>
<when >2025-08-28T04:15:02.592Z</when>
<when >2025-08-28T04:15:12.552Z</when>
<when >2025-08-28T04:15:15.492Z</when>
<when >2025-08-28T04:15:23.132Z</when>
<when >2025-08-28T04:15:29.252Z</when>
<when >2025-08-28T04:15:35.892Z</when>
<when >2025-08-28T04:15:47.712Z</when>
<when >2025-08-28T04:15:59.612Z</when>
<when >2025-08-28T04:16:11.942Z</when>
<when >2025-08-28T04:16:17.582Z</when>
<when >2025-08-28T04:16:23.262Z</when>
<when >2025-08-28T04:16:31.732Z</when>
<when >2025-08-28T04:16:39.042Z</when>
<when >2025-08-28T04:16:44.242Z</when>
<when >2025-08-28T04:16:49.952Z</when>
<when >2025-08-28T04:17:04.422Z</when>
<when >2025-08-28T04:17:17.912Z</when>
<when >2025-08-28T04:17:25.482Z</when>
<when >2025-08-28T04:17:29.752Z</when>
<when >2025-08-28T04:17:34.252Z</when>
<when >2025-08-28T04:17:38.312Z</when>
<when >2025-08-28T04:17:42.752Z</when>
<when >2025-08-28T04:17:51.992Z</when>
<when >2025-08-28T04:18:04.532Z</when>
<when >2025-08-28T04:18:17.812Z</when>
<when >2025-08-28T04:18:31.372Z</when>
<when >2025-08-28T04:18:44.652Z</when>
<when >2025-08-28T04:18:58.172Z</when>
<when >2025-08-28T04:19:10.542Z</when>
<when >2025-08-28T04:19:23.332Z</when>
<when >2025-08-28T04:19:37.232Z</when>
<when >2025-08-28T04:19:51.852Z</when>
<when >2025-08-28T04:20:05.532Z</when>
<when >2025-08-28T04:20:20.502Z</when>
<when >2025-08-28T04:20:34.822Z</when>
<when >2025-08-28T04:20:49.232Z</when>
<when >2025-08-28T04:21:03.892Z</when>
<when >2025-08-28T04:21:18.622Z</when>
<when >2025-08-28T04:21:32.182Z</when>
<when >2025-08-28T04:21:45.722Z</when>
<when >2025-08-28T04:22:01.902Z</when>
<when >2025-08-28T04:22:19.382Z</when>
<when >2025-08-28T04:22:35.482Z</when>
<when >2025-08-28T04:22:50.452Z</when>
<when >2025-08-28T04:23:06.292Z</when>
<when >2025-08-28T04:23:22.052Z</when>
<when >2025-08-28T04:23:40.052Z</when>
<when >2025-08-28T04:23:56.382Z</when>
<when >2025-08-28T04:24:12.762Z</when>
<when >2025-08-28T04:24:29.092Z</when>
<when >2025-08-28T04:24:45.272Z</when>
<when >2025-08-28T04:25:01.692Z</when>
<when >2025-08-28T04:25:17.872Z</when>
<when >2025-08-28T04:25:33.812Z</when>
<when >2025-08-28T04:25:52.722Z</when>
<when >2025-08-28T04:26:10.512Z</when>
<when >2025-08-28T04:26:28.602Z</when>
<when >2025-08-28T04:26:48.432Z</when>
<when >2025-08-28T04:27:08.022Z</when>
<when >2025-08-28T04:27:23.922Z</when>
<when >2025-08-28T04:27:42.582Z</when>
<when >2025-08-28T04:28:02.572Z</when>
<when >2025-08-28T04:28:18.602Z</when>
<when >2025-08-28T04:28:38.132Z</when>
<when >2025-08-28T04:28:55.892Z</when>
<when >2025-08-28T04:29:10.472Z</when>
<when >2025-08-28T04:29:25.952Z</when>
<when >2025-08-28T04:29:45.782Z</when>
<when >2025-08-28T04:30:05.382Z</when>
<when >2025-08-28T04:30:21.422Z</when>
<when >2025-08-28T04:30:37.732Z</when>
<when >2025-08-28T04:30:54.212Z</when>
<when >2025-08-28T04:31:11.742Z</when>
<when >2025-08-28T04:31:29.822Z</when>
<when >2025-08-28T04:31:46.972Z</when>
<when >2025-08-28T04:32:06.632Z</when>
<when >2025-08-28T04:32:26.352Z</when>
<when >2025-08-28T04:32:46.052Z</when>
<when >2025-08-28T04:33:05.692Z</when>
<when >2025-08-28T04:33:25.352Z</when>
<when >2025-08-28T04:33:45.162Z</when>
<when >2025-08-28T04:34:04.632Z</when>
<when >2025-08-28T04:34:24.252Z</when>
<when >2025-08-28T04:34:43.802Z</when>
<when >2025-08-28T04:35:03.762Z</when>
<when >2025-08-28T04:35:23.582Z</when>
<when >2025-08-28T04:35:43.002Z</when>
<when >2025-08-28T04:36:02.802Z</when>
<when >2025-08-28T04:36:22.422Z</when>
<when >2025-08-28T04:36:42.202Z</when>
<when >2025-08-28T04:37:01.932Z</when>
<when >2025-08-28T04:37:21.702Z</when>
<when >2025-08-28T04:37:41.452Z</when>
<when >2025-08-28T04:38:00.912Z</when>
<when >2025-08-28T04:38:20.522Z</when>
<when >2025-08-28T04:38:40.222Z</when>
<when >2025-08-28T04:39:00.102Z</when>
<when >2025-08-28T04:39:20.052Z</when>
<when >2025-08-28T04:39:39.852Z</when>
<when >2025-08-28T04:39:59.382Z</when>
<when >2025-08-28T04:40:19.232Z</when>
<when >2025-08-28T04:40:39.022Z</when>
<when >2025-08-28T04:40:58.942Z</when>
<when >2025-08-28T04:41:18.852Z</when>
<when >2025-08-28T04:41:38.452Z</when>
<when >2025-08-28T04:41:58.002Z</when>
<when >2025-08-28T04:42:17.542Z</when>
<when >2025-08-28T04:42:37.352Z</when>
<when >2025-08-28T04:42:57.142Z</when>
<when >2025-08-28T04:43:17.112Z</when>
<when >2025-08-28T04:43:36.882Z</when>
<when >2025-08-28T04:43:56.652Z</when>
<when >2025-08-28T04:44:16.412Z</when>
<when >2025-08-28T04:44:36.052Z</when>
<when >2025-08-28T04:44:55.972Z</when>
<when >2025-08-28T04:45:15.402Z</when>
<when >2025-08-28T04:45:35.142Z</when>
<when >2025-08-28T04:45:54.992Z</when>
<when >2025-08-28T04:46:14.582Z</when>
<when >2025-08-28T04:46:24.382Z</when>
<when >2025-08-28T04:46:33.822Z</when>
<when >2025-08-28T04:46:46.622Z</when>
<when >2025-08-28T04:47:06.542Z</when>
<when >2025-08-28T04:47:26.522Z</when>
<when >2025-08-28T04:47:46.072Z</when>
<when >2025-08-28T04:48:05.622Z</when>
<when >2025-08-28T04:48:25.372Z</when>
<when >2025-08-28T04:48:44.852Z</when>
<when >2025-08-28T04:49:04.572Z</when>
<when >2025-08-28T04:49:24.552Z</when>
<when >2025-08-28T04:49:44.362Z</when>
<when >2025-08-28T04:50:04.032Z</when>
<when >2025-08-28T04:50:23.552Z</when>
<when >2025-08-28T04:50:43.552Z</when>
<when >2025-08-28T04:51:03.022Z</when>
<when >2025-08-28T04:51:22.802Z</when>
<when >2025-08-28T04:51:42.682Z</when>
<when >2025-08-28T04:52:02.652Z</when>
<when >2025-08-28T04:52:22.362Z</when>
<when >2025-08-28T04:52:41.852Z</when>
<when >2025-08-28T04:53:01.592Z</when>
<when >2025-08-28T04:53:21.312Z</when>
<when >2025-08-28T04:53:40.832Z</when>
<when >2025-08-28T04:54:00.492Z</when>
<when >2025-08-28T04:54:20.402Z</when>
<when >2025-08-28T04:54:40.202Z</when>
<when >2025-08-28T04:54:59.992Z</when>
<when >2025-08-28T04:55:19.652Z</when>
<when >2025-08-28T04:55:39.292Z</when>
<when >2025-08-28T04:55:58.802Z</when>
<when >2025-08-28T04:56:18.272Z</when>
<when >2025-08-28T04:56:38.032Z</when>
<when >2025-08-28T04:56:58.012Z</when>
<when >2025-08-28T04:57:17.522Z</when>
<when >2025-08-28T04:57:37.312Z</when>
<when >2025-08-28T04:57:57.282Z</when>
<when >2025-08-28T04:58:16.712Z</when>
<when >2025-08-28T04:58:36.572Z</when>
<when >2025-08-28T04:58:56.282Z</when>
<when >2025-08-28T04:59:16.072Z</when>
<when >2025-08-28T04:59:35.742Z</when>
<when >2025-08-28T04:59:55.442Z</when>
<when >2025-08-28T05:00:15.382Z</when>
<when >2025-08-28T05:00:35.212Z</when>
<when >2025-08-28T05:00:54.812Z</when>
<when >2025-08-28T05:01:14.492Z</when>
<when >2025-08-28T05:01:34.282Z</when>
<when >2025-08-28T05:01:53.862Z</when>
<when >2025-08-28T05:02:13.562Z</when>
<when >2025-08-28T05:02:33.002Z</when>
<when >2025-08-28T05:02:52.792Z</when>
<when >2025-08-28T05:03:12.692Z</when>
<when >2025-08-28T05:03:32.262Z</when>
<when >2025-08-28T05:03:52.252Z</when>
<when >2025-08-28T05:04:04.442Z</when>
<when >2025-08-28T05:04:09.352Z</when>
<when >2025-08-28T05:04:14.052Z</when>
<when >2025-08-28T05:04:18.652Z</when>
<when >2025-08-28T05:04:23.582Z</when>
<when >2025-08-28T05:04:29.882Z</when>
<when >2025-08-28T05:04:49.562Z</when>
<when >2025-08-28T05:05:06.632Z</when>
<when >2025-08-28T05:05:26.622Z</when>
<when >2025-08-28T05:05:46.232Z</when>
<when >2025-08-28T05:05:57.792Z</when>
<when >2025-08-28T05:06:17.272Z</when>
<when >2025-08-28T05:06:36.882Z</when>
<when >2025-08-28T05:06:56.352Z</when>
<when >2025-08-28T05:07:16.182Z</when>
<when >2025-08-28T05:07:36.152Z</when>
<when >2025-08-28T05:07:56.002Z</when>
<when >2025-08-28T05:08:15.602Z</when>
<when >2025-08-28T05:08:35.502Z</when>
<when >2025-08-28T05:08:55.492Z</when>
<when >2025-08-28T05:09:15.152Z</when>
<when >2025-08-28T05:09:34.972Z</when>
<when >2025-08-28T05:09:54.792Z</when>
<when >2025-08-28T05:10:14.292Z</when>
<when >2025-08-28T05:10:34.112Z</when>
<when >2025-08-28T05:10:53.992Z</when>
<when >2025-08-28T05:11:13.732Z</when>
<when >2025-08-28T05:11:33.402Z</when>
<when >2025-08-28T05:11:53.082Z</when>
<when >2025-08-28T05:12:12.572Z</when>
<when >2025-08-28T05:12:32.292Z</when>
<when >2025-08-28T05:12:52.072Z</when>
<when >2025-08-28T05:13:11.842Z</when>
<when >2025-08-28T05:13:31.612Z</when>
<when >2025-08-28T05:13:51.352Z</when>
<when >2025-08-28T05:14:11.182Z</when>
<when >2025-08-28T05:14:30.692Z</when>
<when >2025-08-28T05:14:50.322Z</when>
<when >2025-08-28T05:15:10.302Z</when>
<when >2025-08-28T05:15:29.932Z</when>
<when >2025-08-28T05:15:49.742Z</when>
<when >2025-08-28T05:16:09.452Z</when>
<when >2025-08-28T05:16:29.242Z</when>
<when >2025-08-28T05:16:48.712Z</when>
<when >2025-08-28T05:17:08.242Z</when>
<when >2025-08-28T05:17:27.992Z</when>
<when >2025-08-28T05:17:47.642Z</when>
<when >2025-08-28T05:18:07.472Z</when>
<when >2025-08-28T05:18:26.892Z</when>
<when >2025-08-28T05:18:46.432Z</when>
<when >2025-08-28T05:19:06.222Z</when>
<when >2025-08-28T05:19:26.122Z</when>
<when >2025-08-28T05:19:45.902Z</when>
<when >2025-08-28T05:19:56.442Z</when>
<when >2025-08-28T05:20:02.862Z</when>
<when >2025-08-28T05:20:09.122Z</when>
<when >2025-08-28T05:20:17.332Z</when>
<when >2025-08-28T05:20:37.022Z</when>
<when >2025-08-28T05:20:56.552Z</when>
<when >2025-08-28T05:21:16.402Z</when>
<when >2025-08-28T05:21:36.192Z</when>
<when >2025-08-28T05:21:55.922Z</when>
<when >2025-08-28T05:22:15.762Z</when>
<when >2025-08-28T05:22:35.252Z</when>
<when >2025-08-28T05:22:54.992Z</when>
<when >2025-08-28T05:23:14.962Z</when>
<when >2025-08-28T05:23:34.712Z</when>
<when >2025-08-28T05:23:54.602Z</when>
<when >2025-08-28T05:24:14.122Z</when>
<when >2025-08-28T05:24:33.772Z</when>
<when >2025-08-28T05:24:53.722Z</when>
<when >2025-08-28T05:25:13.622Z</when>
<when >2025-08-28T05:25:33.512Z</when>
<when >2025-08-28T05:25:50.912Z</when>
<when >2025-08-28T05:26:03.432Z</when>
<when >2025-08-28T05:26:22.842Z</when>
<when >2025-08-28T05:26:42.522Z</when>
<when >2025-08-28T05:27:02.122Z</when>
<when >2025-08-28T05:27:21.762Z</when>
<when >2025-08-28T05:27:41.622Z</when>
<when >2025-08-28T05:28:01.192Z</when>
<when >2025-08-28T05:28:20.392Z</when>
<when >2025-08-28T05:28:39.942Z</when>
<when >2025-08-28T05:28:59.932Z</when>
<when >2025-08-28T05:29:19.482Z</when>
<when >2025-08-28T05:29:39.032Z</when>
<when >2025-08-28T05:29:58.582Z</when>
<when >2025-08-28T05:30:18.422Z</when>
<when >2025-08-28T05:30:38.172Z</when>
<when >2025-08-28T05:30:57.992Z</when>
<when >2025-08-28T05:31:17.512Z</when>
<when >2025-08-28T05:31:36.962Z</when>
<when >2025-08-28T05:31:56.772Z</when>
<when >2025-08-28T05:32:16.612Z</when>
<when >2025-08-28T05:32:36.422Z</when>
<when >2025-08-28T05:32:55.962Z</when>
<when >2025-08-28T05:33:15.642Z</when>
<when >2025-08-28T05:33:35.422Z</when>
<when >2025-08-28T05:33:55.122Z</when>
<when >2025-08-28T05:34:14.602Z</when>
<when >2025-08-28T05:34:34.442Z</when>
<when >2025-08-28T05:34:54.212Z</when>
<when >2025-08-28T05:35:14.042Z</when>
<when >2025-08-28T05:35:33.732Z</when>
<when >2025-08-28T05:35:53.312Z</when>
<when >2025-08-28T05:36:12.932Z</when>
<when >2025-08-28T05:36:32.882Z</when>
<when >2025-08-28T05:36:52.622Z</when>
<when >2025-08-28T05:37:12.092Z</when>
<when >2025-08-28T05:37:31.912Z</when>
<when >2025-08-28T05:37:51.672Z</when>
<when >2025-08-28T05:38:11.082Z</when>
<when >2025-08-28T05:38:30.862Z</when>
<when >2025-08-28T05:38:50.812Z</when>
<when >2025-08-28T05:39:10.162Z</when>
<when >2025-08-28T05:39:29.942Z</when>
<when >2025-08-28T05:39:49.862Z</when>
<when >2025-08-28T05:40:09.652Z</when>
<when >2025-08-28T05:40:29.442Z</when>
<when >2025-08-28T05:40:49.032Z</when>
<when >2025-08-28T05:41:08.612Z</when>
<when >2025-08-28T05:41:28.192Z</when>
<when >2025-08-28T05:41:47.792Z</when>
<when >2025-08-28T05:42:07.332Z</when>
<when >2025-08-28T05:42:27.202Z</when>
<when >2025-08-28T05:42:46.652Z</when>
<when >2025-08-28T05:43:06.172Z</when>
<when >2025-08-28T05:43:26.052Z</when>
<when >2025-08-28T05:43:45.912Z</when>
<when >2025-08-28T05:44:05.402Z</when>
<when >2025-08-28T05:44:25.322Z</when>
<when >2025-08-28T05:44:44.992Z</when>
<when >2025-08-28T05:45:04.642Z</when>
<when >2025-08-28T05:45:24.462Z</when>
<when >2025-08-28T05:45:44.112Z</when>
<when >2025-08-28T05:46:04.112Z</when>
<when >2025-08-28T05:46:08.822Z</when>
<when >2025-08-28T05:46:11.492Z</when>
<when >2025-08-28T05:46:16.302Z</when>
<when >2025-08-28T05:46:23.472Z</when>
<when >2025-08-28T05:46:35.082Z</when>
<when >2025-08-28T05:46:46.442Z</when>
<when >2025-08-28T05:46:58.242Z</when>
<when >2025-08-28T05:47:10.042Z</when>
<when >2025-08-28T05:47:21.612Z</when>
<when >2025-08-28T05:47:33.182Z</when>
<when >2025-08-28T05:47:44.502Z</when>
<when >2025-08-28T05:47:56.362Z</when>
<when >2025-08-28T05:48:07.992Z</when>
<when >2025-08-28T05:48:13.812Z</when>
<when >2025-08-28T05:48:27.592Z</when>
<when >2025-08-28T05:48:36.112Z</when>
<when >2025-08-28T05:48:41.462Z</when>
<when >2025-08-28T05:48:46.372Z</when>
<when >2025-08-28T05:48:51.392Z</when>
<when >2025-08-28T05:48:57.242Z</when>
<when >2025-08-28T05:49:02.322Z</when>
<when >2025-08-28T05:49:07.572Z</when>
<when >2025-08-28T05:49:12.812Z</when>
<when >2025-08-28T05:49:24.582Z</when>
<when >2025-08-28T05:49:40.472Z</when>
<when >2025-08-28T05:49:56.512Z</when>
<when >2025-08-28T05:50:05.022Z</when>
<when >2025-08-28T05:50:19.662Z</when>
<when >2025-08-28T05:50:38.112Z</when>
<when >2025-08-28T05:50:45.832Z</when>
<when >2025-08-28T05:51:01.172Z</when>
<when >2025-08-28T05:51:21.082Z</when>
<when >2025-08-28T05:51:40.692Z</when>
<when >2025-08-28T05:51:47.682Z</when>
<when >2025-08-28T05:52:03.962Z</when>
<when >2025-08-28T05:52:19.422Z</when>
<when >2025-08-28T05:52:26.202Z</when>
<when >2025-08-28T05:52:32.592Z</when>
<when >2025-08-28T05:52:39.592Z</when>
<when >2025-08-28T05:52:52.852Z</when>
<when >2025-08-28T05:53:08.782Z</when>
<when >2025-08-28T05:53:24.742Z</when>
<when >2025-08-28T05:53:41.892Z</when>
<when >2025-08-28T05:53:46.912Z</when>
<when >2025-08-28T05:53:57.512Z</when>
<when >2025-08-28T05:54:17.212Z</when>
<when >2025-08-28T05:54:36.942Z</when>
<when >2025-08-28T05:54:55.812Z</when>
<when >2025-08-28T05:55:01.062Z</when>
<when >2025-08-28T05:55:16.752Z</when>
<when >2025-08-28T05:55:31.222Z</when>
<when >2025-08-28T05:55:47.282Z</when>
<when >2025-08-28T05:55:54.232Z</when>
<when >2025-08-28T05:55:58.952Z</when>
<when >2025-08-28T05:56:09.922Z</when>
<when >2025-08-28T05:56:20.902Z</when>
<when >2025-08-28T05:56:31.972Z</when>
<when >2025-08-28T05:56:43.092Z</when>
<when >2025-08-28T05:56:52.162Z</when>
<when >2025-08-28T05:57:04.702Z</when>
<when >2025-08-28T05:57:16.652Z</when>
<when >2025-08-28T05:57:28.102Z</when>
<when >2025-08-28T05:57:39.602Z</when>
<when >2025-08-28T05:57:51.692Z</when>
<when >2025-08-28T05:57:58.892Z</when>
<when >2025-08-28T05:58:13.542Z</when>
<when >2025-08-28T05:58:26.312Z</when>
<when >2025-08-28T05:58:37.602Z</when>
<when >2025-08-28T05:58:49.932Z</when>
<when >2025-08-28T05:59:02.512Z</when>
<when >2025-08-28T05:59:14.402Z</when>
<when >2025-08-28T05:59:25.092Z</when>
<when >2025-08-28T05:59:32.172Z</when>
<when >2025-08-28T05:59:34.452Z</when>
<when >2025-08-28T05:59:40.582Z</when>
<when >2025-08-28T05:59:44.722Z</when>
<when >2025-08-28T05:59:47.902Z</when>
<when >2025-08-28T05:59:50.892Z</when>
<when >2025-08-28T05:59:54.422Z</when>
<when >2025-08-28T05:59:58.142Z</when>
<when >2025-08-28T06:00:01.312Z</when>
<when >2025-08-28T06:00:04.462Z</when>
<when >2025-08-28T06:00:08.372Z</when>
<when >2025-08-28T06:00:12.222Z</when>
<when >2025-08-28T06:00:17.212Z</when>
<when >2025-08-28T06:00:22.582Z</when>
<when >2025-08-28T06:00:28.382Z</when>
<when >2025-08-28T06:00:33.352Z</when>
<when >2025-08-28T06:00:38.072Z</when>
<when >2025-08-28T06:00:41.502Z</when>
<when >2025-08-28T06:00:46.232Z</when>
<when >2025-08-28T06:00:56.722Z</when>
<when >2025-08-28T06:01:01.222Z</when>
<when >2025-08-28T06:01:11.702Z</when>
<when >2025-08-28T06:01:17.402Z</when>
<when >2025-08-28T06:01:20.702Z</when>
<when >2025-08-28T06:01:27.342Z</when>
<when >2025-08-28T06:01:41.732Z</when>
<when >2025-08-28T06:01:55.492Z</when>
<when >2025-08-28T06:02:08.752Z</when>
<when >2025-08-28T06:02:13.802Z</when>
<when >2025-08-28T06:02:19.062Z</when>
<when >2025-08-28T06:02:23.202Z</when>
<when >2025-08-28T06:02:28.322Z</when>
<when >2025-08-28T06:02:37.222Z</when>
<when >2025-08-28T06:02:48.742Z</when>
<when >2025-08-28T06:03:00.452Z</when>
<when >2025-08-28T06:03:12.382Z</when>
<when >2025-08-28T06:03:25.052Z</when>
<when >2025-08-28T06:03:38.612Z</when>
<when >2025-08-28T06:03:51.072Z</when>
<when >2025-08-28T06:04:03.322Z</when>
<when >2025-08-28T06:04:16.872Z</when>
<when >2025-08-28T06:04:30.232Z</when>
<when >2025-08-28T06:04:35.342Z</when>
<when >2025-08-28T06:04:39.322Z</when>
<when >2025-08-28T06:04:42.892Z</when>
<when >2025-08-28T06:04:48.342Z</when>
<when >2025-08-28T06:05:01.912Z</when>
<when >2025-08-28T06:05:14.552Z</when>
<when >2025-08-28T06:05:24.052Z</when>
<when >2025-08-28T06:05:31.642Z</when>
<when >2025-08-28T06:05:39.912Z</when>
<when >2025-08-28T06:05:49.892Z</when>
<when >2025-08-28T06:05:59.512Z</when>
<when >2025-08-28T06:06:09.312Z</when>
<when >2025-08-28T06:06:18.432Z</when>
<when >2025-08-28T06:06:22.732Z</when>
<when >2025-08-28T06:06:27.042Z</when>
<when >2025-08-28T06:06:44.772Z</when>
<when >2025-08-28T06:07:04.012Z</when>
<when >2025-08-28T06:07:21.802Z</when>
<when >2025-08-28T06:07:40.422Z</when>
<when >2025-08-28T06:07:59.872Z</when>
<when >2025-08-28T06:08:19.622Z</when>
<when >2025-08-28T06:08:28.342Z</when>
<when >2025-08-28T06:08:34.862Z</when>
<when >2025-08-28T06:08:45.242Z</when>
<when >2025-08-28T06:08:54.862Z</when>
<when >2025-08-28T06:09:03.672Z</when>
<when >2025-08-28T06:09:13.862Z</when>
<when >2025-08-28T06:09:32.422Z</when>
<when >2025-08-28T06:09:42.582Z</when>
<when >2025-08-28T06:09:52.902Z</when>
<when >2025-08-28T06:10:04.072Z</when>
<when >2025-08-28T06:10:16.722Z</when>
<when >2025-08-28T06:10:22.522Z</when>
<when >2025-08-28T06:10:48.542Z</when>
<when >2025-08-28T06:11:01.782Z</when>
<when >2025-08-28T06:11:14.362Z</when>
<when >2025-08-28T06:11:27.002Z</when>
<when >2025-08-28T06:11:46.272Z</when>
<when >2025-08-28T06:11:59.382Z</when>
<when >2025-08-28T06:12:13.282Z</when>
<when >2025-08-28T06:12:25.542Z</when>
<when >2025-08-28T06:12:38.612Z</when>
<when >2025-08-28T06:12:57.852Z</when>
<when >2025-08-28T06:13:16.812Z</when>
<when >2025-08-28T06:13:30.532Z</when>
<when >2025-08-28T06:13:44.182Z</when>
<when >2025-08-28T06:13:56.332Z</when>
<when >2025-08-28T06:14:08.952Z</when>
<when >2025-08-28T06:14:13.082Z</when>
<when >2025-08-28T06:14:37.962Z</when>
<when >2025-08-28T06:14:50.772Z</when>
<when >2025-08-28T06:14:56.242Z</when>
<when >2025-08-28T06:15:28.042Z</when>
<when >2025-08-28T06:15:40.362Z</when>
<when >2025-08-28T06:15:44.542Z</when>
<when >2025-08-28T06:16:27.512Z</when>
<when >2025-08-28T06:17:05.042Z</when>
<when >2025-08-28T06:17:10.662Z</when>
<when >2025-08-28T06:17:18.222Z</when>
<when >2025-08-28T06:17:27.172Z</when>
<when >2025-08-28T06:17:37.612Z</when>
<when >2025-08-28T06:17:47.182Z</when>
<when >2025-08-28T06:17:55.672Z</when>
<when >2025-08-28T06:18:04.192Z</when>
<when >2025-08-28T06:18:13.932Z</when>
<when >2025-08-28T06:18:22.902Z</when>
<when >2025-08-28T06:18:33.092Z</when>
<when >2025-08-28T06:18:42.832Z</when>
<when >2025-08-28T06:19:02.732Z</when>
<when >2025-08-28T06:19:18.822Z</when>
<when >2025-08-28T06:19:21.452Z</when>
<when >2025-08-28T06:19:26.082Z</when>
<when >2025-08-28T06:19:27.642Z</when>
<when >2025-08-28T06:19:32.772Z</when>
<when >2025-08-28T06:19:37.312Z</when>
<when >2025-08-28T06:19:41.322Z</when>
<when >2025-08-28T06:19:43.822Z</when>
<when >2025-08-28T06:19:46.182Z</when>
<when >2025-08-28T06:19:47.842Z</when>
<when >2025-08-28T06:19:50.512Z</when>
<when >2025-08-28T06:19:53.592Z</when>
<when >2025-08-28T06:19:55.342Z</when>
<when >2025-08-28T06:19:58.392Z</when>
<when >2025-08-28T06:20:02.452Z</when>
<when >2025-08-28T06:20:05.532Z</when>
<when >2025-08-28T06:20:10.222Z</when>
<when >2025-08-28T06:20:15.752Z</when>
<when >2025-08-28T06:20:25.042Z</when>
<when >2025-08-28T06:20:44.442Z</when>
<when >2025-08-28T06:20:58.552Z</when>
<when >2025-08-28T06:21:16.232Z</when>
<when >2025-08-28T06:21:19.562Z</when>
<when >2025-08-28T06:21:25.032Z</when>
<when >2025-08-28T06:21:26.092Z</when>
<when >2025-08-28T06:21:26.742Z</when>
<when >2025-08-28T06:21:29.672Z</when>
<when >2025-08-28T06:21:31.342Z</when>
<when >2025-08-28T06:21:33.582Z</when>
<when >2025-08-28T06:21:36.072Z</when>
<when >2025-08-28T06:21:38.532Z</when>
<when >2025-08-28T06:21:41.542Z</when>
<when >2025-08-28T06:21:44.502Z</when>
<when >2025-08-28T06:21:46.312Z</when>
<when >2025-08-28T06:21:49.382Z</when>
<when >2025-08-28T06:21:53.022Z</when>
<when >2025-08-28T06:21:56.072Z</when>
<when >2025-08-28T06:21:59.612Z</when>
<when >2025-08-28T06:22:03.492Z</when>
<when >2025-08-28T06:22:07.172Z</when>
<when >2025-08-28T06:22:11.582Z</when>
<when >2025-08-28T06:22:16.692Z</when>
<when >2025-08-28T06:22:21.572Z</when>
<when >2025-08-28T06:22:25.462Z</when>
<when >2025-08-28T06:22:30.572Z</when>
<when >2025-08-28T06:22:35.002Z</when>
<when >2025-08-28T06:22:39.102Z</when>
<when >2025-08-28T06:22:44.192Z</when>
<when >2025-08-28T06:22:49.572Z</when>
<when >2025-08-28T06:22:54.202Z</when>
<when >2025-08-28T06:22:58.732Z</when>
<when >2025-08-28T06:23:02.632Z</when>
<when >2025-08-28T06:23:06.342Z</when>
<when >2025-08-28T06:23:09.782Z</when>
<when >2025-08-28T06:23:14.522Z</when>
<when >2025-08-28T06:23:19.092Z</when>
<when >2025-08-28T06:23:24.432Z</when>
<when >2025-08-28T06:23:29.802Z</when>
<when >2025-08-28T06:23:35.812Z</when>
<when >2025-08-28T06:23:39.652Z</when>
<when >2025-08-28T06:23:45.442Z</when>
<when >2025-08-28T06:23:52.162Z</when>
<when >2025-08-28T06:23:57.682Z</when>
<when >2025-08-28T06:24:03.832Z</when>
<when >2025-08-28T06:24:11.562Z</when>
<when >2025-08-28T06:24:18.432Z</when>
<when >2025-08-28T06:24:23.412Z</when>
<when >2025-08-28T06:24:31.192Z</when>
<when >2025-08-28T06:24:35.792Z</when>
<when >2025-08-28T06:24:41.902Z</when>
<when >2025-08-28T06:24:48.852Z</when>
<when >2025-08-28T06:24:57.382Z</when>
<when >2025-08-28T06:25:03.902Z</when>
<when >2025-08-28T06:25:11.382Z</when>
<when >2025-08-28T06:25:18.972Z</when>
<when >2025-08-28T06:25:25.282Z</when>
<when >2025-08-28T06:25:32.892Z</when>
<when >2025-08-28T06:25:45.612Z</when>
<when >2025-08-28T06:25:50.472Z</when>
<when >2025-08-28T06:25:54.392Z</when>
<when >2025-08-28T06:26:20.572Z</when>
<when >2025-08-28T06:26:20.572Z</when>
<gx:coord >20.965288 52.167881 106</gx:coord>
<gx:coord >20.966721 52.166199 106</gx:coord>
<gx:coord >20.967015 52.165879 106</gx:coord>
<gx:coord >20.968399 52.164322 107</gx:coord>
<gx:coord >20.96962 52.162949 107</gx:coord>
<gx:coord >20.970625 52.161736 108</gx:coord>
<gx:coord >20.971146 52.161209 109</gx:coord>
<gx:coord >20.972061 52.160156 103</gx:coord>
<gx:coord >20.973764 52.158198 111</gx:coord>
<gx:coord >20.974156 52.157826 111</gx:coord>
<gx:coord >20.974784 52.157081 126</gx:coord>
<gx:coord >20.975412 52.156336 132</gx:coord>
<gx:coord >20.976028 52.15567 147</gx:coord>
<gx:coord >20.977554 52.154022 177</gx:coord>
<gx:coord >20.978943 52.152425 208</gx:coord>
<gx:coord >20.980148 52.151001 239</gx:coord>
<gx:coord >20.981293 52.149719 270</gx:coord>
<gx:coord >20.982788 52.14805 305</gx:coord>
<gx:coord >20.983887 52.14679 336</gx:coord>
<gx:coord >20.985184 52.145325 368</gx:coord>
<gx:coord >20.986557 52.143723 408</gx:coord>
<gx:coord >20.98781 52.142277 436</gx:coord>
<gx:coord >20.989301 52.140462 466</gx:coord>
<gx:coord >20.990792 52.138739 497</gx:coord>
<gx:coord >20.99205 52.137222 528</gx:coord>
<gx:coord >20.993729 52.135254 561</gx:coord>
<gx:coord >20.995407 52.133331 592</gx:coord>
<gx:coord >20.99707 52.131337 624</gx:coord>
<gx:coord >20.998483 52.129708 655</gx:coord>
<gx:coord >21.000209 52.12766 688</gx:coord>
<gx:coord >21.001663 52.125961 718</gx:coord>
<gx:coord >21.003189 52.124176 749</gx:coord>
<gx:coord >21.004604 52.122353 782</gx:coord>
<gx:coord >21.006088 52.120102 815</gx:coord>
<gx:coord >21.006723 52.118396 840</gx:coord>
<gx:coord >21.00708 52.116898 863</gx:coord>
<gx:coord >21.007193 52.114997 885</gx:coord>
<gx:coord >21.00688 52.113182 917</gx:coord>
<gx:coord >21.006317 52.111313 939</gx:coord>
<gx:coord >21.005325 52.109665 963</gx:coord>
<gx:coord >21.004054 52.107968 988</gx:coord>
<gx:coord >21.002014 52.105966 1020</gx:coord>
<gx:coord >21.000137 52.10408 1052</gx:coord>
<gx:coord >20.99809 52.102103 1085</gx:coord>
<gx:coord >20.996094 52.100189 1117</gx:coord>
<gx:coord >20.993696 52.097959 1148</gx:coord>
<gx:coord >20.990871 52.095399 1179</gx:coord>
<gx:coord >20.988235 52.093002 1211</gx:coord>
<gx:coord >20.985299 52.090371 1242</gx:coord>
<gx:coord >20.982474 52.087811 1276</gx:coord>
<gx:coord >20.979728 52.08539 1297</gx:coord>
<gx:coord >20.976791 52.082794 1330</gx:coord>
<gx:coord >20.973587 52.080002 1362</gx:coord>
<gx:coord >20.97086 52.077569 1385</gx:coord>
<gx:coord >20.967407 52.074497 1416</gx:coord>
<gx:coord >20.963484 52.071052 1447</gx:coord>
<gx:coord >20.960266 52.068212 1470</gx:coord>
<gx:coord >20.957284 52.065512 1494</gx:coord>
<gx:coord >20.953827 52.062424 1520</gx:coord>
<gx:coord >20.95108 52.060043 1529</gx:coord>
<gx:coord >20.9478 52.057022 1545</gx:coord>
<gx:coord >20.946455 52.05583 1552</gx:coord>
<gx:coord >20.943146 52.052856 1576</gx:coord>
<gx:coord >20.940628 52.050659 1583</gx:coord>
<gx:coord >20.93689 52.047318 1607</gx:coord>
<gx:coord >20.934762 52.045355 1614</gx:coord>
<gx:coord >20.931388 52.042562 1630</gx:coord>
<gx:coord >20.92817 52.040141 1638</gx:coord>
<gx:coord >20.92409 52.037488 1656</gx:coord>
<gx:coord >20.919852 52.035207 1662</gx:coord>
<gx:coord >20.914437 52.032833 1685</gx:coord>
<gx:coord >20.909494 52.03111 1711</gx:coord>
<gx:coord >20.90065 52.028366 1742</gx:coord>
<gx:coord >20.888977 52.02507 1768</gx:coord>
<gx:coord >20.878183 52.022219 1804</gx:coord>
<gx:coord >20.86731 52.019577 1836</gx:coord>
<gx:coord >20.856247 52.017014 1872</gx:coord>
<gx:coord >20.843124 52.014084 1896</gx:coord>
<gx:coord >20.824036 52.009836 1911</gx:coord>
<gx:coord >20.81046 52.00681 1919</gx:coord>
<gx:coord >20.798569 52.004013 1942</gx:coord>
<gx:coord >20.793839 52.002594 1957</gx:coord>
<gx:coord >20.790176 52.001358 1972</gx:coord>
<gx:coord >20.785599 51.999435 2002</gx:coord>
<gx:coord >20.781189 51.997313 2032</gx:coord>
<gx:coord >20.777579 51.995172 2065</gx:coord>
<gx:coord >20.774676 51.99317 2095</gx:coord>
<gx:coord >20.772243 51.991262 2117</gx:coord>
<gx:coord >20.770416 51.989639 2148</gx:coord>
<gx:coord >20.768051 51.987259 2180</gx:coord>
<gx:coord >20.764474 51.982882 2245</gx:coord>
<gx:coord >20.761337 51.978653 2308</gx:coord>
<gx:coord >20.758039 51.97413 2373</gx:coord>
<gx:coord >20.755293 51.970267 2427</gx:coord>
<gx:coord >20.75264 51.966431 2486</gx:coord>
<gx:coord >20.749588 51.961945 2550</gx:coord>
<gx:coord >20.747147 51.958374 2602</gx:coord>
<gx:coord >20.744247 51.953979 2669</gx:coord>
<gx:coord >20.741167 51.949225 2729</gx:coord>
<gx:coord >20.738185 51.944709 2793</gx:coord>
<gx:coord >20.734811 51.939496 2856</gx:coord>
<gx:coord >20.73175 51.934747 2916</gx:coord>
<gx:coord >20.728302 51.929443 2978</gx:coord>
<gx:coord >20.725473 51.925018 3041</gx:coord>
<gx:coord >20.72202 51.919804 3114</gx:coord>
<gx:coord >20.718613 51.914566 3175</gx:coord>
<gx:coord >20.715179 51.909485 3228</gx:coord>
<gx:coord >20.710068 51.901886 3284</gx:coord>
<gx:coord >20.704575 51.893784 3357</gx:coord>
<gx:coord >20.698094 51.884491 3411</gx:coord>
<gx:coord >20.691452 51.875067 3465</gx:coord>
<gx:coord >20.68367 51.864034 3518</gx:coord>
<gx:coord >20.675812 51.852815 3579</gx:coord>
<gx:coord >20.667881 51.84137 3632</gx:coord>
<gx:coord >20.660681 51.830933 3693</gx:coord>
<gx:coord >20.654445 51.821732 3747</gx:coord>
<gx:coord >20.644608 51.807101 3884</gx:coord>
<gx:coord >20.635516 51.793579 3998</gx:coord>
<gx:coord >20.626089 51.779755 4135</gx:coord>
<gx:coord >20.617404 51.766891 4257</gx:coord>
<gx:coord >20.608063 51.753287 4387</gx:coord>
<gx:coord >20.598526 51.739228 4501</gx:coord>
<gx:coord >20.588527 51.724457 4630</gx:coord>
<gx:coord >20.578283 51.709351 4759</gx:coord>
<gx:coord >20.569376 51.696167 4835</gx:coord>
<gx:coord >20.555954 51.676475 4934</gx:coord>
<gx:coord >20.543766 51.659042 5049</gx:coord>
<gx:coord >20.531591 51.641373 5155</gx:coord>
<gx:coord >20.520754 51.62558 5285</gx:coord>
<gx:coord >20.510287 51.610382 5414</gx:coord>
<gx:coord >20.507278 51.605902 5460</gx:coord>
<gx:coord >20.49942 51.594357 5584</gx:coord>
<gx:coord >20.493214 51.585159 5679</gx:coord>
<gx:coord >20.486526 51.575271 5757</gx:coord>
<gx:coord >20.474472 51.557395 5872</gx:coord>
<gx:coord >20.462265 51.539333 5978</gx:coord>
<gx:coord >20.449639 51.52066 6093</gx:coord>
<gx:coord >20.443726 51.511913 6154</gx:coord>
<gx:coord >20.437851 51.503208 6235</gx:coord>
<gx:coord >20.4293 51.490494 6366</gx:coord>
<gx:coord >20.421906 51.479466 6465</gx:coord>
<gx:coord >20.416532 51.471588 6527</gx:coord>
<gx:coord >20.410742 51.462936 6578</gx:coord>
<gx:coord >20.395966 51.440968 6671</gx:coord>
<gx:coord >20.381699 51.420252 6770</gx:coord>
<gx:coord >20.372958 51.408829 6823</gx:coord>
<gx:coord >20.367279 51.402655 6854</gx:coord>
<gx:coord >20.360487 51.396378 6888</gx:coord>
<gx:coord >20.353699 51.391064 6915</gx:coord>
<gx:coord >20.34584 51.38571 6953</gx:coord>
<gx:coord >20.328674 51.374817 7052</gx:coord>
<gx:coord >20.305036 51.359756 7151</gx:coord>
<gx:coord >20.28038 51.34372 7257</gx:coord>
<gx:coord >20.255003 51.327072 7349</gx:coord>
<gx:coord >20.229987 51.310638 7455</gx:coord>
<gx:coord >20.204468 51.293909 7555</gx:coord>
<gx:coord >20.180994 51.278549 7653</gx:coord>
<gx:coord >20.156937 51.262859 7759</gx:coord>
<gx:coord >20.130463 51.245541 7858</gx:coord>
<gx:coord >20.102605 51.227417 7950</gx:coord>
<gx:coord >20.076294 51.210255 8041</gx:coord>
<gx:coord >20.047525 51.191437 8133</gx:coord>
<gx:coord >20.019911 51.173309 8232</gx:coord>
<gx:coord >19.992074 51.15509 8323</gx:coord>
<gx:coord >19.963531 51.136376 8415</gx:coord>
<gx:coord >19.934692 51.117462 8506</gx:coord>
<gx:coord >19.908218 51.100066 8597</gx:coord>
<gx:coord >19.881468 51.082489 8697</gx:coord>
<gx:coord >19.849701 51.061567 8779</gx:coord>
<gx:coord >19.814835 51.038617 8856</gx:coord>
<gx:coord >19.782665 51.017349 8939</gx:coord>
<gx:coord >19.752527 50.997391 9023</gx:coord>
<gx:coord >19.720607 50.976242 9107</gx:coord>
<gx:coord >19.688797 50.955148 9198</gx:coord>
<gx:coord >19.651869 50.930649 9267</gx:coord>
<gx:coord >19.618149 50.90827 9343</gx:coord>
<gx:coord >19.584274 50.885832 9426</gx:coord>
<gx:coord >19.550323 50.863161 9510</gx:coord>
<gx:coord >19.516618 50.840652 9586</gx:coord>
<gx:coord >19.482546 50.81781 9670</gx:coord>
<gx:coord >19.448622 50.795105 9746</gx:coord>
<gx:coord >19.415207 50.772664 9807</gx:coord>
<gx:coord >19.374771 50.74557 9875</gx:coord>
<gx:coord >19.337006 50.720153 9943</gx:coord>
<gx:coord >19.298172 50.694037 10012</gx:coord>
<gx:coord >19.255544 50.665221 10080</gx:coord>
<gx:coord >19.212935 50.636405 10141</gx:coord>
<gx:coord >19.17837 50.612961 10224</gx:coord>
<gx:coord >19.137961 50.585524 10300</gx:coord>
<gx:coord >19.094016 50.555684 10361</gx:coord>
<gx:coord >19.05883 50.531663 10438</gx:coord>
<gx:coord >19.015961 50.502502 10506</gx:coord>
<gx:coord >18.976713 50.475769 10590</gx:coord>
<gx:coord >18.944661 50.453827 10665</gx:coord>
<gx:coord >18.910663 50.430598 10757</gx:coord>
<gx:coord >18.867237 50.400851 10818</gx:coord>
<gx:coord >18.824061 50.371262 10878</gx:coord>
<gx:coord >18.788774 50.346943 10955</gx:coord>
<gx:coord >18.753084 50.322327 11038</gx:coord>
<gx:coord >18.717066 50.297412 11122</gx:coord>
<gx:coord >18.678911 50.270877 11199</gx:coord>
<gx:coord >18.639679 50.243637 11266</gx:coord>
<gx:coord >18.602452 50.217761 11342</gx:coord>
<gx:coord >18.559991 50.18834 11350</gx:coord>
<gx:coord >18.517605 50.158826 11358</gx:coord>
<gx:coord >18.475144 50.129265 11358</gx:coord>
<gx:coord >18.433129 50.10003 11358</gx:coord>
<gx:coord >18.390891 50.070516 11358</gx:coord>
<gx:coord >18.348758 50.040985 11358</gx:coord>
<gx:coord >18.307415 50.012009 11358</gx:coord>
<gx:coord >18.265884 49.982812 11358</gx:coord>
<gx:coord >18.224611 49.953763 11349</gx:coord>
<gx:coord >18.182518 49.924072 11341</gx:coord>
<gx:coord >18.140741 49.894547 11349</gx:coord>
<gx:coord >18.099827 49.86564 11349</gx:coord>
<gx:coord >18.058183 49.836079 11357</gx:coord>
<gx:coord >18.016349 49.806381 11364</gx:coord>
<gx:coord >17.974283 49.776398 11364</gx:coord>
<gx:coord >17.932137 49.746327 11364</gx:coord>
<gx:coord >17.890196 49.7163 11364</gx:coord>
<gx:coord >17.848519 49.686401 11364</gx:coord>
<gx:coord >17.807353 49.656946 11364</gx:coord>
<gx:coord >17.765977 49.627304 11372</gx:coord>
<gx:coord >17.724585 49.597499 11371</gx:coord>
<gx:coord >17.682929 49.567383 11363</gx:coord>
<gx:coord >17.640851 49.537028 11371</gx:coord>
<gx:coord >17.599207 49.506955 11363</gx:coord>
<gx:coord >17.558157 49.477301 11363</gx:coord>
<gx:coord >17.516327 49.447037 11371</gx:coord>
<gx:coord >17.474811 49.416916 11378</gx:coord>
<gx:coord >17.43299 49.386478 11378</gx:coord>
<gx:coord >17.391076 49.355896 11394</gx:coord>
<gx:coord >17.350088 49.325867 11394</gx:coord>
<gx:coord >17.309383 49.295929 11395</gx:coord>
<gx:coord >17.268556 49.266094 11395</gx:coord>
<gx:coord >17.227337 49.23587 11387</gx:coord>
<gx:coord >17.186491 49.205795 11395</gx:coord>
<gx:coord >17.145151 49.175354 11395</gx:coord>
<gx:coord >17.104556 49.14543 11386</gx:coord>
<gx:coord >17.064162 49.115524 11378</gx:coord>
<gx:coord >17.023879 49.085678 11378</gx:coord>
<gx:coord >16.984018 49.056061 11378</gx:coord>
<gx:coord >16.943665 49.026117 11371</gx:coord>
<gx:coord >16.904508 48.996964 11371</gx:coord>
<gx:coord >16.864859 48.9673 11371</gx:coord>
<gx:coord >16.824983 48.937574 11378</gx:coord>
<gx:coord >16.785664 48.908293 11378</gx:coord>
<gx:coord >16.766545 48.89328 11386</gx:coord>
<gx:coord >16.749308 48.878686 11378</gx:coord>
<gx:coord >16.726192 48.85762 11378</gx:coord>
<gx:coord >16.691051 48.825384 11378</gx:coord>
<gx:coord >16.655563 48.79303 11378</gx:coord>
<gx:coord >16.620483 48.761261 11378</gx:coord>
<gx:coord >16.585764 48.729767 11386</gx:coord>
<gx:coord >16.550692 48.697815 11386</gx:coord>
<gx:coord >16.516043 48.666229 11386</gx:coord>
<gx:coord >16.48101 48.63424 11371</gx:coord>
<gx:coord >16.445195 48.60173 11386</gx:coord>
<gx:coord >16.409527 48.569439 11386</gx:coord>
<gx:coord >16.374277 48.537552 11394</gx:coord>
<gx:coord >16.338911 48.505384 11393</gx:coord>
<gx:coord >16.302725 48.472504 11400</gx:coord>
<gx:coord >16.267572 48.440583 11400</gx:coord>
<gx:coord >16.231877 48.408096 11408</gx:coord>
<gx:coord >16.196101 48.375458 11408</gx:coord>
<gx:coord >16.160325 48.342636 11408</gx:coord>
<gx:coord >16.12462 48.310089 11408</gx:coord>
<gx:coord >16.089622 48.278209 11400</gx:coord>
<gx:coord >16.053917 48.245994 11399</gx:coord>
<gx:coord >16.018356 48.21378 11384</gx:coord>
<gx:coord >15.983206 48.181824 11392</gx:coord>
<gx:coord >15.947823 48.149826 11392</gx:coord>
<gx:coord >15.912186 48.117233 11392</gx:coord>
<gx:coord >15.876823 48.084824 11392</gx:coord>
<gx:coord >15.841158 48.052197 11392</gx:coord>
<gx:coord >15.805893 48.019913 11391</gx:coord>
<gx:coord >15.770668 47.98764 11391</gx:coord>
<gx:coord >15.735873 47.955322 11391</gx:coord>
<gx:coord >15.701042 47.923187 11398</gx:coord>
<gx:coord >15.665749 47.890457 11398</gx:coord>
<gx:coord >15.63018 47.857452 11391</gx:coord>
<gx:coord >15.595374 47.824976 11391</gx:coord>
<gx:coord >15.560091 47.792203 11398</gx:coord>
<gx:coord >15.5243 47.759262 11398</gx:coord>
<gx:coord >15.489314 47.726844 11398</gx:coord>
<gx:coord >15.453781 47.693756 11398</gx:coord>
<gx:coord >15.418678 47.660926 11406</gx:coord>
<gx:coord >15.383324 47.62792 11406</gx:coord>
<gx:coord >15.348393 47.595008 11413</gx:coord>
<gx:coord >15.313568 47.562012 11413</gx:coord>
<gx:coord >15.278549 47.528732 11406</gx:coord>
<gx:coord >15.243389 47.495619 11406</gx:coord>
<gx:coord >15.208855 47.462769 11406</gx:coord>
<gx:coord >15.174161 47.429841 11406</gx:coord>
<gx:coord >15.139442 47.396695 11406</gx:coord>
<gx:coord >15.104759 47.363892 11405</gx:coord>
<gx:coord >15.070073 47.33115 11405</gx:coord>
<gx:coord >15.035889 47.29866 11405</gx:coord>
<gx:coord >15.00162 47.265791 11405</gx:coord>
<gx:coord >14.967224 47.232513 11412</gx:coord>
<gx:coord >14.933448 47.199966 11412</gx:coord>
<gx:coord >14.89894 47.16682 11412</gx:coord>
<gx:coord >14.878235 47.146683 11412</gx:coord>
<gx:coord >14.870544 47.138168 11412</gx:coord>
<gx:coord >14.86409 47.129837 11412</gx:coord>
<gx:coord >14.858597 47.121368 11411</gx:coord>
<gx:coord >14.853656 47.111982 11407</gx:coord>
<gx:coord >14.848228 47.099579 11412</gx:coord>
<gx:coord >14.832599 47.061519 11412</gx:coord>
<gx:coord >14.817599 47.027955 11412</gx:coord>
<gx:coord >14.799429 46.988805 11412</gx:coord>
<gx:coord >14.781487 46.950897 11412</gx:coord>
<gx:coord >14.769951 46.928833 11412</gx:coord>
<gx:coord >14.748934 46.891557 11420</gx:coord>
<gx:coord >14.727516 46.854083 11428</gx:coord>
<gx:coord >14.706473 46.816406 11428</gx:coord>
<gx:coord >14.685438 46.777908 11428</gx:coord>
<gx:coord >14.664403 46.739044 11428</gx:coord>
<gx:coord >14.643814 46.700972 11412</gx:coord>
<gx:coord >14.623833 46.663544 11420</gx:coord>
<gx:coord >14.603508 46.625744 11481</gx:coord>
<gx:coord >14.58284 46.587664 11534</gx:coord>
<gx:coord >14.562646 46.550217 11580</gx:coord>
<gx:coord >14.542465 46.512063 11641</gx:coord>
<gx:coord >14.522586 46.474731 11679</gx:coord>
<gx:coord >14.503092 46.43811 11725</gx:coord>
<gx:coord >14.482727 46.400431 11733</gx:coord>
<gx:coord >14.462362 46.362671 11734</gx:coord>
<gx:coord >14.442352 46.325109 11734</gx:coord>
<gx:coord >14.42244 46.287542 11734</gx:coord>
<gx:coord >14.402596 46.249881 11734</gx:coord>
<gx:coord >14.383163 46.213058 11734</gx:coord>
<gx:coord >14.363319 46.175491 11734</gx:coord>
<gx:coord >14.343388 46.138046 11734</gx:coord>
<gx:coord >14.323494 46.100309 11741</gx:coord>
<gx:coord >14.303596 46.062561 11749</gx:coord>
<gx:coord >14.283566 46.02475 11756</gx:coord>
<gx:coord >14.263536 45.986893 11756</gx:coord>
<gx:coord >14.24398 45.949433 11756</gx:coord>
<gx:coord >14.224274 45.912051 11756</gx:coord>
<gx:coord >14.204361 45.873972 11756</gx:coord>
<gx:coord >14.18489 45.836472 11756</gx:coord>
<gx:coord >14.165291 45.79865 11757</gx:coord>
<gx:coord >14.145902 45.761169 11750</gx:coord>
<gx:coord >14.126408 45.723587 11750</gx:coord>
<gx:coord >14.107132 45.686599 11750</gx:coord>
<gx:coord >14.087956 45.649704 11750</gx:coord>
<gx:coord >14.068663 45.612396 11750</gx:coord>
<gx:coord >14.049571 45.575409 11742</gx:coord>
<gx:coord >14.030195 45.537781 11742</gx:coord>
<gx:coord >14.011387 45.501228 11742</gx:coord>
<gx:coord >13.992266 45.464355 11735</gx:coord>
<gx:coord >13.973136 45.42721 11736</gx:coord>
<gx:coord >13.953748 45.389374 11736</gx:coord>
<gx:coord >13.934588 45.352066 11736</gx:coord>
<gx:coord >13.924059 45.332291 11744</gx:coord>
<gx:coord >13.91673 45.320373 11742</gx:coord>
<gx:coord >13.908626 45.309036 11736</gx:coord>
<gx:coord >13.897313 45.294846 11743</gx:coord>
<gx:coord >13.869502 45.260832 11758</gx:coord>
<gx:coord >13.842371 45.226849 11758</gx:coord>
<gx:coord >13.815107 45.192307 11758</gx:coord>
<gx:coord >13.787574 45.157393 11758</gx:coord>
<gx:coord >13.760245 45.122864 11766</gx:coord>
<gx:coord >13.732583 45.088074 11767</gx:coord>
<gx:coord >13.70551 45.053925 11767</gx:coord>
<gx:coord >13.678046 45.01918 11767</gx:coord>
<gx:coord >13.650446 44.984219 11767</gx:coord>
<gx:coord >13.623315 44.949584 11759</gx:coord>
<gx:coord >13.595646 44.914398 11759</gx:coord>
<gx:coord >13.56845 44.879895 11775</gx:coord>
<gx:coord >13.5415 44.845459 11776</gx:coord>
<gx:coord >13.514188 44.810439 11776</gx:coord>
<gx:coord >13.486656 44.775153 11776</gx:coord>
<gx:coord >13.45919 44.739959 11776</gx:coord>
<gx:coord >13.435102 44.709503 11768</gx:coord>
<gx:coord >13.416852 44.688053 11768</gx:coord>
<gx:coord >13.388114 44.655467 11769</gx:coord>
<gx:coord >13.358067 44.621613 11761</gx:coord>
<gx:coord >13.328895 44.588292 11761</gx:coord>
<gx:coord >13.2998 44.554779 11761</gx:coord>
<gx:coord >13.270569 44.520859 11761</gx:coord>
<gx:coord >13.24154 44.487134 11762</gx:coord>
<gx:coord >13.21327 44.454175 11762</gx:coord>
<gx:coord >13.184378 44.420654 11762</gx:coord>
<gx:coord >13.154755 44.386093 11778</gx:coord>
<gx:coord >13.125648 44.352086 11785</gx:coord>
<gx:coord >13.096775 44.318382 11793</gx:coord>
<gx:coord >13.067902 44.284446 11793</gx:coord>
<gx:coord >13.039006 44.250275 11794</gx:coord>
<gx:coord >13.010291 44.21634 11794</gx:coord>
<gx:coord >12.981524 44.182356 11779</gx:coord>
<gx:coord >12.953469 44.149025 11779</gx:coord>
<gx:coord >12.925611 44.115973 11771</gx:coord>
<gx:coord >12.897099 44.08213 11762</gx:coord>
<gx:coord >12.868652 44.048379 11770</gx:coord>
<gx:coord >12.840402 44.015048 11770</gx:coord>
<gx:coord >12.812217 43.981763 11778</gx:coord>
<gx:coord >12.784126 43.948608 11778</gx:coord>
<gx:coord >12.755638 43.914917 11785</gx:coord>
<gx:coord >12.727406 43.881271 11784</gx:coord>
<gx:coord >12.699429 43.847946 11792</gx:coord>
<gx:coord >12.67116 43.814221 11799</gx:coord>
<gx:coord >12.64304 43.780424 11791</gx:coord>
<gx:coord >12.614732 43.746506 11806</gx:coord>
<gx:coord >12.586997 43.71325 11798</gx:coord>
<gx:coord >12.559269 43.679732 11797</gx:coord>
<gx:coord >12.531542 43.645982 11790</gx:coord>
<gx:coord >12.503357 43.611812 11797</gx:coord>
<gx:coord >12.475499 43.578202 11796</gx:coord>
<gx:coord >12.447765 43.544861 11796</gx:coord>
<gx:coord >12.419661 43.510986 11804</gx:coord>
<gx:coord >12.391532 43.476997 11811</gx:coord>
<gx:coord >12.364197 43.443945 11811</gx:coord>
<gx:coord >12.336796 43.410613 11811</gx:coord>
<gx:coord >12.308967 43.376678 11803</gx:coord>
<gx:coord >12.281821 43.343536 11802</gx:coord>
<gx:coord >12.254399 43.310014 11802</gx:coord>
<gx:coord >12.226802 43.276357 11794</gx:coord>
<gx:coord >12.199679 43.243195 11794</gx:coord>
<gx:coord >12.172532 43.209824 11786</gx:coord>
<gx:coord >12.145641 43.177002 11793</gx:coord>
<gx:coord >12.118942 43.144318 11786</gx:coord>
<gx:coord >12.091923 43.111084 11793</gx:coord>
<gx:coord >12.065212 43.078137 11793</gx:coord>
<gx:coord >12.038334 43.044992 11793</gx:coord>
<gx:coord >12.011123 43.011292 11793</gx:coord>
<gx:coord >11.984384 42.978423 11801</gx:coord>
<gx:coord >11.957532 42.945328 11808</gx:coord>
<gx:coord >11.930368 42.91162 11808</gx:coord>
<gx:coord >11.903303 42.878036 11808</gx:coord>
<gx:coord >11.876548 42.844818 11808</gx:coord>
<gx:coord >11.849457 42.811066 11815</gx:coord>
<gx:coord >11.822662 42.77774 11808</gx:coord>
<gx:coord >11.796133 42.74469 11815</gx:coord>
<gx:coord >11.769296 42.711213 11808</gx:coord>
<gx:coord >11.742469 42.677649 11808</gx:coord>
<gx:coord >11.715546 42.644028 11809</gx:coord>
<gx:coord >11.70919 42.636077 11799</gx:coord>
<gx:coord >11.705496 42.631439 11791</gx:coord>
<gx:coord >11.69929 42.623601 11762</gx:coord>
<gx:coord >11.689453 42.611312 11709</gx:coord>
<gx:coord >11.673598 42.591476 11594</gx:coord>
<gx:coord >11.658055 42.572067 11480</gx:coord>
<gx:coord >11.641931 42.551818 11373</gx:coord>
<gx:coord >11.625898 42.531568 11259</gx:coord>
<gx:coord >11.610249 42.511736 11145</gx:coord>
<gx:coord >11.594536 42.491952 11030</gx:coord>
<gx:coord >11.578966 42.472366 10916</gx:coord>
<gx:coord >11.562855 42.451917 10787</gx:coord>
<gx:coord >11.547005 42.431808 10687</gx:coord>
<gx:coord >11.53914 42.421829 10635</gx:coord>
<gx:coord >11.520123 42.397683 10543</gx:coord>
<gx:coord >11.508817 42.382926 10474</gx:coord>
<gx:coord >11.502175 42.372824 10428</gx:coord>
<gx:coord >11.497065 42.3637 10389</gx:coord>
<gx:coord >11.49253 42.35411 10347</gx:coord>
<gx:coord >11.488016 42.342499 10305</gx:coord>
<gx:coord >11.484992 42.332138 10267</gx:coord>
<gx:coord >11.482773 42.321533 10233</gx:coord>
<gx:coord >11.481275 42.310318 10209</gx:coord>
<gx:coord >11.47934 42.286011 10155</gx:coord>
<gx:coord >11.47678 42.251953 10071</gx:coord>
<gx:coord >11.47407 42.218085 9988</gx:coord>
<gx:coord >11.472537 42.199929 9949</gx:coord>
<gx:coord >11.46979 42.169019 9927</gx:coord>
<gx:coord >11.466341 42.130101 9927</gx:coord>
<gx:coord >11.464982 42.114441 9927</gx:coord>
<gx:coord >11.462361 42.083542 9927</gx:coord>
<gx:coord >11.459123 42.044212 9927</gx:coord>
<gx:coord >11.456056 42.005585 9927</gx:coord>
<gx:coord >11.454972 41.991655 9904</gx:coord>
<gx:coord >11.452373 41.959534 9828</gx:coord>
<gx:coord >11.449542 41.929089 9744</gx:coord>
<gx:coord >11.447498 41.915868 9712</gx:coord>
<gx:coord >11.44482 41.903687 9676</gx:coord>
<gx:coord >11.440983 41.89059 9645</gx:coord>
<gx:coord >11.432648 41.866058 9584</gx:coord>
<gx:coord >11.422588 41.836589 9492</gx:coord>
<gx:coord >11.412548 41.806778 9408</gx:coord>
<gx:coord >11.402276 41.775187 9332</gx:coord>
<gx:coord >11.399252 41.765854 9312</gx:coord>
<gx:coord >11.392947 41.746353 9295</gx:coord>
<gx:coord >11.381133 41.709967 9295</gx:coord>
<gx:coord >11.369125 41.673424 9295</gx:coord>
<gx:coord >11.357692 41.638742 9288</gx:coord>
<gx:coord >11.354498 41.629059 9272</gx:coord>
<gx:coord >11.3453 41.600383 9196</gx:coord>
<gx:coord >11.337188 41.574826 9112</gx:coord>
<gx:coord >11.32834 41.547134 9028</gx:coord>
<gx:coord >11.324595 41.53537 8983</gx:coord>
<gx:coord >11.32205 41.527436 8945</gx:coord>
<gx:coord >11.315982 41.508908 8815</gx:coord>
<gx:coord >11.31005 41.490601 8701</gx:coord>
<gx:coord >11.303974 41.471899 8571</gx:coord>
<gx:coord >11.297753 41.453568 8442</gx:coord>
<gx:coord >11.292412 41.438288 8350</gx:coord>
<gx:coord >11.284956 41.417633 8236</gx:coord>
<gx:coord >11.277716 41.397949 8122</gx:coord>
<gx:coord >11.270752 41.379318 8007</gx:coord>
<gx:coord >11.263855 41.36055 7893</gx:coord>
<gx:coord >11.256836 41.341003 7779</gx:coord>
<gx:coord >11.252747 41.329239 7725</gx:coord>
<gx:coord >11.244812 41.305939 7634</gx:coord>
<gx:coord >11.238202 41.286062 7527</gx:coord>
<gx:coord >11.232178 41.267944 7406</gx:coord>
<gx:coord >11.225952 41.248947 7307</gx:coord>
<gx:coord >11.219543 41.229126 7208</gx:coord>
<gx:coord >11.21367 41.21102 7094</gx:coord>
<gx:coord >11.20813 41.194656 6979</gx:coord>
<gx:coord >11.204244 41.183601 6901</gx:coord>
<gx:coord >11.203125 41.18042 6876</gx:coord>
<gx:coord >11.199463 41.171219 6833</gx:coord>
<gx:coord >11.196379 41.165213 6798</gx:coord>
<gx:coord >11.193542 41.160873 6767</gx:coord>
<gx:coord >11.190449 41.156927 6743</gx:coord>
<gx:coord >11.186279 41.152496 6704</gx:coord>
<gx:coord >11.181274 41.148056 6665</gx:coord>
<gx:coord >11.176758 41.14476 6633</gx:coord>
<gx:coord >11.171875 41.141647 6597</gx:coord>
<gx:coord >11.165771 41.138489 6560</gx:coord>
<gx:coord >11.159546 41.135651 6526</gx:coord>
<gx:coord >11.149999 41.131928 6482</gx:coord>
<gx:coord >11.140449 41.128576 6440</gx:coord>
<gx:coord >11.129944 41.125488 6400</gx:coord>
<gx:coord >11.120973 41.123316 6362</gx:coord>
<gx:coord >11.112109 41.121593 6322</gx:coord>
<gx:coord >11.105591 41.120636 6296</gx:coord>
<gx:coord >11.096313 41.119629 6264</gx:coord>
<gx:coord >11.076782 41.118164 6189</gx:coord>
<gx:coord >11.06842 41.117569 6155</gx:coord>
<gx:coord >11.048438 41.116007 6034</gx:coord>
<gx:coord >11.038269 41.114777 5972</gx:coord>
<gx:coord >11.032043 41.113724 5930</gx:coord>
<gx:coord >11.019412 41.111166 5875</gx:coord>
<gx:coord >10.994318 41.105579 5776</gx:coord>
<gx:coord >10.969238 41.100174 5684</gx:coord>
<gx:coord >10.946838 41.095367 5570</gx:coord>
<gx:coord >10.937866 41.093079 5532</gx:coord>
<gx:coord >10.929749 41.090561 5486</gx:coord>
<gx:coord >10.922158 41.087796 5448</gx:coord>
<gx:coord >10.914667 41.084677 5410</gx:coord>
<gx:coord >10.900452 41.07811 5318</gx:coord>
<gx:coord >10.883331 41.070014 5197</gx:coord>
<gx:coord >10.865728 41.061774 5075</gx:coord>
<gx:coord >10.847168 41.053116 4945</gx:coord>
<gx:coord >10.828491 41.044281 4831</gx:coord>
<gx:coord >10.808594 41.034714 4739</gx:coord>
<gx:coord >10.789261 41.02537 4633</gx:coord>
<gx:coord >10.770691 41.016449 4518</gx:coord>
<gx:coord >10.750732 41.00679 4412</gx:coord>
<gx:coord >10.731445 40.997543 4319</gx:coord>
<gx:coord >10.723877 40.994293 4276</gx:coord>
<gx:coord >10.717226 40.991992 4236</gx:coord>
<gx:coord >10.711304 40.990265 4205</gx:coord>
<gx:coord >10.702393 40.988113 4162</gx:coord>
<gx:coord >10.680786 40.983353 4054</gx:coord>
<gx:coord >10.659485 40.978538 3939</gx:coord>
<gx:coord >10.644104 40.97493 3863</gx:coord>
<gx:coord >10.631897 40.972046 3802</gx:coord>
<gx:coord >10.618469 40.968796 3749</gx:coord>
<gx:coord >10.602295 40.964905 3695</gx:coord>
<gx:coord >10.58695 40.961174 3650</gx:coord>
<gx:coord >10.571032 40.957311 3604</gx:coord>
<gx:coord >10.556458 40.953827 3551</gx:coord>
<gx:coord >10.549622 40.95219 3543</gx:coord>
<gx:coord >10.542755 40.95056 3543</gx:coord>
<gx:coord >10.514041 40.943671 3528</gx:coord>
<gx:coord >10.482642 40.936129 3528</gx:coord>
<gx:coord >10.453554 40.929146 3528</gx:coord>
<gx:coord >10.423404 40.921931 3535</gx:coord>
<gx:coord >10.391541 40.914322 3535</gx:coord>
<gx:coord >10.359046 40.906569 3528</gx:coord>
<gx:coord >10.345093 40.903198 3528</gx:coord>
<gx:coord >10.334202 40.900563 3505</gx:coord>
<gx:coord >10.317017 40.896423 3444</gx:coord>
<gx:coord >10.301514 40.892624 3391</gx:coord>
<gx:coord >10.28717 40.889191 3337</gx:coord>
<gx:coord >10.27063 40.885208 3292</gx:coord>
<gx:coord >10.240756 40.878032 3223</gx:coord>
<gx:coord >10.224487 40.874084 3185</gx:coord>
<gx:coord >10.207947 40.870102 3147</gx:coord>
<gx:coord >10.190131 40.865835 3101</gx:coord>
<gx:coord >10.170156 40.860947 3070</gx:coord>
<gx:coord >10.160645 40.858612 3054</gx:coord>
<gx:coord >10.11922 40.848518 2978</gx:coord>
<gx:coord >10.098558 40.84349 2940</gx:coord>
<gx:coord >10.078003 40.838516 2910</gx:coord>
<gx:coord >10.057922 40.833664 2871</gx:coord>
<gx:coord >10.027958 40.826406 2826</gx:coord>
<gx:coord >10.007172 40.821331 2795</gx:coord>
<gx:coord >9.985352 40.815994 2757</gx:coord>
<gx:coord >9.965942 40.811234 2719</gx:coord>
<gx:coord >9.945686 40.806295 2689</gx:coord>
<gx:coord >9.91571 40.79892 2635</gx:coord>
<gx:coord >9.886197 40.791678 2590</gx:coord>
<gx:coord >9.864974 40.78651 2544</gx:coord>
<gx:coord >9.844116 40.781342 2513</gx:coord>
<gx:coord >9.825273 40.776734 2475</gx:coord>
<gx:coord >9.80542 40.771912 2437</gx:coord>
<gx:coord >9.799255 40.770401 2430</gx:coord>
<gx:coord >9.76062 40.760925 2352</gx:coord>
<gx:coord >9.740662 40.755981 2322</gx:coord>
<gx:coord >9.732361 40.753922 2307</gx:coord>
<gx:coord >9.682922 40.741562 2215</gx:coord>
<gx:coord >9.664286 40.736979 2185</gx:coord>
<gx:coord >9.658203 40.735474 2169</gx:coord>
<gx:coord >9.592875 40.719242 2002</gx:coord>
<gx:coord >9.537881 40.705649 1895</gx:coord>
<gx:coord >9.530952 40.703927 1880</gx:coord>
<gx:coord >9.520203 40.701279 1857</gx:coord>
<gx:coord >9.507935 40.698166 1834</gx:coord>
<gx:coord >9.493998 40.694663 1804</gx:coord>
<gx:coord >9.481201 40.691483 1781</gx:coord>
<gx:coord >9.470337 40.688828 1758</gx:coord>
<gx:coord >9.459229 40.686097 1735</gx:coord>
<gx:coord >9.446777 40.683014 1712</gx:coord>
<gx:coord >9.435134 40.680092 1689</gx:coord>
<gx:coord >9.422302 40.676788 1659</gx:coord>
<gx:coord >9.409363 40.673538 1636</gx:coord>
<gx:coord >9.38269 40.666855 1628</gx:coord>
<gx:coord >9.361475 40.661518 1621</gx:coord>
<gx:coord >9.358154 40.660675 1621</gx:coord>
<gx:coord >9.352661 40.659302 1628</gx:coord>
<gx:coord >9.35083 40.65889 1628</gx:coord>
<gx:coord >9.344684 40.657374 1628</gx:coord>
<gx:coord >9.339066 40.656211 1628</gx:coord>
<gx:coord >9.334167 40.65564 1628</gx:coord>
<gx:coord >9.330951 40.655512 1628</gx:coord>
<gx:coord >9.327767 40.655699 1628</gx:coord>
<gx:coord >9.32577 40.655838 1628</gx:coord>
<gx:coord >9.322586 40.65635 1628</gx:coord>
<gx:coord >9.319153 40.657196 1627</gx:coord>
<gx:coord >9.316718 40.657933 1627</gx:coord>
<gx:coord >9.313232 40.659348 1625</gx:coord>
<gx:coord >9.308838 40.661682 1628</gx:coord>
<gx:coord >9.305857 40.663799 1628</gx:coord>
<gx:coord >9.30155 40.667663 1628</gx:coord>
<gx:coord >9.29718 40.672225 1628</gx:coord>
<gx:coord >9.289917 40.680313 1628</gx:coord>
<gx:coord >9.275757 40.696976 1628</gx:coord>
<gx:coord >9.26497 40.709047 1628</gx:coord>
<gx:coord >9.251737 40.723665 1627</gx:coord>
<gx:coord >9.249365 40.726877 1624</gx:coord>
<gx:coord >9.246805 40.732137 1626</gx:coord>
<gx:coord >9.246493 40.733301 1626</gx:coord>
<gx:coord >9.246368 40.733767 1626</gx:coord>
<gx:coord >9.245911 40.736984 1626</gx:coord>
<gx:coord >9.245931 40.738841 1627</gx:coord>
<gx:coord >9.246181 40.740936 1627</gx:coord>
<gx:coord >9.246704 40.743118 1628</gx:coord>
<gx:coord >9.247864 40.74614 1628</gx:coord>
<gx:coord >9.24939 40.749023 1636</gx:coord>
<gx:coord >9.251282 40.751816 1636</gx:coord>
<gx:coord >9.252673 40.753598 1636</gx:coord>
<gx:coord >9.254546 40.755786 1628</gx:coord>
<gx:coord >9.25769 40.758865 1612</gx:coord>
<gx:coord >9.261038 40.761698 1597</gx:coord>
<gx:coord >9.264408 40.764165 1588</gx:coord>
<gx:coord >9.268372 40.766693 1569</gx:coord>
<gx:coord >9.272586 40.769193 1553</gx:coord>
<gx:coord >9.277161 40.77182 1529</gx:coord>
<gx:coord >9.282074 40.774593 1498</gx:coord>
<gx:coord >9.28717 40.777405 1463</gx:coord>
<gx:coord >9.29125 40.779621 1434</gx:coord>
<gx:coord >9.296448 40.782394 1395</gx:coord>
<gx:coord >9.300863 40.784695 1363</gx:coord>
<gx:coord >9.305237 40.787018 1333</gx:coord>
<gx:coord >9.310414 40.789816 1307</gx:coord>
<gx:coord >9.315657 40.792562 1265</gx:coord>
<gx:coord >9.320312 40.795029 1233</gx:coord>
<gx:coord >9.325021 40.797543 1201</gx:coord>
<gx:coord >9.329041 40.799652 1178</gx:coord>
<gx:coord >9.332458 40.801483 1159</gx:coord>
<gx:coord >9.335938 40.803314 1138</gx:coord>
<gx:coord >9.340314 40.805643 1104</gx:coord>
<gx:coord >9.34436 40.807846 1072</gx:coord>
<gx:coord >9.349178 40.810345 1040</gx:coord>
<gx:coord >9.353984 40.812859 1004</gx:coord>
<gx:coord >9.359131 40.815536 971</gx:coord>
<gx:coord >9.362366 40.817276 952</gx:coord>
<gx:coord >9.367126 40.819748 920</gx:coord>
<gx:coord >9.372337 40.822449 889</gx:coord>
<gx:coord >9.37677 40.824783 858</gx:coord>
<gx:coord >9.38147 40.827301 822</gx:coord>
<gx:coord >9.38763 40.830502 790</gx:coord>
<gx:coord >9.392998 40.833342 758</gx:coord>
<gx:coord >9.396973 40.835403 731</gx:coord>
<gx:coord >9.403137 40.838654 697</gx:coord>
<gx:coord >9.40686 40.84053 670</gx:coord>
<gx:coord >9.411499 40.842911 638</gx:coord>
<gx:coord >9.416157 40.845446 607</gx:coord>
<gx:coord >9.422913 40.848953 562</gx:coord>
<gx:coord >9.427331 40.851358 531</gx:coord>
<gx:coord >9.4328 40.854263 501</gx:coord>
<gx:coord >9.438171 40.857056 470</gx:coord>
<gx:coord >9.442627 40.85939 439</gx:coord>
<gx:coord >9.44812 40.862274 402</gx:coord>
<gx:coord >9.457092 40.866943 356</gx:coord>
<gx:coord >9.460449 40.868729 333</gx:coord>
<gx:coord >9.463013 40.870056 318</gx:coord>
<gx:coord >9.480164 40.879074 203</gx:coord>
<gx:coord >9.480164 40.879074 203</gx:coord>
</gx:Track>
</Placemark>
</Folder>
</Folder>
</kml>
