<?xml version="1.0" encoding="UTF-8"?>
<kml xmlns="http://www.opengis.net/kml/2.2">
    <Document>
        <name>Edited Path</name>
        <description>Path edited with KML Path Editor</description>
        <Style id="pathStyle">
            <LineStyle>
                <color>ff0000ff</color>
                <width>3</width>
            </LineStyle>
        </Style>
        <Placemark>
            <name>Edited Path</name>
            <description>Total points: 2099</description>
            <styleUrl>#pathStyle</styleUrl>
            <LineString>
                <tessellate>1</tessellate>
                <coordinates>42.469135,42.180099,0 42.469509,42.179558,0 42.469757,42.179214,0 42.470039,42.178974,0 42.470322,42.178951,0 42.470669,42.179005,0 42.470989,42.179054,0 42.471195,42.179077,0 42.471523,42.179123,0 42.471802,42.179169,0 42.472084,42.179192,0 42.472286,42.179214,0 42.472523,42.179214,0 42.472744,42.179203,0 42.472954,42.179157,0 42.473255,42.179031,0 42.473465,42.178875,0 42.47364,42.178654,0 42.473766,42.178432,0 42.473942,42.17812,0 42.474072,42.177841,0 42.474205,42.177601,0 42.474361,42.177292,0 42.474487,42.177029,0 42.474773,42.176479,0 42.474937,42.176193,0 42.475174,42.176022,0 42.475422,42.175964,0 42.475666,42.175968,0 42.475891,42.176003,0 42.476212,42.176037,0 42.476421,42.176067,0 42.476654,42.176102,0 42.476936,42.176125,0 42.477219,42.17617,0 42.47747,42.176201,0 42.478477,42.176327,0 42.479527,42.176456,0 42.480682,42.176605,0 42.48201,42.176765,0 42.483494,42.176956,0 42.484848,42.177132,0 42.486687,42.177353,0 42.488316,42.177563,0 42.490421,42.177818,0 42.492683,42.178104,0 42.49419,42.178295,0 42.495483,42.178455,0 42.496243,42.178562,0 42.496475,42.178631,0 42.496731,42.178772,0 42.497005,42.178883,0 42.497208,42.178925,0 42.497425,42.178883,0 42.49741,42.178654,0 42.497177,42.178608,0 42.496971,42.178642,0 42.496475,42.178585,0 42.494541,42.178329,0 42.491058,42.177887,0 42.486504,42.177338,0 42.479149,42.176422,0 42.472889,42.175583,0 42.46516,42.174606,0 42.458664,42.173767,0 42.449425,42.172577,0 42.441933,42.171616,0 42.435505,42.170746,0 42.425816,42.169437,0 42.416092,42.168137,0 42.407547,42.167019,0 42.398605,42.165852,0 42.387745,42.164505,0 42.377846,42.163246,0 42.368088,42.162003,0 42.354786,42.160313,0 42.341995,42.158707,0 42.332367,42.157475,0 42.318836,42.155777,0 42.305222,42.154076,0 42.294872,42.152771,0 42.274704,42.150284,0 42.252781,42.147556,0 42.232758,42.145111,0 42.211262,42.142391,0 42.190247,42.13916,0 42.186375,42.138107,0 42.182568,42.136917,0 42.178684,42.135502,0 42.176193,42.134476,0 42.17252,42.132889,0 42.169167,42.131313,0 42.166714,42.130188,0 42.163715,42.128815,0 42.160969,42.127487,0 42.157223,42.12582,0 42.153854,42.124283,0 42.150902,42.123119,0 42.137814,42.11911,0 42.133846,42.118324,0 42.130333,42.117672,0 42.12714,42.117111,0 42.124073,42.1166,0 42.119793,42.115902,0 42.116402,42.115356,0 42.113155,42.114807,0 42.109909,42.114304,0 42.105663,42.113571,0 42.102417,42.113068,0 42.098587,42.112411,0 42.095074,42.111851,0 42.074253,42.10836,0 42.053875,42.10487,0 42.032444,42.101166,0 41.978378,42.091743,0 41.922955,42.081985,0 41.867275,42.072372,0 41.804703,42.061249,0 41.739933,42.049706,0 41.673889,42.037949,0 41.605724,42.025772,0 41.540741,42.014191,0 41.475048,42.002361,0 41.407032,41.990112,0 41.340054,41.977982,0 41.273079,41.965866,0 41.200729,41.952621,0 41.130253,41.939621,0 41.057312,41.92625,0 40.983154,41.912655,0 40.910339,41.899063,0 40.840549,41.886017,0 40.766048,41.872108,0 40.689911,41.857864,0 40.612003,41.849171,0 40.536221,41.839012,0 40.529644,41.840416,0 40.525459,41.836941,0 40.52047,41.836624,0 40.508602,41.837189,0 40.501537,41.835278,0 40.496151,41.834198,0 40.485172,41.833809,0 40.477325,41.832497,0 40.460411,41.831516,0 40.455597,41.830002,0 40.449707,41.829292,0 40.44471,41.828667,0 40.439228,41.827965,0 40.433895,41.827698,0 40.428379,41.827671,0 40.422333,41.827316,0 40.416988,41.826889,0 40.411636,41.825676,0 40.406982,41.824783,0 40.401829,41.824177,0 40.385578,41.822769,0 40.349903,41.816628,0 40.311615,41.812984,0 40.235584,41.802658,0 40.155064,41.791519,0 40.075134,41.781525,0 39.994274,41.770851,0 39.91367,41.760105,0 39.832146,41.749355,0 39.750164,41.738609,0 39.666977,41.727528,0 39.589787,41.717201,0 39.507446,41.706238,0 39.432121,41.696064,0 39.39764,41.691402,0 39.392345,41.690647,0 39.387081,41.689915,0 39.381149,41.689072,0 39.376492,41.68845,0 39.371063,41.687698,0 39.365765,41.686989,0 39.354137,41.685429,0 39.348999,41.684673,0 39.342972,41.683884,0 39.338104,41.683254,0 39.332794,41.682541,0 39.327667,41.681801,0 39.322472,41.681072,0 39.31702,41.680298,0 39.311493,41.6796,0 39.306389,41.678925,0 39.300987,41.678181,0 39.295567,41.67741,0 39.289444,41.676613,0 39.283825,41.675861,0 39.205173,41.665058,0 39.123646,41.653683,0 39.042225,41.642357,0 38.961998,41.631245,0 38.883385,41.62019,0 38.808228,41.609669,0 38.727966,41.598373,0 38.648899,41.586979,0 38.569912,41.575848,0 38.489933,41.564194,0 38.411472,41.553024,0 38.331539,41.541367,0 38.252529,41.529823,0 38.172775,41.51812,0 38.091301,41.506138,0 38.01078,41.494194,0 37.932262,41.482533,0 37.852718,41.470661,0 37.774086,41.458992,0 37.69508,41.447109,0 37.61665,41.43523,0 37.538322,41.423428,0 37.457882,41.411175,0 37.405571,41.402618,0 37.329441,41.391369,0 37.249043,41.379009,0 37.172798,41.367142,0 37.092136,41.354504,0 37.010296,41.341591,0 36.966854,41.331429,0 36.960423,41.332733,0 36.885082,41.321659,0 36.805378,41.308567,0 36.796173,41.306705,0 36.791016,41.305645,0 36.779366,41.304344,0 36.774353,41.303604,0 36.766476,41.302273,0 36.763893,41.301651,0 36.756893,41.300877,0 36.752514,41.300072,0 36.747189,41.298965,0 36.73674,41.297573,0 36.731125,41.29644,0 36.725639,41.294998,0 36.720959,41.294434,0 36.714447,41.293522,0 36.709614,41.292843,0 36.693768,41.291203,0 36.683723,41.288872,0 36.666054,41.286121,0 36.652092,41.283779,0 36.651497,41.270588,0 36.645473,41.273697,0 36.607151,41.277294,0 36.602303,41.27673,0 36.59724,41.275974,0 36.59124,41.275467,0 36.580845,41.274826,0 36.57629,41.274467,0 36.570663,41.274002,0 36.564236,41.273438,0 36.545361,41.272732,0 36.539452,41.272915,0 36.536797,41.272606,0 36.531601,41.271839,0 36.520851,41.272346,0 36.51524,41.272305,0 36.494324,41.27174,0 36.488731,41.27306,0 36.483383,41.273426,0 36.478546,41.272606,0 36.470722,41.273033,0 36.458523,41.273682,0 36.445091,41.275673,0 36.428722,41.277821,0 36.403423,41.278667,0 36.393318,41.279385,0 36.169926,41.293892,0 36.090332,41.299084,0 35.561882,41.332741,0 35.549778,41.334038,0 35.521534,41.336048,0 35.492157,41.337505,0 35.443714,41.334435,0 35.419609,41.342068,0 35.375687,41.344406,0 35.276756,41.350548,0 35.159809,41.356876,0 35.081726,41.361961,0 35.076687,41.360497,0 35.018147,41.36412,0 35.009144,41.366333,0 34.983192,41.367805,0 34.956989,41.363785,0 34.950359,41.36908,0 34.853981,41.37508,0 34.82383,41.376633,0 34.813786,41.37735,0 34.808769,41.377327,0 34.794102,41.375679,0 34.789684,41.378689,0 34.783924,41.379112,0 34.778343,41.379238,0 34.773403,41.379349,0 34.727036,41.382217,0 34.659447,41.382458,0 34.6521,41.386333,0 34.644943,41.385799,0 34.608253,41.39563,0 34.578938,41.387501,0 34.573544,41.388145,0 34.566906,41.390377,0 34.562588,41.391117,0 34.547424,41.3857,0 34.540821,41.390903,0 34.527119,41.390083,0 34.519497,41.400417,0 34.513725,41.398232,0 34.500481,41.395069,0 34.479118,41.39389,0 34.475464,41.395157,0 34.456604,41.394135,0 34.449276,41.396301,0 34.444435,41.395966,0 34.440174,41.395058,0 34.434296,41.397202,0 34.429306,41.398384,0 34.420044,41.397717,0 34.400833,41.400158,0 34.390251,41.39991,0 34.384743,41.399971,0 34.380581,41.401432,0 34.373569,41.399754,0 34.369942,41.401413,0 34.360275,41.401386,0 34.342564,41.404694,0 34.308773,41.409943,0 34.286259,41.413937,0 34.268524,41.420616,0 34.263443,41.420811,0 34.258228,41.42231,0 34.238174,41.429066,0 34.233082,41.429855,0 34.225639,41.431965,0 34.216816,41.43449,0 34.196571,41.439796,0 34.189125,41.441437,0 34.183674,41.442802,0 34.082298,41.467007,0 34.077106,41.470337,0 34.07058,41.470055,0 34.067093,41.472717,0 34.061249,41.473461,0 34.057285,41.475388,0 34.052345,41.475822,0 34.027542,41.483067,0 34.008732,41.487801,0 34.003468,41.489292,0 33.998695,41.490582,0 33.993999,41.491421,0 33.989449,41.492916,0 33.984577,41.494137,0 33.955437,41.501675,0 33.9259,41.509438,0 33.852036,41.528297,0 33.779346,41.546806,0 33.706284,41.565426,0 33.646397,41.580688,0 33.63797,41.583855,0 33.616016,41.588642,0 33.612747,41.590454,0 33.587021,41.592781,0 33.589645,41.5979,0 33.570492,41.596912,0 33.565727,41.598297,0 33.552826,41.605404,0 33.546928,41.605904,0 33.541897,41.606937,0 33.518471,41.612709,0 33.514618,41.613907,0 33.508827,41.615158,0 33.503685,41.619396,0 33.498085,41.619041,0 33.490883,41.619396,0 33.486385,41.621101,0 33.48196,41.622398,0 33.477173,41.623394,0 33.456825,41.628986,0 33.454136,41.630905,0 33.448544,41.631664,0 33.438042,41.63369,0 33.433559,41.634933,0 33.384388,41.646629,0 33.379631,41.647812,0 33.339897,41.660732,0 33.306957,41.666733,0 33.271564,41.674923,0 33.242149,41.683441,0 33.23793,41.684425,0 33.161972,41.701977,0 33.089245,41.720119,0 33.036777,41.734394,0 33.030968,41.734669,0 33.023411,41.734272,0 33.018589,41.735149,0 33.014885,41.737251,0 33.009094,41.738235,0 32.982071,41.747269,0 32.975536,41.74704,0 32.97094,41.748344,0 32.96656,41.749805,0 32.962147,41.75164,0 32.957676,41.753353,0 32.952282,41.754494,0 32.912029,41.762527,0 32.90799,41.764004,0 32.903473,41.765884,0 32.89941,41.767624,0 32.894089,41.7682,0 32.874859,41.77375,0 32.870113,41.775005,0 32.8657,41.776985,0 32.861504,41.778774,0 32.857441,41.780613,0 32.832485,41.786129,0 32.764542,41.804375,0 32.690727,41.822403,0 32.681866,41.825562,0 32.674782,41.828846,0 32.670803,41.831863,0 32.667091,41.834942,0 32.660717,41.833763,0 32.655869,41.835472,0 32.65118,41.836559,0 32.646358,41.83699,0 32.641254,41.838547,0 32.636154,41.839443,0 32.631229,41.840809,0 32.619717,41.838005,0 32.613934,41.841682,0 32.609573,41.843323,0 32.604408,41.844082,0 32.599228,41.84478,0 32.594246,41.845608,0 32.588776,41.846561,0 32.584557,41.847561,0 32.579571,41.848957,0 32.574215,41.850784,0 32.569344,41.851643,0 32.564465,41.852688,0 32.559055,41.854046,0 32.554832,41.85511,0 32.546234,41.856007,0 32.539314,41.856869,0 32.53685,41.860569,0 32.526176,41.860828,0 32.506775,41.861065,0 32.502026,41.86002,0 32.458088,41.871334,0 32.45676,41.876896,0 32.378613,41.889061,0 32.349667,41.895054,0 32.350433,41.900269,0 32.272552,41.908436,0 32.267612,41.909588,0 32.262421,41.910435,0 32.257278,41.911453,0 32.013973,41.982403,0 32.001549,41.984486,0 31.994802,41.990368,0 31.990088,41.991879,0 31.981419,41.987919,0 31.976273,41.989891,0 31.972172,41.990299,0 31.966106,41.991608,0 31.961626,41.992439,0 31.956848,41.99358,0 31.951662,41.994495,0 31.946095,41.995834,0 31.941904,41.996616,0 31.937496,41.99786,0 31.926756,42.001934,0 31.92012,42.002373,0 31.912668,42.004456,0 31.907558,42.005219,0 31.902832,42.008614,0 31.898275,42.007088,0 31.892431,42.00806,0 31.888018,42.010052,0 31.883398,42.011578,0 31.874186,42.014229,0 31.868597,42.015358,0 31.859251,42.01627,0 31.853827,42.017365,0 31.848301,42.017864,0 31.843813,42.020111,0 31.838297,42.021481,0 31.833239,42.021858,0 31.82794,42.022202,0 31.818932,42.024837,0 31.81147,42.026264,0 31.804762,42.029865,0 31.791763,42.032219,0 31.786451,42.03236,0 31.778086,42.035332,0 31.752764,42.042088,0 31.742184,42.042656,0 31.737411,42.043839,0 31.731083,42.046562,0 31.726999,42.046322,0 31.722084,42.047153,0 31.71731,42.048222,0 31.712263,42.049511,0 31.70768,42.050587,0 31.682865,42.056347,0 31.677927,42.057247,0 31.662962,42.060707,0 31.596811,42.076889,0 31.527189,42.092487,0 31.512844,42.096436,0 31.482452,42.103313,0 31.442562,42.112122,0 31.413301,42.118961,0 31.373293,42.12825,0 31.328676,42.138905,0 31.303019,42.144466,0 31.22751,42.161877,0 31.193695,42.170021,0 31.183062,42.172028,0 31.123404,42.185608,0 31.118742,42.186707,0 31.112337,42.188095,0 31.068502,42.199215,0 31.064112,42.199852,0 31.038637,42.20507,0 31.033611,42.206287,0 31.028292,42.207912,0 31.018076,42.210197,0 30.998844,42.214088,0 30.993517,42.215427,0 30.958258,42.223335,0 30.947941,42.225601,0 30.941402,42.226795,0 30.937763,42.228146,0 30.862206,42.245369,0 30.785507,42.262215,0 30.708881,42.279331,0 30.63225,42.296379,0 30.555601,42.313305,0 30.4792,42.330147,0 30.45929,42.334003,0 30.38748,42.350204,0 30.310886,42.367126,0 30.233685,42.3839,0 30.158388,42.400455,0 30.081047,42.417061,0 29.999538,42.434669,0 29.922251,42.451336,0 29.846775,42.472755,0 29.775251,42.500607,0 29.703751,42.528942,0 29.632408,42.557053,0 29.56134,42.58453,0 29.486303,42.606575,0 29.411226,42.627895,0 29.336617,42.649136,0 29.26206,42.670219,0 29.186167,42.69165,0 29.108505,42.713383,0 29.033199,42.734459,0 28.958614,42.755306,0 28.884138,42.776058,0 28.809477,42.79673,0 28.734116,42.81749,0 28.659693,42.838165,0 28.584206,42.858826,0 28.508413,42.879517,0 28.432411,42.900173,0 28.357157,42.920528,0 28.281466,42.941078,0 28.202879,42.96217,0 28.127367,42.982468,0 28.051134,43.002838,0 27.97443,43.023232,0 27.89786,43.043495,0 27.822018,43.06356,0 27.747026,43.083324,0 27.670933,43.103481,0 27.594753,43.123405,0 27.518726,43.143291,0 27.442188,43.163395,0 27.366142,43.183338,0 27.288403,43.203579,0 27.211353,43.223419,0 27.13394,43.243637,0 27.055946,43.26347,0 26.976746,43.284035,0 26.900064,43.303585,0 26.821365,43.323727,0 26.742792,43.343906,0 26.695686,43.355865,0 26.58819,43.38274,0 26.510031,43.402519,0 26.431721,43.422153,0 26.353285,43.441654,0 26.274225,43.461334,0 26.195908,43.480698,0 26.110844,43.501808,0 26.031382,43.521328,0 25.952061,43.540665,0 25.872255,43.560242,0 25.792814,43.579693,0 25.714851,43.59866,0 25.63485,43.618061,0 25.556404,43.6371,0 25.476336,43.656292,0 25.396072,43.675549,0 25.317423,43.694389,0 25.237083,43.713463,0 25.158228,43.732086,0 25.077415,43.751163,0 24.998594,43.769722,0 24.919006,43.788345,0 24.83828,43.807156,0 24.758667,43.825809,0 24.678226,43.844604,0 24.596966,43.863632,0 24.517061,43.882561,0 24.438187,43.901188,0 24.358852,43.919861,0 24.279621,43.938431,0 24.198723,43.956612,0 24.118813,43.97438,0 24.038017,43.992546,0 23.958521,44.010269,0 23.877768,44.028275,0 23.798134,44.045959,0 23.717939,44.063686,0 23.636665,44.081375,0 23.555935,44.099033,0 23.475473,44.116516,0 23.395407,44.133915,0 23.31505,44.15123,0 23.233423,44.163486,0 23.152178,44.173466,0 23.071634,44.18346,0 22.989988,44.19355,0 22.90906,44.203289,0 22.828938,44.212852,0 22.745749,44.222805,0 22.663017,44.232666,0 22.580547,44.24239,0 22.499216,44.249653,0 22.493732,44.249638,0 22.488295,44.249409,0 22.482891,44.249199,0 22.477179,44.248852,0 22.472324,44.248341,0 22.466303,44.247704,0 22.46106,44.247173,0 22.454969,44.246433,0 22.450432,44.245853,0 22.444687,44.245121,0 22.438667,44.244358,0 22.432806,44.243584,0 22.428242,44.243023,0 22.345915,44.232769,0 22.264324,44.222538,0 22.184052,44.212578,0 22.103828,44.202557,0 22.022104,44.192524,0 21.978973,44.189518,0 21.973116,44.189655,0 21.967777,44.189934,0 21.962355,44.19038,0 21.956947,44.190914,0 21.95166,44.191582,0 21.946163,44.192406,0 21.940748,44.193306,0 21.935272,44.19429,0 21.930164,44.195328,0 21.924986,44.196289,0 21.91987,44.197285,0 21.914581,44.198326,0 21.909262,44.199276,0 21.904106,44.200211,0 21.898989,44.201176,0 21.818317,44.214157,0 21.736828,44.226234,0 21.653542,44.238777,0 21.572649,44.251125,0 21.491446,44.263386,0 21.409599,44.275673,0 21.329071,44.287495,0 21.24839,44.299667,0 21.166849,44.311668,0 21.083715,44.323971,0 21.000826,44.3363,0 20.919233,44.348274,0 20.836927,44.35981,0 20.753431,44.364681,0 20.669502,44.369335,0 20.585154,44.37418,0 20.50198,44.378689,0 20.418432,44.383186,0 20.335186,44.387665,0 20.25235,44.391941,0 20.168633,44.39624,0 20.085238,44.400406,0 20.001711,44.404659,0 19.918722,44.408703,0 19.835888,44.412792,0 19.753117,44.416893,0 19.669809,44.420834,0 19.587778,44.424591,0 19.504101,44.428436,0 19.420492,44.432137,0 19.336714,44.435856,0 19.253349,44.439491,0 19.170666,44.443127,0 19.086006,44.446644,0 19.002583,44.450134,0 18.919092,44.453705,0 18.83485,44.456772,0 18.74995,44.459885,0 18.666834,44.463093,0 18.583176,44.466427,0 18.499746,44.469456,0 18.416033,44.47237,0 18.330914,44.475498,0 18.248508,44.478237,0 18.166096,44.481113,0 18.084215,44.483761,0 18.000145,44.486435,0 17.915728,44.489258,0 17.83073,44.491913,0 17.746225,44.494518,0 17.66131,44.497078,0 17.576149,44.499458,0 17.492552,44.501858,0 17.407976,44.504097,0 17.323696,44.506386,0 17.237892,44.50856,0 17.153217,44.510693,0 17.069363,44.512718,0 16.983738,44.51469,0 16.89805,44.516659,0 16.812515,44.518559,0 16.726006,44.520359,0 16.640093,44.522236,0 16.554714,44.523918,0 16.468811,44.525623,0 16.384615,44.527237,0 16.299606,44.528564,0 16.21483,44.529945,0 16.130672,44.531288,0 16.046314,44.532658,0 15.96005,44.534088,0 15.871516,44.535309,0 15.785611,44.536396,0 15.700178,44.537418,0 15.615293,44.538357,0 15.530431,44.539284,0 15.44438,44.540112,0 15.360665,44.540848,0 15.276745,44.541534,0 15.191966,44.542278,0 15.105976,44.542927,0 15.020112,44.543533,0 14.93465,44.54398,0 14.848309,44.544434,0 14.761711,44.544804,0 14.675386,44.544975,0 14.586966,44.54509,0 14.499552,44.54517,0 14.411164,44.545364,0 14.32226,44.545467,0 14.23518,44.545506,0 14.14893,44.5453,0 14.062991,44.545105,0 13.972452,44.544975,0 13.886345,44.544682,0 13.79783,44.544258,0 13.709776,44.543701,0 13.621612,44.543148,0 13.533656,44.54261,0 13.439546,44.541889,0 13.351635,44.541142,0 13.261879,44.540398,0 13.173716,44.539589,0 13.084083,44.538551,0 12.9967,44.537811,0 12.909683,44.53677,0 12.824408,44.53561,0 12.73941,44.534439,0 12.654857,44.533276,0 12.570266,44.531803,0 12.484391,44.52911,0 12.397541,44.525887,0 12.310907,44.52277,0 12.226999,44.5196,0 12.142666,44.51638,0 12.058199,44.513313,0 11.974129,44.510098,0 11.889925,44.506851,0 11.806498,44.503551,0 11.723118,44.500156,0 11.63833,44.496609,0 11.553698,44.493065,0 11.467592,44.489361,0 11.384529,44.485779,0 11.301395,44.482094,0 11.218849,44.478436,0 11.134434,44.474701,0 11.049531,44.470699,0 10.966197,44.466885,0 10.882375,44.462776,0 10.796664,44.458527,0 10.712637,44.454296,0 10.62918,44.450138,0 10.545338,44.44577,0 10.455191,44.441193,0 10.364665,44.436485,0 10.278618,44.430641,0 10.194154,44.420151,0 10.112078,44.410057,0 10.028935,44.399998,0 9.945345,44.389816,0 9.860509,44.379147,0 9.775548,44.36853,0 9.692053,44.358109,0 9.607376,44.347073,0 9.521317,44.337437,0 9.435726,44.33012,0 9.347921,44.322498,0 9.26006,44.314163,0 9.174028,44.306019,0 9.087621,44.297657,0 9.001807,44.289295,0 8.915641,44.280785,0 8.829729,44.272079,0 8.743142,44.263279,0 8.658618,44.254917,0 8.57233,44.246323,0 8.48626,44.237568,0 8.400648,44.228565,0 8.313879,44.219688,0 8.22835,44.210835,0 8.144463,44.201702,0 8.068925,44.191502,0 8.063762,44.19014,0 8.058681,44.188698,0 8.053371,44.187103,0 8.048364,44.185375,0 8.043571,44.183681,0 8.038754,44.181744,0 8.033916,44.179733,0 8.029269,44.177738,0 8.023977,44.175392,0 8.019352,44.173313,0 8.014708,44.171188,0 8.010082,44.169132,0 8.005411,44.167,0 8.000863,44.165005,0 7.995818,44.162724,0 7.923746,44.132076,0 7.850143,44.101955,0 7.778769,44.072697,0 7.705666,44.041985,0 7.633436,44.011341,0 7.563296,43.982197,0 7.487629,43.949989,0 7.414923,43.918777,0 7.342536,43.888428,0 7.269563,43.857346,0 7.197085,43.826626,0 7.126234,43.796375,0 7.048856,43.770657,0 6.970975,43.747219,0 6.897763,43.724781,0 6.824841,43.702225,0 6.750547,43.6796,0 6.676342,43.656815,0 6.60234,43.633926,0 6.526376,43.610378,0 6.452007,43.587242,0 6.376829,43.563972,0 6.302079,43.540615,0 6.22649,43.516697,0 6.150497,43.492878,0 6.075814,43.469444,0 5.999491,43.445282,0 5.923611,43.421337,0 5.847975,43.397099,0 5.772492,43.37307,0 5.697279,43.349098,0 5.621373,43.32476,0 5.546609,43.300739,0 5.469701,43.275993,0 5.394215,43.251545,0 5.319951,43.227379,0 5.243596,43.20332,0 5.166677,43.179665,0 5.091105,43.155849,0 5.014953,43.131809,0 4.938797,43.107674,0 4.863622,43.082397,0 4.792814,43.050137,0 4.723316,43.008797,0 4.665188,42.964039,0 4.609,42.917236,0 4.553425,42.871479,0 4.497839,42.825279,0 4.442288,42.779003,0 4.386858,42.732613,0 4.331344,42.686039,0 4.274995,42.638901,0 4.218837,42.591408,0 4.163047,42.544197,0 4.107738,42.497364,0 4.051697,42.449951,0 3.996799,42.403416,0 3.942366,42.35717,0 3.887976,42.311314,0 3.834238,42.265511,0 3.78178,42.220467,0 3.729672,42.175816,0 3.678262,42.131416,0 3.628556,42.089031,0 3.574711,42.050034,0 3.521539,42.012089,0 3.470268,41.975159,0 3.419147,41.938358,0 3.369729,41.902935,0 3.320647,41.867676,0 3.276599,41.838753,0 3.272957,41.836914,0 3.268878,41.835014,0 3.265512,41.833427,0 3.261405,41.831631,0 3.258161,41.830158,0 3.253835,41.828201,0 3.249995,41.826477,0 3.24628,41.824871,0 3.188044,41.797733,0 3.129096,41.769421,0 3.071917,41.741989,0 3.013364,41.714211,0 2.957439,41.687012,0 2.900927,41.659863,0 2.876892,41.64851,0 2.854646,41.637848,0 2.831972,41.627209,0 2.809199,41.616169,0 2.787327,41.605419,0 2.762162,41.59346,0 2.737549,41.58157,0 2.717799,41.571945,0 2.695382,41.561565,0 2.674109,41.551235,0 2.655694,41.54237,0 2.638005,41.53389,0 2.621516,41.525463,0 2.60372,41.517109,0 2.581825,41.50703,0 2.564577,41.498299,0 2.546497,41.489326,0 2.526682,41.479481,0 2.509055,41.471027,0 2.491144,41.462337,0 2.473807,41.454113,0 2.465441,41.449917,0 2.453473,41.444424,0 2.444326,41.438477,0 2.432105,41.433502,0 2.423052,41.42849,0 2.412707,41.424526,0 2.402156,41.418575,0 2.389242,41.413162,0 2.379787,41.408348,0 2.369342,41.402721,0 2.359953,41.398159,0 2.348265,41.392319,0 2.339963,41.388336,0 2.331482,41.384583,0 2.322754,41.381012,0 2.320175,41.380005,0 2.317116,41.378796,0 2.313683,41.377491,0 2.310687,41.376373,0 2.308044,41.375427,0 2.305603,41.374512,0 2.302447,41.373394,0 2.299763,41.372463,0 2.296753,41.371445,0 2.294457,41.370647,0 2.291809,41.369751,0 2.288757,41.368698,0 2.286155,41.367855,0 2.275635,41.364395,0 2.265259,41.360962,0 2.258065,41.358543,0 2.24823,41.355194,0 2.23965,41.352261,0 2.230713,41.349197,0 2.222351,41.346313,0 2.215868,41.344112,0 2.208313,41.341507,0 2.202454,41.339539,0 2.195767,41.337223,0 2.189514,41.335144,0 2.185218,41.333637,0 2.178589,41.331436,0 2.174255,41.32988,0 2.170044,41.328461,0 2.163513,41.326218,0 2.158813,41.324608,0 2.154382,41.323071,0 2.14856,41.321136,0 2.142517,41.319031,0 2.136654,41.317066,0 2.131972,41.315437,0 2.126042,41.313389,0 2.119924,41.31134,0 2.114136,41.309372,0 2.107849,41.30722,0 2.101929,41.305161,0 2.097452,41.303612,0 2.092773,41.302048,0 2.089249,41.300835,0 2.086578,41.299919,0 2.084564,41.299232,0 2.082346,41.298481,0 2.080521,41.297882,0 2.080292,41.297813,0 2.079678,41.297676,0 2.079209,41.297619,0 2.07807,41.297573,0 2.077633,41.297596,0 2.077399,41.297607,0 2.077148,41.29763,0 2.076869,41.297653,0 2.076645,41.297688,0 2.076416,41.297791,0 2.076218,41.298008,0 2.076096,41.298225,0 2.075958,41.298454,0 2.075775,41.298752,0 2.075638,41.298992,0 2.075363,41.299461,0 2.075214,41.29969,0 2.074965,41.299759,0 2.074753,41.299747,0 2.074528,41.299736,0 2.07431,41.299885,0 2.074387,41.300205,0 2.074481,41.300423,0 42.465607,42.180553,0 42.469135,42.180099,0 42.469509,42.179558,0 42.469757,42.179214,0 42.470039,42.178974,0 42.470322,42.178951,0 42.470669,42.179005,0 42.470989,42.179054,0 42.471195,42.179077,0 42.471523,42.179123,0 42.471802,42.179169,0 42.472084,42.179192,0 42.472286,42.179214,0 42.472523,42.179214,0 42.472744,42.179203,0 42.472954,42.179157,0 42.473255,42.179031,0 42.473465,42.178875,0 42.47364,42.178654,0 42.473766,42.178432,0 42.473942,42.17812,0 42.474072,42.177841,0 42.474205,42.177601,0 42.474361,42.177292,0 42.474487,42.177029,0 42.474773,42.176479,0 42.474937,42.176193,0 42.475174,42.176022,0 42.475422,42.175964,0 42.475666,42.175968,0 42.475891,42.176003,0 42.476212,42.176037,0 42.476421,42.176067,0 42.476654,42.176102,0 42.476936,42.176125,0 42.477219,42.17617,0 42.47747,42.176201,0 42.478477,42.176327,0 42.479527,42.176456,0 42.480682,42.176605,0 42.48201,42.176765,0 42.483494,42.176956,0 42.484848,42.177132,0 42.486687,42.177353,0 42.488316,42.177563,0 42.490421,42.177818,0 42.492683,42.178104,0 42.49419,42.178295,0 42.495483,42.178455,0 42.496243,42.178562,0 42.496475,42.178631,0 42.496731,42.178772,0 42.497005,42.178883,0 42.497208,42.178925,0 42.497425,42.178883,0 42.49741,42.178654,0 42.497177,42.178608,0 42.496971,42.178642,0 42.496475,42.178585,0 42.494541,42.178329,0 42.491058,42.177887,0 42.486504,42.177338,0 42.479149,42.176422,0 42.472889,42.175583,0 42.46516,42.174606,0 42.458664,42.173767,0 42.449425,42.172577,0 42.441933,42.171616,0 42.435505,42.170746,0 42.425816,42.169437,0 42.416092,42.168137,0 42.407547,42.167019,0 42.398605,42.165852,0 42.387745,42.164505,0 42.377846,42.163246,0 42.368088,42.162003,0 42.354786,42.160313,0 42.341995,42.158707,0 42.332367,42.157475,0 42.318836,42.155777,0 42.305222,42.154076,0 42.294872,42.152771,0 42.274704,42.150284,0 42.252781,42.147556,0 42.232758,42.145111,0 42.211262,42.142391,0 42.190247,42.13916,0 42.186375,42.138107,0 42.182568,42.136917,0 42.178684,42.135502,0 42.176193,42.134476,0 42.17252,42.132889,0 42.169167,42.131313,0 42.166714,42.130188,0 42.163715,42.128815,0 42.160969,42.127487,0 42.157223,42.12582,0 42.153854,42.124283,0 42.150902,42.123119,0 42.137814,42.11911,0 42.133846,42.118324,0 42.130333,42.117672,0 42.12714,42.117111,0 42.124073,42.1166,0 42.119793,42.115902,0 42.116402,42.115356,0 42.113155,42.114807,0 42.109909,42.114304,0 42.105663,42.113571,0 42.102417,42.113068,0 42.098587,42.112411,0 42.095074,42.111851,0 42.074253,42.10836,0 42.053875,42.10487,0 42.032444,42.101166,0 41.978378,42.091743,0 41.922955,42.081985,0 41.867275,42.072372,0 41.804703,42.061249,0 41.739933,42.049706,0 41.673889,42.037949,0 41.605724,42.025772,0 41.540741,42.014191,0 41.475048,42.002361,0 41.407032,41.990112,0 41.340054,41.977982,0 41.273079,41.965866,0 41.200729,41.952621,0 41.130253,41.939621,0 41.057312,41.92625,0 40.983154,41.912655,0 40.910339,41.899063,0 40.840549,41.886017,0 40.766048,41.872108,0 40.689911,41.857864,0 40.612003,41.849171,0 40.536221,41.839012,0 40.529644,41.840416,0 40.525459,41.836941,0 40.52047,41.836624,0 40.508602,41.837189,0 40.501537,41.835278,0 40.496151,41.834198,0 40.485172,41.833809,0 40.477325,41.832497,0 40.460411,41.831516,0 40.455597,41.830002,0 40.449707,41.829292,0 40.44471,41.828667,0 40.439228,41.827965,0 40.433895,41.827698,0 40.428379,41.827671,0 40.422333,41.827316,0 40.416988,41.826889,0 40.411636,41.825676,0 40.406982,41.824783,0 40.401829,41.824177,0 40.385578,41.822769,0 40.349903,41.816628,0 40.311615,41.812984,0 40.235584,41.802658,0 40.155064,41.791519,0 40.075134,41.781525,0 39.994274,41.770851,0 39.91367,41.760105,0 39.832146,41.749355,0 39.750164,41.738609,0 39.666977,41.727528,0 39.589787,41.717201,0 39.507446,41.706238,0 39.432121,41.696064,0 39.39764,41.691402,0 39.392345,41.690647,0 39.387081,41.689915,0 39.381149,41.689072,0 39.376492,41.68845,0 39.371063,41.687698,0 39.365765,41.686989,0 39.354137,41.685429,0 39.348999,41.684673,0 39.342972,41.683884,0 39.338104,41.683254,0 39.332794,41.682541,0 39.327667,41.681801,0 39.322472,41.681072,0 39.31702,41.680298,0 39.311493,41.6796,0 39.306389,41.678925,0 39.300987,41.678181,0 39.295567,41.67741,0 39.289444,41.676613,0 39.283825,41.675861,0 39.205173,41.665058,0 39.123646,41.653683,0 39.042225,41.642357,0 38.961998,41.631245,0 38.883385,41.62019,0 38.808228,41.609669,0 38.727966,41.598373,0 38.648899,41.586979,0 38.569912,41.575848,0 38.489933,41.564194,0 38.411472,41.553024,0 38.331539,41.541367,0 38.252529,41.529823,0 38.172775,41.51812,0 38.091301,41.506138,0 38.01078,41.494194,0 37.932262,41.482533,0 37.852718,41.470661,0 37.774086,41.458992,0 37.69508,41.447109,0 37.61665,41.43523,0 37.538322,41.423428,0 37.457882,41.411175,0 37.405571,41.402618,0 37.329441,41.391369,0 37.249043,41.379009,0 37.172798,41.367142,0 37.092136,41.354504,0 37.010296,41.341591,0 36.966854,41.331429,0 36.960423,41.332733,0 36.885082,41.321659,0 36.805378,41.308567,0 36.796173,41.306705,0 36.791016,41.305645,0 36.779366,41.304344,0 36.774353,41.303604,0 36.766476,41.302273,0 36.763893,41.301651,0 36.756893,41.300877,0 36.752514,41.300072,0 36.747189,41.298965,0 36.73674,41.297573,0 36.731125,41.29644,0 36.725639,41.294998,0 36.720959,41.294434,0 36.714447,41.293522,0 36.709614,41.292843,0 36.693768,41.291203,0 36.683723,41.288872,0 36.666054,41.286121,0 36.652092,41.283779,0 36.651497,41.270588,0 36.645473,41.273697,0 36.607151,41.277294,0 36.602303,41.27673,0 36.59724,41.275974,0 36.59124,41.275467,0 36.580845,41.274826,0 36.57629,41.274467,0 36.570663,41.274002,0 36.564236,41.273438,0 36.545361,41.272732,0 36.539452,41.272915,0 36.536797,41.272606,0 36.531601,41.271839,0 36.520851,41.272346,0 36.51524,41.272305,0 36.494324,41.27174,0 36.488731,41.27306,0 36.483383,41.273426,0 36.478546,41.272606,0 36.470722,41.273033,0 36.458523,41.273682,0 36.445091,41.275673,0 36.428722,41.277821,0 36.403423,41.278667,0 36.393318,41.279385,0 36.169926,41.293892,0 36.090332,41.299084,0 35.561882,41.332741,0 35.549778,41.334038,0 35.521534,41.336048,0 35.492157,41.337505,0 35.443714,41.334435,0 35.419609,41.342068,0 35.375687,41.344406,0 35.276756,41.350548,0 35.159809,41.356876,0 35.081726,41.361961,0 35.076687,41.360497,0 35.018147,41.36412,0 35.009144,41.366333,0 34.983192,41.367805,0 34.956989,41.363785,0 34.950359,41.36908,0 34.853981,41.37508,0 34.82383,41.376633,0 34.813786,41.37735,0 34.808769,41.377327,0 34.794102,41.375679,0 34.789684,41.378689,0 34.783924,41.379112,0 34.778343,41.379238,0 34.773403,41.379349,0 34.727036,41.382217,0 34.659447,41.382458,0 34.6521,41.386333,0 34.644943,41.385799,0 34.608253,41.39563,0 34.578938,41.387501,0 34.573544,41.388145,0 34.566906,41.390377,0 34.562588,41.391117,0 34.547424,41.3857,0 34.540821,41.390903,0 34.527119,41.390083,0 34.519497,41.400417,0 34.513725,41.398232,0 34.500481,41.395069,0 34.479118,41.39389,0 34.475464,41.395157,0 34.456604,41.394135,0 34.449276,41.396301,0 34.444435,41.395966,0 34.440174,41.395058,0 34.434296,41.397202,0 34.429306,41.398384,0 34.420044,41.397717,0 34.400833,41.400158,0 34.390251,41.39991,0 34.384743,41.399971,0 34.380581,41.401432,0 34.373569,41.399754,0 34.369942,41.401413,0 34.360275,41.401386,0 34.342564,41.404694,0 34.308773,41.409943,0 34.286259,41.413937,0 34.268524,41.420616,0 34.263443,41.420811,0 34.258228,41.42231,0 34.238174,41.429066,0 34.233082,41.429855,0 34.225639,41.431965,0 34.216816,41.43449,0 34.196571,41.439796,0 34.189125,41.441437,0 34.183674,41.442802,0 34.082298,41.467007,0 34.077106,41.470337,0 34.07058,41.470055,0 34.067093,41.472717,0 34.061249,41.473461,0 34.057285,41.475388,0 34.052345,41.475822,0 34.027542,41.483067,0 34.008732,41.487801,0 34.003468,41.489292,0 33.998695,41.490582,0 33.993999,41.491421,0 33.989449,41.492916,0 33.984577,41.494137,0 33.955437,41.501675,0 33.9259,41.509438,0 33.852036,41.528297,0 33.779346,41.546806,0 33.706284,41.565426,0 33.646397,41.580688,0 33.63797,41.583855,0 33.616016,41.588642,0 33.612747,41.590454,0 33.587021,41.592781,0 33.589645,41.5979,0 33.570492,41.596912,0 33.565727,41.598297,0 33.552826,41.605404,0 33.546928,41.605904,0 33.541897,41.606937,0 33.518471,41.612709,0 33.514618,41.613907,0 33.508827,41.615158,0 33.503685,41.619396,0 33.498085,41.619041,0 33.490883,41.619396,0 33.486385,41.621101,0 33.48196,41.622398,0 33.477173,41.623394,0 33.456825,41.628986,0 33.454136,41.630905,0 33.448544,41.631664,0 33.438042,41.63369,0 33.433559,41.634933,0 33.384388,41.646629,0 33.379631,41.647812,0 33.339897,41.660732,0 33.306957,41.666733,0 33.271564,41.674923,0 33.242149,41.683441,0 33.23793,41.684425,0 33.161972,41.701977,0 33.089245,41.720119,0 33.036777,41.734394,0 33.030968,41.734669,0 33.023411,41.734272,0 33.018589,41.735149,0 33.014885,41.737251,0 33.009094,41.738235,0 32.982071,41.747269,0 32.975536,41.74704,0 32.97094,41.748344,0 32.96656,41.749805,0 32.962147,41.75164,0 32.957676,41.753353,0 32.952282,41.754494,0 32.912029,41.762527,0 32.90799,41.764004,0 32.903473,41.765884,0 32.89941,41.767624,0 32.894089,41.7682,0 32.874859,41.77375,0 32.870113,41.775005,0 32.8657,41.776985,0 32.861504,41.778774,0 32.857441,41.780613,0 32.832485,41.786129,0 32.764542,41.804375,0 32.690727,41.822403,0 32.681866,41.825562,0 32.674782,41.828846,0 32.670803,41.831863,0 32.667091,41.834942,0 32.660717,41.833763,0 32.655869,41.835472,0 32.65118,41.836559,0 32.646358,41.83699,0 32.641254,41.838547,0 32.636154,41.839443,0 32.631229,41.840809,0 32.619717,41.838005,0 32.613934,41.841682,0 32.609573,41.843323,0 32.604408,41.844082,0 32.599228,41.84478,0 32.594246,41.845608,0 32.588776,41.846561,0 32.584557,41.847561,0 32.579571,41.848957,0 32.574215,41.850784,0 32.569344,41.851643,0 32.564465,41.852688,0 32.559055,41.854046,0 32.554832,41.85511,0 32.546234,41.856007,0 32.539314,41.856869,0 32.53685,41.860569,0 32.526176,41.860828,0 32.506775,41.861065,0 32.502026,41.86002,0 32.458088,41.871334,0 32.45676,41.876896,0 32.378613,41.889061,0 32.349667,41.895054,0 32.350433,41.900269,0 32.272552,41.908436,0 32.267612,41.909588,0 32.262421,41.910435,0 32.257278,41.911453,0 32.013973,41.982403,0 32.001549,41.984486,0 31.994802,41.990368,0 31.990088,41.991879,0 31.981419,41.987919,0 31.976273,41.989891,0 31.972172,41.990299,0 31.966106,41.991608,0 31.961626,41.992439,0 31.956848,41.99358,0 31.951662,41.994495,0 31.946095,41.995834,0 31.941904,41.996616,0 31.937496,41.99786,0 31.926756,42.001934,0 31.92012,42.002373,0 31.912668,42.004456,0 31.907558,42.005219,0 31.902832,42.008614,0 31.898275,42.007088,0 31.892431,42.00806,0 31.888018,42.010052,0 31.883398,42.011578,0 31.874186,42.014229,0 31.868597,42.015358,0 31.859251,42.01627,0 31.853827,42.017365,0 31.848301,42.017864,0 31.843813,42.020111,0 31.838297,42.021481,0 31.833239,42.021858,0 31.82794,42.022202,0 31.818932,42.024837,0 31.81147,42.026264,0 31.804762,42.029865,0 31.791763,42.032219,0 31.786451,42.03236,0 31.778086,42.035332,0 31.752764,42.042088,0 31.742184,42.042656,0 31.737411,42.043839,0 31.731083,42.046562,0 31.726999,42.046322,0 31.722084,42.047153,0 31.71731,42.048222,0 31.712263,42.049511,0 31.70768,42.050587,0 31.682865,42.056347,0 31.677927,42.057247,0 31.662962,42.060707,0 31.596811,42.076889,0 31.527189,42.092487,0 31.512844,42.096436,0 31.482452,42.103313,0 31.442562,42.112122,0 31.413301,42.118961,0 31.373293,42.12825,0 31.328676,42.138905,0 31.303019,42.144466,0 31.22751,42.161877,0 31.193695,42.170021,0 31.183062,42.172028,0 31.123404,42.185608,0 31.118742,42.186707,0 31.112337,42.188095,0 31.068502,42.199215,0 31.064112,42.199852,0 31.038637,42.20507,0 31.033611,42.206287,0 31.028292,42.207912,0 31.018076,42.210197,0 30.998844,42.214088,0 30.993517,42.215427,0 30.958258,42.223335,0 30.947941,42.225601,0 30.941402,42.226795,0 30.937763,42.228146,0 30.862206,42.245369,0 30.785507,42.262215,0 30.708881,42.279331,0 30.63225,42.296379,0 30.555601,42.313305,0 30.4792,42.330147,0 30.45929,42.334003,0 30.38748,42.350204,0 30.310886,42.367126,0 30.233685,42.3839,0 30.158388,42.400455,0 30.081047,42.417061,0 29.999538,42.434669,0 29.922251,42.451336,0 29.846775,42.472755,0 29.775251,42.500607,0 29.703751,42.528942,0 29.632408,42.557053,0 29.56134,42.58453,0 29.486303,42.606575,0 29.411226,42.627895,0 29.336617,42.649136,0 29.26206,42.670219,0 29.186167,42.69165,0 29.108505,42.713383,0 29.033199,42.734459,0 28.958614,42.755306,0 28.884138,42.776058,0 28.809477,42.79673,0 28.734116,42.81749,0 28.659693,42.838165,0 28.584206,42.858826,0 28.508413,42.879517,0 28.432411,42.900173,0 28.357157,42.920528,0 28.281466,42.941078,0 28.202879,42.96217,0 28.127367,42.982468,0 28.051134,43.002838,0 27.97443,43.023232,0 27.89786,43.043495,0 27.822018,43.06356,0 27.747026,43.083324,0 27.670933,43.103481,0 27.594753,43.123405,0 27.518726,43.143291,0 27.442188,43.163395,0 27.366142,43.183338,0 27.288403,43.203579,0 27.211353,43.223419,0 27.13394,43.243637,0 27.055946,43.26347,0 26.976746,43.284035,0 26.900064,43.303585,0 26.821365,43.323727,0 26.742792,43.343906,0 26.695686,43.355865,0 26.58819,43.38274,0 26.510031,43.402519,0 26.431721,43.422153,0 26.353285,43.441654,0 26.274225,43.461334,0 26.195908,43.480698,0 26.110844,43.501808,0 26.031382,43.521328,0 25.952061,43.540665,0 25.872255,43.560242,0 25.792814,43.579693,0 25.714851,43.59866,0 25.63485,43.618061,0 25.556404,43.6371,0 25.476336,43.656292,0 25.396072,43.675549,0 25.317423,43.694389,0 25.237083,43.713463,0 25.158228,43.732086,0 25.077415,43.751163,0 24.998594,43.769722,0 24.919006,43.788345,0 24.83828,43.807156,0 24.758667,43.825809,0 24.678226,43.844604,0 24.596966,43.863632,0 24.517061,43.882561,0 24.438187,43.901188,0 24.358852,43.919861,0 24.279621,43.938431,0 24.198723,43.956612,0 24.118813,43.97438,0 24.038017,43.992546,0 23.958521,44.010269,0 23.877768,44.028275,0 23.798134,44.045959,0 23.717939,44.063686,0 23.636665,44.081375,0 23.555935,44.099033,0 23.475473,44.116516,0 23.395407,44.133915,0 23.31505,44.15123,0 23.233423,44.163486,0 23.152178,44.173466,0 23.071634,44.18346,0 22.989988,44.19355,0 22.90906,44.203289,0 22.828938,44.212852,0 22.745749,44.222805,0 22.663017,44.232666,0 22.580547,44.24239,0 22.499216,44.249653,0 22.493732,44.249638,0 22.488295,44.249409,0 22.482891,44.249199,0 22.477179,44.248852,0 22.472324,44.248341,0 22.466303,44.247704,0 22.46106,44.247173,0 22.454969,44.246433,0 22.450432,44.245853,0 22.444687,44.245121,0 22.438667,44.244358,0 22.432806,44.243584,0 22.428242,44.243023,0 22.345915,44.232769,0 22.264324,44.222538,0 22.184052,44.212578,0 22.103828,44.202557,0 22.022104,44.192524,0 21.978973,44.189518,0 21.973116,44.189655,0 21.967777,44.189934,0 21.962355,44.19038,0 21.956947,44.190914,0 21.95166,44.191582,0 21.946163,44.192406,0 21.940748,44.193306,0 21.935272,44.19429,0 21.930164,44.195328,0 21.924986,44.196289,0 21.91987,44.197285,0 21.914581,44.198326,0 21.909262,44.199276,0 21.904106,44.200211,0 21.898989,44.201176,0 21.818317,44.214157,0 21.736828,44.226234,0 21.653542,44.238777,0 21.572649,44.251125,0 21.491446,44.263386,0 21.409599,44.275673,0 21.329071,44.287495,0 21.24839,44.299667,0 21.166849,44.311668,0 21.083715,44.323971,0 21.000826,44.3363,0 20.919233,44.348274,0 20.836927,44.35981,0 20.753431,44.364681,0 20.669502,44.369335,0 20.585154,44.37418,0 20.50198,44.378689,0 20.418432,44.383186,0 20.335186,44.387665,0 20.25235,44.391941,0 20.168633,44.39624,0 20.085238,44.400406,0 20.001711,44.404659,0 19.918722,44.408703,0 19.835888,44.412792,0 19.753117,44.416893,0 19.669809,44.420834,0 19.587778,44.424591,0 19.504101,44.428436,0 19.420492,44.432137,0 19.336714,44.435856,0 19.253349,44.439491,0 19.170666,44.443127,0 19.086006,44.446644,0 19.002583,44.450134,0 18.919092,44.453705,0 18.83485,44.456772,0 18.74995,44.459885,0 18.666834,44.463093,0 18.583176,44.466427,0 18.499746,44.469456,0 18.416033,44.47237,0 18.330914,44.475498,0 18.248508,44.478237,0 18.166096,44.481113,0 18.084215,44.483761,0 18.000145,44.486435,0 17.915728,44.489258,0 17.83073,44.491913,0 17.746225,44.494518,0 17.66131,44.497078,0 17.576149,44.499458,0 17.492552,44.501858,0 17.407976,44.504097,0 17.323696,44.506386,0 17.237892,44.50856,0 17.153217,44.510693,0 17.069363,44.512718,0 16.983738,44.51469,0 16.89805,44.516659,0 16.812515,44.518559,0 16.726006,44.520359,0 16.640093,44.522236,0 16.554714,44.523918,0 16.468811,44.525623,0 16.384615,44.527237,0 16.299606,44.528564,0 16.21483,44.529945,0 16.130672,44.531288,0 16.046314,44.532658,0 15.96005,44.534088,0 15.871516,44.535309,0 15.785611,44.536396,0 15.700178,44.537418,0 15.615293,44.538357,0 15.530431,44.539284,0 15.44438,44.540112,0 15.360665,44.540848,0 15.276745,44.541534,0 15.191966,44.542278,0 15.105976,44.542927,0 15.020112,44.543533,0 14.93465,44.54398,0 14.848309,44.544434,0 14.761711,44.544804,0 14.675386,44.544975,0 14.586966,44.54509,0 14.499552,44.54517,0 14.411164,44.545364,0 14.32226,44.545467,0 14.23518,44.545506,0 14.14893,44.5453,0 14.062991,44.545105,0 13.972452,44.544975,0 13.886345,44.544682,0 13.79783,44.544258,0 13.709776,44.543701,0 13.621612,44.543148,0 13.533656,44.54261,0 13.439546,44.541889,0 13.351635,44.541142,0 13.261879,44.540398,0 13.173716,44.539589,0 13.084083,44.538551,0 12.9967,44.537811,0 12.909683,44.53677,0 12.824408,44.53561,0 12.73941,44.534439,0 12.654857,44.533276,0 12.570266,44.531803,0 12.484391,44.52911,0 12.397541,44.525887,0 12.310907,44.52277,0 12.226999,44.5196,0 12.142666,44.51638,0 12.058199,44.513313,0 11.974129,44.510098,0 11.889925,44.506851,0 11.806498,44.503551,0 11.723118,44.500156,0 11.63833,44.496609,0 11.553698,44.493065,0 11.467592,44.489361,0 11.384529,44.485779,0 11.301395,44.482094,0 11.218849,44.478436,0 11.134434,44.474701,0 11.049531,44.470699,0 10.966197,44.466885,0 10.882375,44.462776,0 10.796664,44.458527,0 10.712637,44.454296,0 10.62918,44.450138,0 10.545338,44.44577,0 10.455191,44.441193,0 10.364665,44.436485,0 10.278618,44.430641,0 10.194154,44.420151,0 10.112078,44.410057,0 10.028935,44.399998,0 9.945345,44.389816,0 9.860509,44.379147,0 9.775548,44.36853,0 9.692053,44.358109,0 9.607376,44.347073,0 9.521317,44.337437,0 9.435726,44.33012,0 9.347921,44.322498,0 9.26006,44.314163,0 9.174028,44.306019,0 9.087621,44.297657,0 9.001807,44.289295,0 8.915641,44.280785,0 8.829729,44.272079,0 8.743142,44.263279,0 8.658618,44.254917,0 8.57233,44.246323,0 8.48626,44.237568,0 8.400648,44.228565,0 8.313879,44.219688,0 8.22835,44.210835,0 8.144463,44.201702,0 8.068925,44.191502,0 8.063762,44.19014,0 8.058681,44.188698,0 8.053371,44.187103,0 8.048364,44.185375,0 8.043571,44.183681,0 8.038754,44.181744,0 8.033916,44.179733,0 8.029269,44.177738,0 8.023977,44.175392,0 8.019352,44.173313,0 8.014708,44.171188,0 8.010082,44.169132,0 8.005411,44.167,0 8.000863,44.165005,0 7.995818,44.162724,0 7.923746,44.132076,0 7.850143,44.101955,0 7.778769,44.072697,0 7.705666,44.041985,0 7.633436,44.011341,0 7.563296,43.982197,0 7.487629,43.949989,0 7.414923,43.918777,0 7.342536,43.888428,0 7.269563,43.857346,0 7.197085,43.826626,0 7.126234,43.796375,0 7.048856,43.770657,0 6.970975,43.747219,0 6.897763,43.724781,0 6.824841,43.702225,0 6.750547,43.6796,0 6.676342,43.656815,0 6.60234,43.633926,0 6.526376,43.610378,0 6.452007,43.587242,0 6.376829,43.563972,0 6.302079,43.540615,0 6.22649,43.516697,0 6.150497,43.492878,0 6.075814,43.469444,0 5.999491,43.445282,0 5.923611,43.421337,0 5.847975,43.397099,0 5.772492,43.37307,0 5.697279,43.349098,0 5.621373,43.32476,0 5.546609,43.300739,0 5.469701,43.275993,0 5.394215,43.251545,0 5.319951,43.227379,0 5.243596,43.20332,0 5.166677,43.179665,0 5.091105,43.155849,0 5.014953,43.131809,0 4.938797,43.107674,0 4.863622,43.082397,0 4.792814,43.050137,0 4.723316,43.008797,0 4.665188,42.964039,0 4.609,42.917236,0 4.553425,42.871479,0 4.497839,42.825279,0 4.442288,42.779003,0 4.386858,42.732613,0 4.331344,42.686039,0 4.274995,42.638901,0 4.218837,42.591408,0 4.163047,42.544197,0 4.107738,42.497364,0 4.051697,42.449951,0 3.996799,42.403416,0 3.942366,42.35717,0 3.887976,42.311314,0 3.834238,42.265511,0 3.78178,42.220467,0 3.729672,42.175816,0 3.678262,42.131416,0 3.628556,42.089031,0 3.574711,42.050034,0 3.521539,42.012089,0 3.470268,41.975159,0 3.419147,41.938358,0 3.369729,41.902935,0 3.320647,41.867676,0 3.276599,41.838753,0 3.272957,41.836914,0 3.268878,41.835014,0 3.265512,41.833427,0 3.261405,41.831631,0 3.258161,41.830158,0 3.253835,41.828201,0 3.249995,41.826477,0 3.24628,41.824871,0 3.188044,41.797733,0 3.129096,41.769421,0 3.071917,41.741989,0 3.013364,41.714211,0 2.957439,41.687012,0 2.900927,41.659863,0 2.876892,41.64851,0 2.854646,41.637848,0 2.831972,41.627209,0 2.809199,41.616169,0 2.787327,41.605419,0 2.762162,41.59346,0 2.737549,41.58157,0 2.717799,41.571945,0 2.695382,41.561565,0 2.674109,41.551235,0 2.655694,41.54237,0 2.638005,41.53389,0 2.621516,41.525463,0 2.60372,41.517109,0 2.581825,41.50703,0 2.564577,41.498299,0 2.546497,41.489326,0 2.526682,41.479481,0 2.509055,41.471027,0 2.491144,41.462337,0 2.473807,41.454113,0 2.465441,41.449917,0 2.453473,41.444424,0 2.444326,41.438477,0 2.432105,41.433502,0 2.423052,41.42849,0 2.412707,41.424526,0 2.402156,41.418575,0 2.389242,41.413162,0 2.379787,41.408348,0 2.369342,41.402721,0 2.359953,41.398159,0 2.348265,41.392319,0 2.339963,41.388336,0 2.331482,41.384583,0 2.322754,41.381012,0 2.320175,41.380005,0 2.317116,41.378796,0 2.313683,41.377491,0 2.310687,41.376373,0 2.308044,41.375427,0 2.305603,41.374512,0 2.302447,41.373394,0 2.299763,41.372463,0 2.296753,41.371445,0 2.294457,41.370647,0 2.291809,41.369751,0 2.288757,41.368698,0 2.286155,41.367855,0 2.275635,41.364395,0 2.265259,41.360962,0 2.258065,41.358543,0 2.24823,41.355194,0 2.23965,41.352261,0 2.230713,41.349197,0 2.222351,41.346313,0 2.215868,41.344112,0 2.208313,41.341507,0 2.202454,41.339539,0 2.195767,41.337223,0 2.189514,41.335144,0 2.185218,41.333637,0 2.178589,41.331436,0 2.174255,41.32988,0 2.170044,41.328461,0 2.163513,41.326218,0 2.158813,41.324608,0 2.154382,41.323071,0 2.14856,41.321136,0 2.142517,41.319031,0 2.136654,41.317066,0 2.131972,41.315437,0 2.126042,41.313389,0 2.119924,41.31134,0 2.114136,41.309372,0 2.107849,41.30722,0 2.101929,41.305161,0 2.097452,41.303612,0 2.092773,41.302048,0 2.089249,41.300835,0 2.086578,41.299919,0 2.084564,41.299232,0 2.082346,41.298481,0 2.080521,41.297882,0 2.080292,41.297813,0 2.079678,41.297676,0 2.079209,41.297619,0 2.07807,41.297573,0 2.077633,41.297596,0 2.077399,41.297607,0 2.077148,41.29763,0 2.076869,41.297653,0 2.076645,41.297688,0 2.076416,41.297791,0 2.076218,41.298008,0 2.076096,41.298225,0 2.075958,41.298454,0 2.075775,41.298752,0 2.075638,41.298992,0 2.075363,41.299461,0 2.075214,41.29969,0 2.074965,41.299759,0 2.074753,41.299747,0 2.074528,41.299736,0 2.07431,41.299885,0 2.074387,41.300205,0 2.074481,41.300423,0</coordinates>
            </LineString>
        </Placemark>
    </Document>
</kml>