<?xml version="1.0" encoding="UTF-8"?>
<kml xmlns="http://www.opengis.net/kml/2.2">
    <Document>
        <name>Edited Path</name>
        <description>Path edited with KML Path Editor</description>
        <Style id="pathStyle">
            <LineStyle>
                <color>ff0000ff</color>
                <width>3</width>
            </LineStyle>
        </Style>
        <Placemark>
            <name>Edited Path</name>
            <description>Total points: 771</description>
            <styleUrl>#pathStyle</styleUrl>
            <LineString>
                <tessellate>1</tessellate>
                <coordinates>-0.373145,51.879456,0 -0.373145,51.879456,0 -0.373116,51.879466,0 -0.373135,51.879455,0 -0.373173,51.879513,0 -0.37322,51.87957,0 -0.373257,51.879593,0 -0.373268,51.879618,0 -0.373294,51.87965,0 -0.373312,51.879673,0 -0.373325,51.879722,0 -0.373331,51.879776,0 -0.373249,51.87985,0 -0.37322,51.879925,0 -0.373173,51.879944,0 -0.373135,51.879967,0 -0.373071,51.880005,0 -0.373001,51.87999,0 -0.372982,51.880037,0 -0.373016,51.880142,0 -0.373034,51.880177,0 -0.373096,51.8802,0 -0.373145,51.880211,0 -0.373201,51.880188,0 -0.373238,51.880154,0 -0.373306,51.88013,0 -0.373368,51.880119,0 -0.373405,51.880108,0 -0.373646,51.880119,0 -0.373745,51.880107,0 -0.373745,51.880108,0 -0.373764,51.880107,0 -0.373387,51.880177,0 -0.373058,51.880165,0 -0.372601,51.880328,0 -0.372069,51.88044,0 -0.371791,51.880486,0 -0.371666,51.880491,0 -0.371382,51.880371,0 -0.371304,51.880235,0 -0.371253,51.880131,0 -0.371197,51.880016,0 -0.371011,51.879662,0 -0.370827,51.879303,0 -0.370617,51.878908,0 -0.370417,51.87854,0 -0.370197,51.878116,0 -0.370007,51.877767,0 -0.369835,51.877441,0 -0.369663,51.877116,0 -0.369452,51.87672,0 -0.369415,51.876617,0 -0.369434,51.876545,0 -0.369492,51.876464,0 -0.369545,51.876411,0 -0.369657,51.876343,0 -0.369682,51.876324,0 -0.369778,51.876301,0 -0.369873,51.876266,0 -0.369968,51.876254,0 -0.370064,51.876243,0 -0.370178,51.876219,0 -0.37035,51.876196,0 -0.370731,51.876126,0 -0.371399,51.87601,0 -0.371971,51.875917,0 -0.372562,51.875824,0 -0.373001,51.875766,0 -0.373201,51.875771,0 -0.373405,51.875782,0 -0.373554,51.875812,0 -0.374012,51.875859,0 -0.37411,51.875839,0 -0.37426,51.875812,0 -0.374296,51.875793,0 -0.374508,51.875661,0 -0.374556,51.87561,0 -0.374686,51.875427,0 -0.374794,51.875277,0 -0.374928,51.875184,0 -0.375061,51.875125,0 -0.375233,51.875079,0 -0.375404,51.875044,0 -0.375521,51.875027,0 -0.375652,51.875009,0 -0.376186,51.874916,0 -0.37682,51.874809,0 -0.377414,51.874695,0 -0.378063,51.874592,0 -0.378657,51.874489,0 -0.379353,51.874369,0 -0.379863,51.874271,0 -0.380001,51.874229,0 -0.380068,51.874203,0 -0.380135,51.874159,0 -0.380306,51.874043,0 -0.380383,51.873985,0 -0.380624,51.873722,0 -0.38081,51.873482,0 -0.381033,51.873219,0 -0.381125,51.87299,0 -0.381125,51.872761,0 -0.381107,51.872681,0 -0.380955,51.872472,0 -0.380859,51.872437,0 -0.380764,51.872437,0 -0.380669,51.872449,0 -0.380592,51.872507,0 -0.380573,51.87253,0 -0.380587,51.872543,0 -0.380554,51.872542,0 -0.380494,51.872555,0 -0.380105,51.872623,0 -0.379066,51.872798,0 -0.377655,51.873047,0 -0.377121,51.873135,0 -0.375996,51.873333,0 -0.374741,51.87355,0 -0.374741,51.87355,0 -0.373461,51.873779,0 -0.372314,51.87395,0 -0.371531,51.8741,0 -0.370026,51.874369,0 -0.368347,51.874648,0 -0.36705,51.874881,0 -0.363388,51.875533,0 -0.360489,51.875998,0 -0.35713,51.876572,0 -0.355423,51.876892,0 -0.352478,51.877395,0 -0.349336,51.877899,0 -0.34696,51.878311,0 -0.344086,51.878791,0 -0.341263,51.87921,0 -0.338745,51.879629,0 -0.335999,51.880095,0 -0.333895,51.880417,0 -0.331573,51.88084,0 -0.329285,51.881212,0 -0.326472,51.881653,0 -0.324171,51.882065,0 -0.320237,51.882706,0 -0.317459,51.883167,0 -0.312813,51.883942,0 -0.30983,51.884471,0 -0.305168,51.885269,0 -0.301011,51.885956,0 -0.29892,51.886286,0 -0.295814,51.886826,0 -0.291806,51.887512,0 -0.288094,51.888153,0 -0.282156,51.88916,0 -0.277939,51.889871,0 -0.271912,51.890945,0 -0.269241,51.891407,0 -0.265157,51.892136,0 -0.260554,51.89296,0 -0.256424,51.893692,0 -0.253784,51.894154,0 -0.248184,51.895157,0 -0.241856,51.896295,0 -0.235138,51.897171,0 -0.229034,51.897537,0 -0.223846,51.897491,0 -0.218811,51.897171,0 -0.21347,51.896484,0 -0.208511,51.895432,0 -0.203476,51.894058,0 -0.198645,51.892273,0 -0.194339,51.890213,0 -0.191593,51.888657,0 -0.187759,51.886054,0 -0.184937,51.883586,0 -0.182724,51.881212,0 -0.180664,51.878559,0 -0.178825,51.875839,0 -0.176895,51.872223,0 -0.175552,51.869248,0 -0.174148,51.865814,0 -0.172812,51.862152,0 -0.171698,51.858765,0 -0.17103,51.856567,0 -0.16983,51.852676,0 -0.168581,51.848602,0 -0.16717,51.844299,0 -0.165537,51.839584,0 -0.164201,51.835968,0 -0.162939,51.832855,0 -0.161454,51.829422,0 -0.160446,51.827025,0 -0.159225,51.824512,0 -0.157928,51.821951,0 -0.156937,51.820089,0 -0.155945,51.818134,0 -0.154551,51.815689,0 -0.153198,51.813246,0 -0.151804,51.810928,0 -0.150299,51.808498,0 -0.149231,51.806729,0 -0.14801,51.804866,0 -0.146561,51.802632,0 -0.145035,51.800304,0 -0.143416,51.797882,0 -0.141983,51.795835,0 -0.139999,51.792949,0 -0.137923,51.789963,0 -0.133172,51.783371,0 -0.129318,51.778239,0 -0.124561,51.772888,0 -0.119513,51.768356,0 -0.115356,51.765251,0 -0.111496,51.762863,0 -0.106523,51.760162,0 -0.100327,51.757244,0 -0.092493,51.754166,0 -0.085373,51.751797,0 -0.078389,51.749908,0 -0.071485,51.748352,0 -0.063097,51.746979,0 -0.054474,51.746071,0 -0.047508,51.745789,0 -0.041122,51.745838,0 -0.034815,51.746155,0 -0.027169,51.746933,0 -0.020523,51.747887,0 -0.013046,51.749004,0 -0.00438,51.750366,0 -0.001188,51.75087,0 0.002136,51.751424,0 0.005264,51.75189,0 0.010615,51.752747,0 0.023309,51.754761,0 0.039194,51.757233,0 0.056763,51.75999,0 0.073776,51.762644,0 0.080109,51.763621,0 0.095685,51.766068,0 0.111868,51.768539,0 0.126495,51.770837,0 0.135803,51.77228,0 0.138321,51.772652,0 0.143639,51.773483,0 0.161209,51.77619,0 0.17593,51.778473,0 0.185877,51.779984,0 0.212555,51.784151,0 0.230865,51.787037,0 0.254319,51.790695,0 0.28183,51.795044,0 0.310745,51.79956,0 0.334473,51.803237,0 0.359208,51.807129,0 0.38826,51.811617,0 0.41748,51.816147,0 0.442963,51.820089,0 0.46936,51.824139,0 0.497665,51.828515,0 0.526657,51.832937,0 0.553131,51.836941,0 0.578613,51.840758,0 0.614014,51.846065,0 0.634155,51.849045,0 0.664597,51.853607,0 0.694885,51.858122,0 0.727844,51.863022,0 0.761694,51.868057,0 0.795395,51.873138,0 0.828651,51.878128,0 0.866287,51.883713,0 0.903032,51.889114,0 0.941136,51.894712,0 0.980682,51.900742,0 1.020473,51.907374,0 1.05629,51.913513,0 1.091919,51.919693,0 1.129608,51.926147,0 1.170358,51.933071,0 1.208801,51.93956,0 1.247101,51.945923,0 1.289795,51.952996,0 1.328169,51.959327,0 1.368818,51.965984,0 1.42067,51.974487,0 1.467133,51.982086,0 1.510149,51.98912,0 1.552429,51.995956,0 1.600002,52.003691,0 1.643869,52.010767,0 1.687578,52.017796,0 1.735306,52.025482,0 1.78928,52.034183,0 1.838562,52.04205,0 1.880035,52.048416,0 1.902313,52.051208,0 1.923294,52.053177,0 1.96412,52.056202,0 2.017796,52.060159,0 2.07695,52.064758,0 2.130327,52.068957,0 2.182277,52.0731,0 2.235561,52.077337,0 2.28445,52.081201,0 2.333967,52.085018,0 2.379717,52.088509,0 2.423477,52.091812,0 2.464155,52.09484,0 2.512102,52.098378,0 2.559893,52.101963,0 2.6091,52.105637,0 2.660418,52.109458,0 2.712917,52.113322,0 2.761841,52.116852,0 2.80983,52.120331,0 2.856131,52.123656,0 2.898636,52.126648,0 2.923126,52.128387,0 2.950516,52.130356,0 3.018729,52.135248,0 3.086923,52.140089,0 3.154881,52.144791,0 3.2197,52.149353,0 3.289337,52.15416,0 3.359462,52.158896,0 3.428421,52.163498,0 3.496628,52.167984,0 3.564758,52.172516,0 3.63266,52.176956,0 3.701324,52.181396,0 3.770822,52.18585,0 3.838937,52.190133,0 3.907915,52.194369,0 3.977129,52.198605,0 4.045794,52.202842,0 4.113281,52.207078,0 4.182358,52.211426,0 4.250061,52.21555,0 4.317627,52.21962,0 4.385114,52.22365,0 4.453201,52.227585,0 4.521637,52.231522,0 4.590166,52.235428,0 4.658203,52.239258,0 4.727025,52.243202,0 4.795297,52.247113,0 4.864746,52.25093,0 4.934195,52.254701,0 5.004116,52.258471,0 5.073395,52.262054,0 5.144196,52.265671,0 5.213091,52.269178,0 5.282974,52.272858,0 5.352554,52.276474,0 5.421753,52.279979,0 5.492065,52.28347,0 5.561752,52.286819,0 5.631042,52.290127,0 5.701294,52.293457,0 5.771408,52.296753,0 5.841038,52.29995,0 5.911255,52.303207,0 5.981522,52.306412,0 6.052246,52.30957,0 6.122208,52.312683,0 6.191659,52.315731,0 6.261501,52.318757,0 6.331813,52.321736,0 6.401812,52.324715,0 6.471176,52.327515,0 6.540789,52.330302,0 6.611572,52.333095,0 6.681671,52.3358,0 6.751962,52.338495,0 6.823044,52.341248,0 6.893616,52.343857,0 6.963527,52.346502,0 7.032976,52.349062,0 7.103132,52.351436,0 7.172699,52.353836,0 7.242815,52.356231,0 7.311478,52.358643,0 7.380851,52.361119,0 7.450771,52.363586,0 7.52037,52.365829,0 7.591003,52.368055,0 7.660531,52.370197,0 7.730713,52.372375,0 7.799194,52.374433,0 7.869036,52.376481,0 7.938843,52.378418,0 8.008575,52.380341,0 8.078003,52.382355,0 8.12847,52.384628,0 8.198547,52.388399,0 8.268624,52.392123,0 8.338776,52.395584,0 8.407593,52.398834,0 8.476944,52.401993,0 8.547287,52.40506,0 8.618539,52.408183,0 8.690029,52.411256,0 8.760605,52.414398,0 8.831635,52.417511,0 8.901202,52.420473,0 8.971828,52.423453,0 9.04269,52.426432,0 9.113083,52.429321,0 9.182844,52.432065,0 9.252999,52.434765,0 9.323578,52.437424,0 9.394566,52.440118,0 9.465585,52.442772,0 9.535897,52.445379,0 9.607315,52.447861,0 9.676836,52.450267,0 9.747855,52.452781,0 9.818192,52.455322,0 9.888951,52.457808,0 9.959869,52.460175,0 10.030212,52.462372,0 10.102005,52.464569,0 10.17189,52.466721,0 10.243378,52.468964,0 10.314484,52.471115,0 10.384591,52.473217,0 10.45517,52.475372,0 10.524667,52.477314,0 10.594406,52.479218,0 10.664673,52.48114,0 10.735291,52.483086,0 10.805132,52.484902,0 10.876857,52.486717,0 10.94662,52.488486,0 11.016388,52.490067,0 11.085968,52.491577,0 11.156616,52.493141,0 11.22787,52.494771,0 11.299057,52.496246,0 11.37001,52.497803,0 11.439514,52.499333,0 11.51062,52.50087,0 11.581421,52.502197,0 11.652298,52.503433,0 11.723511,52.50464,0 11.794434,52.505951,0 11.865862,52.5072,0 11.936096,52.508364,0 12.006173,52.509341,0 12.077484,52.5103,0 12.147583,52.511297,0 12.217739,52.512321,0 12.28813,52.513345,0 12.358207,52.514276,0 12.430559,52.5153,0 12.501264,52.516092,0 12.572283,52.516883,0 12.644244,52.517581,0 12.71487,52.51828,0 12.786203,52.519071,0 12.857895,52.51973,0 12.928946,52.520281,0 12.999651,52.520793,0 13.071289,52.521286,0 13.141846,52.521724,0 13.211517,52.52211,0 13.283098,52.522423,0 13.35294,52.522749,0 13.423017,52.523028,0 13.494821,52.523261,0 13.565761,52.523354,0 13.635864,52.523438,0 13.707014,52.52368,0 13.778033,52.523773,0 13.848953,52.523712,0 13.920288,52.523621,0 13.99086,52.523483,0 14.061872,52.523307,0 14.133126,52.523074,0 14.204407,52.522797,0 14.27587,52.522469,0 14.346161,52.522202,0 14.416731,52.522004,0 14.487839,52.521835,0 14.558533,52.521585,0 14.629238,52.521212,0 14.700413,52.520654,0 14.771197,52.520048,0 14.840622,52.519592,0 14.911429,52.519071,0 14.981585,52.518373,0 15.052761,52.517674,0 15.124643,52.516883,0 15.194877,52.516045,0 15.266342,52.515152,0 15.337463,52.514229,0 15.40809,52.513345,0 15.480756,52.512367,0 15.551775,52.511343,0 15.623932,52.510208,0 15.695801,52.509064,0 15.766715,52.507898,0 15.838318,52.506638,0 15.908203,52.505385,0 15.977731,52.504221,0 16.047592,52.503021,0 16.118698,52.501648,0 16.188276,52.50031,0 16.258196,52.49896,0 16.32843,52.497564,0 16.397018,52.496109,0 16.466936,52.494538,0 16.536072,52.492909,0 16.605364,52.491326,0 16.675991,52.489743,0 16.746521,52.488007,0 16.815517,52.486252,0 16.885594,52.484343,0 16.955436,52.482481,0 17.02567,52.480712,0 17.094805,52.478664,0 17.165274,52.47615,0 17.235038,52.473403,0 17.30629,52.47052,0 17.376055,52.467863,0 17.445269,52.464977,0 17.514648,52.462234,0 17.585602,52.459488,0 17.655657,52.456831,0 17.725263,52.453944,0 17.795968,52.451058,0 17.865417,52.448311,0 17.934867,52.445425,0 18.004837,52.442368,0 18.074079,52.439234,0 18.144078,52.436022,0 18.215489,52.432763,0 18.244629,52.431427,0 18.261261,52.430695,0 18.281174,52.429779,0 18.292618,52.429276,0 18.333817,52.427353,0 18.360509,52.426106,0 18.372123,52.425547,0 18.398254,52.424291,0 18.417816,52.423416,0 18.436966,52.422546,0 18.46637,52.421172,0 18.505371,52.419216,0 18.5399,52.417634,0 18.558262,52.416749,0 18.568699,52.416284,0 18.572006,52.416092,0 18.58017,52.415817,0 18.617196,52.414328,0 18.622284,52.414261,0 18.624337,52.414096,0 18.627712,52.413444,0 18.62983,52.413397,0 18.643875,52.412704,0 18.650783,52.412327,0 18.656982,52.412047,0 18.665693,52.411582,0 18.671186,52.411302,0 18.678055,52.410965,0 18.699594,52.409906,0 18.705902,52.409821,0 18.95839,52.393102,0 18.979838,52.395926,0 19.007662,52.394507,0 19.034049,52.392671,0 19.055866,52.390602,0 19.081668,52.387667,0 19.108185,52.388478,0 19.108185,52.388478,0 20.44846,52.248183,0 20.462585,52.241433,0 20.476554,52.234776,0 20.489737,52.228399,0 20.502293,52.2223,0 20.516968,52.215088,0 20.532035,52.207683,0 20.54514,52.201166,0 20.55801,52.194881,0 20.570487,52.188736,0 20.581818,52.18309,0 20.593009,52.177564,0 20.605722,52.171279,0 20.617981,52.165192,0 20.631069,52.15871,0 20.643703,52.152425,0 20.656052,52.14624,0 20.669128,52.139763,0 20.68035,52.134177,0 20.691147,52.128708,0 20.70282,52.122849,0 20.714417,52.116989,0 20.720444,52.113968,0 20.726807,52.110761,0 20.734329,52.10701,0 20.741089,52.103592,0 20.754116,52.097121,0 20.768661,52.08989,0 20.781346,52.083482,0 20.793686,52.077301,0 20.807419,52.070389,0 20.820236,52.06398,0 20.824966,52.061462,0 20.826492,52.060638,0 20.829293,52.059042,0 20.830627,52.05825,0 20.834045,52.056198,0 20.838632,52.053223,0 20.842743,52.050385,0 20.84816,52.046539,0 20.8535,52.042648,0 20.860062,52.037796,0 20.868988,52.03125,0 20.876692,52.025571,0 20.884931,52.019565,0 20.89241,52.014175,0 20.899763,52.008765,0 20.908127,52.00264,0 20.918361,51.995125,0 20.929504,51.986886,0 20.939331,51.979706,0 20.946884,51.974167,0 20.954773,51.968451,0 20.962982,51.962448,0 20.970459,51.957047,0 20.97753,51.952344,0 20.981827,51.949905,0 20.987549,51.94725,0 20.993304,51.945082,0 20.99823,51.943588,0 21.002884,51.94249,0 21.0079,51.94159,0 21.012687,51.940939,0 21.018886,51.940427,0 21.02587,51.94024,0 21.037406,51.940333,0 21.047745,51.940613,0 21.059036,51.940933,0 21.071385,51.941265,0 21.082611,51.94162,0 21.089199,51.942149,0 21.09375,51.942719,0 21.097752,51.943499,0 21.103134,51.94487,0 21.10733,51.946381,0 21.111014,51.947968,0 21.11496,51.95018,0 21.117325,51.951782,0 21.119156,51.953293,0 21.120745,51.954904,0 21.12236,51.956955,0 21.123178,51.958303,0 21.123413,51.958722,0 21.124198,51.960444,0 21.124725,51.962311,0 21.125031,51.964462,0 21.125061,51.967613,0 21.124669,51.972687,0 21.12381,51.978012,0 21.122707,51.981486,0 21.121292,51.984879,0 21.119308,51.988403,0 21.116257,51.992981,0 21.112113,51.998431,0 21.104889,52.007355,0 21.09314,52.021225,0 21.081037,52.035207,0 21.077728,52.038986,0 21.073761,52.043518,0 21.069565,52.048416,0 21.065421,52.05313,0 21.06163,52.057526,0 21.058515,52.06109,0 21.055455,52.064628,0 21.052322,52.068192,0 21.049491,52.071378,0 21.04643,52.074869,0 21.04393,52.077759,0 21.041946,52.080048,0 21.039446,52.082923,0 21.03653,52.086319,0 21.032944,52.090439,0 21.029951,52.093863,0 21.02623,52.098038,0 21.02272,52.102066,0 21.019058,52.106369,0 21.015701,52.110168,0 21.012344,52.114014,0 21.008606,52.118349,0 21.004525,52.122958,0 21.001779,52.126123,0 20.998326,52.13008,0 20.994492,52.134476,0 20.990601,52.138916,0 20.98679,52.143255,0 20.983887,52.146606,0 20.979885,52.151169,0 20.976868,52.154663,0 20.974234,52.157639,0 20.973136,52.158943,0 20.970703,52.161643,0 20.970306,52.162079,0 20.969696,52.162811,0 20.969086,52.163589,0 20.969086,52.163589,0 20.968781,52.163887,0 20.96829,52.164436,0 20.967903,52.164894,0 20.967102,52.165798,0 20.966564,52.166414,0 20.966244,52.166794,0 20.965759,52.167357,0 20.965405,52.167755,0 20.965176,52.168007,0 20.964896,52.168311,0 20.964565,52.168682,0 20.96426,52.169048,0 20.963879,52.169472,0 20.963535,52.169861,0 20.963072,52.170418,0 20.962925,52.170673,0 20.962758,52.170977,0 20.96262,52.171326,0 20.962543,52.171612,0 20.962503,52.171745,0 20.962483,52.171896,0 20.962463,52.172245,0 20.962463,52.172827,0 20.962483,52.173071,0 20.962503,52.173409,0 20.962505,52.173546,0 20.962543,52.173672,0 20.962679,52.17384,0 20.962772,52.173912,0 20.962875,52.173956,0 20.962875,52.173956,0 20.963072,52.174014,0 20.963345,52.174141,0 20.963421,52.174198,0 20.963516,52.174278,0 20.963726,52.174427,0 20.963856,52.17448,0 20.963974,52.174538,0 20.96419,52.174619,0 20.964445,52.174701,0 20.965053,52.174887,0 20.965328,52.175003,0 20.965405,52.175045,0 20.965519,52.175159,0 20.965557,52.175228,0 20.965563,52.175422,0 20.965347,52.175663,0 20.96508,52.175972,0 20.96489,52.176189,0 20.964565,52.176544,0 20.963758,52.177494,0 20.963582,52.177692,0 20.963444,52.177843,0 20.963385,52.177913,0 20.963268,52.177952,0 20.96313,52.177924,0 20.962954,52.177866,0 20.962906,52.177849,0 20.962601,52.177715,0 20.962346,52.177634,0 20.961914,52.177494,0 20.961914,52.177482,0 20.961914,52.177482,0</coordinates>
            </LineString>
        </Placemark>
    </Document>
</kml>