<?xml version="1.0" encoding="UTF-8"?>
<kml xmlns="http://www.opengis.net/kml/2.2" xmlns:gx="http://www.google.com/kml/ext/2.2"><Folder ><Folder ><name >HA-LXJ track</name>
<Placemark ><name >HA-LXJ</name>
<Style ><LineStyle ><color >ff1c1ae3</color>
<width >4</width>
</LineStyle>
<IconStyle ><Icon ><href >http://maps.google.com/mapfiles/kml/shapes/airports.png</href>
</Icon>
</IconStyle>
</Style>
<gx:Track ><extrude >0</extrude>
<when >2025-08-04T18:08:03.830Z</when>
<when >2025-08-04T18:08:03.830Z</when>
<when >2025-08-04T18:09:23.040Z</when>
<when >2025-08-04T18:10:23.260Z</when>
<when >2025-08-04T18:10:38.580Z</when>
<when >2025-08-04T18:11:53.290Z</when>
<when >2025-08-04T18:13:08.890Z</when>
<when >2025-08-04T18:13:50.000Z</when>
<when >2025-08-04T18:14:03.160Z</when>
<when >2025-08-04T18:14:05.130Z</when>
<when >2025-08-04T18:14:07.230Z</when>
<when >2025-08-04T18:14:09.250Z</when>
<when >2025-08-04T18:14:10.750Z</when>
<when >2025-08-04T18:14:14.240Z</when>
<when >2025-08-04T18:14:16.840Z</when>
<when >2025-08-04T18:14:19.120Z</when>
<when >2025-08-04T18:14:22.630Z</when>
<when >2025-08-04T18:14:28.620Z</when>
<when >2025-08-04T18:14:35.490Z</when>
<when >2025-08-04T18:14:41.160Z</when>
<when >2025-08-04T18:14:45.750Z</when>
<when >2025-08-04T18:14:49.320Z</when>
<when >2025-08-04T18:14:54.450Z</when>
<when >2025-08-04T18:14:57.750Z</when>
<when >2025-08-04T18:15:01.140Z</when>
<when >2025-08-04T18:15:03.960Z</when>
<when >2025-08-04T18:15:07.700Z</when>
<when >2025-08-04T18:15:12.990Z</when>
<when >2025-08-04T18:15:20.080Z</when>
<when >2025-08-04T18:15:26.810Z</when>
<when >2025-08-04T18:15:33.380Z</when>
<when >2025-08-04T18:15:39.140Z</when>
<when >2025-08-04T18:16:02.670Z</when>
<when >2025-08-04T18:16:13.850Z</when>
<when >2025-08-04T18:16:39.100Z</when>
<when >2025-08-04T18:17:08.980Z</when>
<when >2025-08-04T18:17:28.640Z</when>
<when >2025-08-04T18:17:36.040Z</when>
<when >2025-08-04T18:17:42.500Z</when>
<when >2025-08-04T18:17:51.970Z</when>
<when >2025-08-04T18:18:01.850Z</when>
<when >2025-08-04T18:18:04.810Z</when>
<when >2025-08-04T18:18:08.540Z</when>
<when >2025-08-04T18:18:10.910Z</when>
<when >2025-08-04T18:18:14.480Z</when>
<when >2025-08-04T18:18:15.040Z</when>
<when >2025-08-04T18:18:17.090Z</when>
<when >2025-08-04T18:18:18.780Z</when>
<when >2025-08-04T18:18:24.170Z</when>
<when >2025-08-04T18:18:25.400Z</when>
<when >2025-08-04T18:18:31.300Z</when>
<when >2025-08-04T18:18:38.330Z</when>
<when >2025-08-04T18:18:44.130Z</when>
<when >2025-08-04T18:18:51.100Z</when>
<when >2025-08-04T18:18:56.260Z</when>
<when >2025-08-04T18:18:57.780Z</when>
<when >2025-08-04T18:18:59.310Z</when>
<when >2025-08-04T18:18:59.310Z</when>
<gx:coord >14.494314 35.847004 0</gx:coord>
<gx:coord >14.494314 35.847004 0</gx:coord>
<gx:coord >14.4943 35.847004 0</gx:coord>
<gx:coord >14.494312 35.847004 0</gx:coord>
<gx:coord >14.494314 35.847004 0</gx:coord>
<gx:coord >14.494312 35.847004 0</gx:coord>
<gx:coord >14.494314 35.847004 0</gx:coord>
<gx:coord >14.494239 35.846946 0</gx:coord>
<gx:coord >14.49402 35.846759 0</gx:coord>
<gx:coord >14.493985 35.846718 0</gx:coord>
<gx:coord >14.493976 35.846678 0</gx:coord>
<gx:coord >14.493991 35.846631 0</gx:coord>
<gx:coord >14.494014 35.846603 0</gx:coord>
<gx:coord >14.494108 35.846538 0</gx:coord>
<gx:coord >14.49421 35.846468 0</gx:coord>
<gx:coord >14.494257 35.846443 0</gx:coord>
<gx:coord >14.4944 35.846317 0</gx:coord>
<gx:coord >14.494634 35.846143 0</gx:coord>
<gx:coord >14.494882 35.845933 0</gx:coord>
<gx:coord >14.495144 35.845734 0</gx:coord>
<gx:coord >14.49553 35.845413 0</gx:coord>
<gx:coord >14.495687 35.845287 0</gx:coord>
<gx:coord >14.495905 35.845072 0</gx:coord>
<gx:coord >14.496031 35.844921 0</gx:coord>
<gx:coord >14.496145 35.844761 0</gx:coord>
<gx:coord >14.496241 35.844606 0</gx:coord>
<gx:coord >14.496299 35.84449 0</gx:coord>
<gx:coord >14.496417 35.844189 0</gx:coord>
<gx:coord >14.496489 35.843966 0</gx:coord>
<gx:coord >14.496574 35.843708 0</gx:coord>
<gx:coord >14.496589 35.843662 0</gx:coord>
<gx:coord >14.496591 35.843664 0</gx:coord>
<gx:coord >14.496591 35.843664 0</gx:coord>
<gx:coord >14.496591 35.843664 0</gx:coord>
<gx:coord >14.496589 35.843662 0</gx:coord>
<gx:coord >14.496589 35.843662 0</gx:coord>
<gx:coord >14.496675 35.843433 0</gx:coord>
<gx:coord >14.496723 35.84328 0</gx:coord>
<gx:coord >14.496789 35.843079 0</gx:coord>
<gx:coord >14.496903 35.842781 0</gx:coord>
<gx:coord >14.49703 35.84243 0</gx:coord>
<gx:coord >14.497061 35.842358 0</gx:coord>
<gx:coord >14.497032 35.842255 0</gx:coord>
<gx:coord >14.497001 35.842197 0</gx:coord>
<gx:coord >14.496957 35.842127 0</gx:coord>
<gx:coord >14.496861 35.842083 0</gx:coord>
<gx:coord >14.496767 35.842058 0</gx:coord>
<gx:coord >14.496689 35.842072 0</gx:coord>
<gx:coord >14.496489 35.842162 0</gx:coord>
<gx:coord >14.496445 35.842221 0</gx:coord>
<gx:coord >14.496285 35.84236 0</gx:coord>
<gx:coord >14.496066 35.842535 0</gx:coord>
<gx:coord >14.495945 35.842632 0</gx:coord>
<gx:coord >14.495001 35.843399 0</gx:coord>
<gx:coord >14.493772 35.844385 0</gx:coord>
<gx:coord >14.49329 35.844769 0</gx:coord>
<gx:coord >14.492755 35.845207 0</gx:coord>
<gx:coord >14.492755 35.845207 0</gx:coord>
</gx:Track>
</Placemark>
<Placemark ><name >HA-LXJ</name>
<Style ><LineStyle ><color >ff1c1ae3</color>
<width >4</width>
</LineStyle>
<IconStyle ><Icon ><href >http://maps.google.com/mapfiles/kml/shapes/airports.png</href>
</Icon>
</IconStyle>
</Style>
<gx:Track ><altitudeMode >absolute</altitudeMode>
<extrude >1</extrude>
<when >2025-08-04T18:19:01.970Z</when>
<when >2025-08-04T18:19:04.430Z</when>
<when >2025-08-04T18:19:05.740Z</when>
<when >2025-08-04T18:19:07.770Z</when>
<when >2025-08-04T18:19:11.770Z</when>
<when >2025-08-04T18:19:14.180Z</when>
<when >2025-08-04T18:19:17.590Z</when>
<when >2025-08-04T18:19:18.800Z</when>
<when >2025-08-04T18:19:19.240Z</when>
<when >2025-08-04T18:19:21.250Z</when>
<when >2025-08-04T18:19:22.490Z</when>
<when >2025-08-04T18:19:24.680Z</when>
<when >2025-08-04T18:19:26.770Z</when>
<when >2025-08-04T18:19:27.990Z</when>
<when >2025-08-04T18:19:29.320Z</when>
<when >2025-08-04T18:19:31.680Z</when>
<when >2025-08-04T18:19:33.990Z</when>
<when >2025-08-04T18:19:35.320Z</when>
<when >2025-08-04T18:19:37.590Z</when>
<when >2025-08-04T18:19:40.040Z</when>
<when >2025-08-04T18:19:42.180Z</when>
<when >2025-08-04T18:19:44.470Z</when>
<when >2025-08-04T18:19:46.340Z</when>
<when >2025-08-04T18:19:48.500Z</when>
<when >2025-08-04T18:19:50.180Z</when>
<when >2025-08-04T18:19:51.570Z</when>
<when >2025-08-04T18:19:53.950Z</when>
<when >2025-08-04T18:19:57.300Z</when>
<when >2025-08-04T18:20:00.400Z</when>
<when >2025-08-04T18:20:03.800Z</when>
<when >2025-08-04T18:20:08.000Z</when>
<when >2025-08-04T18:20:12.850Z</when>
<when >2025-08-04T18:20:15.860Z</when>
<when >2025-08-04T18:20:18.210Z</when>
<when >2025-08-04T18:20:20.910Z</when>
<when >2025-08-04T18:20:25.060Z</when>
<when >2025-08-04T18:20:26.190Z</when>
<when >2025-08-04T18:20:30.640Z</when>
<when >2025-08-04T18:20:35.020Z</when>
<when >2025-08-04T18:20:39.040Z</when>
<when >2025-08-04T18:20:43.310Z</when>
<when >2025-08-04T18:20:46.620Z</when>
<when >2025-08-04T18:20:48.680Z</when>
<when >2025-08-04T18:20:51.300Z</when>
<when >2025-08-04T18:20:53.960Z</when>
<when >2025-08-04T18:20:56.590Z</when>
<when >2025-08-04T18:20:59.240Z</when>
<when >2025-08-04T18:21:02.190Z</when>
<when >2025-08-04T18:21:05.490Z</when>
<when >2025-08-04T18:21:07.230Z</when>
<when >2025-08-04T18:21:09.420Z</when>
<when >2025-08-04T18:21:11.180Z</when>
<when >2025-08-04T18:21:13.630Z</when>
<when >2025-08-04T18:21:15.260Z</when>
<when >2025-08-04T18:21:18.030Z</when>
<when >2025-08-04T18:21:19.550Z</when>
<when >2025-08-04T18:21:20.880Z</when>
<when >2025-08-04T18:21:24.130Z</when>
<when >2025-08-04T18:21:26.990Z</when>
<when >2025-08-04T18:21:29.840Z</when>
<when >2025-08-04T18:21:32.410Z</when>
<when >2025-08-04T18:21:35.200Z</when>
<when >2025-08-04T18:21:38.090Z</when>
<when >2025-08-04T18:21:42.280Z</when>
<when >2025-08-04T18:21:43.740Z</when>
<when >2025-08-04T18:21:46.000Z</when>
<when >2025-08-04T18:21:47.740Z</when>
<when >2025-08-04T18:21:50.250Z</when>
<when >2025-08-04T18:21:52.080Z</when>
<when >2025-08-04T18:21:53.900Z</when>
<when >2025-08-04T18:21:56.250Z</when>
<when >2025-08-04T18:21:58.050Z</when>
<when >2025-08-04T18:22:00.100Z</when>
<when >2025-08-04T18:22:01.840Z</when>
<when >2025-08-04T18:22:03.870Z</when>
<when >2025-08-04T18:22:05.340Z</when>
<when >2025-08-04T18:22:06.450Z</when>
<when >2025-08-04T18:22:07.880Z</when>
<when >2025-08-04T18:22:09.570Z</when>
<when >2025-08-04T18:22:11.400Z</when>
<when >2025-08-04T18:22:12.670Z</when>
<when >2025-08-04T18:22:14.620Z</when>
<when >2025-08-04T18:22:16.180Z</when>
<when >2025-08-04T18:22:17.750Z</when>
<when >2025-08-04T18:22:19.220Z</when>
<when >2025-08-04T18:22:21.400Z</when>
<when >2025-08-04T18:22:22.980Z</when>
<when >2025-08-04T18:22:25.050Z</when>
<when >2025-08-04T18:22:27.600Z</when>
<when >2025-08-04T18:22:29.700Z</when>
<when >2025-08-04T18:22:31.930Z</when>
<when >2025-08-04T18:22:34.440Z</when>
<when >2025-08-04T18:22:36.590Z</when>
<when >2025-08-04T18:22:38.480Z</when>
<when >2025-08-04T18:22:40.780Z</when>
<when >2025-08-04T18:22:44.380Z</when>
<when >2025-08-04T18:22:48.280Z</when>
<when >2025-08-04T18:22:52.340Z</when>
<when >2025-08-04T18:22:56.820Z</when>
<when >2025-08-04T18:22:59.910Z</when>
<when >2025-08-04T18:23:06.350Z</when>
<when >2025-08-04T18:23:11.880Z</when>
<when >2025-08-04T18:23:17.070Z</when>
<when >2025-08-04T18:23:23.210Z</when>
<when >2025-08-04T18:23:29.220Z</when>
<when >2025-08-04T18:23:34.880Z</when>
<when >2025-08-04T18:23:40.110Z</when>
<when >2025-08-04T18:23:44.770Z</when>
<when >2025-08-04T18:23:48.980Z</when>
<when >2025-08-04T18:23:52.910Z</when>
<when >2025-08-04T18:23:57.630Z</when>
<when >2025-08-04T18:24:01.060Z</when>
<when >2025-08-04T18:24:03.040Z</when>
<when >2025-08-04T18:24:06.770Z</when>
<when >2025-08-04T18:24:13.070Z</when>
<when >2025-08-04T18:24:19.910Z</when>
<when >2025-08-04T18:24:28.680Z</when>
<when >2025-08-04T18:24:37.220Z</when>
<when >2025-08-04T18:24:46.520Z</when>
<when >2025-08-04T18:24:55.480Z</when>
<when >2025-08-04T18:25:03.990Z</when>
<when >2025-08-04T18:25:12.980Z</when>
<when >2025-08-04T18:25:19.460Z</when>
<when >2025-08-04T18:25:26.040Z</when>
<when >2025-08-04T18:25:29.480Z</when>
<when >2025-08-04T18:25:34.140Z</when>
<when >2025-08-04T18:25:37.820Z</when>
<when >2025-08-04T18:25:42.950Z</when>
<when >2025-08-04T18:25:48.650Z</when>
<when >2025-08-04T18:25:54.510Z</when>
<when >2025-08-04T18:25:59.450Z</when>
<when >2025-08-04T18:26:05.860Z</when>
<when >2025-08-04T18:26:14.270Z</when>
<when >2025-08-04T18:26:24.190Z</when>
<when >2025-08-04T18:26:35.140Z</when>
<when >2025-08-04T18:26:45.080Z</when>
<when >2025-08-04T18:26:51.840Z</when>
<when >2025-08-04T18:27:04.390Z</when>
<when >2025-08-04T18:27:17.460Z</when>
<when >2025-08-04T18:27:28.290Z</when>
<when >2025-08-04T18:27:35.910Z</when>
<when >2025-08-04T18:27:40.730Z</when>
<when >2025-08-04T18:27:51.180Z</when>
<when >2025-08-04T18:28:03.110Z</when>
<when >2025-08-04T18:28:13.980Z</when>
<when >2025-08-04T18:28:25.450Z</when>
<when >2025-08-04T18:28:37.510Z</when>
<when >2025-08-04T18:28:49.790Z</when>
<when >2025-08-04T18:29:01.730Z</when>
<when >2025-08-04T18:29:14.370Z</when>
<when >2025-08-04T18:29:24.590Z</when>
<when >2025-08-04T18:29:35.180Z</when>
<when >2025-08-04T18:29:48.510Z</when>
<when >2025-08-04T18:30:01.630Z</when>
<when >2025-08-04T18:30:13.810Z</when>
<when >2025-08-04T18:30:25.540Z</when>
<when >2025-08-04T18:30:37.840Z</when>
<when >2025-08-04T18:30:50.910Z</when>
<when >2025-08-04T18:31:03.830Z</when>
<when >2025-08-04T18:31:13.270Z</when>
<when >2025-08-04T18:31:26.440Z</when>
<when >2025-08-04T18:31:39.940Z</when>
<when >2025-08-04T18:31:54.830Z</when>
<when >2025-08-04T18:32:09.350Z</when>
<when >2025-08-04T18:32:20.790Z</when>
<when >2025-08-04T18:32:36.350Z</when>
<when >2025-08-04T18:32:50.110Z</when>
<when >2025-08-04T18:33:03.950Z</when>
<when >2025-08-04T18:33:18.020Z</when>
<when >2025-08-04T18:33:32.890Z</when>
<when >2025-08-04T18:33:47.880Z</when>
<when >2025-08-04T18:34:02.440Z</when>
<when >2025-08-04T18:34:09.170Z</when>
<when >2025-08-04T18:34:12.550Z</when>
<when >2025-08-04T18:34:16.200Z</when>
<when >2025-08-04T18:34:18.500Z</when>
<when >2025-08-04T18:34:23.400Z</when>
<when >2025-08-04T18:34:27.380Z</when>
<when >2025-08-04T18:34:31.630Z</when>
<when >2025-08-04T18:34:36.770Z</when>
<when >2025-08-04T18:34:42.260Z</when>
<when >2025-08-04T18:34:46.370Z</when>
<when >2025-08-04T18:34:56.770Z</when>
<when >2025-08-04T18:35:11.430Z</when>
<when >2025-08-04T18:35:27.700Z</when>
<when >2025-08-04T18:35:45.250Z</when>
<when >2025-08-04T18:36:00.680Z</when>
<when >2025-08-04T18:36:15.370Z</when>
<when >2025-08-04T18:36:30.900Z</when>
<when >2025-08-04T18:36:49.060Z</when>
<when >2025-08-04T18:37:07.600Z</when>
<when >2025-08-04T18:37:24.120Z</when>
<when >2025-08-04T18:37:42.370Z</when>
<when >2025-08-04T18:37:57.020Z</when>
<when >2025-08-04T18:38:12.910Z</when>
<when >2025-08-04T18:38:32.590Z</when>
<when >2025-08-04T18:38:52.200Z</when>
<when >2025-08-04T18:39:12.070Z</when>
<when >2025-08-04T18:39:30.050Z</when>
<when >2025-08-04T18:39:49.480Z</when>
<when >2025-08-04T18:40:08.810Z</when>
<when >2025-08-04T18:40:28.380Z</when>
<when >2025-08-04T18:40:46.820Z</when>
<when >2025-08-04T18:41:06.680Z</when>
<when >2025-08-04T18:41:26.340Z</when>
<when >2025-08-04T18:41:45.470Z</when>
<when >2025-08-04T18:42:04.920Z</when>
<when >2025-08-04T18:42:24.820Z</when>
<when >2025-08-04T18:42:43.620Z</when>
<when >2025-08-04T18:43:03.470Z</when>
<when >2025-08-04T18:43:21.510Z</when>
<when >2025-08-04T18:43:41.450Z</when>
<when >2025-08-04T18:44:00.730Z</when>
<when >2025-08-04T18:44:20.480Z</when>
<when >2025-08-04T18:44:39.990Z</when>
<when >2025-08-04T18:44:59.900Z</when>
<when >2025-08-04T18:45:17.100Z</when>
<when >2025-08-04T18:45:25.980Z</when>
<when >2025-08-04T18:45:45.790Z</when>
<when >2025-08-04T18:46:05.740Z</when>
<when >2025-08-04T18:46:24.960Z</when>
<when >2025-08-04T18:46:44.820Z</when>
<when >2025-08-04T18:47:03.880Z</when>
<when >2025-08-04T18:47:23.820Z</when>
<when >2025-08-04T18:47:43.780Z</when>
<when >2025-08-04T18:48:03.080Z</when>
<when >2025-08-04T18:48:22.070Z</when>
<when >2025-08-04T18:48:41.450Z</when>
<when >2025-08-04T18:49:01.380Z</when>
<when >2025-08-04T18:49:21.140Z</when>
<when >2025-08-04T18:49:40.270Z</when>
<when >2025-08-04T18:49:59.920Z</when>
<when >2025-08-04T18:50:19.670Z</when>
<when >2025-08-04T18:50:39.550Z</when>
<when >2025-08-04T18:50:59.400Z</when>
<when >2025-08-04T18:51:19.180Z</when>
<when >2025-08-04T18:51:39.080Z</when>
<when >2025-08-04T18:51:58.490Z</when>
<when >2025-08-04T18:52:18.400Z</when>
<when >2025-08-04T18:52:37.260Z</when>
<when >2025-08-04T18:52:56.900Z</when>
<when >2025-08-04T18:53:16.270Z</when>
<when >2025-08-04T18:53:35.260Z</when>
<when >2025-08-04T18:53:54.730Z</when>
<when >2025-08-04T18:54:13.350Z</when>
<when >2025-08-04T18:54:32.730Z</when>
<when >2025-08-04T18:54:52.720Z</when>
<when >2025-08-04T18:55:12.130Z</when>
<when >2025-08-04T18:55:31.890Z</when>
<when >2025-08-04T18:55:51.810Z</when>
<when >2025-08-04T18:56:11.020Z</when>
<when >2025-08-04T18:56:30.990Z</when>
<when >2025-08-04T18:56:50.300Z</when>
<when >2025-08-04T18:57:09.840Z</when>
<when >2025-08-04T18:57:29.470Z</when>
<when >2025-08-04T18:57:48.590Z</when>
<when >2025-08-04T18:58:08.490Z</when>
<when >2025-08-04T18:58:27.890Z</when>
<when >2025-08-04T18:58:47.820Z</when>
<when >2025-08-04T18:59:07.710Z</when>
<when >2025-08-04T18:59:27.100Z</when>
<when >2025-08-04T18:59:46.270Z</when>
<when >2025-08-04T19:00:05.830Z</when>
<when >2025-08-04T19:00:25.220Z</when>
<when >2025-08-04T19:00:45.140Z</when>
<when >2025-08-04T19:01:04.780Z</when>
<when >2025-08-04T19:01:24.560Z</when>
<when >2025-08-04T19:01:44.020Z</when>
<when >2025-08-04T19:02:03.500Z</when>
<when >2025-08-04T19:02:23.280Z</when>
<when >2025-08-04T19:02:42.840Z</when>
<when >2025-08-04T19:03:02.000Z</when>
<when >2025-08-04T19:03:21.990Z</when>
<when >2025-08-04T19:03:41.600Z</when>
<when >2025-08-04T19:04:01.540Z</when>
<when >2025-08-04T19:04:21.340Z</when>
<when >2025-08-04T19:04:41.120Z</when>
<when >2025-08-04T19:05:00.730Z</when>
<when >2025-08-04T19:05:20.720Z</when>
<when >2025-08-04T19:05:40.570Z</when>
<when >2025-08-04T19:06:00.460Z</when>
<when >2025-08-04T19:06:19.920Z</when>
<when >2025-08-04T19:06:39.460Z</when>
<when >2025-08-04T19:06:59.020Z</when>
<when >2025-08-04T19:07:18.500Z</when>
<when >2025-08-04T19:07:38.280Z</when>
<when >2025-08-04T19:07:58.120Z</when>
<when >2025-08-04T19:08:17.270Z</when>
<when >2025-08-04T19:08:36.990Z</when>
<when >2025-08-04T19:08:56.720Z</when>
<when >2025-08-04T19:09:15.690Z</when>
<when >2025-08-04T19:09:34.590Z</when>
<when >2025-08-04T19:09:43.940Z</when>
<when >2025-08-04T19:09:52.150Z</when>
<when >2025-08-04T19:10:02.070Z</when>
<when >2025-08-04T19:10:12.340Z</when>
<when >2025-08-04T19:10:20.710Z</when>
<when >2025-08-04T19:10:30.480Z</when>
<when >2025-08-04T19:10:44.210Z</when>
<when >2025-08-04T19:11:04.130Z</when>
<when >2025-08-04T19:11:23.740Z</when>
<when >2025-08-04T19:11:43.140Z</when>
<when >2025-08-04T19:12:02.800Z</when>
<when >2025-08-04T19:12:22.760Z</when>
<when >2025-08-04T19:12:42.560Z</when>
<when >2025-08-04T19:13:02.470Z</when>
<when >2025-08-04T19:13:17.730Z</when>
<when >2025-08-04T19:13:37.500Z</when>
<when >2025-08-04T19:13:57.360Z</when>
<when >2025-08-04T19:14:16.500Z</when>
<when >2025-08-04T19:14:35.160Z</when>
<when >2025-08-04T19:14:54.660Z</when>
<when >2025-08-04T19:15:13.190Z</when>
<when >2025-08-04T19:15:32.710Z</when>
<when >2025-08-04T19:15:52.370Z</when>
<when >2025-08-04T19:16:11.170Z</when>
<when >2025-08-04T19:16:30.490Z</when>
<when >2025-08-04T19:16:50.420Z</when>
<when >2025-08-04T19:17:10.360Z</when>
<when >2025-08-04T19:17:29.890Z</when>
<when >2025-08-04T19:17:49.590Z</when>
<when >2025-08-04T19:18:08.490Z</when>
<when >2025-08-04T19:18:28.090Z</when>
<when >2025-08-04T19:18:47.790Z</when>
<when >2025-08-04T19:19:07.770Z</when>
<when >2025-08-04T19:19:27.420Z</when>
<when >2025-08-04T19:19:46.970Z</when>
<when >2025-08-04T19:20:06.590Z</when>
<when >2025-08-04T19:20:25.880Z</when>
<when >2025-08-04T19:20:45.080Z</when>
<when >2025-08-04T19:21:04.490Z</when>
<when >2025-08-04T19:21:23.920Z</when>
<when >2025-08-04T19:21:43.900Z</when>
<when >2025-08-04T19:22:03.270Z</when>
<when >2025-08-04T19:22:22.930Z</when>
<when >2025-08-04T19:22:42.490Z</when>
<when >2025-08-04T19:23:02.140Z</when>
<when >2025-08-04T19:23:21.790Z</when>
<when >2025-08-04T19:23:41.460Z</when>
<when >2025-08-04T19:23:58.910Z</when>
<when >2025-08-04T19:24:08.790Z</when>
<when >2025-08-04T19:24:16.550Z</when>
<when >2025-08-04T19:24:24.390Z</when>
<when >2025-08-04T19:24:30.320Z</when>
<when >2025-08-04T19:24:36.890Z</when>
<when >2025-08-04T19:24:42.160Z</when>
<when >2025-08-04T19:24:51.790Z</when>
<when >2025-08-04T19:25:10.430Z</when>
<when >2025-08-04T19:25:29.950Z</when>
<when >2025-08-04T19:25:49.690Z</when>
<when >2025-08-04T19:26:09.510Z</when>
<when >2025-08-04T19:26:29.370Z</when>
<when >2025-08-04T19:26:48.820Z</when>
<when >2025-08-04T19:27:07.730Z</when>
<when >2025-08-04T19:27:27.520Z</when>
<when >2025-08-04T19:27:47.410Z</when>
<when >2025-08-04T19:28:07.260Z</when>
<when >2025-08-04T19:28:27.230Z</when>
<when >2025-08-04T19:28:47.130Z</when>
<when >2025-08-04T19:29:07.120Z</when>
<when >2025-08-04T19:29:26.990Z</when>
<when >2025-08-04T19:29:46.320Z</when>
<when >2025-08-04T19:30:06.230Z</when>
<when >2025-08-04T19:30:25.750Z</when>
<when >2025-08-04T19:30:45.210Z</when>
<when >2025-08-04T19:31:05.190Z</when>
<when >2025-08-04T19:31:24.780Z</when>
<when >2025-08-04T19:31:43.810Z</when>
<when >2025-08-04T19:32:03.440Z</when>
<when >2025-08-04T19:32:22.930Z</when>
<when >2025-08-04T19:32:42.760Z</when>
<when >2025-08-04T19:33:02.140Z</when>
<when >2025-08-04T19:33:21.860Z</when>
<when >2025-08-04T19:33:41.030Z</when>
<when >2025-08-04T19:34:00.920Z</when>
<when >2025-08-04T19:34:20.530Z</when>
<when >2025-08-04T19:34:39.830Z</when>
<when >2025-08-04T19:34:59.650Z</when>
<when >2025-08-04T19:35:19.580Z</when>
<when >2025-08-04T19:35:39.580Z</when>
<when >2025-08-04T19:35:59.530Z</when>
<when >2025-08-04T19:36:18.900Z</when>
<when >2025-08-04T19:36:38.450Z</when>
<when >2025-08-04T19:36:58.130Z</when>
<when >2025-08-04T19:37:17.190Z</when>
<when >2025-08-04T19:37:37.010Z</when>
<when >2025-08-04T19:37:56.470Z</when>
<when >2025-08-04T19:38:16.340Z</when>
<when >2025-08-04T19:38:35.320Z</when>
<when >2025-08-04T19:38:55.320Z</when>
<when >2025-08-04T19:39:15.200Z</when>
<when >2025-08-04T19:39:34.430Z</when>
<when >2025-08-04T19:39:54.290Z</when>
<when >2025-08-04T19:40:13.990Z</when>
<when >2025-08-04T19:40:33.800Z</when>
<when >2025-08-04T19:40:53.030Z</when>
<when >2025-08-04T19:41:12.830Z</when>
<when >2025-08-04T19:41:32.810Z</when>
<when >2025-08-04T19:41:52.630Z</when>
<when >2025-08-04T19:42:12.150Z</when>
<when >2025-08-04T19:42:31.710Z</when>
<when >2025-08-04T19:42:51.320Z</when>
<when >2025-08-04T19:43:10.930Z</when>
<when >2025-08-04T19:43:30.660Z</when>
<when >2025-08-04T19:43:50.390Z</when>
<when >2025-08-04T19:44:09.820Z</when>
<when >2025-08-04T19:44:29.700Z</when>
<when >2025-08-04T19:44:49.230Z</when>
<when >2025-08-04T19:45:08.720Z</when>
<when >2025-08-04T19:45:28.310Z</when>
<when >2025-08-04T19:45:47.530Z</when>
<when >2025-08-04T19:46:07.370Z</when>
<when >2025-08-04T19:46:27.270Z</when>
<when >2025-08-04T19:46:46.740Z</when>
<when >2025-08-04T19:47:06.470Z</when>
<when >2025-08-04T19:47:26.030Z</when>
<when >2025-08-04T19:47:43.990Z</when>
<when >2025-08-04T19:48:03.630Z</when>
<when >2025-08-04T19:48:23.010Z</when>
<when >2025-08-04T19:48:42.360Z</when>
<when >2025-08-04T19:49:02.310Z</when>
<when >2025-08-04T19:49:21.960Z</when>
<when >2025-08-04T19:49:41.690Z</when>
<when >2025-08-04T19:50:01.590Z</when>
<when >2025-08-04T19:50:20.710Z</when>
<when >2025-08-04T19:50:40.410Z</when>
<when >2025-08-04T19:51:00.380Z</when>
<when >2025-08-04T19:51:20.360Z</when>
<when >2025-08-04T19:51:40.320Z</when>
<when >2025-08-04T19:52:00.120Z</when>
<when >2025-08-04T19:52:19.760Z</when>
<when >2025-08-04T19:52:29.590Z</when>
<when >2025-08-04T19:52:39.420Z</when>
<when >2025-08-04T19:52:48.540Z</when>
<when >2025-08-04T19:53:08.420Z</when>
<when >2025-08-04T19:53:28.380Z</when>
<when >2025-08-04T19:53:47.960Z</when>
<when >2025-08-04T19:54:07.650Z</when>
<when >2025-08-04T19:54:27.000Z</when>
<when >2025-08-04T19:54:46.990Z</when>
<when >2025-08-04T19:55:06.390Z</when>
<when >2025-08-04T19:55:26.250Z</when>
<when >2025-08-04T19:55:45.550Z</when>
<when >2025-08-04T19:56:04.860Z</when>
<when >2025-08-04T19:56:24.360Z</when>
<when >2025-08-04T19:56:44.070Z</when>
<when >2025-08-04T19:57:03.900Z</when>
<when >2025-08-04T19:57:23.730Z</when>
<when >2025-08-04T19:57:43.230Z</when>
<when >2025-08-04T19:58:03.230Z</when>
<when >2025-08-04T19:58:23.190Z</when>
<when >2025-08-04T19:58:42.810Z</when>
<when >2025-08-04T19:59:02.710Z</when>
<when >2025-08-04T19:59:22.140Z</when>
<when >2025-08-04T19:59:41.700Z</when>
<when >2025-08-04T20:00:01.530Z</when>
<when >2025-08-04T20:00:20.640Z</when>
<when >2025-08-04T20:00:40.460Z</when>
<when >2025-08-04T20:01:00.310Z</when>
<when >2025-08-04T20:01:19.120Z</when>
<when >2025-08-04T20:01:36.930Z</when>
<when >2025-08-04T20:01:42.570Z</when>
<when >2025-08-04T20:01:47.730Z</when>
<when >2025-08-04T20:01:52.800Z</when>
<when >2025-08-04T20:01:58.800Z</when>
<when >2025-08-04T20:02:10.510Z</when>
<when >2025-08-04T20:02:30.070Z</when>
<when >2025-08-04T20:02:49.700Z</when>
<when >2025-08-04T20:03:09.690Z</when>
<when >2025-08-04T20:03:29.330Z</when>
<when >2025-08-04T20:03:49.230Z</when>
<when >2025-08-04T20:04:08.490Z</when>
<when >2025-08-04T20:04:27.950Z</when>
<when >2025-08-04T20:04:47.840Z</when>
<when >2025-08-04T20:05:07.600Z</when>
<when >2025-08-04T20:05:27.110Z</when>
<when >2025-08-04T20:05:46.800Z</when>
<when >2025-08-04T20:06:06.350Z</when>
<when >2025-08-04T20:06:26.030Z</when>
<when >2025-08-04T20:06:45.870Z</when>
<when >2025-08-04T20:07:05.620Z</when>
<when >2025-08-04T20:07:25.270Z</when>
<when >2025-08-04T20:07:44.410Z</when>
<when >2025-08-04T20:08:03.560Z</when>
<when >2025-08-04T20:08:23.390Z</when>
<when >2025-08-04T20:08:43.290Z</when>
<when >2025-08-04T20:09:03.280Z</when>
<when >2025-08-04T20:09:23.280Z</when>
<when >2025-08-04T20:09:42.860Z</when>
<when >2025-08-04T20:10:02.520Z</when>
<when >2025-08-04T20:10:21.930Z</when>
<when >2025-08-04T20:10:41.840Z</when>
<when >2025-08-04T20:11:01.660Z</when>
<when >2025-08-04T20:11:21.590Z</when>
<when >2025-08-04T20:11:41.440Z</when>
<when >2025-08-04T20:12:01.300Z</when>
<when >2025-08-04T20:12:20.710Z</when>
<when >2025-08-04T20:12:40.500Z</when>
<when >2025-08-04T20:13:00.350Z</when>
<when >2025-08-04T20:13:14.550Z</when>
<when >2025-08-04T20:13:19.880Z</when>
<when >2025-08-04T20:13:25.640Z</when>
<when >2025-08-04T20:13:32.270Z</when>
<when >2025-08-04T20:13:51.830Z</when>
<when >2025-08-04T20:14:11.740Z</when>
<when >2025-08-04T20:14:31.630Z</when>
<when >2025-08-04T20:14:51.540Z</when>
<when >2025-08-04T20:15:10.940Z</when>
<when >2025-08-04T20:15:30.490Z</when>
<when >2025-08-04T20:15:50.320Z</when>
<when >2025-08-04T20:16:09.700Z</when>
<when >2025-08-04T20:16:29.640Z</when>
<when >2025-08-04T20:16:49.310Z</when>
<when >2025-08-04T20:17:09.060Z</when>
<when >2025-08-04T20:17:28.950Z</when>
<when >2025-08-04T20:17:48.820Z</when>
<when >2025-08-04T20:18:08.680Z</when>
<when >2025-08-04T20:18:28.610Z</when>
<when >2025-08-04T20:18:48.550Z</when>
<when >2025-08-04T20:19:08.060Z</when>
<when >2025-08-04T20:19:27.850Z</when>
<when >2025-08-04T20:19:47.750Z</when>
<when >2025-08-04T20:20:07.590Z</when>
<when >2025-08-04T20:20:27.530Z</when>
<when >2025-08-04T20:20:47.320Z</when>
<when >2025-08-04T20:21:07.160Z</when>
<when >2025-08-04T20:21:27.150Z</when>
<when >2025-08-04T20:21:47.090Z</when>
<when >2025-08-04T20:22:07.070Z</when>
<when >2025-08-04T20:22:26.560Z</when>
<when >2025-08-04T20:22:46.430Z</when>
<when >2025-08-04T20:23:06.320Z</when>
<when >2025-08-04T20:23:25.820Z</when>
<when >2025-08-04T20:23:45.590Z</when>
<when >2025-08-04T20:24:02.020Z</when>
<when >2025-08-04T20:24:12.940Z</when>
<when >2025-08-04T20:24:25.760Z</when>
<when >2025-08-04T20:24:45.680Z</when>
<when >2025-08-04T20:25:05.660Z</when>
<when >2025-08-04T20:25:25.330Z</when>
<when >2025-08-04T20:25:44.750Z</when>
<when >2025-08-04T20:26:04.590Z</when>
<when >2025-08-04T20:26:24.500Z</when>
<when >2025-08-04T20:26:44.360Z</when>
<when >2025-08-04T20:27:03.930Z</when>
<when >2025-08-04T20:27:23.680Z</when>
<when >2025-08-04T20:27:40.790Z</when>
<when >2025-08-04T20:27:58.100Z</when>
<when >2025-08-04T20:28:06.170Z</when>
<when >2025-08-04T20:28:18.090Z</when>
<when >2025-08-04T20:28:19.950Z</when>
<when >2025-08-04T20:28:31.230Z</when>
<when >2025-08-04T20:28:42.970Z</when>
<when >2025-08-04T20:28:50.550Z</when>
<when >2025-08-04T20:29:02.320Z</when>
<when >2025-08-04T20:29:07.130Z</when>
<when >2025-08-04T20:29:16.190Z</when>
<when >2025-08-04T20:29:24.530Z</when>
<when >2025-08-04T20:29:29.160Z</when>
<when >2025-08-04T20:29:33.620Z</when>
<when >2025-08-04T20:29:34.800Z</when>
<when >2025-08-04T20:29:36.340Z</when>
<when >2025-08-04T20:29:41.970Z</when>
<when >2025-08-04T20:29:47.070Z</when>
<when >2025-08-04T20:29:52.250Z</when>
<when >2025-08-04T20:29:54.900Z</when>
<when >2025-08-04T20:29:56.270Z</when>
<when >2025-08-04T20:29:58.000Z</when>
<when >2025-08-04T20:30:00.600Z</when>
<when >2025-08-04T20:30:02.620Z</when>
<when >2025-08-04T20:30:05.070Z</when>
<when >2025-08-04T20:30:06.660Z</when>
<when >2025-08-04T20:30:10.400Z</when>
<when >2025-08-04T20:30:25.260Z</when>
<when >2025-08-04T20:30:36.240Z</when>
<when >2025-08-04T20:30:48.140Z</when>
<when >2025-08-04T20:30:59.530Z</when>
<when >2025-08-04T20:31:10.280Z</when>
<when >2025-08-04T20:31:21.140Z</when>
<when >2025-08-04T20:31:31.520Z</when>
<when >2025-08-04T20:31:40.860Z</when>
<when >2025-08-04T20:31:49.740Z</when>
<when >2025-08-04T20:32:01.190Z</when>
<when >2025-08-04T20:32:08.240Z</when>
<when >2025-08-04T20:32:15.040Z</when>
<when >2025-08-04T20:32:19.960Z</when>
<when >2025-08-04T20:32:31.300Z</when>
<when >2025-08-04T20:32:43.750Z</when>
<when >2025-08-04T20:32:56.030Z</when>
<when >2025-08-04T20:33:04.480Z</when>
<when >2025-08-04T20:33:09.740Z</when>
<when >2025-08-04T20:33:14.670Z</when>
<when >2025-08-04T20:33:18.600Z</when>
<when >2025-08-04T20:33:24.440Z</when>
<when >2025-08-04T20:33:38.680Z</when>
<when >2025-08-04T20:33:48.700Z</when>
<when >2025-08-04T20:34:00.050Z</when>
<when >2025-08-04T20:34:11.000Z</when>
<when >2025-08-04T20:34:21.640Z</when>
<when >2025-08-04T20:34:35.290Z</when>
<when >2025-08-04T20:34:47.700Z</when>
<when >2025-08-04T20:34:59.350Z</when>
<when >2025-08-04T20:35:10.200Z</when>
<when >2025-08-04T20:35:20.400Z</when>
<when >2025-08-04T20:35:29.980Z</when>
<when >2025-08-04T20:35:39.400Z</when>
<when >2025-08-04T20:35:48.310Z</when>
<when >2025-08-04T20:35:57.330Z</when>
<when >2025-08-04T20:36:06.210Z</when>
<when >2025-08-04T20:36:13.900Z</when>
<when >2025-08-04T20:36:26.310Z</when>
<when >2025-08-04T20:36:37.880Z</when>
<when >2025-08-04T20:36:48.690Z</when>
<when >2025-08-04T20:36:59.270Z</when>
<when >2025-08-04T20:37:07.110Z</when>
<when >2025-08-04T20:37:19.550Z</when>
<when >2025-08-04T20:37:31.370Z</when>
<when >2025-08-04T20:37:42.140Z</when>
<when >2025-08-04T20:37:53.010Z</when>
<when >2025-08-04T20:37:56.170Z</when>
<when >2025-08-04T20:38:03.460Z</when>
<when >2025-08-04T20:38:05.680Z</when>
<when >2025-08-04T20:38:13.060Z</when>
<when >2025-08-04T20:38:22.230Z</when>
<when >2025-08-04T20:38:27.350Z</when>
<when >2025-08-04T20:38:39.330Z</when>
<when >2025-08-04T20:38:50.890Z</when>
<when >2025-08-04T20:38:58.550Z</when>
<when >2025-08-04T20:39:05.000Z</when>
<when >2025-08-04T20:39:12.280Z</when>
<when >2025-08-04T20:39:18.110Z</when>
<when >2025-08-04T20:39:23.320Z</when>
<when >2025-08-04T20:39:28.590Z</when>
<when >2025-08-04T20:39:34.040Z</when>
<when >2025-08-04T20:39:39.090Z</when>
<when >2025-08-04T20:39:44.260Z</when>
<when >2025-08-04T20:39:48.300Z</when>
<when >2025-08-04T20:39:55.640Z</when>
<when >2025-08-04T20:40:03.180Z</when>
<when >2025-08-04T20:40:08.620Z</when>
<when >2025-08-04T20:40:14.090Z</when>
<when >2025-08-04T20:40:16.950Z</when>
<when >2025-08-04T20:40:21.120Z</when>
<when >2025-08-04T20:40:24.880Z</when>
<when >2025-08-04T20:40:30.320Z</when>
<when >2025-08-04T20:40:35.790Z</when>
<when >2025-08-04T20:40:42.680Z</when>
<when >2025-08-04T20:40:49.380Z</when>
<when >2025-08-04T20:40:56.630Z</when>
<when >2025-08-04T20:41:03.830Z</when>
<when >2025-08-04T20:41:08.250Z</when>
<when >2025-08-04T20:41:15.860Z</when>
<when >2025-08-04T20:41:22.290Z</when>
<when >2025-08-04T20:41:30.050Z</when>
<when >2025-08-04T20:41:38.020Z</when>
<when >2025-08-04T20:41:46.090Z</when>
<when >2025-08-04T20:41:54.790Z</when>
<when >2025-08-04T20:41:59.590Z</when>
<when >2025-08-04T20:42:04.920Z</when>
<when >2025-08-04T20:42:09.510Z</when>
<when >2025-08-04T20:42:14.010Z</when>
<when >2025-08-04T20:42:18.330Z</when>
<when >2025-08-04T20:42:22.780Z</when>
<when >2025-08-04T20:42:27.460Z</when>
<when >2025-08-04T20:42:32.300Z</when>
<when >2025-08-04T20:42:36.680Z</when>
<when >2025-08-04T20:42:41.280Z</when>
<when >2025-08-04T20:42:45.930Z</when>
<when >2025-08-04T20:42:49.460Z</when>
<when >2025-08-04T20:42:52.550Z</when>
<when >2025-08-04T20:42:56.170Z</when>
<when >2025-08-04T20:42:59.120Z</when>
<when >2025-08-04T20:43:03.170Z</when>
<when >2025-08-04T20:43:08.620Z</when>
<when >2025-08-04T20:43:13.910Z</when>
<when >2025-08-04T20:43:18.040Z</when>
<when >2025-08-04T20:43:22.240Z</when>
<when >2025-08-04T20:43:26.060Z</when>
<when >2025-08-04T20:43:29.850Z</when>
<when >2025-08-04T20:43:33.040Z</when>
<when >2025-08-04T20:43:38.710Z</when>
<when >2025-08-04T20:43:44.790Z</when>
<when >2025-08-04T20:43:48.640Z</when>
<when >2025-08-04T20:43:54.910Z</when>
<when >2025-08-04T20:43:59.700Z</when>
<when >2025-08-04T20:44:04.370Z</when>
<when >2025-08-04T20:44:09.050Z</when>
<when >2025-08-04T20:44:13.260Z</when>
<when >2025-08-04T20:44:17.550Z</when>
<when >2025-08-04T20:44:22.090Z</when>
<when >2025-08-04T20:44:27.490Z</when>
<when >2025-08-04T20:44:32.620Z</when>
<when >2025-08-04T20:44:36.460Z</when>
<when >2025-08-04T20:44:41.810Z</when>
<when >2025-08-04T20:44:45.840Z</when>
<when >2025-08-04T20:44:51.830Z</when>
<when >2025-08-04T20:44:57.960Z</when>
<when >2025-08-04T20:45:03.320Z</when>
<when >2025-08-04T20:45:10.150Z</when>
<when >2025-08-04T20:45:16.070Z</when>
<when >2025-08-04T20:45:22.780Z</when>
<when >2025-08-04T20:45:29.490Z</when>
<when >2025-08-04T20:45:42.210Z</when>
<when >2025-08-04T20:45:56.330Z</when>
<when >2025-08-04T20:45:59.090Z</when>
<when >2025-08-04T20:46:04.090Z</when>
<when >2025-08-04T20:46:07.620Z</when>
<when >2025-08-04T20:46:12.130Z</when>
<when >2025-08-04T20:46:17.090Z</when>
<when >2025-08-04T20:46:22.650Z</when>
<when >2025-08-04T20:46:28.880Z</when>
<when >2025-08-04T20:46:35.110Z</when>
<when >2025-08-04T20:46:40.570Z</when>
<when >2025-08-04T20:46:43.610Z</when>
<when >2025-08-04T20:46:46.840Z</when>
<when >2025-08-04T20:46:51.430Z</when>
<when >2025-08-04T20:46:57.520Z</when>
<when >2025-08-04T20:47:03.870Z</when>
<when >2025-08-04T20:47:10.440Z</when>
<when >2025-08-04T20:47:16.750Z</when>
<when >2025-08-04T20:47:20.480Z</when>
<when >2025-08-04T20:47:25.840Z</when>
<when >2025-08-04T20:47:32.400Z</when>
<when >2025-08-04T20:47:40.040Z</when>
<when >2025-08-04T20:47:47.940Z</when>
<when >2025-08-04T20:47:56.370Z</when>
<when >2025-08-04T20:48:05.110Z</when>
<when >2025-08-04T20:48:12.700Z</when>
<when >2025-08-04T20:48:21.260Z</when>
<when >2025-08-04T20:48:29.550Z</when>
<when >2025-08-04T20:48:37.920Z</when>
<when >2025-08-04T20:48:44.530Z</when>
<when >2025-08-04T20:48:51.790Z</when>
<when >2025-08-04T20:48:59.040Z</when>
<when >2025-08-04T20:49:01.230Z</when>
<when >2025-08-04T20:49:06.760Z</when>
<when >2025-08-04T20:49:12.600Z</when>
<when >2025-08-04T20:49:14.060Z</when>
<when >2025-08-04T20:49:15.530Z</when>
<when >2025-08-04T20:49:18.300Z</when>
<when >2025-08-04T20:49:18.300Z</when>
<gx:coord >14.492136 35.845689 78</gx:coord>
<gx:coord >14.491138 35.846512 78</gx:coord>
<gx:coord >14.490908 35.846713 78</gx:coord>
<gx:coord >14.48974 35.847644 78</gx:coord>
<gx:coord >14.487344 35.849552 87</gx:coord>
<gx:coord >14.486275 35.850449 87</gx:coord>
<gx:coord >14.484539 35.851834 74</gx:coord>
<gx:coord >14.483929 35.852325 76</gx:coord>
<gx:coord >14.483643 35.852509 76</gx:coord>
<gx:coord >14.482376 35.853556 84</gx:coord>
<gx:coord >14.480915 35.85472 99</gx:coord>
<gx:coord >14.479338 35.85607 122</gx:coord>
<gx:coord >14.478092 35.857086 137</gx:coord>
<gx:coord >14.477406 35.857635 152</gx:coord>
<gx:coord >14.47649 35.858368 175</gx:coord>
<gx:coord >14.474955 35.859654 207</gx:coord>
<gx:coord >14.473844 35.860585 237</gx:coord>
<gx:coord >14.472559 35.86161 267</gx:coord>
<gx:coord >14.471273 35.86268 300</gx:coord>
<gx:coord >14.469852 35.863815 340</gx:coord>
<gx:coord >14.468136 35.865097 380</gx:coord>
<gx:coord >14.466705 35.866104 414</gx:coord>
<gx:coord >14.465722 35.866823 446</gx:coord>
<gx:coord >14.464319 35.867754 474</gx:coord>
<gx:coord >14.463384 35.868406 492</gx:coord>
<gx:coord >14.462013 35.869263 517</gx:coord>
<gx:coord >14.460404 35.870315 556</gx:coord>
<gx:coord >14.458122 35.871689 586</gx:coord>
<gx:coord >14.456079 35.872922 614</gx:coord>
<gx:coord >14.453508 35.874458 645</gx:coord>
<gx:coord >14.450528 35.87618 679</gx:coord>
<gx:coord >14.44685 35.878326 711</gx:coord>
<gx:coord >14.44445 35.879672 728</gx:coord>
<gx:coord >14.442501 35.880798 746</gx:coord>
<gx:coord >14.440301 35.882046 764</gx:coord>
<gx:coord >14.437122 35.883865 787</gx:coord>
<gx:coord >14.436207 35.884415 793</gx:coord>
<gx:coord >14.432354 35.886562 818</gx:coord>
<gx:coord >14.428672 35.888749 841</gx:coord>
<gx:coord >14.425049 35.890823 868</gx:coord>
<gx:coord >14.421543 35.893079 899</gx:coord>
<gx:coord >14.418971 35.895127 907</gx:coord>
<gx:coord >14.41751 35.89657 922</gx:coord>
<gx:coord >14.415607 35.89888 939</gx:coord>
<gx:coord >14.414005 35.901489 963</gx:coord>
<gx:coord >14.412952 35.903879 981</gx:coord>
<gx:coord >14.412076 35.906532 989</gx:coord>
<gx:coord >14.41155 35.909326 997</gx:coord>
<gx:coord >14.411373 35.912384 1013</gx:coord>
<gx:coord >14.411491 35.914027 1020</gx:coord>
<gx:coord >14.4119 35.916727 1028</gx:coord>
<gx:coord >14.412403 35.918884 1035</gx:coord>
<gx:coord >14.413303 35.921336 1048</gx:coord>
<gx:coord >14.414005 35.92305 1055</gx:coord>
<gx:coord >14.415493 35.925797 1070</gx:coord>
<gx:coord >14.416751 35.927807 1078</gx:coord>
<gx:coord >14.417919 35.92939 1093</gx:coord>
<gx:coord >14.420257 35.93209 1119</gx:coord>
<gx:coord >14.423332 35.935089 1142</gx:coord>
<gx:coord >14.426365 35.937607 1171</gx:coord>
<gx:coord >14.429169 35.939804 1203</gx:coord>
<gx:coord >14.432295 35.942191 1232</gx:coord>
<gx:coord >14.435392 35.944426 1265</gx:coord>
<gx:coord >14.438839 35.946808 1297</gx:coord>
<gx:coord >14.441986 35.949005 1328</gx:coord>
<gx:coord >14.445076 35.951111 1358</gx:coord>
<gx:coord >14.447489 35.952759 1392</gx:coord>
<gx:coord >14.450397 35.954727 1424</gx:coord>
<gx:coord >14.452748 35.956297 1455</gx:coord>
<gx:coord >14.455086 35.95788 1487</gx:coord>
<gx:coord >14.457664 35.959579 1517</gx:coord>
<gx:coord >14.459878 35.961092 1547</gx:coord>
<gx:coord >14.462585 35.962921 1577</gx:coord>
<gx:coord >14.464261 35.964024 1607</gx:coord>
<gx:coord >14.46682 35.965805 1642</gx:coord>
<gx:coord >14.468059 35.966631 1665</gx:coord>
<gx:coord >14.46991 35.967865 1689</gx:coord>
<gx:coord >14.471799 35.969145 1721</gx:coord>
<gx:coord >14.473629 35.970383 1753</gx:coord>
<gx:coord >14.475481 35.971612 1785</gx:coord>
<gx:coord >14.477351 35.972823 1809</gx:coord>
<gx:coord >14.479065 35.973999 1839</gx:coord>
<gx:coord >14.481091 35.975337 1876</gx:coord>
<gx:coord >14.483128 35.976654 1906</gx:coord>
<gx:coord >14.485649 35.978176 1936</gx:coord>
<gx:coord >14.487934 35.979492 1969</gx:coord>
<gx:coord >14.490499 35.980923 1998</gx:coord>
<gx:coord >14.493655 35.982506 2031</gx:coord>
<gx:coord >14.497044 35.984042 2064</gx:coord>
<gx:coord >14.499779 35.985168 2096</gx:coord>
<gx:coord >14.50283 35.98637 2126</gx:coord>
<gx:coord >14.506531 35.987778 2156</gx:coord>
<gx:coord >14.509842 35.989023 2185</gx:coord>
<gx:coord >14.511909 35.989792 2209</gx:coord>
<gx:coord >14.514926 35.990932 2239</gx:coord>
<gx:coord >14.52095 35.993134 2294</gx:coord>
<gx:coord >14.52673 35.995193 2373</gx:coord>
<gx:coord >14.532867 35.997402 2438</gx:coord>
<gx:coord >14.53912 35.999637 2501</gx:coord>
<gx:coord >14.543736 36.001313 2542</gx:coord>
<gx:coord >14.552536 36.004486 2595</gx:coord>
<gx:coord >14.561062 36.007553 2658</gx:coord>
<gx:coord >14.569566 36.010623 2720</gx:coord>
<gx:coord >14.57915 36.014161 2782</gx:coord>
<gx:coord >14.588324 36.017513 2849</gx:coord>
<gx:coord >14.596856 36.020679 2912</gx:coord>
<gx:coord >14.605064 36.023712 2978</gx:coord>
<gx:coord >14.611301 36.026001 3029</gx:coord>
<gx:coord >14.618282 36.028564 3094</gx:coord>
<gx:coord >14.624577 36.030853 3157</gx:coord>
<gx:coord >14.632244 36.033646 3232</gx:coord>
<gx:coord >14.636886 36.035389 3270</gx:coord>
<gx:coord >14.640568 36.036739 3294</gx:coord>
<gx:coord >14.646587 36.038927 3315</gx:coord>
<gx:coord >14.656229 36.042512 3347</gx:coord>
<gx:coord >14.667835 36.046829 3390</gx:coord>
<gx:coord >14.682026 36.052139 3444</gx:coord>
<gx:coord >14.696732 36.057541 3490</gx:coord>
<gx:coord >14.711552 36.063034 3543</gx:coord>
<gx:coord >14.728868 36.069372 3589</gx:coord>
<gx:coord >14.744587 36.075145 3642</gx:coord>
<gx:coord >14.760541 36.080964 3697</gx:coord>
<gx:coord >14.773808 36.085831 3764</gx:coord>
<gx:coord >14.785824 36.090225 3826</gx:coord>
<gx:coord >14.793383 36.092974 3865</gx:coord>
<gx:coord >14.802324 36.096233 3937</gx:coord>
<gx:coord >14.808941 36.098648 3997</gx:coord>
<gx:coord >14.818668 36.102173 4096</gx:coord>
<gx:coord >14.829205 36.106009 4207</gx:coord>
<gx:coord >14.840355 36.110046 4330</gx:coord>
<gx:coord >14.848652 36.113068 4412</gx:coord>
<gx:coord >14.860762 36.117461 4526</gx:coord>
<gx:coord >14.876482 36.123187 4656</gx:coord>
<gx:coord >14.894597 36.129797 4785</gx:coord>
<gx:coord >14.914513 36.137054 4907</gx:coord>
<gx:coord >14.932699 36.143716 5038</gx:coord>
<gx:coord >14.944971 36.148232 5120</gx:coord>
<gx:coord >14.968185 36.156738 5220</gx:coord>
<gx:coord >14.990902 36.16507 5319</gx:coord>
<gx:coord >15.012932 36.17308 5441</gx:coord>
<gx:coord >15.026784 36.178165 5518</gx:coord>
<gx:coord >15.036163 36.181549 5553</gx:coord>
<gx:coord >15.056705 36.189011 5624</gx:coord>
<gx:coord >15.079495 36.197298 5746</gx:coord>
<gx:coord >15.100708 36.204987 5860</gx:coord>
<gx:coord >15.122738 36.212952 5974</gx:coord>
<gx:coord >15.145912 36.221375 6096</gx:coord>
<gx:coord >15.170366 36.23021 6203</gx:coord>
<gx:coord >15.194206 36.238815 6310</gx:coord>
<gx:coord >15.217724 36.24733 6425</gx:coord>
<gx:coord >15.240555 36.255524 6562</gx:coord>
<gx:coord >15.261704 36.263123 6661</gx:coord>
<gx:coord >15.287534 36.272386 6768</gx:coord>
<gx:coord >15.315526 36.282535 6867</gx:coord>
<gx:coord >15.340118 36.291367 6982</gx:coord>
<gx:coord >15.363854 36.299945 7089</gx:coord>
<gx:coord >15.38793 36.308604 7203</gx:coord>
<gx:coord >15.415571 36.31852 7302</gx:coord>
<gx:coord >15.442715 36.328262 7402</gx:coord>
<gx:coord >15.461998 36.335175 7478</gx:coord>
<gx:coord >15.488605 36.34465 7585</gx:coord>
<gx:coord >15.517429 36.354924 7684</gx:coord>
<gx:coord >15.547875 36.365724 7784</gx:coord>
<gx:coord >15.57949 36.376943 7868</gx:coord>
<gx:coord >15.602222 36.385089 7944</gx:coord>
<gx:coord >15.637436 36.397659 8036</gx:coord>
<gx:coord >15.668163 36.408646 8120</gx:coord>
<gx:coord >15.69771 36.419119 8227</gx:coord>
<gx:coord >15.727959 36.429886 8326</gx:coord>
<gx:coord >15.760803 36.441559 8411</gx:coord>
<gx:coord >15.794249 36.453382 8510</gx:coord>
<gx:coord >15.827122 36.465042 8601</gx:coord>
<gx:coord >15.841993 36.471025 8634</gx:coord>
<gx:coord >15.848304 36.474051 8651</gx:coord>
<gx:coord >15.856486 36.478473 8672</gx:coord>
<gx:coord >15.860342 36.480801 8679</gx:coord>
<gx:coord >15.869122 36.486649 8703</gx:coord>
<gx:coord >15.876617 36.492599 8722</gx:coord>
<gx:coord >15.883026 36.498276 8745</gx:coord>
<gx:coord >15.890087 36.505567 8770</gx:coord>
<gx:coord >15.897846 36.515121 8808</gx:coord>
<gx:coord >15.901658 36.52051 8823</gx:coord>
<gx:coord >15.913868 36.538559 8900</gx:coord>
<gx:coord >15.930176 36.562174 8983</gx:coord>
<gx:coord >15.949986 36.590012 9060</gx:coord>
<gx:coord >15.970615 36.618549 9136</gx:coord>
<gx:coord >15.990192 36.645549 9235</gx:coord>
<gx:coord >16.006729 36.668546 9311</gx:coord>
<gx:coord >16.026189 36.695593 9403</gx:coord>
<gx:coord >16.047764 36.725784 9471</gx:coord>
<gx:coord >16.070368 36.757507 9540</gx:coord>
<gx:coord >16.090822 36.786184 9608</gx:coord>
<gx:coord >16.110983 36.814255 9693</gx:coord>
<gx:coord >16.132107 36.843704 9777</gx:coord>
<gx:coord >16.151037 36.870117 9861</gx:coord>
<gx:coord >16.176492 36.90564 9922</gx:coord>
<gx:coord >16.201192 36.939992 9967</gx:coord>
<gx:coord >16.225015 36.972998 10036</gx:coord>
<gx:coord >16.249831 37.007446 10105</gx:coord>
<gx:coord >16.274726 37.041916 10166</gx:coord>
<gx:coord >16.299113 37.075738 10219</gx:coord>
<gx:coord >16.326042 37.112934 10280</gx:coord>
<gx:coord >16.349328 37.145148 10333</gx:coord>
<gx:coord >16.376116 37.182175 10387</gx:coord>
<gx:coord >16.402886 37.219166 10409</gx:coord>
<gx:coord >16.429119 37.25528 10440</gx:coord>
<gx:coord >16.455708 37.291946 10478</gx:coord>
<gx:coord >16.4837 37.330215 10539</gx:coord>
<gx:coord >16.509354 37.365601 10577</gx:coord>
<gx:coord >16.53723 37.403792 10600</gx:coord>
<gx:coord >16.563526 37.439713 10676</gx:coord>
<gx:coord >16.591684 37.477717 10691</gx:coord>
<gx:coord >16.620211 37.516296 10736</gx:coord>
<gx:coord >16.648904 37.555481 10782</gx:coord>
<gx:coord >16.677538 37.594528 10805</gx:coord>
<gx:coord >16.706503 37.634133 10843</gx:coord>
<gx:coord >16.7317 37.668535 10919</gx:coord>
<gx:coord >16.744776 37.686224 10965</gx:coord>
<gx:coord >16.774332 37.726166 11018</gx:coord>
<gx:coord >16.803708 37.765875 11064</gx:coord>
<gx:coord >16.832048 37.80423 11102</gx:coord>
<gx:coord >16.859655 37.841476 11102</gx:coord>
<gx:coord >16.889609 37.881638 11094</gx:coord>
<gx:coord >16.919005 37.921127 11087</gx:coord>
<gx:coord >16.948515 37.960831 11087</gx:coord>
<gx:coord >16.977101 37.999149 11087</gx:coord>
<gx:coord >17.005492 38.037231 11087</gx:coord>
<gx:coord >17.033645 38.075029 11086</gx:coord>
<gx:coord >17.063638 38.115143 11086</gx:coord>
<gx:coord >17.093324 38.154831 11093</gx:coord>
<gx:coord >17.1219 38.192917 11086</gx:coord>
<gx:coord >17.151996 38.233017 11078</gx:coord>
<gx:coord >17.180886 38.271479 11078</gx:coord>
<gx:coord >17.211486 38.312256 11086</gx:coord>
<gx:coord >17.241967 38.352853 11086</gx:coord>
<gx:coord >17.271583 38.392143 11086</gx:coord>
<gx:coord >17.301078 38.431046 11086</gx:coord>
<gx:coord >17.330933 38.470537 11086</gx:coord>
<gx:coord >17.360901 38.510106 11078</gx:coord>
<gx:coord >17.389447 38.547775 11070</gx:coord>
<gx:coord >17.418701 38.586452 11070</gx:coord>
<gx:coord >17.447632 38.624671 11070</gx:coord>
<gx:coord >17.476318 38.662285 11071</gx:coord>
<gx:coord >17.505281 38.700485 11064</gx:coord>
<gx:coord >17.532959 38.736722 11064</gx:coord>
<gx:coord >17.562004 38.77478 11056</gx:coord>
<gx:coord >17.591559 38.813461 11056</gx:coord>
<gx:coord >17.618786 38.849121 11048</gx:coord>
<gx:coord >17.649894 38.889816 11048</gx:coord>
<gx:coord >17.67945 38.928131 11041</gx:coord>
<gx:coord >17.70813 38.965247 11041</gx:coord>
<gx:coord >17.738084 39.003891 11048</gx:coord>
<gx:coord >17.76752 39.041931 11056</gx:coord>
<gx:coord >17.797434 39.080658 11056</gx:coord>
<gx:coord >17.827576 39.119661 11056</gx:coord>
<gx:coord >17.856485 39.15715 11056</gx:coord>
<gx:coord >17.886578 39.196106 11056</gx:coord>
<gx:coord >17.916313 39.234467 11064</gx:coord>
<gx:coord >17.946346 39.273148 11055</gx:coord>
<gx:coord >17.976746 39.312294 11047</gx:coord>
<gx:coord >18.006293 39.350189 11047</gx:coord>
<gx:coord >18.0354 39.387662 11054</gx:coord>
<gx:coord >18.064449 39.425262 11046</gx:coord>
<gx:coord >18.093994 39.462937 11038</gx:coord>
<gx:coord >18.124695 39.502029 11030</gx:coord>
<gx:coord >18.153713 39.539108 11030</gx:coord>
<gx:coord >18.184814 39.578759 11037</gx:coord>
<gx:coord >18.215027 39.617211 11037</gx:coord>
<gx:coord >18.244812 39.655291 11043</gx:coord>
<gx:coord >18.275391 39.694116 11043</gx:coord>
<gx:coord >18.305908 39.732847 11051</gx:coord>
<gx:coord >18.335764 39.770645 11051</gx:coord>
<gx:coord >18.366882 39.809891 11050</gx:coord>
<gx:coord >18.396666 39.847549 11042</gx:coord>
<gx:coord >18.428284 39.887307 11042</gx:coord>
<gx:coord >18.459466 39.926411 11035</gx:coord>
<gx:coord >18.490552 39.965375 11035</gx:coord>
<gx:coord >18.521201 40.003874 11035</gx:coord>
<gx:coord >18.553101 40.043839 11042</gx:coord>
<gx:coord >18.584106 40.082565 11035</gx:coord>
<gx:coord >18.615723 40.122253 11035</gx:coord>
<gx:coord >18.646608 40.161035 11035</gx:coord>
<gx:coord >18.677124 40.199158 11036</gx:coord>
<gx:coord >18.708718 40.238637 11043</gx:coord>
<gx:coord >18.739742 40.277182 11043</gx:coord>
<gx:coord >18.77124 40.316162 11036</gx:coord>
<gx:coord >18.803101 40.355667 11043</gx:coord>
<gx:coord >18.833557 40.39325 11043</gx:coord>
<gx:coord >18.865173 40.432297 11036</gx:coord>
<gx:coord >18.897233 40.471957 11043</gx:coord>
<gx:coord >18.928132 40.510083 11044</gx:coord>
<gx:coord >18.957703 40.546967 11044</gx:coord>
<gx:coord >18.97214 40.566598 11037</gx:coord>
<gx:coord >18.983765 40.583588 11037</gx:coord>
<gx:coord >18.996984 40.604445 11029</gx:coord>
<gx:coord >19.009521 40.626205 11029</gx:coord>
<gx:coord >19.018957 40.644107 11029</gx:coord>
<gx:coord >19.029358 40.665619 11029</gx:coord>
<gx:coord >19.04249 40.695547 11029</gx:coord>
<gx:coord >19.061529 40.73912 11022</gx:coord>
<gx:coord >19.08063 40.782041 10961</gx:coord>
<gx:coord >19.099544 40.824544 10923</gx:coord>
<gx:coord >19.118713 40.867859 10877</gx:coord>
<gx:coord >19.138 40.911575 10824</gx:coord>
<gx:coord >19.157035 40.954564 10793</gx:coord>
<gx:coord >19.176453 40.998184 10740</gx:coord>
<gx:coord >19.191101 41.031281 10702</gx:coord>
<gx:coord >19.209778 41.073395 10694</gx:coord>
<gx:coord >19.229004 41.116699 10694</gx:coord>
<gx:coord >19.247173 41.157485 10694</gx:coord>
<gx:coord >19.265338 41.198125 10694</gx:coord>
<gx:coord >19.284127 41.240302 10694</gx:coord>
<gx:coord >19.301575 41.279297 10694</gx:coord>
<gx:coord >19.321331 41.322932 10694</gx:coord>
<gx:coord >19.340307 41.365062 10694</gx:coord>
<gx:coord >19.358597 41.40564 10702</gx:coord>
<gx:coord >19.377456 41.447459 10709</gx:coord>
<gx:coord >19.397236 41.491333 10709</gx:coord>
<gx:coord >19.417057 41.53507 10709</gx:coord>
<gx:coord >19.43622 41.577526 10701</gx:coord>
<gx:coord >19.455637 41.620494 10701</gx:coord>
<gx:coord >19.474289 41.661599 10693</gx:coord>
<gx:coord >19.493554 41.703918 10693</gx:coord>
<gx:coord >19.51303 41.746811 10693</gx:coord>
<gx:coord >19.532443 41.789566 10684</gx:coord>
<gx:coord >19.551981 41.83255 10692</gx:coord>
<gx:coord >19.571569 41.875367 10692</gx:coord>
<gx:coord >19.590795 41.917264 10691</gx:coord>
<gx:coord >19.609971 41.959167 10691</gx:coord>
<gx:coord >19.628698 42.000275 10691</gx:coord>
<gx:coord >19.647987 42.042297 10682</gx:coord>
<gx:coord >19.667338 42.083725 10690</gx:coord>
<gx:coord >19.687117 42.12633 10681</gx:coord>
<gx:coord >19.706102 42.167908 10681</gx:coord>
<gx:coord >19.725122 42.209566 10681</gx:coord>
<gx:coord >19.744304 42.251312 10688</gx:coord>
<gx:coord >19.763957 42.293639 10688</gx:coord>
<gx:coord >19.783311 42.335396 10688</gx:coord>
<gx:coord >19.802544 42.376831 10695</gx:coord>
<gx:coord >19.819773 42.414459 10702</gx:coord>
<gx:coord >19.828325 42.435608 10710</gx:coord>
<gx:coord >19.834068 42.451859 10710</gx:coord>
<gx:coord >19.839201 42.469048 10700</gx:coord>
<gx:coord >19.842203 42.482408 10695</gx:coord>
<gx:coord >19.844492 42.497086 10695</gx:coord>
<gx:coord >19.845553 42.508347 10700</gx:coord>
<gx:coord >19.846552 42.529266 10701</gx:coord>
<gx:coord >19.848862 42.571198 10694</gx:coord>
<gx:coord >19.851784 42.613965 10686</gx:coord>
<gx:coord >19.854854 42.656616 10677</gx:coord>
<gx:coord >19.858038 42.701111 10670</gx:coord>
<gx:coord >19.861096 42.744415 10670</gx:coord>
<gx:coord >19.863905 42.787125 10669</gx:coord>
<gx:coord >19.86673 42.829102 10684</gx:coord>
<gx:coord >19.869541 42.872864 10692</gx:coord>
<gx:coord >19.87224 42.91567 10684</gx:coord>
<gx:coord >19.875052 42.960546 10684</gx:coord>
<gx:coord >19.87793 43.005423 10683</gx:coord>
<gx:coord >19.881166 43.050156 10675</gx:coord>
<gx:coord >19.884232 43.093964 10683</gx:coord>
<gx:coord >19.887216 43.139261 10675</gx:coord>
<gx:coord >19.889766 43.181716 10683</gx:coord>
<gx:coord >19.892536 43.225983 10683</gx:coord>
<gx:coord >19.894963 43.269745 10675</gx:coord>
<gx:coord >19.897287 43.311411 10675</gx:coord>
<gx:coord >19.9002 43.357407 10683</gx:coord>
<gx:coord >19.903499 43.400139 10675</gx:coord>
<gx:coord >19.906652 43.442276 10683</gx:coord>
<gx:coord >19.909973 43.488144 10683</gx:coord>
<gx:coord >19.913047 43.532068 10683</gx:coord>
<gx:coord >19.915722 43.576218 10683</gx:coord>
<gx:coord >19.918344 43.619866 10683</gx:coord>
<gx:coord >19.921025 43.664928 10683</gx:coord>
<gx:coord >19.923898 43.708374 10683</gx:coord>
<gx:coord >19.927091 43.75383 10691</gx:coord>
<gx:coord >19.930246 43.797882 10706</gx:coord>
<gx:coord >19.933254 43.841361 10713</gx:coord>
<gx:coord >19.936289 43.885483 10706</gx:coord>
<gx:coord >19.939008 43.929671 10706</gx:coord>
<gx:coord >19.941719 43.972183 10699</gx:coord>
<gx:coord >19.944721 44.016907 10699</gx:coord>
<gx:coord >19.947276 44.057602 10699</gx:coord>
<gx:coord >19.950086 44.100494 10699</gx:coord>
<gx:coord >19.953024 44.144073 10699</gx:coord>
<gx:coord >19.955815 44.185243 10692</gx:coord>
<gx:coord >19.958742 44.227373 10692</gx:coord>
<gx:coord >19.961756 44.27034 10692</gx:coord>
<gx:coord >19.964704 44.312563 10684</gx:coord>
<gx:coord >19.967521 44.354553 10685</gx:coord>
<gx:coord >19.970333 44.397629 10677</gx:coord>
<gx:coord >19.97321 44.44043 10677</gx:coord>
<gx:coord >19.976087 44.483002 10685</gx:coord>
<gx:coord >19.978973 44.526284 10685</gx:coord>
<gx:coord >19.982038 44.568695 10693</gx:coord>
<gx:coord >19.985177 44.612503 10708</gx:coord>
<gx:coord >19.987924 44.654572 10708</gx:coord>
<gx:coord >19.990736 44.697922 10708</gx:coord>
<gx:coord >19.993576 44.740239 10708</gx:coord>
<gx:coord >19.996658 44.784323 10700</gx:coord>
<gx:coord >19.999564 44.825821 10700</gx:coord>
<gx:coord >20.002419 44.869654 10700</gx:coord>
<gx:coord >20.005319 44.911789 10700</gx:coord>
<gx:coord >20.008262 44.951981 10693</gx:coord>
<gx:coord >20.011664 44.997114 10693</gx:coord>
<gx:coord >20.014801 45.039368 10685</gx:coord>
<gx:coord >20.017693 45.081094 10685</gx:coord>
<gx:coord >20.020556 45.123871 10677</gx:coord>
<gx:coord >20.023368 45.164886 10670</gx:coord>
<gx:coord >20.026245 45.20787 10670</gx:coord>
<gx:coord >20.029215 45.249753 10670</gx:coord>
<gx:coord >20.032131 45.291687 10670</gx:coord>
<gx:coord >20.034976 45.333919 10670</gx:coord>
<gx:coord >20.037951 45.37738 10670</gx:coord>
<gx:coord >20.040828 45.418854 10677</gx:coord>
<gx:coord >20.043953 45.462915 10677</gx:coord>
<gx:coord >20.0469 45.504347 10693</gx:coord>
<gx:coord >20.049787 45.543777 10693</gx:coord>
<gx:coord >20.052862 45.586853 10685</gx:coord>
<gx:coord >20.055877 45.629013 10693</gx:coord>
<gx:coord >20.058958 45.670578 10693</gx:coord>
<gx:coord >20.062271 45.714717 10693</gx:coord>
<gx:coord >20.065122 45.757095 10693</gx:coord>
<gx:coord >20.067399 45.79921 10693</gx:coord>
<gx:coord >20.070347 45.842102 10693</gx:coord>
<gx:coord >20.073629 45.883301 10693</gx:coord>
<gx:coord >20.077046 45.925598 10677</gx:coord>
<gx:coord >20.080328 45.96817 10670</gx:coord>
<gx:coord >20.083544 46.010513 10662</gx:coord>
<gx:coord >20.086491 46.053131 10662</gx:coord>
<gx:coord >20.089325 46.095234 10662</gx:coord>
<gx:coord >20.092484 46.137969 10671</gx:coord>
<gx:coord >20.094731 46.158875 10678</gx:coord>
<gx:coord >20.098114 46.180192 10678</gx:coord>
<gx:coord >20.102301 46.199661 10678</gx:coord>
<gx:coord >20.112617 46.242279 10678</gx:coord>
<gx:coord >20.1228 46.28476 10678</gx:coord>
<gx:coord >20.132714 46.326141 10678</gx:coord>
<gx:coord >20.142361 46.36734 10678</gx:coord>
<gx:coord >20.151947 46.408438 10678</gx:coord>
<gx:coord >20.161721 46.450195 10686</gx:coord>
<gx:coord >20.171448 46.491534 10686</gx:coord>
<gx:coord >20.181349 46.533325 10671</gx:coord>
<gx:coord >20.190861 46.573105 10671</gx:coord>
<gx:coord >20.200843 46.614624 10671</gx:coord>
<gx:coord >20.210757 46.655594 10671</gx:coord>
<gx:coord >20.220471 46.695923 10671</gx:coord>
<gx:coord >20.230774 46.738586 10671</gx:coord>
<gx:coord >20.240799 46.78053 10671</gx:coord>
<gx:coord >20.250482 46.820938 10671</gx:coord>
<gx:coord >20.260574 46.863486 10671</gx:coord>
<gx:coord >20.270874 46.905853 10671</gx:coord>
<gx:coord >20.280903 46.94714 10671</gx:coord>
<gx:coord >20.291199 46.989166 10671</gx:coord>
<gx:coord >20.301155 47.030136 10678</gx:coord>
<gx:coord >20.311043 47.071106 10671</gx:coord>
<gx:coord >20.321186 47.112587 10672</gx:coord>
<gx:coord >20.331186 47.1536 10664</gx:coord>
<gx:coord >20.341398 47.19531 10664</gx:coord>
<gx:coord >20.351609 47.23744 10664</gx:coord>
<gx:coord >20.360835 47.275241 10679</gx:coord>
<gx:coord >20.3703 47.315231 10687</gx:coord>
<gx:coord >20.372244 47.327565 10687</gx:coord>
<gx:coord >20.373047 47.33844 10687</gx:coord>
<gx:coord >20.37316 47.348886 10687</gx:coord>
<gx:coord >20.372292 47.361465 10687</gx:coord>
<gx:coord >20.369145 47.387338 10687</gx:coord>
<gx:coord >20.363571 47.428802 10687</gx:coord>
<gx:coord >20.357803 47.469955 10679</gx:coord>
<gx:coord >20.351821 47.512285 10679</gx:coord>
<gx:coord >20.346062 47.553635 10672</gx:coord>
<gx:coord >20.340225 47.595383 10672</gx:coord>
<gx:coord >20.334732 47.635849 10672</gx:coord>
<gx:coord >20.329308 47.676544 10664</gx:coord>
<gx:coord >20.323862 47.717766 10664</gx:coord>
<gx:coord >20.318527 47.758209 10656</gx:coord>
<gx:coord >20.312965 47.800369 10656</gx:coord>
<gx:coord >20.307312 47.841083 10664</gx:coord>
<gx:coord >20.301704 47.882767 10672</gx:coord>
<gx:coord >20.295868 47.924652 10679</gx:coord>
<gx:coord >20.290128 47.966495 10672</gx:coord>
<gx:coord >20.28495 48.008331 10672</gx:coord>
<gx:coord >20.280075 48.04985 10679</gx:coord>
<gx:coord >20.275406 48.090363 10679</gx:coord>
<gx:coord >20.271113 48.130731 10678</gx:coord>
<gx:coord >20.266957 48.172395 10678</gx:coord>
<gx:coord >20.262475 48.213268 10671</gx:coord>
<gx:coord >20.257944 48.255295 10671</gx:coord>
<gx:coord >20.254091 48.296736 10671</gx:coord>
<gx:coord >20.250332 48.33733 10671</gx:coord>
<gx:coord >20.246535 48.377884 10671</gx:coord>
<gx:coord >20.24296 48.417865 10663</gx:coord>
<gx:coord >20.239491 48.457574 10671</gx:coord>
<gx:coord >20.23569 48.498825 10655</gx:coord>
<gx:coord >20.231757 48.539646 10663</gx:coord>
<gx:coord >20.227872 48.579803 10663</gx:coord>
<gx:coord >20.223858 48.62059 10663</gx:coord>
<gx:coord >20.219914 48.659866 10671</gx:coord>
<gx:coord >20.215639 48.700112 10678</gx:coord>
<gx:coord >20.211463 48.740387 10678</gx:coord>
<gx:coord >20.209134 48.769055 10686</gx:coord>
<gx:coord >20.209206 48.779995 10686</gx:coord>
<gx:coord >20.210125 48.791611 10686</gx:coord>
<gx:coord >20.212238 48.804932 10686</gx:coord>
<gx:coord >20.220196 48.844345 10694</gx:coord>
<gx:coord >20.227492 48.88376 10686</gx:coord>
<gx:coord >20.234704 48.923813 10694</gx:coord>
<gx:coord >20.24202 48.963783 10686</gx:coord>
<gx:coord >20.24907 49.00264 10679</gx:coord>
<gx:coord >20.256332 49.041526 10679</gx:coord>
<gx:coord >20.263704 49.080769 10687</gx:coord>
<gx:coord >20.271004 49.119594 10687</gx:coord>
<gx:coord >20.278377 49.159163 10687</gx:coord>
<gx:coord >20.285677 49.197941 10687</gx:coord>
<gx:coord >20.293049 49.236998 10687</gx:coord>
<gx:coord >20.300349 49.276708 10680</gx:coord>
<gx:coord >20.307649 49.315625 10673</gx:coord>
<gx:coord >20.3152 49.35498 10680</gx:coord>
<gx:coord >20.322735 49.394897 10680</gx:coord>
<gx:coord >20.329977 49.434147 10688</gx:coord>
<gx:coord >20.337067 49.4729 10696</gx:coord>
<gx:coord >20.344439 49.512405 10712</gx:coord>
<gx:coord >20.351884 49.551132 10712</gx:coord>
<gx:coord >20.359448 49.590051 10712</gx:coord>
<gx:coord >20.367062 49.628769 10689</gx:coord>
<gx:coord >20.374442 49.666257 10689</gx:coord>
<gx:coord >20.381717 49.704197 10697</gx:coord>
<gx:coord >20.388992 49.742602 10697</gx:coord>
<gx:coord >20.396263 49.780518 10690</gx:coord>
<gx:coord >20.403491 49.818924 10698</gx:coord>
<gx:coord >20.410668 49.85619 10698</gx:coord>
<gx:coord >20.418091 49.89427 10698</gx:coord>
<gx:coord >20.425536 49.93222 10705</gx:coord>
<gx:coord >20.432715 49.969312 10705</gx:coord>
<gx:coord >20.439919 50.006378 10705</gx:coord>
<gx:coord >20.446207 50.037827 10698</gx:coord>
<gx:coord >20.451339 50.057968 10698</gx:coord>
<gx:coord >20.458567 50.08255 10690</gx:coord>
<gx:coord >20.470202 50.119722 10691</gx:coord>
<gx:coord >20.481551 50.15712 10691</gx:coord>
<gx:coord >20.492397 50.194299 10691</gx:coord>
<gx:coord >20.502584 50.230957 10683</gx:coord>
<gx:coord >20.512992 50.268265 10683</gx:coord>
<gx:coord >20.523979 50.306259 10691</gx:coord>
<gx:coord >20.534893 50.343704 10699</gx:coord>
<gx:coord >20.545696 50.38074 10706</gx:coord>
<gx:coord >20.556504 50.418091 10706</gx:coord>
<gx:coord >20.5659 50.4505 10714</gx:coord>
<gx:coord >20.575297 50.483185 10660</gx:coord>
<gx:coord >20.579561 50.498062 10615</gx:coord>
<gx:coord >20.585707 50.519559 10531</gx:coord>
<gx:coord >20.586746 50.523144 10508</gx:coord>
<gx:coord >20.592427 50.543243 10395</gx:coord>
<gx:coord >20.598353 50.564209 10273</gx:coord>
<gx:coord >20.602335 50.578262 10204</gx:coord>
<gx:coord >20.608328 50.598862 10113</gx:coord>
<gx:coord >20.610858 50.607422 10060</gx:coord>
<gx:coord >20.615556 50.623398 9945</gx:coord>
<gx:coord >20.619853 50.638081 9808</gx:coord>
<gx:coord >20.622229 50.646274 9740</gx:coord>
<gx:coord >20.624518 50.654114 9666</gx:coord>
<gx:coord >20.625169 50.656357 9636</gx:coord>
<gx:coord >20.62594 50.659123 9604</gx:coord>
<gx:coord >20.62891 50.669271 9480</gx:coord>
<gx:coord >20.631561 50.678628 9360</gx:coord>
<gx:coord >20.634328 50.688217 9240</gx:coord>
<gx:coord >20.635665 50.693024 9186</gx:coord>
<gx:coord >20.636444 50.695666 9153</gx:coord>
<gx:coord >20.637372 50.698975 9123</gx:coord>
<gx:coord >20.638782 50.703918 9083</gx:coord>
<gx:coord >20.639822 50.707535 9061</gx:coord>
<gx:coord >20.641174 50.712379 9031</gx:coord>
<gx:coord >20.64209 50.715404 9016</gx:coord>
<gx:coord >20.643997 50.722248 8980</gx:coord>
<gx:coord >20.652008 50.750086 8886</gx:coord>
<gx:coord >20.65786 50.770203 8810</gx:coord>
<gx:coord >20.66417 50.79158 8696</gx:coord>
<gx:coord >20.670319 50.812373 8574</gx:coord>
<gx:coord >20.675888 50.831692 8459</gx:coord>
<gx:coord >20.681686 50.851523 8345</gx:coord>
<gx:coord >20.687027 50.870051 8223</gx:coord>
<gx:coord >20.69191 50.88681 8101</gx:coord>
<gx:coord >20.69664 50.902963 7994</gx:coord>
<gx:coord >20.702622 50.923508 7881</gx:coord>
<gx:coord >20.705591 50.936188 7813</gx:coord>
<gx:coord >20.707321 50.948259 7757</gx:coord>
<gx:coord >20.708008 50.957662 7700</gx:coord>
<gx:coord >20.709303 50.977798 7576</gx:coord>
<gx:coord >20.710639 50.999863 7477</gx:coord>
<gx:coord >20.712204 51.022137 7363</gx:coord>
<gx:coord >20.713654 51.036987 7280</gx:coord>
<gx:coord >20.715761 51.04628 7246</gx:coord>
<gx:coord >20.718582 51.054565 7212</gx:coord>
<gx:coord >20.721588 51.061288 7188</gx:coord>
<gx:coord >20.727005 51.071296 7157</gx:coord>
<gx:coord >20.739961 51.094345 7066</gx:coord>
<gx:coord >20.748794 51.110367 6982</gx:coord>
<gx:coord >20.758667 51.128723 6868</gx:coord>
<gx:coord >20.76802 51.146347 6746</gx:coord>
<gx:coord >20.777373 51.163879 6647</gx:coord>
<gx:coord >20.789032 51.185675 6540</gx:coord>
<gx:coord >20.799484 51.205367 6441</gx:coord>
<gx:coord >20.809479 51.223801 6328</gx:coord>
<gx:coord >20.818634 51.240514 6191</gx:coord>
<gx:coord >20.827332 51.256485 6076</gx:coord>
<gx:coord >20.835571 51.271545 5947</gx:coord>
<gx:coord >20.843201 51.285669 5817</gx:coord>
<gx:coord >20.850983 51.299961 5703</gx:coord>
<gx:coord >20.858612 51.314159 5573</gx:coord>
<gx:coord >20.866241 51.328125 5451</gx:coord>
<gx:coord >20.872613 51.339935 5368</gx:coord>
<gx:coord >20.883154 51.359299 5253</gx:coord>
<gx:coord >20.89273 51.376831 5139</gx:coord>
<gx:coord >20.901638 51.393219 5025</gx:coord>
<gx:coord >20.910339 51.409126 4888</gx:coord>
<gx:coord >20.916707 51.420685 4811</gx:coord>
<gx:coord >20.926666 51.439106 4712</gx:coord>
<gx:coord >20.936007 51.456253 4607</gx:coord>
<gx:coord >20.944519 51.471785 4477</gx:coord>
<gx:coord >20.953064 51.48738 4363</gx:coord>
<gx:coord >20.955604 51.491959 4332</gx:coord>
<gx:coord >20.961227 51.502277 4248</gx:coord>
<gx:coord >20.962805 51.505096 4233</gx:coord>
<gx:coord >20.968475 51.515498 4187</gx:coord>
<gx:coord >20.975266 51.527788 4134</gx:coord>
<gx:coord >20.979004 51.534631 4096</gx:coord>
<gx:coord >20.987625 51.550365 3989</gx:coord>
<gx:coord >20.995764 51.565201 3867</gx:coord>
<gx:coord >21.001205 51.575131 3799</gx:coord>
<gx:coord >21.005711 51.583282 3738</gx:coord>
<gx:coord >21.010666 51.592356 3670</gx:coord>
<gx:coord >21.014709 51.599664 3614</gx:coord>
<gx:coord >21.018448 51.606414 3548</gx:coord>
<gx:coord >21.02219 51.613174 3486</gx:coord>
<gx:coord >21.025848 51.619868 3424</gx:coord>
<gx:coord >21.029434 51.626292 3359</gx:coord>
<gx:coord >21.033102 51.63295 3301</gx:coord>
<gx:coord >21.035919 51.637977 3259</gx:coord>
<gx:coord >21.041031 51.647287 3197</gx:coord>
<gx:coord >21.046316 51.656662 3138</gx:coord>
<gx:coord >21.049957 51.663348 3081</gx:coord>
<gx:coord >21.053238 51.669353 3023</gx:coord>
<gx:coord >21.055669 51.673782 2962</gx:coord>
<gx:coord >21.058416 51.678864 2901</gx:coord>
<gx:coord >21.061096 51.683831 2840</gx:coord>
<gx:coord >21.064606 51.690255 2785</gx:coord>
<gx:coord >21.068497 51.697331 2719</gx:coord>
<gx:coord >21.07338 51.706129 2663</gx:coord>
<gx:coord >21.078186 51.714881 2596</gx:coord>
<gx:coord >21.083374 51.724238 2535</gx:coord>
<gx:coord >21.088333 51.733083 2480</gx:coord>
<gx:coord >21.091461 51.738623 2445</gx:coord>
<gx:coord >21.096573 51.74784 2421</gx:coord>
<gx:coord >21.101099 51.755905 2390</gx:coord>
<gx:coord >21.106262 51.765157 2360</gx:coord>
<gx:coord >21.111491 51.774445 2337</gx:coord>
<gx:coord >21.116688 51.7836 2306</gx:coord>
<gx:coord >21.122255 51.793625 2254</gx:coord>
<gx:coord >21.125412 51.799187 2228</gx:coord>
<gx:coord >21.128616 51.80496 2194</gx:coord>
<gx:coord >21.131439 51.810034 2166</gx:coord>
<gx:coord >21.134281 51.81514 2132</gx:coord>
<gx:coord >21.137009 51.819996 2101</gx:coord>
<gx:coord >21.139908 51.825256 2070</gx:coord>
<gx:coord >21.142883 51.830517 2040</gx:coord>
<gx:coord >21.145935 51.835922 2010</gx:coord>
<gx:coord >21.148682 51.84082 1982</gx:coord>
<gx:coord >21.151502 51.845901 1945</gx:coord>
<gx:coord >21.154327 51.850953 1920</gx:coord>
<gx:coord >21.156082 51.855003 1896</gx:coord>
<gx:coord >21.156998 51.858495 1870</gx:coord>
<gx:coord >21.157455 51.862731 1842</gx:coord>
<gx:coord >21.157303 51.866315 1827</gx:coord>
<gx:coord >21.15655 51.87085 1796</gx:coord>
<gx:coord >21.155288 51.876801 1766</gx:coord>
<gx:coord >21.154101 51.882339 1734</gx:coord>
<gx:coord >21.153107 51.887264 1700</gx:coord>
<gx:coord >21.152096 51.892181 1669</gx:coord>
<gx:coord >21.151199 51.896484 1641</gx:coord>
<gx:coord >21.15033 51.900718 1607</gx:coord>
<gx:coord >21.149623 51.904209 1592</gx:coord>
<gx:coord >21.148453 51.910355 1568</gx:coord>
<gx:coord >21.147308 51.916763 1545</gx:coord>
<gx:coord >21.146484 51.920875 1530</gx:coord>
<gx:coord >21.145307 51.927439 1500</gx:coord>
<gx:coord >21.144409 51.932419 1469</gx:coord>
<gx:coord >21.143581 51.937028 1439</gx:coord>
<gx:coord >21.142731 51.94162 1408</gx:coord>
<gx:coord >21.141968 51.945877 1378</gx:coord>
<gx:coord >21.141129 51.950363 1350</gx:coord>
<gx:coord >21.140289 51.954941 1312</gx:coord>
<gx:coord >21.139108 51.960397 1280</gx:coord>
<gx:coord >21.137224 51.965332 1261</gx:coord>
<gx:coord >21.13542 51.968917 1235</gx:coord>
<gx:coord >21.132438 51.973851 1212</gx:coord>
<gx:coord >21.129769 51.977622 1185</gx:coord>
<gx:coord >21.125689 51.982975 1150</gx:coord>
<gx:coord >21.121451 51.988282 1119</gx:coord>
<gx:coord >21.117606 51.992938 1088</gx:coord>
<gx:coord >21.113055 51.998291 1058</gx:coord>
<gx:coord >21.108475 52.003555 1027</gx:coord>
<gx:coord >21.103516 52.009277 996</gx:coord>
<gx:coord >21.098785 52.014633 959</gx:coord>
<gx:coord >21.089783 52.024979 943</gx:coord>
<gx:coord >21.079389 52.036976 930</gx:coord>
<gx:coord >21.077506 52.039164 923</gx:coord>
<gx:coord >21.074066 52.043152 906</gx:coord>
<gx:coord >21.071396 52.046173 879</gx:coord>
<gx:coord >21.068344 52.049744 839</gx:coord>
<gx:coord >21.064715 52.053828 807</gx:coord>
<gx:coord >21.060867 52.058258 775</gx:coord>
<gx:coord >21.056632 52.063138 739</gx:coord>
<gx:coord >21.052399 52.0681 715</gx:coord>
<gx:coord >21.048889 52.072174 692</gx:coord>
<gx:coord >21.047134 52.074097 668</gx:coord>
<gx:coord >21.044939 52.076685 658</gx:coord>
<gx:coord >21.042036 52.079944 637</gx:coord>
<gx:coord >21.038348 52.08418 608</gx:coord>
<gx:coord >21.034581 52.088556 577</gx:coord>
<gx:coord >21.030807 52.092865 547</gx:coord>
<gx:coord >21.027283 52.096935 519</gx:coord>
<gx:coord >21.025242 52.099309 506</gx:coord>
<gx:coord >21.022417 52.102475 479</gx:coord>
<gx:coord >21.018964 52.106478 448</gx:coord>
<gx:coord >21.014962 52.111041 418</gx:coord>
<gx:coord >21.011039 52.115463 387</gx:coord>
<gx:coord >21.006723 52.120444 357</gx:coord>
<gx:coord >21.002485 52.125332 326</gx:coord>
<gx:coord >20.99864 52.129708 303</gx:coord>
<gx:coord >20.994402 52.134596 258</gx:coord>
<gx:coord >20.990243 52.139298 227</gx:coord>
<gx:coord >20.986319 52.14386 205</gx:coord>
<gx:coord >20.982971 52.147659 180</gx:coord>
<gx:coord >20.978928 52.152237 144</gx:coord>
<gx:coord >20.975412 52.156289 119</gx:coord>
<gx:coord >20.974156 52.157686 111</gx:coord>
<gx:coord >20.971375 52.160797 113</gx:coord>
<gx:coord >20.969009 52.163452 111</gx:coord>
<gx:coord >20.968506 52.164064 111</gx:coord>
<gx:coord >20.967643 52.165041 110</gx:coord>
<gx:coord >20.967093 52.165739 108</gx:coord>
<gx:coord >20.967093 52.165739 108</gx:coord>
</gx:Track>
</Placemark>
<Placemark ><name >HA-LXJ</name>
<Style ><LineStyle ><color >ff1c1ae3</color>
<width >4</width>
</LineStyle>
<IconStyle ><Icon ><href >http://maps.google.com/mapfiles/kml/shapes/airports.png</href>
</Icon>
</IconStyle>
</Style>
<gx:Track ><extrude >0</extrude>
<when >2025-08-04T20:49:19.430Z</when>
<when >2025-08-04T20:49:21.650Z</when>
<when >2025-08-04T20:49:22.740Z</when>
<when >2025-08-04T20:49:24.960Z</when>
<when >2025-08-04T20:49:26.980Z</when>
<when >2025-08-04T20:49:29.010Z</when>
<when >2025-08-04T20:49:30.620Z</when>
<when >2025-08-04T20:49:33.050Z</when>
<when >2025-08-04T20:49:35.360Z</when>
<when >2025-08-04T20:49:37.870Z</when>
<when >2025-08-04T20:49:40.790Z</when>
<when >2025-08-04T20:49:46.100Z</when>
<when >2025-08-04T20:49:47.980Z</when>
<when >2025-08-04T20:49:49.320Z</when>
<when >2025-08-04T20:49:50.390Z</when>
<when >2025-08-04T20:49:51.840Z</when>
<when >2025-08-04T20:49:53.870Z</when>
<when >2025-08-04T20:49:56.410Z</when>
<when >2025-08-04T20:49:59.100Z</when>
<when >2025-08-04T20:50:01.790Z</when>
<when >2025-08-04T20:50:04.500Z</when>
<when >2025-08-04T20:50:08.250Z</when>
<when >2025-08-04T20:50:11.310Z</when>
<when >2025-08-04T20:50:14.000Z</when>
<when >2025-08-04T20:50:16.510Z</when>
<when >2025-08-04T20:50:18.280Z</when>
<when >2025-08-04T20:50:19.460Z</when>
<when >2025-08-04T20:50:21.160Z</when>
<when >2025-08-04T20:50:22.980Z</when>
<when >2025-08-04T20:50:25.300Z</when>
<when >2025-08-04T20:50:27.250Z</when>
<when >2025-08-04T20:50:29.000Z</when>
<when >2025-08-04T20:50:31.840Z</when>
<when >2025-08-04T20:50:34.830Z</when>
<when >2025-08-04T20:50:42.820Z</when>
<when >2025-08-04T20:50:45.710Z</when>
<when >2025-08-04T20:50:47.600Z</when>
<when >2025-08-04T20:50:52.720Z</when>
<when >2025-08-04T20:50:58.900Z</when>
<when >2025-08-04T20:51:06.670Z</when>
<when >2025-08-04T20:51:12.700Z</when>
<when >2025-08-04T20:51:19.120Z</when>
<when >2025-08-04T20:51:24.820Z</when>
<when >2025-08-04T20:51:28.660Z</when>
<when >2025-08-04T20:51:32.900Z</when>
<when >2025-08-04T20:51:38.260Z</when>
<when >2025-08-04T20:51:43.380Z</when>
<when >2025-08-04T20:51:49.380Z</when>
<when >2025-08-04T20:51:58.000Z</when>
<when >2025-08-04T20:52:00.580Z</when>
<when >2025-08-04T20:52:02.700Z</when>
<when >2025-08-04T20:52:04.010Z</when>
<when >2025-08-04T20:52:08.280Z</when>
<when >2025-08-04T20:52:09.940Z</when>
<when >2025-08-04T20:52:14.290Z</when>
<when >2025-08-04T20:52:15.480Z</when>
<when >2025-08-04T20:52:20.380Z</when>
<when >2025-08-04T20:52:24.980Z</when>
<when >2025-08-04T20:52:30.400Z</when>
<when >2025-08-04T20:52:32.970Z</when>
<when >2025-08-04T20:52:35.330Z</when>
<when >2025-08-04T20:52:36.520Z</when>
<when >2025-08-04T20:52:38.400Z</when>
<when >2025-08-04T20:52:40.150Z</when>
<when >2025-08-04T20:52:44.450Z</when>
<when >2025-08-04T20:52:47.070Z</when>
<when >2025-08-04T20:52:53.440Z</when>
<when >2025-08-04T20:53:01.420Z</when>
<when >2025-08-04T20:53:09.850Z</when>
<when >2025-08-04T20:53:18.680Z</when>
<when >2025-08-04T20:53:24.690Z</when>
<when >2025-08-04T20:53:31.080Z</when>
<when >2025-08-04T20:53:37.570Z</when>
<when >2025-08-04T20:53:44.930Z</when>
<when >2025-08-04T20:53:51.910Z</when>
<when >2025-08-04T20:53:54.250Z</when>
<when >2025-08-04T20:53:56.400Z</when>
<when >2025-08-04T20:54:01.460Z</when>
<when >2025-08-04T20:54:04.600Z</when>
<when >2025-08-04T20:54:06.150Z</when>
<when >2025-08-04T20:54:08.400Z</when>
<when >2025-08-04T20:54:11.410Z</when>
<when >2025-08-04T20:54:15.100Z</when>
<when >2025-08-04T20:54:18.930Z</when>
<when >2025-08-04T20:54:21.880Z</when>
<when >2025-08-04T20:54:25.380Z</when>
<when >2025-08-04T20:54:43.200Z</when>
<when >2025-08-04T20:54:50.700Z</when>
<when >2025-08-04T20:54:50.700Z</when>
<gx:coord >20.966434 52.166508 0</gx:coord>
<gx:coord >20.965642 52.167427 0</gx:coord>
<gx:coord >20.965367 52.167764 0</gx:coord>
<gx:coord >20.964642 52.168602 0</gx:coord>
<gx:coord >20.96419 52.169114 0</gx:coord>
<gx:coord >20.963778 52.16958 0</gx:coord>
<gx:coord >20.963484 52.169906 0</gx:coord>
<gx:coord >20.963154 52.170273 0</gx:coord>
<gx:coord >20.962849 52.17065 0</gx:coord>
<gx:coord >20.962563 52.170971 0</gx:coord>
<gx:coord >20.962287 52.171279 0</gx:coord>
<gx:coord >20.961796 52.171849 0</gx:coord>
<gx:coord >20.961418 52.172276 0</gx:coord>
<gx:coord >20.961188 52.172583 0</gx:coord>
<gx:coord >20.961051 52.172769 0</gx:coord>
<gx:coord >20.96096 52.172962 0</gx:coord>
<gx:coord >20.960846 52.173237 0</gx:coord>
<gx:coord >20.960751 52.173603 0</gx:coord>
<gx:coord >20.960693 52.173969 0</gx:coord>
<gx:coord >20.960655 52.174324 0</gx:coord>
<gx:coord >20.960658 52.174631 0</gx:coord>
<gx:coord >20.960658 52.174992 0</gx:coord>
<gx:coord >20.960658 52.175271 0</gx:coord>
<gx:coord >20.960655 52.175331 0</gx:coord>
<gx:coord >20.960712 52.17548 0</gx:coord>
<gx:coord >20.96077 52.175583 0</gx:coord>
<gx:coord >20.960884 52.175686 0</gx:coord>
<gx:coord >20.960979 52.175743 0</gx:coord>
<gx:coord >20.96117 52.175789 0</gx:coord>
<gx:coord >20.961306 52.175806 0</gx:coord>
<gx:coord >20.961437 52.175823 0</gx:coord>
<gx:coord >20.961571 52.175823 0</gx:coord>
<gx:coord >20.961761 52.175835 0</gx:coord>
<gx:coord >20.961993 52.175818 0</gx:coord>
<gx:coord >20.962385 52.175702 0</gx:coord>
<gx:coord >20.962563 52.175571 0</gx:coord>
<gx:coord >20.96262 52.175491 0</gx:coord>
<gx:coord >20.962856 52.175236 0</gx:coord>
<gx:coord >20.963078 52.174965 0</gx:coord>
<gx:coord >20.963402 52.174599 0</gx:coord>
<gx:coord >20.963726 52.174232 0</gx:coord>
<gx:coord >20.96405 52.173855 0</gx:coord>
<gx:coord >20.964347 52.173514 0</gx:coord>
<gx:coord >20.964622 52.173214 0</gx:coord>
<gx:coord >20.96489 52.172905 0</gx:coord>
<gx:coord >20.96519 52.172548 0</gx:coord>
<gx:coord >20.965524 52.172175 0</gx:coord>
<gx:coord >20.965786 52.171864 0</gx:coord>
<gx:coord >20.966129 52.171486 0</gx:coord>
<gx:coord >20.96625 52.171384 0</gx:coord>
<gx:coord >20.966328 52.171337 0</gx:coord>
<gx:coord >20.966434 52.171314 0</gx:coord>
<gx:coord >20.966778 52.17128 0</gx:coord>
<gx:coord >20.96693 52.171303 0</gx:coord>
<gx:coord >20.967102 52.171349 0</gx:coord>
<gx:coord >20.967274 52.171417 0</gx:coord>
<gx:coord >20.96756 52.171509 0</gx:coord>
<gx:coord >20.96778 52.171582 0</gx:coord>
<gx:coord >20.968074 52.171663 0</gx:coord>
<gx:coord >20.968208 52.171658 0</gx:coord>
<gx:coord >20.968329 52.171628 0</gx:coord>
<gx:coord >20.968447 52.17157 0</gx:coord>
<gx:coord >20.968513 52.17152 0</gx:coord>
<gx:coord >20.96859 52.171429 0</gx:coord>
<gx:coord >20.968702 52.171302 0</gx:coord>
<gx:coord >20.968781 52.171209 0</gx:coord>
<gx:coord >20.969086 52.170856 0</gx:coord>
<gx:coord >20.969349 52.170534 0</gx:coord>
<gx:coord >20.969696 52.170147 0</gx:coord>
<gx:coord >20.97002 52.169758 0</gx:coord>
<gx:coord >20.970345 52.169403 0</gx:coord>
<gx:coord >20.970631 52.169083 0</gx:coord>
<gx:coord >20.970936 52.168739 0</gx:coord>
<gx:coord >20.971233 52.168405 0</gx:coord>
<gx:coord >20.971451 52.168156 0</gx:coord>
<gx:coord >20.971468 52.16809 0</gx:coord>
<gx:coord >20.971429 52.167986 0</gx:coord>
<gx:coord >20.971194 52.167869 0</gx:coord>
<gx:coord >20.971107 52.167847 0</gx:coord>
<gx:coord >20.970974 52.167835 0</gx:coord>
<gx:coord >20.970898 52.167847 0</gx:coord>
<gx:coord >20.970783 52.167847 0</gx:coord>
<gx:coord >20.970707 52.167835 0</gx:coord>
<gx:coord >20.970527 52.167834 0</gx:coord>
<gx:coord >20.970468 52.167858 0</gx:coord>
<gx:coord >20.97037 52.167869 0</gx:coord>
<gx:coord >20.970095 52.167881 0</gx:coord>
<gx:coord >20.970097 52.167881 0</gx:coord>
<gx:coord >20.970097 52.167881 0</gx:coord>
</gx:Track>
</Placemark>
</Folder>
</Folder>
</kml>
