<?xml version="1.0" encoding="UTF-8"?>
<kml xmlns="http://www.opengis.net/kml/2.2" xmlns:gx="http://www.google.com/kml/ext/2.2"><Folder ><Folder ><name >9H-WAS track</name>
<Placemark ><name >9H-WAS</name>
<Style ><LineStyle ><color >ff1c1ae3</color>
<width >4</width>
</LineStyle>
<IconStyle ><Icon ><href >http://maps.google.com/mapfiles/kml/shapes/airports.png</href>
</Icon>
</IconStyle>
</Style>
<gx:Track ><altitudeMode >absolute</altitudeMode>
<extrude >1</extrude>
<when >2025-08-13T16:54:31.390Z</when>
<when >2025-08-13T16:54:31.390Z</when>
<when >2025-08-13T16:54:34.170Z</when>
<when >2025-08-13T16:54:36.060Z</when>
<when >2025-08-13T16:54:40.360Z</when>
<when >2025-08-13T16:54:46.480Z</when>
<when >2025-08-13T16:54:46.780Z</when>
<when >2025-08-13T16:54:52.630Z</when>
<when >2025-08-13T16:54:59.050Z</when>
<when >2025-08-13T16:55:02.600Z</when>
<when >2025-08-13T16:55:04.230Z</when>
<when >2025-08-13T16:55:13.960Z</when>
<when >2025-08-13T16:55:52.160Z</when>
<when >2025-08-13T16:55:53.360Z</when>
<when >2025-08-13T16:55:55.970Z</when>
<when >2025-08-13T16:55:57.910Z</when>
<when >2025-08-13T16:55:59.690Z</when>
<when >2025-08-13T16:56:03.830Z</when>
<when >2025-08-13T16:56:05.940Z</when>
<when >2025-08-13T16:56:08.170Z</when>
<when >2025-08-13T16:56:14.100Z</when>
<when >2025-08-13T16:56:16.800Z</when>
<when >2025-08-13T16:56:18.860Z</when>
<when >2025-08-13T16:56:21.880Z</when>
<when >2025-08-13T16:56:23.020Z</when>
<when >2025-08-13T16:56:25.140Z</when>
<when >2025-08-13T16:56:27.430Z</when>
<when >2025-08-13T16:56:29.800Z</when>
<when >2025-08-13T16:56:31.810Z</when>
<when >2025-08-13T16:56:34.800Z</when>
<when >2025-08-13T16:56:40.790Z</when>
<when >2025-08-13T16:56:44.690Z</when>
<when >2025-08-13T16:56:47.060Z</when>
<when >2025-08-13T16:56:47.060Z</when>
<when >2025-08-13T16:56:49.130Z</when>
<when >2025-08-13T16:56:50.710Z</when>
<when >2025-08-13T16:56:53.310Z</when>
<when >2025-08-13T16:56:56.190Z</when>
<when >2025-08-13T16:56:59.390Z</when>
<when >2025-08-13T16:57:01.260Z</when>
<when >2025-08-13T16:57:04.230Z</when>
<when >2025-08-13T16:57:08.440Z</when>
<when >2025-08-13T16:57:10.710Z</when>
<when >2025-08-13T16:57:14.250Z</when>
<when >2025-08-13T16:57:17.200Z</when>
<when >2025-08-13T16:57:19.210Z</when>
<when >2025-08-13T16:57:22.840Z</when>
<when >2025-08-13T16:57:26.070Z</when>
<when >2025-08-13T16:57:28.450Z</when>
<when >2025-08-13T16:57:29.660Z</when>
<when >2025-08-13T16:57:32.660Z</when>
<when >2025-08-13T16:57:34.470Z</when>
<when >2025-08-13T16:57:35.540Z</when>
<when >2025-08-13T16:57:38.260Z</when>
<when >2025-08-13T16:57:44.320Z</when>
<when >2025-08-13T16:57:46.990Z</when>
<when >2025-08-13T16:57:48.850Z</when>
<when >2025-08-13T16:57:51.510Z</when>
<when >2025-08-13T16:57:52.630Z</when>
<when >2025-08-13T16:57:55.660Z</when>
<when >2025-08-13T16:57:58.460Z</when>
<when >2025-08-13T16:58:00.610Z</when>
<when >2025-08-13T16:58:03.940Z</when>
<when >2025-08-13T16:58:08.110Z</when>
<when >2025-08-13T16:58:13.250Z</when>
<when >2025-08-13T16:58:16.280Z</when>
<when >2025-08-13T16:58:19.960Z</when>
<when >2025-08-13T16:58:24.270Z</when>
<when >2025-08-13T16:58:28.710Z</when>
<when >2025-08-13T16:58:34.500Z</when>
<when >2025-08-13T16:58:40.700Z</when>
<when >2025-08-13T16:58:46.730Z</when>
<when >2025-08-13T16:58:48.510Z</when>
<when >2025-08-13T16:58:53.290Z</when>
<when >2025-08-13T16:58:58.800Z</when>
<when >2025-08-13T16:59:06.050Z</when>
<when >2025-08-13T16:59:11.300Z</when>
<when >2025-08-13T16:59:15.000Z</when>
<when >2025-08-13T16:59:18.320Z</when>
<when >2025-08-13T16:59:25.220Z</when>
<when >2025-08-13T16:59:28.350Z</when>
<when >2025-08-13T16:59:33.090Z</when>
<when >2025-08-13T16:59:37.180Z</when>
<when >2025-08-13T16:59:42.220Z</when>
<when >2025-08-13T16:59:48.250Z</when>
<when >2025-08-13T16:59:52.970Z</when>
<when >2025-08-13T17:00:00.940Z</when>
<when >2025-08-13T17:00:03.330Z</when>
<when >2025-08-13T17:00:10.760Z</when>
<when >2025-08-13T17:00:20.840Z</when>
<when >2025-08-13T17:00:30.460Z</when>
<when >2025-08-13T17:00:43.930Z</when>
<when >2025-08-13T17:00:54.910Z</when>
<when >2025-08-13T17:01:08.290Z</when>
<when >2025-08-13T17:01:19.350Z</when>
<when >2025-08-13T17:01:31.190Z</when>
<when >2025-08-13T17:01:45.020Z</when>
<when >2025-08-13T17:01:54.080Z</when>
<when >2025-08-13T17:02:00.770Z</when>
<when >2025-08-13T17:02:14.510Z</when>
<when >2025-08-13T17:02:24.650Z</when>
<when >2025-08-13T17:02:33.150Z</when>
<when >2025-08-13T17:02:39.700Z</when>
<when >2025-08-13T17:02:53.240Z</when>
<when >2025-08-13T17:03:02.220Z</when>
<when >2025-08-13T17:03:15.140Z</when>
<when >2025-08-13T17:03:23.790Z</when>
<when >2025-08-13T17:03:29.760Z</when>
<when >2025-08-13T17:03:44.160Z</when>
<when >2025-08-13T17:03:59.100Z</when>
<when >2025-08-13T17:04:11.800Z</when>
<when >2025-08-13T17:04:25.110Z</when>
<when >2025-08-13T17:04:37.310Z</when>
<when >2025-08-13T17:04:48.760Z</when>
<when >2025-08-13T17:05:01.130Z</when>
<when >2025-08-13T17:05:15.820Z</when>
<when >2025-08-13T17:05:27.350Z</when>
<when >2025-08-13T17:05:41.600Z</when>
<when >2025-08-13T17:05:54.630Z</when>
<when >2025-08-13T17:06:06.260Z</when>
<when >2025-08-13T17:06:18.110Z</when>
<when >2025-08-13T17:06:32.360Z</when>
<when >2025-08-13T17:06:46.220Z</when>
<when >2025-08-13T17:06:59.240Z</when>
<when >2025-08-13T17:07:13.610Z</when>
<when >2025-08-13T17:07:27.220Z</when>
<when >2025-08-13T17:07:41.670Z</when>
<when >2025-08-13T17:07:55.030Z</when>
<when >2025-08-13T17:08:01.310Z</when>
<when >2025-08-13T17:08:07.940Z</when>
<when >2025-08-13T17:08:12.850Z</when>
<when >2025-08-13T17:08:24.650Z</when>
<when >2025-08-13T17:08:43.360Z</when>
<when >2025-08-13T17:08:57.610Z</when>
<when >2025-08-13T17:09:13.320Z</when>
<when >2025-08-13T17:09:26.720Z</when>
<when >2025-08-13T17:09:41.640Z</when>
<when >2025-08-13T17:10:00.250Z</when>
<when >2025-08-13T17:10:16.270Z</when>
<when >2025-08-13T17:10:29.760Z</when>
<when >2025-08-13T17:10:43.350Z</when>
<when >2025-08-13T17:10:58.110Z</when>
<when >2025-08-13T17:11:15.410Z</when>
<when >2025-08-13T17:11:31.350Z</when>
<when >2025-08-13T17:11:47.300Z</when>
<when >2025-08-13T17:12:03.180Z</when>
<when >2025-08-13T17:12:21.030Z</when>
<when >2025-08-13T17:12:37.550Z</when>
<when >2025-08-13T17:12:53.550Z</when>
<when >2025-08-13T17:13:10.290Z</when>
<when >2025-08-13T17:13:26.550Z</when>
<when >2025-08-13T17:13:43.070Z</when>
<when >2025-08-13T17:13:58.570Z</when>
<when >2025-08-13T17:14:16.500Z</when>
<when >2025-08-13T17:14:34.890Z</when>
<when >2025-08-13T17:14:51.570Z</when>
<when >2025-08-13T17:15:09.150Z</when>
<when >2025-08-13T17:15:27.450Z</when>
<when >2025-08-13T17:15:46.040Z</when>
<when >2025-08-13T17:16:04.020Z</when>
<when >2025-08-13T17:16:20.710Z</when>
<when >2025-08-13T17:16:38.780Z</when>
<when >2025-08-13T17:16:55.900Z</when>
<when >2025-08-13T17:17:12.610Z</when>
<when >2025-08-13T17:17:29.090Z</when>
<when >2025-08-13T17:17:41.390Z</when>
<when >2025-08-13T17:17:48.190Z</when>
<when >2025-08-13T17:18:07.850Z</when>
<when >2025-08-13T17:18:27.840Z</when>
<when >2025-08-13T17:18:47.710Z</when>
<when >2025-08-13T17:19:07.440Z</when>
<when >2025-08-13T17:19:14.440Z</when>
<when >2025-08-13T17:19:18.510Z</when>
<when >2025-08-13T17:19:23.300Z</when>
<when >2025-08-13T17:19:27.510Z</when>
<when >2025-08-13T17:19:32.990Z</when>
<when >2025-08-13T17:19:38.480Z</when>
<when >2025-08-13T17:19:43.040Z</when>
<when >2025-08-13T17:19:48.160Z</when>
<when >2025-08-13T17:19:52.960Z</when>
<when >2025-08-13T17:19:59.150Z</when>
<when >2025-08-13T17:20:13.140Z</when>
<when >2025-08-13T17:20:32.860Z</when>
<when >2025-08-13T17:20:52.760Z</when>
<when >2025-08-13T17:21:12.040Z</when>
<when >2025-08-13T17:21:31.520Z</when>
<when >2025-08-13T17:21:50.950Z</when>
<when >2025-08-13T17:22:10.840Z</when>
<when >2025-08-13T17:22:30.350Z</when>
<when >2025-08-13T17:22:50.210Z</when>
<when >2025-08-13T17:23:10.200Z</when>
<when >2025-08-13T17:23:29.840Z</when>
<when >2025-08-13T17:23:49.570Z</when>
<when >2025-08-13T17:24:09.430Z</when>
<when >2025-08-13T17:24:29.040Z</when>
<when >2025-08-13T17:24:49.020Z</when>
<when >2025-08-13T17:25:08.770Z</when>
<when >2025-08-13T17:25:28.320Z</when>
<when >2025-08-13T17:25:48.240Z</when>
<when >2025-08-13T17:26:07.960Z</when>
<when >2025-08-13T17:26:27.480Z</when>
<when >2025-08-13T17:26:45.740Z</when>
<when >2025-08-13T17:27:05.480Z</when>
<when >2025-08-13T17:27:25.320Z</when>
<when >2025-08-13T17:27:44.870Z</when>
<when >2025-08-13T17:28:04.480Z</when>
<when >2025-08-13T17:28:24.440Z</when>
<when >2025-08-13T17:28:43.150Z</when>
<when >2025-08-13T17:29:02.880Z</when>
<when >2025-08-13T17:29:22.410Z</when>
<when >2025-08-13T17:29:42.400Z</when>
<when >2025-08-13T17:30:02.250Z</when>
<when >2025-08-13T17:30:21.780Z</when>
<when >2025-08-13T17:30:41.120Z</when>
<when >2025-08-13T17:30:48.450Z</when>
<when >2025-08-13T17:30:54.900Z</when>
<when >2025-08-13T17:31:02.780Z</when>
<when >2025-08-13T17:31:13.890Z</when>
<when >2025-08-13T17:31:33.650Z</when>
<when >2025-08-13T17:31:53.550Z</when>
<when >2025-08-13T17:32:12.990Z</when>
<when >2025-08-13T17:32:32.180Z</when>
<when >2025-08-13T17:32:52.030Z</when>
<when >2025-08-13T17:33:11.690Z</when>
<when >2025-08-13T17:33:31.230Z</when>
<when >2025-08-13T17:33:50.580Z</when>
<when >2025-08-13T17:34:09.880Z</when>
<when >2025-08-13T17:34:29.650Z</when>
<when >2025-08-13T17:34:48.680Z</when>
<when >2025-08-13T17:35:08.570Z</when>
<when >2025-08-13T17:35:28.040Z</when>
<when >2025-08-13T17:35:47.800Z</when>
<when >2025-08-13T17:36:07.730Z</when>
<when >2025-08-13T17:36:27.030Z</when>
<when >2025-08-13T17:36:46.910Z</when>
<when >2025-08-13T17:37:06.430Z</when>
<when >2025-08-13T17:37:25.650Z</when>
<when >2025-08-13T17:37:45.200Z</when>
<when >2025-08-13T17:38:05.040Z</when>
<when >2025-08-13T17:38:24.980Z</when>
<when >2025-08-13T17:38:44.830Z</when>
<when >2025-08-13T17:38:56.670Z</when>
<when >2025-08-13T17:39:06.720Z</when>
<when >2025-08-13T17:39:19.250Z</when>
<when >2025-08-13T17:39:39.090Z</when>
<when >2025-08-13T17:39:59.070Z</when>
<when >2025-08-13T17:40:18.710Z</when>
<when >2025-08-13T17:40:38.410Z</when>
<when >2025-08-13T17:40:57.860Z</when>
<when >2025-08-13T17:41:17.550Z</when>
<when >2025-08-13T17:41:36.830Z</when>
<when >2025-08-13T17:41:56.540Z</when>
<when >2025-08-13T17:42:15.900Z</when>
<when >2025-08-13T17:42:35.450Z</when>
<when >2025-08-13T17:42:55.140Z</when>
<when >2025-08-13T17:43:14.480Z</when>
<when >2025-08-13T17:43:34.090Z</when>
<when >2025-08-13T17:43:53.890Z</when>
<when >2025-08-13T17:44:13.590Z</when>
<when >2025-08-13T17:44:33.500Z</when>
<when >2025-08-13T17:44:53.480Z</when>
<when >2025-08-13T17:45:13.180Z</when>
<when >2025-08-13T17:45:32.610Z</when>
<when >2025-08-13T17:45:51.480Z</when>
<when >2025-08-13T17:46:11.020Z</when>
<when >2025-08-13T17:46:30.900Z</when>
<when >2025-08-13T17:46:50.770Z</when>
<when >2025-08-13T17:47:10.540Z</when>
<when >2025-08-13T17:47:30.330Z</when>
<when >2025-08-13T17:47:49.620Z</when>
<when >2025-08-13T17:48:09.050Z</when>
<when >2025-08-13T17:48:28.830Z</when>
<when >2025-08-13T17:48:48.570Z</when>
<when >2025-08-13T17:49:08.480Z</when>
<when >2025-08-13T17:49:27.940Z</when>
<when >2025-08-13T17:49:45.240Z</when>
<when >2025-08-13T17:50:03.720Z</when>
<when >2025-08-13T17:50:23.230Z</when>
<when >2025-08-13T17:50:42.650Z</when>
<when >2025-08-13T17:51:02.080Z</when>
<when >2025-08-13T17:51:21.860Z</when>
<when >2025-08-13T17:51:41.400Z</when>
<when >2025-08-13T17:51:55.610Z</when>
<when >2025-08-13T17:52:01.910Z</when>
<when >2025-08-13T17:52:08.490Z</when>
<when >2025-08-13T17:52:15.300Z</when>
<when >2025-08-13T17:52:20.630Z</when>
<when >2025-08-13T17:52:27.210Z</when>
<when >2025-08-13T17:52:34.280Z</when>
<when >2025-08-13T17:52:43.120Z</when>
<when >2025-08-13T17:52:54.250Z</when>
<when >2025-08-13T17:53:06.000Z</when>
<when >2025-08-13T17:53:25.460Z</when>
<when >2025-08-13T17:53:44.820Z</when>
<when >2025-08-13T17:54:02.460Z</when>
<when >2025-08-13T17:54:22.440Z</when>
<when >2025-08-13T17:54:41.620Z</when>
<when >2025-08-13T17:55:01.180Z</when>
<when >2025-08-13T17:55:21.150Z</when>
<when >2025-08-13T17:55:40.750Z</when>
<when >2025-08-13T17:56:00.420Z</when>
<when >2025-08-13T17:56:18.390Z</when>
<when >2025-08-13T17:56:37.910Z</when>
<when >2025-08-13T17:56:57.700Z</when>
<when >2025-08-13T17:57:17.350Z</when>
<when >2025-08-13T17:57:36.740Z</when>
<when >2025-08-13T17:57:56.520Z</when>
<when >2025-08-13T17:58:16.440Z</when>
<when >2025-08-13T17:58:36.390Z</when>
<when >2025-08-13T17:58:56.070Z</when>
<when >2025-08-13T17:59:15.280Z</when>
<when >2025-08-13T17:59:35.130Z</when>
<when >2025-08-13T17:59:54.900Z</when>
<when >2025-08-13T18:00:14.840Z</when>
<when >2025-08-13T18:00:34.480Z</when>
<when >2025-08-13T18:00:53.730Z</when>
<when >2025-08-13T18:01:12.900Z</when>
<when >2025-08-13T18:01:32.780Z</when>
<when >2025-08-13T18:01:52.510Z</when>
<when >2025-08-13T18:02:11.580Z</when>
<when >2025-08-13T18:02:31.530Z</when>
<when >2025-08-13T18:02:51.010Z</when>
<when >2025-08-13T18:03:10.850Z</when>
<when >2025-08-13T18:03:30.840Z</when>
<when >2025-08-13T18:03:50.700Z</when>
<when >2025-08-13T18:04:10.220Z</when>
<when >2025-08-13T18:04:30.010Z</when>
<when >2025-08-13T18:04:49.710Z</when>
<when >2025-08-13T18:05:09.360Z</when>
<when >2025-08-13T18:05:29.100Z</when>
<when >2025-08-13T18:05:49.070Z</when>
<when >2025-08-13T18:06:08.160Z</when>
<when >2025-08-13T18:06:27.940Z</when>
<when >2025-08-13T18:06:47.190Z</when>
<when >2025-08-13T18:07:06.670Z</when>
<when >2025-08-13T18:07:26.160Z</when>
<when >2025-08-13T18:07:45.950Z</when>
<when >2025-08-13T18:08:05.610Z</when>
<when >2025-08-13T18:08:25.500Z</when>
<when >2025-08-13T18:08:45.290Z</when>
<when >2025-08-13T18:09:04.740Z</when>
<when >2025-08-13T18:09:24.570Z</when>
<when >2025-08-13T18:09:43.960Z</when>
<when >2025-08-13T18:10:03.570Z</when>
<when >2025-08-13T18:10:23.030Z</when>
<when >2025-08-13T18:10:41.330Z</when>
<when >2025-08-13T18:11:00.810Z</when>
<when >2025-08-13T18:11:20.720Z</when>
<when >2025-08-13T18:11:40.590Z</when>
<when >2025-08-13T18:11:56.810Z</when>
<when >2025-08-13T18:12:02.960Z</when>
<when >2025-08-13T18:12:08.110Z</when>
<when >2025-08-13T18:12:12.630Z</when>
<when >2025-08-13T18:12:17.470Z</when>
<when >2025-08-13T18:12:22.000Z</when>
<when >2025-08-13T18:12:26.180Z</when>
<when >2025-08-13T18:12:32.560Z</when>
<when >2025-08-13T18:12:52.240Z</when>
<when >2025-08-13T18:13:09.630Z</when>
<when >2025-08-13T18:13:29.510Z</when>
<when >2025-08-13T18:13:49.460Z</when>
<when >2025-08-13T18:14:08.720Z</when>
<when >2025-08-13T18:14:28.080Z</when>
<when >2025-08-13T18:14:47.570Z</when>
<when >2025-08-13T18:15:06.850Z</when>
<when >2025-08-13T18:15:26.160Z</when>
<when >2025-08-13T18:15:46.070Z</when>
<when >2025-08-13T18:16:05.820Z</when>
<when >2025-08-13T18:16:25.310Z</when>
<when >2025-08-13T18:16:45.020Z</when>
<when >2025-08-13T18:17:04.960Z</when>
<when >2025-08-13T18:17:24.820Z</when>
<when >2025-08-13T18:17:43.940Z</when>
<when >2025-08-13T18:18:03.830Z</when>
<when >2025-08-13T18:18:23.090Z</when>
<when >2025-08-13T18:18:42.210Z</when>
<when >2025-08-13T18:19:01.540Z</when>
<when >2025-08-13T18:19:21.510Z</when>
<when >2025-08-13T18:19:41.360Z</when>
<when >2025-08-13T18:20:00.840Z</when>
<when >2025-08-13T18:20:19.730Z</when>
<when >2025-08-13T18:20:39.710Z</when>
<when >2025-08-13T18:20:59.400Z</when>
<when >2025-08-13T18:21:19.080Z</when>
<when >2025-08-13T18:21:38.290Z</when>
<when >2025-08-13T18:21:58.160Z</when>
<when >2025-08-13T18:22:17.760Z</when>
<when >2025-08-13T18:22:37.240Z</when>
<when >2025-08-13T18:22:57.050Z</when>
<when >2025-08-13T18:23:16.230Z</when>
<when >2025-08-13T18:23:35.670Z</when>
<when >2025-08-13T18:23:55.320Z</when>
<when >2025-08-13T18:24:14.650Z</when>
<when >2025-08-13T18:24:34.570Z</when>
<when >2025-08-13T18:24:54.400Z</when>
<when >2025-08-13T18:25:14.390Z</when>
<when >2025-08-13T18:25:34.390Z</when>
<when >2025-08-13T18:25:54.380Z</when>
<when >2025-08-13T18:26:14.190Z</when>
<when >2025-08-13T18:26:34.160Z</when>
<when >2025-08-13T18:26:53.840Z</when>
<when >2025-08-13T18:27:13.070Z</when>
<when >2025-08-13T18:27:32.610Z</when>
<when >2025-08-13T18:27:52.440Z</when>
<when >2025-08-13T18:28:12.180Z</when>
<when >2025-08-13T18:28:31.870Z</when>
<when >2025-08-13T18:28:51.690Z</when>
<when >2025-08-13T18:29:11.650Z</when>
<when >2025-08-13T18:29:31.500Z</when>
<when >2025-08-13T18:29:49.040Z</when>
<when >2025-08-13T18:29:57.560Z</when>
<when >2025-08-13T18:30:05.990Z</when>
<when >2025-08-13T18:30:16.040Z</when>
<when >2025-08-13T18:30:35.860Z</when>
<when >2025-08-13T18:30:55.350Z</when>
<when >2025-08-13T18:31:14.700Z</when>
<when >2025-08-13T18:31:33.650Z</when>
<when >2025-08-13T18:31:52.820Z</when>
<when >2025-08-13T18:32:12.500Z</when>
<when >2025-08-13T18:32:32.240Z</when>
<when >2025-08-13T18:32:51.640Z</when>
<when >2025-08-13T18:33:11.510Z</when>
<when >2025-08-13T18:33:31.490Z</when>
<when >2025-08-13T18:33:51.120Z</when>
<when >2025-08-13T18:34:10.930Z</when>
<when >2025-08-13T18:34:30.520Z</when>
<when >2025-08-13T18:34:50.240Z</when>
<when >2025-08-13T18:35:09.960Z</when>
<when >2025-08-13T18:35:29.910Z</when>
<when >2025-08-13T18:35:49.460Z</when>
<when >2025-08-13T18:36:09.440Z</when>
<when >2025-08-13T18:36:29.240Z</when>
<when >2025-08-13T18:36:48.940Z</when>
<when >2025-08-13T18:37:08.670Z</when>
<when >2025-08-13T18:37:19.840Z</when>
<when >2025-08-13T18:37:25.210Z</when>
<when >2025-08-13T18:37:30.790Z</when>
<when >2025-08-13T18:37:42.100Z</when>
<when >2025-08-13T18:38:01.630Z</when>
<when >2025-08-13T18:38:21.220Z</when>
<when >2025-08-13T18:38:40.630Z</when>
<when >2025-08-13T18:39:00.110Z</when>
<when >2025-08-13T18:39:19.780Z</when>
<when >2025-08-13T18:39:39.600Z</when>
<when >2025-08-13T18:39:59.540Z</when>
<when >2025-08-13T18:40:18.870Z</when>
<when >2025-08-13T18:40:38.070Z</when>
<when >2025-08-13T18:40:57.740Z</when>
<when >2025-08-13T18:41:17.030Z</when>
<when >2025-08-13T18:41:36.940Z</when>
<when >2025-08-13T18:41:56.930Z</when>
<when >2025-08-13T18:42:16.740Z</when>
<when >2025-08-13T18:42:36.460Z</when>
<when >2025-08-13T18:42:55.930Z</when>
<when >2025-08-13T18:43:15.890Z</when>
<when >2025-08-13T18:43:35.860Z</when>
<when >2025-08-13T18:43:55.390Z</when>
<when >2025-08-13T18:44:15.300Z</when>
<when >2025-08-13T18:44:34.870Z</when>
<when >2025-08-13T18:44:54.720Z</when>
<when >2025-08-13T18:45:14.570Z</when>
<when >2025-08-13T18:45:34.050Z</when>
<when >2025-08-13T18:45:53.970Z</when>
<when >2025-08-13T18:46:13.890Z</when>
<when >2025-08-13T18:46:33.660Z</when>
<when >2025-08-13T18:46:53.560Z</when>
<when >2025-08-13T18:47:13.180Z</when>
<when >2025-08-13T18:47:32.900Z</when>
<when >2025-08-13T18:47:52.800Z</when>
<when >2025-08-13T18:48:12.570Z</when>
<when >2025-08-13T18:48:32.460Z</when>
<when >2025-08-13T18:48:52.060Z</when>
<when >2025-08-13T18:49:11.520Z</when>
<when >2025-08-13T18:49:31.120Z</when>
<when >2025-08-13T18:49:50.550Z</when>
<when >2025-08-13T18:50:10.490Z</when>
<when >2025-08-13T18:50:29.920Z</when>
<when >2025-08-13T18:50:49.450Z</when>
<when >2025-08-13T18:51:08.960Z</when>
<when >2025-08-13T18:51:28.800Z</when>
<when >2025-08-13T18:51:48.360Z</when>
<when >2025-08-13T18:52:08.180Z</when>
<when >2025-08-13T18:52:28.020Z</when>
<when >2025-08-13T18:52:47.180Z</when>
<when >2025-08-13T18:53:07.110Z</when>
<when >2025-08-13T18:53:26.830Z</when>
<when >2025-08-13T18:53:46.770Z</when>
<when >2025-08-13T18:54:06.110Z</when>
<when >2025-08-13T18:54:26.000Z</when>
<when >2025-08-13T18:54:45.690Z</when>
<when >2025-08-13T18:55:05.650Z</when>
<when >2025-08-13T18:55:25.230Z</when>
<when >2025-08-13T18:55:44.960Z</when>
<when >2025-08-13T18:56:04.750Z</when>
<when >2025-08-13T18:56:24.550Z</when>
<when >2025-08-13T18:56:44.160Z</when>
<when >2025-08-13T18:57:03.630Z</when>
<when >2025-08-13T18:57:22.960Z</when>
<when >2025-08-13T18:57:42.840Z</when>
<when >2025-08-13T18:57:59.890Z</when>
<when >2025-08-13T18:58:09.720Z</when>
<when >2025-08-13T18:58:20.840Z</when>
<when >2025-08-13T18:58:34.100Z</when>
<when >2025-08-13T18:58:43.270Z</when>
<when >2025-08-13T18:58:56.800Z</when>
<when >2025-08-13T18:59:16.330Z</when>
<when >2025-08-13T18:59:36.220Z</when>
<when >2025-08-13T18:59:55.940Z</when>
<when >2025-08-13T19:00:15.560Z</when>
<when >2025-08-13T19:00:35.110Z</when>
<when >2025-08-13T19:00:54.980Z</when>
<when >2025-08-13T19:01:14.800Z</when>
<when >2025-08-13T19:01:34.540Z</when>
<when >2025-08-13T19:01:54.100Z</when>
<when >2025-08-13T19:02:13.900Z</when>
<when >2025-08-13T19:02:33.560Z</when>
<when >2025-08-13T19:02:53.250Z</when>
<when >2025-08-13T19:03:13.230Z</when>
<when >2025-08-13T19:03:32.940Z</when>
<when >2025-08-13T19:03:52.860Z</when>
<when >2025-08-13T19:04:12.460Z</when>
<when >2025-08-13T19:04:32.150Z</when>
<when >2025-08-13T19:04:39.400Z</when>
<when >2025-08-13T19:04:44.190Z</when>
<when >2025-08-13T19:04:48.620Z</when>
<when >2025-08-13T19:04:52.800Z</when>
<when >2025-08-13T19:04:58.270Z</when>
<when >2025-08-13T19:05:18.120Z</when>
<when >2025-08-13T19:05:33.370Z</when>
<when >2025-08-13T19:05:53.140Z</when>
<when >2025-08-13T19:06:11.840Z</when>
<when >2025-08-13T19:06:31.410Z</when>
<when >2025-08-13T19:06:50.870Z</when>
<when >2025-08-13T19:07:10.710Z</when>
<when >2025-08-13T19:07:30.700Z</when>
<when >2025-08-13T19:07:50.400Z</when>
<when >2025-08-13T19:08:10.290Z</when>
<when >2025-08-13T19:08:30.280Z</when>
<when >2025-08-13T19:08:50.230Z</when>
<when >2025-08-13T19:09:10.020Z</when>
<when >2025-08-13T19:09:29.590Z</when>
<when >2025-08-13T19:09:49.300Z</when>
<when >2025-08-13T19:10:09.150Z</when>
<when >2025-08-13T19:10:28.970Z</when>
<when >2025-08-13T19:10:48.330Z</when>
<when >2025-08-13T19:11:08.080Z</when>
<when >2025-08-13T19:11:27.960Z</when>
<when >2025-08-13T19:11:47.500Z</when>
<when >2025-08-13T19:11:57.920Z</when>
<when >2025-08-13T19:12:04.080Z</when>
<when >2025-08-13T19:12:10.610Z</when>
<when >2025-08-13T19:12:20.160Z</when>
<when >2025-08-13T19:12:40.120Z</when>
<when >2025-08-13T19:12:59.910Z</when>
<when >2025-08-13T19:13:19.420Z</when>
<when >2025-08-13T19:13:38.950Z</when>
<when >2025-08-13T19:13:58.930Z</when>
<when >2025-08-13T19:14:18.760Z</when>
<when >2025-08-13T19:14:38.590Z</when>
<when >2025-08-13T19:14:58.430Z</when>
<when >2025-08-13T19:15:18.410Z</when>
<when >2025-08-13T19:15:37.900Z</when>
<when >2025-08-13T19:15:57.470Z</when>
<when >2025-08-13T19:16:17.170Z</when>
<when >2025-08-13T19:16:36.910Z</when>
<when >2025-08-13T19:16:56.800Z</when>
<when >2025-08-13T19:17:16.120Z</when>
<when >2025-08-13T19:17:36.060Z</when>
<when >2025-08-13T19:17:55.810Z</when>
<when >2025-08-13T19:18:15.790Z</when>
<when >2025-08-13T19:18:35.780Z</when>
<when >2025-08-13T19:18:55.540Z</when>
<when >2025-08-13T19:19:15.140Z</when>
<when >2025-08-13T19:19:34.610Z</when>
<when >2025-08-13T19:19:54.410Z</when>
<when >2025-08-13T19:20:14.030Z</when>
<when >2025-08-13T19:20:33.540Z</when>
<when >2025-08-13T19:20:53.220Z</when>
<when >2025-08-13T19:21:13.130Z</when>
<when >2025-08-13T19:21:32.590Z</when>
<when >2025-08-13T19:21:52.280Z</when>
<when >2025-08-13T19:22:12.100Z</when>
<when >2025-08-13T19:22:31.780Z</when>
<when >2025-08-13T19:22:51.460Z</when>
<when >2025-08-13T19:23:11.090Z</when>
<when >2025-08-13T19:23:31.030Z</when>
<when >2025-08-13T19:23:50.920Z</when>
<when >2025-08-13T19:24:10.910Z</when>
<when >2025-08-13T19:24:30.600Z</when>
<when >2025-08-13T19:24:50.570Z</when>
<when >2025-08-13T19:25:10.480Z</when>
<when >2025-08-13T19:25:30.340Z</when>
<when >2025-08-13T19:25:50.120Z</when>
<when >2025-08-13T19:26:09.820Z</when>
<when >2025-08-13T19:26:29.380Z</when>
<when >2025-08-13T19:26:48.750Z</when>
<when >2025-08-13T19:27:08.160Z</when>
<when >2025-08-13T19:27:28.150Z</when>
<when >2025-08-13T19:27:48.010Z</when>
<when >2025-08-13T19:28:07.750Z</when>
<when >2025-08-13T19:28:27.340Z</when>
<when >2025-08-13T19:28:47.180Z</when>
<when >2025-08-13T19:29:06.520Z</when>
<when >2025-08-13T19:29:26.080Z</when>
<when >2025-08-13T19:29:46.060Z</when>
<when >2025-08-13T19:29:54.830Z</when>
<when >2025-08-13T19:30:14.700Z</when>
<when >2025-08-13T19:30:34.440Z</when>
<when >2025-08-13T19:30:54.130Z</when>
<when >2025-08-13T19:31:14.120Z</when>
<when >2025-08-13T19:31:33.840Z</when>
<when >2025-08-13T19:31:53.340Z</when>
<when >2025-08-13T19:32:13.070Z</when>
<when >2025-08-13T19:32:32.610Z</when>
<when >2025-08-13T19:32:52.530Z</when>
<when >2025-08-13T19:33:12.320Z</when>
<when >2025-08-13T19:33:21.690Z</when>
<when >2025-08-13T19:33:34.330Z</when>
<when >2025-08-13T19:33:54.300Z</when>
<when >2025-08-13T19:34:13.920Z</when>
<when >2025-08-13T19:34:33.630Z</when>
<when >2025-08-13T19:34:53.360Z</when>
<when >2025-08-13T19:35:13.290Z</when>
<when >2025-08-13T19:35:32.990Z</when>
<when >2025-08-13T19:35:52.840Z</when>
<when >2025-08-13T19:36:12.710Z</when>
<when >2025-08-13T19:36:32.360Z</when>
<when >2025-08-13T19:36:52.210Z</when>
<when >2025-08-13T19:37:11.690Z</when>
<when >2025-08-13T19:37:31.330Z</when>
<when >2025-08-13T19:37:51.150Z</when>
<when >2025-08-13T19:38:10.690Z</when>
<when >2025-08-13T19:38:30.390Z</when>
<when >2025-08-13T19:38:50.100Z</when>
<when >2025-08-13T19:39:10.080Z</when>
<when >2025-08-13T19:39:29.760Z</when>
<when >2025-08-13T19:39:49.570Z</when>
<when >2025-08-13T19:40:09.390Z</when>
<when >2025-08-13T19:40:29.100Z</when>
<when >2025-08-13T19:40:48.730Z</when>
<when >2025-08-13T19:41:08.590Z</when>
<when >2025-08-13T19:41:28.570Z</when>
<when >2025-08-13T19:41:48.020Z</when>
<when >2025-08-13T19:42:07.560Z</when>
<when >2025-08-13T19:42:27.310Z</when>
<when >2025-08-13T19:42:34.210Z</when>
<when >2025-08-13T19:42:39.300Z</when>
<when >2025-08-13T19:42:45.140Z</when>
<when >2025-08-13T19:42:50.150Z</when>
<when >2025-08-13T19:43:02.880Z</when>
<when >2025-08-13T19:43:22.690Z</when>
<when >2025-08-13T19:43:42.530Z</when>
<when >2025-08-13T19:44:02.290Z</when>
<when >2025-08-13T19:44:18.170Z</when>
<when >2025-08-13T19:44:22.800Z</when>
<when >2025-08-13T19:44:27.540Z</when>
<when >2025-08-13T19:44:32.960Z</when>
<when >2025-08-13T19:44:38.660Z</when>
<when >2025-08-13T19:44:58.390Z</when>
<when >2025-08-13T19:45:18.070Z</when>
<when >2025-08-13T19:45:37.700Z</when>
<when >2025-08-13T19:45:57.660Z</when>
<when >2025-08-13T19:46:17.130Z</when>
<when >2025-08-13T19:46:36.900Z</when>
<when >2025-08-13T19:46:56.700Z</when>
<when >2025-08-13T19:47:16.440Z</when>
<when >2025-08-13T19:47:36.330Z</when>
<when >2025-08-13T19:47:55.960Z</when>
<when >2025-08-13T19:48:15.730Z</when>
<when >2025-08-13T19:48:35.480Z</when>
<when >2025-08-13T19:48:55.390Z</when>
<when >2025-08-13T19:49:15.320Z</when>
<when >2025-08-13T19:49:34.900Z</when>
<when >2025-08-13T19:49:54.490Z</when>
<when >2025-08-13T19:50:14.390Z</when>
<when >2025-08-13T19:50:34.270Z</when>
<when >2025-08-13T19:50:54.160Z</when>
<when >2025-08-13T19:51:14.100Z</when>
<when >2025-08-13T19:51:33.900Z</when>
<when >2025-08-13T19:51:53.870Z</when>
<when >2025-08-13T19:52:13.620Z</when>
<when >2025-08-13T19:52:33.200Z</when>
<when >2025-08-13T19:52:52.980Z</when>
<when >2025-08-13T19:53:12.960Z</when>
<when >2025-08-13T19:53:32.510Z</when>
<when >2025-08-13T19:53:52.320Z</when>
<when >2025-08-13T19:54:12.190Z</when>
<when >2025-08-13T19:54:31.840Z</when>
<when >2025-08-13T19:54:51.300Z</when>
<when >2025-08-13T19:55:10.900Z</when>
<when >2025-08-13T19:55:30.580Z</when>
<when >2025-08-13T19:55:50.550Z</when>
<when >2025-08-13T19:56:10.430Z</when>
<when >2025-08-13T19:56:30.010Z</when>
<when >2025-08-13T19:56:49.470Z</when>
<when >2025-08-13T19:57:09.190Z</when>
<when >2025-08-13T19:57:28.980Z</when>
<when >2025-08-13T19:57:48.600Z</when>
<when >2025-08-13T19:58:08.360Z</when>
<when >2025-08-13T19:58:28.260Z</when>
<when >2025-08-13T19:58:48.140Z</when>
<when >2025-08-13T19:59:05.490Z</when>
<when >2025-08-13T19:59:11.020Z</when>
<when >2025-08-13T19:59:16.850Z</when>
<when >2025-08-13T19:59:20.980Z</when>
<when >2025-08-13T19:59:26.070Z</when>
<when >2025-08-13T19:59:32.700Z</when>
<when >2025-08-13T19:59:43.430Z</when>
<when >2025-08-13T19:59:47.610Z</when>
<when >2025-08-13T19:59:49.530Z</when>
<when >2025-08-13T19:59:52.670Z</when>
<when >2025-08-13T19:59:56.490Z</when>
<when >2025-08-13T20:00:05.800Z</when>
<when >2025-08-13T20:00:16.450Z</when>
<when >2025-08-13T20:00:24.480Z</when>
<when >2025-08-13T20:00:32.870Z</when>
<when >2025-08-13T20:00:35.190Z</when>
<when >2025-08-13T20:00:38.630Z</when>
<when >2025-08-13T20:00:41.880Z</when>
<when >2025-08-13T20:00:47.690Z</when>
<when >2025-08-13T20:00:50.270Z</when>
<when >2025-08-13T20:00:55.520Z</when>
<when >2025-08-13T20:01:04.600Z</when>
<when >2025-08-13T20:01:11.170Z</when>
<when >2025-08-13T20:01:18.640Z</when>
<when >2025-08-13T20:01:18.830Z</when>
<when >2025-08-13T20:01:31.840Z</when>
<when >2025-08-13T20:01:43.910Z</when>
<when >2025-08-13T20:01:54.830Z</when>
<when >2025-08-13T20:02:06.610Z</when>
<when >2025-08-13T20:02:18.240Z</when>
<when >2025-08-13T20:02:29.420Z</when>
<when >2025-08-13T20:02:39.190Z</when>
<when >2025-08-13T20:02:49.270Z</when>
<when >2025-08-13T20:02:57.300Z</when>
<when >2025-08-13T20:03:07.030Z</when>
<when >2025-08-13T20:03:10.230Z</when>
<when >2025-08-13T20:03:18.330Z</when>
<when >2025-08-13T20:03:29.180Z</when>
<when >2025-08-13T20:03:40.170Z</when>
<when >2025-08-13T20:03:51.780Z</when>
<when >2025-08-13T20:04:03.710Z</when>
<when >2025-08-13T20:04:17.180Z</when>
<when >2025-08-13T20:04:23.250Z</when>
<when >2025-08-13T20:04:34.500Z</when>
<when >2025-08-13T20:04:45.510Z</when>
<when >2025-08-13T20:04:55.750Z</when>
<when >2025-08-13T20:05:05.550Z</when>
<when >2025-08-13T20:05:16.960Z</when>
<when >2025-08-13T20:05:28.860Z</when>
<when >2025-08-13T20:05:42.040Z</when>
<when >2025-08-13T20:05:55.090Z</when>
<when >2025-08-13T20:06:06.920Z</when>
<when >2025-08-13T20:06:18.470Z</when>
<when >2025-08-13T20:06:30.950Z</when>
<when >2025-08-13T20:06:36.070Z</when>
<when >2025-08-13T20:06:38.560Z</when>
<when >2025-08-13T20:06:39.900Z</when>
<when >2025-08-13T20:06:42.070Z</when>
<when >2025-08-13T20:06:42.480Z</when>
<when >2025-08-13T20:06:48.900Z</when>
<when >2025-08-13T20:06:54.700Z</when>
<when >2025-08-13T20:07:01.510Z</when>
<when >2025-08-13T20:07:08.390Z</when>
<when >2025-08-13T20:07:15.620Z</when>
<when >2025-08-13T20:07:22.900Z</when>
<when >2025-08-13T20:07:32.070Z</when>
<when >2025-08-13T20:07:41.490Z</when>
<when >2025-08-13T20:07:50.980Z</when>
<when >2025-08-13T20:08:00.710Z</when>
<when >2025-08-13T20:08:10.410Z</when>
<when >2025-08-13T20:08:20.660Z</when>
<when >2025-08-13T20:08:31.400Z</when>
<when >2025-08-13T20:08:42.200Z</when>
<when >2025-08-13T20:08:53.410Z</when>
<when >2025-08-13T20:09:03.290Z</when>
<when >2025-08-13T20:09:10.850Z</when>
<when >2025-08-13T20:09:15.960Z</when>
<when >2025-08-13T20:09:28.860Z</when>
<when >2025-08-13T20:09:38.320Z</when>
<when >2025-08-13T20:09:48.050Z</when>
<when >2025-08-13T20:09:58.370Z</when>
<when >2025-08-13T20:10:09.470Z</when>
<when >2025-08-13T20:10:15.690Z</when>
<when >2025-08-13T20:10:20.660Z</when>
<when >2025-08-13T20:10:26.350Z</when>
<when >2025-08-13T20:10:32.380Z</when>
<when >2025-08-13T20:10:39.230Z</when>
<when >2025-08-13T20:10:45.620Z</when>
<when >2025-08-13T20:10:51.100Z</when>
<when >2025-08-13T20:10:56.630Z</when>
<when >2025-08-13T20:11:03.000Z</when>
<when >2025-08-13T20:11:09.240Z</when>
<when >2025-08-13T20:11:14.240Z</when>
<when >2025-08-13T20:11:19.120Z</when>
<when >2025-08-13T20:11:24.290Z</when>
<when >2025-08-13T20:11:29.690Z</when>
<when >2025-08-13T20:11:34.900Z</when>
<when >2025-08-13T20:11:41.980Z</when>
<when >2025-08-13T20:11:48.740Z</when>
<when >2025-08-13T20:11:54.310Z</when>
<when >2025-08-13T20:12:00.130Z</when>
<when >2025-08-13T20:12:05.380Z</when>
<when >2025-08-13T20:12:10.600Z</when>
<when >2025-08-13T20:12:15.770Z</when>
<when >2025-08-13T20:12:20.050Z</when>
<when >2025-08-13T20:12:25.620Z</when>
<when >2025-08-13T20:12:31.510Z</when>
<when >2025-08-13T20:12:35.430Z</when>
<when >2025-08-13T20:12:38.760Z</when>
<when >2025-08-13T20:12:43.090Z</when>
<when >2025-08-13T20:12:46.870Z</when>
<when >2025-08-13T20:12:50.690Z</when>
<when >2025-08-13T20:12:54.850Z</when>
<when >2025-08-13T20:12:58.700Z</when>
<when >2025-08-13T20:13:02.630Z</when>
<when >2025-08-13T20:13:07.070Z</when>
<when >2025-08-13T20:13:10.510Z</when>
<when >2025-08-13T20:13:14.550Z</when>
<when >2025-08-13T20:13:18.620Z</when>
<when >2025-08-13T20:13:23.250Z</when>
<when >2025-08-13T20:13:27.490Z</when>
<when >2025-08-13T20:13:31.900Z</when>
<when >2025-08-13T20:13:36.900Z</when>
<when >2025-08-13T20:13:41.150Z</when>
<when >2025-08-13T20:13:44.010Z</when>
<when >2025-08-13T20:13:48.260Z</when>
<when >2025-08-13T20:13:52.090Z</when>
<when >2025-08-13T20:13:55.230Z</when>
<when >2025-08-13T20:13:59.540Z</when>
<when >2025-08-13T20:14:04.030Z</when>
<when >2025-08-13T20:14:09.490Z</when>
<when >2025-08-13T20:14:13.560Z</when>
<when >2025-08-13T20:14:16.580Z</when>
<when >2025-08-13T20:14:20.240Z</when>
<when >2025-08-13T20:14:23.930Z</when>
<when >2025-08-13T20:14:27.340Z</when>
<when >2025-08-13T20:14:30.770Z</when>
<when >2025-08-13T20:14:34.630Z</when>
<when >2025-08-13T20:14:38.700Z</when>
<when >2025-08-13T20:14:42.320Z</when>
<when >2025-08-13T20:14:49.060Z</when>
<when >2025-08-13T20:14:56.000Z</when>
<when >2025-08-13T20:15:03.140Z</when>
<when >2025-08-13T20:15:11.650Z</when>
<when >2025-08-13T20:15:17.320Z</when>
<when >2025-08-13T20:15:21.300Z</when>
<when >2025-08-13T20:15:24.520Z</when>
<when >2025-08-13T20:15:27.640Z</when>
<when >2025-08-13T20:15:30.820Z</when>
<when >2025-08-13T20:15:34.090Z</when>
<when >2025-08-13T20:15:36.970Z</when>
<when >2025-08-13T20:15:40.250Z</when>
<when >2025-08-13T20:15:42.500Z</when>
<when >2025-08-13T20:15:46.430Z</when>
<when >2025-08-13T20:15:49.650Z</when>
<when >2025-08-13T20:15:51.680Z</when>
<when >2025-08-13T20:15:54.610Z</when>
<when >2025-08-13T20:15:57.130Z</when>
<when >2025-08-13T20:15:59.540Z</when>
<when >2025-08-13T20:16:02.520Z</when>
<when >2025-08-13T20:16:05.310Z</when>
<when >2025-08-13T20:16:07.140Z</when>
<when >2025-08-13T20:16:09.860Z</when>
<when >2025-08-13T20:16:13.560Z</when>
<when >2025-08-13T20:16:15.760Z</when>
<when >2025-08-13T20:16:19.130Z</when>
<when >2025-08-13T20:16:25.230Z</when>
<when >2025-08-13T20:16:30.860Z</when>
<when >2025-08-13T20:16:35.430Z</when>
<when >2025-08-13T20:16:37.400Z</when>
<when >2025-08-13T20:16:38.570Z</when>
<when >2025-08-13T20:16:39.830Z</when>
<when >2025-08-13T20:16:40.420Z</when>
<when >2025-08-13T20:16:42.910Z</when>
<when >2025-08-13T20:16:44.080Z</when>
<when >2025-08-13T20:16:46.870Z</when>
<when >2025-08-13T20:16:47.830Z</when>
<when >2025-08-13T20:16:48.960Z</when>
<when >2025-08-13T20:16:49.580Z</when>
<when >2025-08-13T20:16:50.810Z</when>
<when >2025-08-13T20:16:52.570Z</when>
<when >2025-08-13T20:16:54.380Z</when>
<when >2025-08-13T20:16:56.550Z</when>
<when >2025-08-13T20:16:57.160Z</when>
<when >2025-08-13T20:16:57.710Z</when>
<when >2025-08-13T20:16:58.690Z</when>
<when >2025-08-13T20:17:00.040Z</when>
<when >2025-08-13T20:17:02.280Z</when>
<when >2025-08-13T20:17:03.940Z</when>
<when >2025-08-13T20:17:06.730Z</when>
<when >2025-08-13T20:17:08.890Z</when>
<when >2025-08-13T20:17:09.900Z</when>
<when >2025-08-13T20:17:13.190Z</when>
<when >2025-08-13T20:17:15.570Z</when>
<when >2025-08-13T20:17:19.450Z</when>
<when >2025-08-13T20:17:20.000Z</when>
<when >2025-08-13T20:17:25.890Z</when>
<when >2025-08-13T20:17:29.860Z</when>
<when >2025-08-13T20:17:32.420Z</when>
<when >2025-08-13T20:17:35.290Z</when>
<when >2025-08-13T20:17:43.760Z</when>
<when >2025-08-13T20:17:52.670Z</when>
<when >2025-08-13T20:18:01.500Z</when>
<when >2025-08-13T20:18:09.910Z</when>
<when >2025-08-13T20:18:18.140Z</when>
<when >2025-08-13T20:18:26.830Z</when>
<when >2025-08-13T20:18:34.600Z</when>
<when >2025-08-13T20:18:43.530Z</when>
<when >2025-08-13T20:18:52.000Z</when>
<when >2025-08-13T20:19:00.760Z</when>
<when >2025-08-13T20:19:08.830Z</when>
<when >2025-08-13T20:19:17.050Z</when>
<when >2025-08-13T20:19:30.490Z</when>
<when >2025-08-13T20:19:35.210Z</when>
<when >2025-08-13T20:19:37.070Z</when>
<when >2025-08-13T20:19:38.120Z</when>
<when >2025-08-13T20:19:38.120Z</when>
<gx:coord >-5.929111 37.4198 399</gx:coord>
<gx:coord >-5.929111 37.4198 399</gx:coord>
<gx:coord >-5.931901 37.420877 438</gx:coord>
<gx:coord >-5.933453 37.421668 452</gx:coord>
<gx:coord >-5.935961 37.423111 466</gx:coord>
<gx:coord >-5.936737 37.423577 469</gx:coord>
<gx:coord >-5.942051 37.427441 499</gx:coord>
<gx:coord >-5.946818 37.431244 543</gx:coord>
<gx:coord >-5.951493 37.435318 567</gx:coord>
<gx:coord >-5.953814 37.437403 582</gx:coord>
<gx:coord >-5.955545 37.438986 590</gx:coord>
<gx:coord >-5.961719 37.444565 620</gx:coord>
<gx:coord >-5.998953 37.478648 912</gx:coord>
<gx:coord >-6.000814 37.480362 935</gx:coord>
<gx:coord >-6.002356 37.48172 970</gx:coord>
<gx:coord >-6.004788 37.483932 1000</gx:coord>
<gx:coord >-6.00695 37.485855 1030</gx:coord>
<gx:coord >-6.009346 37.488007 1066</gx:coord>
<gx:coord >-6.011216 37.489655 1097</gx:coord>
<gx:coord >-6.01394 37.492102 1127</gx:coord>
<gx:coord >-6.017761 37.495514 1192</gx:coord>
<gx:coord >-6.021344 37.498666 1239</gx:coord>
<gx:coord >-6.024482 37.501465 1280</gx:coord>
<gx:coord >-6.027553 37.504112 1312</gx:coord>
<gx:coord >-6.029822 37.506067 1342</gx:coord>
<gx:coord >-6.031845 37.507828 1377</gx:coord>
<gx:coord >-6.03448 37.510164 1408</gx:coord>
<gx:coord >-6.036812 37.512131 1440</gx:coord>
<gx:coord >-6.038799 37.513916 1469</gx:coord>
<gx:coord >-6.040786 37.51561 1492</gx:coord>
<gx:coord >-6.044869 37.519195 1555</gx:coord>
<gx:coord >-6.048266 37.522156 1605</gx:coord>
<gx:coord >-6.051198 37.524735 1643</gx:coord>
<gx:coord >-6.052123 37.525543 1651</gx:coord>
<gx:coord >-6.054694 37.52774 1682</gx:coord>
<gx:coord >-6.057228 37.529995 1711</gx:coord>
<gx:coord >-6.060274 37.532649 1748</gx:coord>
<gx:coord >-6.063109 37.535202 1791</gx:coord>
<gx:coord >-6.066364 37.538002 1821</gx:coord>
<gx:coord >-6.068334 37.539771 1843</gx:coord>
<gx:coord >-6.070531 37.541656 1866</gx:coord>
<gx:coord >-6.073745 37.544495 1911</gx:coord>
<gx:coord >-6.076395 37.546894 1931</gx:coord>
<gx:coord >-6.079296 37.549759 1963</gx:coord>
<gx:coord >-6.08251 37.553329 1993</gx:coord>
<gx:coord >-6.084157 37.555599 2020</gx:coord>
<gx:coord >-6.086963 37.560859 2060</gx:coord>
<gx:coord >-6.088098 37.563932 2111</gx:coord>
<gx:coord >-6.088939 37.567703 2143</gx:coord>
<gx:coord >-6.089172 37.570216 2171</gx:coord>
<gx:coord >-6.089172 37.572777 2200</gx:coord>
<gx:coord >-6.088993 37.574732 2225</gx:coord>
<gx:coord >-6.088695 37.576547 2249</gx:coord>
<gx:coord >-6.087978 37.57948 2288</gx:coord>
<gx:coord >-6.086247 37.584182 2335</gx:coord>
<gx:coord >-6.08403 37.58844 2377</gx:coord>
<gx:coord >-6.080992 37.592794 2397</gx:coord>
<gx:coord >-6.079296 37.594803 2408</gx:coord>
<gx:coord >-6.077887 37.596239 2415</gx:coord>
<gx:coord >-6.075141 37.598753 2438</gx:coord>
<gx:coord >-6.07129 37.601624 2468</gx:coord>
<gx:coord >-6.068661 37.603226 2489</gx:coord>
<gx:coord >-6.064512 37.605423 2518</gx:coord>
<gx:coord >-6.060187 37.607208 2568</gx:coord>
<gx:coord >-6.05281 37.60946 2608</gx:coord>
<gx:coord >-6.047675 37.610577 2640</gx:coord>
<gx:coord >-6.040143 37.611923 2705</gx:coord>
<gx:coord >-6.032211 37.613277 2781</gx:coord>
<gx:coord >-6.024248 37.614624 2838</gx:coord>
<gx:coord >-6.014664 37.616364 2898</gx:coord>
<gx:coord >-6.006954 37.617839 2952</gx:coord>
<gx:coord >-5.998886 37.619431 3025</gx:coord>
<gx:coord >-5.994035 37.620392 3056</gx:coord>
<gx:coord >-5.984623 37.622355 3117</gx:coord>
<gx:coord >-5.975607 37.624217 3179</gx:coord>
<gx:coord >-5.966394 37.626205 3248</gx:coord>
<gx:coord >-5.958096 37.627945 3310</gx:coord>
<gx:coord >-5.951726 37.629318 3352</gx:coord>
<gx:coord >-5.943066 37.631153 3400</gx:coord>
<gx:coord >-5.934955 37.632889 3471</gx:coord>
<gx:coord >-5.928293 37.634262 3527</gx:coord>
<gx:coord >-5.919959 37.636041 3577</gx:coord>
<gx:coord >-5.912807 37.637512 3636</gx:coord>
<gx:coord >-5.905151 37.639114 3696</gx:coord>
<gx:coord >-5.895918 37.641037 3761</gx:coord>
<gx:coord >-5.88706 37.642884 3834</gx:coord>
<gx:coord >-5.873387 37.645631 3926</gx:coord>
<gx:coord >-5.870907 37.646164 3941</gx:coord>
<gx:coord >-5.858109 37.648727 3986</gx:coord>
<gx:coord >-5.838766 37.652618 4048</gx:coord>
<gx:coord >-5.819365 37.656509 4124</gx:coord>
<gx:coord >-5.798911 37.660583 4223</gx:coord>
<gx:coord >-5.774928 37.665369 4352</gx:coord>
<gx:coord >-5.750174 37.670242 4467</gx:coord>
<gx:coord >-5.72674 37.674911 4550</gx:coord>
<gx:coord >-5.70477 37.679288 4703</gx:coord>
<gx:coord >-5.68226 37.683804 4832</gx:coord>
<gx:coord >-5.660297 37.688187 4961</gx:coord>
<gx:coord >-5.644704 37.691345 5031</gx:coord>
<gx:coord >-5.620223 37.69628 5145</gx:coord>
<gx:coord >-5.597008 37.700958 5267</gx:coord>
<gx:coord >-5.578905 37.704613 5368</gx:coord>
<gx:coord >-5.570653 37.706223 5419</gx:coord>
<gx:coord >-5.539155 37.712494 5512</gx:coord>
<gx:coord >-5.519403 37.716431 5595</gx:coord>
<gx:coord >-5.497839 37.720688 5710</gx:coord>
<gx:coord >-5.4761 37.724991 5831</gx:coord>
<gx:coord >-5.462355 37.727703 5878</gx:coord>
<gx:coord >-5.431921 37.733734 5984</gx:coord>
<gx:coord >-5.401592 37.739731 6091</gx:coord>
<gx:coord >-5.373366 37.745316 6205</gx:coord>
<gx:coord >-5.345024 37.7509 6319</gx:coord>
<gx:coord >-5.316069 37.756611 6434</gx:coord>
<gx:coord >-5.289141 37.761872 6533</gx:coord>
<gx:coord >-5.261925 37.767151 6639</gx:coord>
<gx:coord >-5.235821 37.7723 6754</gx:coord>
<gx:coord >-5.202786 37.778778 6860</gx:coord>
<gx:coord >-5.172351 37.784729 6959</gx:coord>
<gx:coord >-5.144757 37.790085 7066</gx:coord>
<gx:coord >-5.115305 37.795853 7173</gx:coord>
<gx:coord >-5.091805 37.800417 7264</gx:coord>
<gx:coord >-5.05604 37.807353 7348</gx:coord>
<gx:coord >-5.023557 37.813614 7455</gx:coord>
<gx:coord >-4.993286 37.819457 7569</gx:coord>
<gx:coord >-4.961437 37.825607 7653</gx:coord>
<gx:coord >-4.929219 37.831793 7768</gx:coord>
<gx:coord >-4.89638 37.838124 7860</gx:coord>
<gx:coord >-4.8636 37.844362 7966</gx:coord>
<gx:coord >-4.847419 37.846923 7998</gx:coord>
<gx:coord >-4.831715 37.848738 8027</gx:coord>
<gx:coord >-4.819901 37.84964 8057</gx:coord>
<gx:coord >-4.790098 37.851379 8119</gx:coord>
<gx:coord >-4.751229 37.853533 8202</gx:coord>
<gx:coord >-4.710149 37.855907 8302</gx:coord>
<gx:coord >-4.672228 37.858246 8393</gx:coord>
<gx:coord >-4.635275 37.860516 8477</gx:coord>
<gx:coord >-4.59959 37.862686 8583</gx:coord>
<gx:coord >-4.555002 37.865433 8667</gx:coord>
<gx:coord >-4.513861 37.867905 8751</gx:coord>
<gx:coord >-4.475794 37.870199 8843</gx:coord>
<gx:coord >-4.439671 37.87234 8934</gx:coord>
<gx:coord >-4.402293 37.874621 9033</gx:coord>
<gx:coord >-4.359662 37.877182 9124</gx:coord>
<gx:coord >-4.316194 37.879789 9208</gx:coord>
<gx:coord >-4.275831 37.882116 9300</gx:coord>
<gx:coord >-4.232775 37.884567 9391</gx:coord>
<gx:coord >-4.185492 37.887237 9467</gx:coord>
<gx:coord >-4.14292 37.889658 9551</gx:coord>
<gx:coord >-4.099811 37.892125 9627</gx:coord>
<gx:coord >-4.054539 37.894684 9719</gx:coord>
<gx:coord >-4.012581 37.897064 9803</gx:coord>
<gx:coord >-3.967701 37.899536 9879</gx:coord>
<gx:coord >-3.924388 37.901901 9970</gx:coord>
<gx:coord >-3.877159 37.904554 10054</gx:coord>
<gx:coord >-3.824795 37.907394 10130</gx:coord>
<gx:coord >-3.779122 37.90979 10207</gx:coord>
<gx:coord >-3.731962 37.912262 10283</gx:coord>
<gx:coord >-3.681495 37.914936 10359</gx:coord>
<gx:coord >-3.628533 37.917775 10428</gx:coord>
<gx:coord >-3.577722 37.920475 10511</gx:coord>
<gx:coord >-3.531754 37.923019 10588</gx:coord>
<gx:coord >-3.480337 37.925782 10656</gx:coord>
<gx:coord >-3.434302 37.928156 10740</gx:coord>
<gx:coord >-3.38525 37.930573 10808</gx:coord>
<gx:coord >-3.339665 37.932905 10907</gx:coord>
<gx:coord >-3.307243 37.934534 10945</gx:coord>
<gx:coord >-3.288418 37.935516 10952</gx:coord>
<gx:coord >-3.23207 37.938305 10960</gx:coord>
<gx:coord >-3.173676 37.941145 10960</gx:coord>
<gx:coord >-3.118386 37.943891 10960</gx:coord>
<gx:coord >-3.062917 37.946917 10960</gx:coord>
<gx:coord >-3.043622 37.948746 10960</gx:coord>
<gx:coord >-3.031642 37.950439 10960</gx:coord>
<gx:coord >-3.020822 37.95241 10960</gx:coord>
<gx:coord >-3.007388 37.955343 10960</gx:coord>
<gx:coord >-2.993716 37.958908 10960</gx:coord>
<gx:coord >-2.979691 37.963348 10960</gx:coord>
<gx:coord >-2.968279 37.967493 10960</gx:coord>
<gx:coord >-2.955979 37.972567 10961</gx:coord>
<gx:coord >-2.943978 37.978154 10965</gx:coord>
<gx:coord >-2.929843 37.985641 10960</gx:coord>
<gx:coord >-2.899435 38.002919 10960</gx:coord>
<gx:coord >-2.856153 38.027618 10959</gx:coord>
<gx:coord >-2.813026 38.052155 10959</gx:coord>
<gx:coord >-2.769899 38.076462 10959</gx:coord>
<gx:coord >-2.725895 38.101273 10959</gx:coord>
<gx:coord >-2.68417 38.124939 10959</gx:coord>
<gx:coord >-2.638998 38.150436 10950</gx:coord>
<gx:coord >-2.597215 38.174103 10950</gx:coord>
<gx:coord >-2.551984 38.199829 10950</gx:coord>
<gx:coord >-2.507689 38.225113 10950</gx:coord>
<gx:coord >-2.464385 38.25 10950</gx:coord>
<gx:coord >-2.421351 38.274831 10950</gx:coord>
<gx:coord >-2.377047 38.300295 10950</gx:coord>
<gx:coord >-2.333878 38.324595 10950</gx:coord>
<gx:coord >-2.289634 38.349315 10958</gx:coord>
<gx:coord >-2.246286 38.373615 10958</gx:coord>
<gx:coord >-2.201803 38.398706 10950</gx:coord>
<gx:coord >-2.157261 38.423721 10950</gx:coord>
<gx:coord >-2.111942 38.449219 10950</gx:coord>
<gx:coord >-2.068296 38.473663 10951</gx:coord>
<gx:coord >-2.026794 38.496792 10951</gx:coord>
<gx:coord >-1.98175 38.52193 10951</gx:coord>
<gx:coord >-1.935791 38.547487 10951</gx:coord>
<gx:coord >-1.892212 38.571648 10951</gx:coord>
<gx:coord >-1.848211 38.596115 10951</gx:coord>
<gx:coord >-1.80127 38.621971 10944</gx:coord>
<gx:coord >-1.758362 38.64562 10944</gx:coord>
<gx:coord >-1.712673 38.671005 10944</gx:coord>
<gx:coord >-1.66825 38.695633 10944</gx:coord>
<gx:coord >-1.623047 38.720708 10944</gx:coord>
<gx:coord >-1.576896 38.746216 10944</gx:coord>
<gx:coord >-1.532951 38.770248 10944</gx:coord>
<gx:coord >-1.48761 38.795192 10944</gx:coord>
<gx:coord >-1.471619 38.804828 10944</gx:coord>
<gx:coord >-1.45736 38.814285 10944</gx:coord>
<gx:coord >-1.441895 38.825451 10944</gx:coord>
<gx:coord >-1.420227 38.842117 10936</gx:coord>
<gx:coord >-1.38159 38.872055 10936</gx:coord>
<gx:coord >-1.341919 38.902495 10936</gx:coord>
<gx:coord >-1.30391 38.931656 10944</gx:coord>
<gx:coord >-1.266413 38.960541 10936</gx:coord>
<gx:coord >-1.228027 38.990339 10936</gx:coord>
<gx:coord >-1.190464 39.01973 10936</gx:coord>
<gx:coord >-1.152405 39.049879 10936</gx:coord>
<gx:coord >-1.115053 39.079239 10936</gx:coord>
<gx:coord >-1.077974 39.107895 10936</gx:coord>
<gx:coord >-1.039462 39.13765 10936</gx:coord>
<gx:coord >-1.002682 39.166855 10928</gx:coord>
<gx:coord >-0.963867 39.197683 10928</gx:coord>
<gx:coord >-0.926733 39.227371 10928</gx:coord>
<gx:coord >-0.888367 39.258014 10929</gx:coord>
<gx:coord >-0.848511 39.289903 10929</gx:coord>
<gx:coord >-0.811316 39.319473 10922</gx:coord>
<gx:coord >-0.772949 39.350188 10922</gx:coord>
<gx:coord >-0.733276 39.381517 10929</gx:coord>
<gx:coord >-0.695557 39.411357 10929</gx:coord>
<gx:coord >-0.657209 39.441925 10929</gx:coord>
<gx:coord >-0.618817 39.472961 10929</gx:coord>
<gx:coord >-0.57935 39.504959 10929</gx:coord>
<gx:coord >-0.542211 39.534851 10929</gx:coord>
<gx:coord >-0.517193 39.554398 10922</gx:coord>
<gx:coord >-0.496948 39.56903 10922</gx:coord>
<gx:coord >-0.469785 39.587585 10922</gx:coord>
<gx:coord >-0.427273 39.615921 10922</gx:coord>
<gx:coord >-0.384521 39.644714 10922</gx:coord>
<gx:coord >-0.343689 39.672888 10922</gx:coord>
<gx:coord >-0.302124 39.701706 10922</gx:coord>
<gx:coord >-0.25946 39.731264 10922</gx:coord>
<gx:coord >-0.217468 39.760406 10922</gx:coord>
<gx:coord >-0.176438 39.788864 10922</gx:coord>
<gx:coord >-0.134821 39.817566 10922</gx:coord>
<gx:coord >-0.093563 39.845856 10922</gx:coord>
<gx:coord >-0.052551 39.873993 10929</gx:coord>
<gx:coord >-0.011345 39.902435 10929</gx:coord>
<gx:coord >0.028527 39.929903 10929</gx:coord>
<gx:coord >0.067853 39.95681 10929</gx:coord>
<gx:coord >0.109551 39.9853 10929</gx:coord>
<gx:coord >0.148628 40.012067 10922</gx:coord>
<gx:coord >0.191449 40.041395 10922</gx:coord>
<gx:coord >0.232835 40.069513 10922</gx:coord>
<gx:coord >0.274471 40.09763 10922</gx:coord>
<gx:coord >0.315552 40.125275 10922</gx:coord>
<gx:coord >0.354559 40.151724 10922</gx:coord>
<gx:coord >0.394884 40.179143 10915</gx:coord>
<gx:coord >0.438049 40.208679 10915</gx:coord>
<gx:coord >0.479797 40.237061 10915</gx:coord>
<gx:coord >0.520569 40.264526 10915</gx:coord>
<gx:coord >0.563299 40.293196 10915</gx:coord>
<gx:coord >0.604435 40.320755 10915</gx:coord>
<gx:coord >0.645874 40.348709 10915</gx:coord>
<gx:coord >0.687134 40.376404 10915</gx:coord>
<gx:coord >0.727969 40.403758 10915</gx:coord>
<gx:coord >0.76948 40.43155 10915</gx:coord>
<gx:coord >0.811178 40.459574 10915</gx:coord>
<gx:coord >0.847445 40.484061 10930</gx:coord>
<gx:coord >0.886475 40.510254 10991</gx:coord>
<gx:coord >0.927284 40.537409 11060</gx:coord>
<gx:coord >0.967047 40.563758 11121</gx:coord>
<gx:coord >1.010681 40.592606 11182</gx:coord>
<gx:coord >1.052815 40.620365 11250</gx:coord>
<gx:coord >1.094825 40.648064 11319</gx:coord>
<gx:coord >1.12616 40.668503 11380</gx:coord>
<gx:coord >1.140643 40.67702 11395</gx:coord>
<gx:coord >1.156128 40.68512 11418</gx:coord>
<gx:coord >1.173035 40.692947 11441</gx:coord>
<gx:coord >1.186586 40.698573 11456</gx:coord>
<gx:coord >1.20369 40.704951 11479</gx:coord>
<gx:coord >1.221355 40.710677 11502</gx:coord>
<gx:coord >1.246199 40.717753 11532</gx:coord>
<gx:coord >1.277649 40.726868 11540</gx:coord>
<gx:coord >1.309246 40.737072 11541</gx:coord>
<gx:coord >1.362061 40.755295 11541</gx:coord>
<gx:coord >1.414062 40.772873 11541</gx:coord>
<gx:coord >1.460815 40.788071 11541</gx:coord>
<gx:coord >1.514365 40.804852 11541</gx:coord>
<gx:coord >1.565302 40.820726 11541</gx:coord>
<gx:coord >1.618591 40.837372 11533</gx:coord>
<gx:coord >1.671919 40.853965 11533</gx:coord>
<gx:coord >1.725228 40.870537 11533</gx:coord>
<gx:coord >1.779099 40.887249 11533</gx:coord>
<gx:coord >1.827148 40.902191 11533</gx:coord>
<gx:coord >1.879161 40.9183 11533</gx:coord>
<gx:coord >1.931946 40.934647 11541</gx:coord>
<gx:coord >1.983844 40.95056 11533</gx:coord>
<gx:coord >2.036377 40.966553 11518</gx:coord>
<gx:coord >2.088257 40.982437 11518</gx:coord>
<gx:coord >2.140524 40.998509 11518</gx:coord>
<gx:coord >2.193458 41.014709 11518</gx:coord>
<gx:coord >2.246338 41.030914 11533</gx:coord>
<gx:coord >2.297766 41.046598 11534</gx:coord>
<gx:coord >2.351012 41.062705 11534</gx:coord>
<gx:coord >2.403625 41.078568 11534</gx:coord>
<gx:coord >2.454695 41.093895 11534</gx:coord>
<gx:coord >2.507629 41.109862 11534</gx:coord>
<gx:coord >2.559377 41.125504 11534</gx:coord>
<gx:coord >2.610501 41.140959 11534</gx:coord>
<gx:coord >2.664429 41.157074 11534</gx:coord>
<gx:coord >2.71637 41.172501 11534</gx:coord>
<gx:coord >2.767993 41.187837 11534</gx:coord>
<gx:coord >2.820178 41.203432 11534</gx:coord>
<gx:coord >2.87384 41.219376 11542</gx:coord>
<gx:coord >2.925984 41.234715 11550</gx:coord>
<gx:coord >2.979248 41.250412 11550</gx:coord>
<gx:coord >3.031982 41.266068 11542</gx:coord>
<gx:coord >3.084045 41.281494 11534</gx:coord>
<gx:coord >3.137034 41.297142 11527</gx:coord>
<gx:coord >3.189843 41.312644 11527</gx:coord>
<gx:coord >3.241778 41.327913 11519</gx:coord>
<gx:coord >3.295212 41.343601 11527</gx:coord>
<gx:coord >3.349121 41.359314 11519</gx:coord>
<gx:coord >3.400019 41.374 11527</gx:coord>
<gx:coord >3.453203 41.389481 11534</gx:coord>
<gx:coord >3.504327 41.404404 11542</gx:coord>
<gx:coord >3.557822 41.419922 11551</gx:coord>
<gx:coord >3.60982 41.434891 11551</gx:coord>
<gx:coord >3.661943 41.449951 11551</gx:coord>
<gx:coord >3.716828 41.465754 11551</gx:coord>
<gx:coord >3.770035 41.481023 11551</gx:coord>
<gx:coord >3.824179 41.496506 11551</gx:coord>
<gx:coord >3.87696 41.511655 11551</gx:coord>
<gx:coord >3.930167 41.526924 11551</gx:coord>
<gx:coord >3.982294 41.541779 11544</gx:coord>
<gx:coord >4.035815 41.55695 11552</gx:coord>
<gx:coord >4.087289 41.571579 11544</gx:coord>
<gx:coord >4.137164 41.585678 11544</gx:coord>
<gx:coord >4.189687 41.60043 11544</gx:coord>
<gx:coord >4.24283 41.615466 11536</gx:coord>
<gx:coord >4.296357 41.630549 11536</gx:coord>
<gx:coord >4.340474 41.643036 11536</gx:coord>
<gx:coord >4.356079 41.648209 11527</gx:coord>
<gx:coord >4.369001 41.653336 11530</gx:coord>
<gx:coord >4.380237 41.658554 11529</gx:coord>
<gx:coord >4.392423 41.665044 11529</gx:coord>
<gx:coord >4.402209 41.671051 11529</gx:coord>
<gx:coord >4.411198 41.677231 11536</gx:coord>
<gx:coord >4.424307 41.687164 11536</gx:coord>
<gx:coord >4.463643 41.717602 11552</gx:coord>
<gx:coord >4.497715 41.742783 11544</gx:coord>
<gx:coord >4.54035 41.773544 11544</gx:coord>
<gx:coord >4.5803 41.802383 11536</gx:coord>
<gx:coord >4.620126 41.831223 11536</gx:coord>
<gx:coord >4.661205 41.860843 11536</gx:coord>
<gx:coord >4.701765 41.890078 11529</gx:coord>
<gx:coord >4.741623 41.918894 11528</gx:coord>
<gx:coord >4.78148 41.947663 11520</gx:coord>
<gx:coord >4.822295 41.97713 11520</gx:coord>
<gx:coord >4.863198 42.006683 11528</gx:coord>
<gx:coord >4.90399 42.035972 11535</gx:coord>
<gx:coord >4.944846 42.06514 11535</gx:coord>
<gx:coord >4.986857 42.095123 11535</gx:coord>
<gx:coord >5.027931 42.124557 11528</gx:coord>
<gx:coord >5.06813 42.153397 11528</gx:coord>
<gx:coord >5.10877 42.182426 11528</gx:coord>
<gx:coord >5.150091 42.211945 11528</gx:coord>
<gx:coord >5.189635 42.240104 11528</gx:coord>
<gx:coord >5.230553 42.269165 11535</gx:coord>
<gx:coord >5.27169 42.29837 11535</gx:coord>
<gx:coord >5.314137 42.328491 11535</gx:coord>
<gx:coord >5.354813 42.357229 11535</gx:coord>
<gx:coord >5.394159 42.385068 11535</gx:coord>
<gx:coord >5.434799 42.413727 11528</gx:coord>
<gx:coord >5.477246 42.443481 11528</gx:coord>
<gx:coord >5.517756 42.471934 11520</gx:coord>
<gx:coord >5.557272 42.499786 11528</gx:coord>
<gx:coord >5.599906 42.529678 11528</gx:coord>
<gx:coord >5.640202 42.557776 11528</gx:coord>
<gx:coord >5.680379 42.585941 11528</gx:coord>
<gx:coord >5.722441 42.615417 11528</gx:coord>
<gx:coord >5.762393 42.6432 11528</gx:coord>
<gx:coord >5.8034 42.671736 11528</gx:coord>
<gx:coord >5.844216 42.70018 11528</gx:coord>
<gx:coord >5.884739 42.728394 11520</gx:coord>
<gx:coord >5.925655 42.756834 11528</gx:coord>
<gx:coord >5.967574 42.78598 11528</gx:coord>
<gx:coord >6.009391 42.814978 11528</gx:coord>
<gx:coord >6.051505 42.843933 11528</gx:coord>
<gx:coord >6.093005 42.872543 11535</gx:coord>
<gx:coord >6.133118 42.900192 11528</gx:coord>
<gx:coord >6.17582 42.929589 11528</gx:coord>
<gx:coord >6.217623 42.958237 11528</gx:coord>
<gx:coord >6.258119 42.985931 11528</gx:coord>
<gx:coord >6.298436 43.013569 11528</gx:coord>
<gx:coord >6.340325 43.042282 11528</gx:coord>
<gx:coord >6.38188 43.070736 11527</gx:coord>
<gx:coord >6.422947 43.098714 11512</gx:coord>
<gx:coord >6.464735 43.127157 11512</gx:coord>
<gx:coord >6.507568 43.156345 11519</gx:coord>
<gx:coord >6.549448 43.184692 11519</gx:coord>
<gx:coord >6.587006 43.209824 11527</gx:coord>
<gx:coord >6.606511 43.221891 11527</gx:coord>
<gx:coord >6.625586 43.232849 11527</gx:coord>
<gx:coord >6.648772 43.245255 11527</gx:coord>
<gx:coord >6.695905 43.269746 11534</gx:coord>
<gx:coord >6.742597 43.294279 11527</gx:coord>
<gx:coord >6.786804 43.317627 11527</gx:coord>
<gx:coord >6.832538 43.341751 11527</gx:coord>
<gx:coord >6.877114 43.365179 11534</gx:coord>
<gx:coord >6.922409 43.389175 11534</gx:coord>
<gx:coord >6.969164 43.413712 11527</gx:coord>
<gx:coord >7.014051 43.437055 11527</gx:coord>
<gx:coord >7.059866 43.46077 11527</gx:coord>
<gx:coord >7.106912 43.485237 11512</gx:coord>
<gx:coord >7.151838 43.508699 11504</gx:coord>
<gx:coord >7.19683 43.532161 11512</gx:coord>
<gx:coord >7.242417 43.555939 11504</gx:coord>
<gx:coord >7.28796 43.579697 11496</gx:coord>
<gx:coord >7.333439 43.6032 11496</gx:coord>
<gx:coord >7.378693 43.626569 11504</gx:coord>
<gx:coord >7.423436 43.649689 11504</gx:coord>
<gx:coord >7.47032 43.673813 11504</gx:coord>
<gx:coord >7.515351 43.697067 11504</gx:coord>
<gx:coord >7.560948 43.720605 11512</gx:coord>
<gx:coord >7.606627 43.74408 11512</gx:coord>
<gx:coord >7.631474 43.757217 11512</gx:coord>
<gx:coord >7.642953 43.764038 11512</gx:coord>
<gx:coord >7.655427 43.772095 11519</gx:coord>
<gx:coord >7.677847 43.787933 11518</gx:coord>
<gx:coord >7.717634 43.815711 11511</gx:coord>
<gx:coord >7.756986 43.84259 11511</gx:coord>
<gx:coord >7.797163 43.869781 11511</gx:coord>
<gx:coord >7.837372 43.896945 11503</gx:coord>
<gx:coord >7.877459 43.924131 11503</gx:coord>
<gx:coord >7.918013 43.951721 11495</gx:coord>
<gx:coord >7.958637 43.97937 11495</gx:coord>
<gx:coord >7.998238 44.006058 11503</gx:coord>
<gx:coord >8.038461 44.03297 11504</gx:coord>
<gx:coord >8.078809 44.060064 11504</gx:coord>
<gx:coord >8.116853 44.0858 11504</gx:coord>
<gx:coord >8.159584 44.114594 11504</gx:coord>
<gx:coord >8.20064 44.142135 11504</gx:coord>
<gx:coord >8.240662 44.168949 11505</gx:coord>
<gx:coord >8.282972 44.19722 11505</gx:coord>
<gx:coord >8.323648 44.224457 11513</gx:coord>
<gx:coord >8.364258 44.251465 11513</gx:coord>
<gx:coord >8.406503 44.27948 11506</gx:coord>
<gx:coord >8.447636 44.306763 11506</gx:coord>
<gx:coord >8.488948 44.334163 11514</gx:coord>
<gx:coord >8.530549 44.361769 11514</gx:coord>
<gx:coord >8.571614 44.388909 11515</gx:coord>
<gx:coord >8.613147 44.416328 11515</gx:coord>
<gx:coord >8.654413 44.443468 11515</gx:coord>
<gx:coord >8.696483 44.471027 11515</gx:coord>
<gx:coord >8.738016 44.49826 11508</gx:coord>
<gx:coord >8.780038 44.52594 11500</gx:coord>
<gx:coord >8.822222 44.55375 11500</gx:coord>
<gx:coord >8.86322 44.580704 11500</gx:coord>
<gx:coord >8.904484 44.607651 11493</gx:coord>
<gx:coord >8.94758 44.635666 11494</gx:coord>
<gx:coord >8.989027 44.662729 11486</gx:coord>
<gx:coord >9.031089 44.69014 11486</gx:coord>
<gx:coord >9.073702 44.717754 11494</gx:coord>
<gx:coord >9.115303 44.744708 11501</gx:coord>
<gx:coord >9.158543 44.772766 11510</gx:coord>
<gx:coord >9.200134 44.799637 11510</gx:coord>
<gx:coord >9.242837 44.82724 11502</gx:coord>
<gx:coord >9.286663 44.855502 11502</gx:coord>
<gx:coord >9.329201 44.882968 11510</gx:coord>
<gx:coord >9.372946 44.911039 11511</gx:coord>
<gx:coord >9.416221 44.938877 11511</gx:coord>
<gx:coord >9.459563 44.966715 11519</gx:coord>
<gx:coord >9.503566 44.994919 11519</gx:coord>
<gx:coord >9.547838 45.023117 11520</gx:coord>
<gx:coord >9.590084 45.049896 11512</gx:coord>
<gx:coord >9.634683 45.078186 11504</gx:coord>
<gx:coord >9.678955 45.106418 11504</gx:coord>
<gx:coord >9.722097 45.133838 11504</gx:coord>
<gx:coord >9.766109 45.161862 11504</gx:coord>
<gx:coord >9.810858 45.190212 11504</gx:coord>
<gx:coord >9.854334 45.217678 11504</gx:coord>
<gx:coord >9.899466 45.246231 11504</gx:coord>
<gx:coord >9.943498 45.273867 11496</gx:coord>
<gx:coord >9.988046 45.301845 11496</gx:coord>
<gx:coord >10.032741 45.330002 11503</gx:coord>
<gx:coord >10.077142 45.357894 11510</gx:coord>
<gx:coord >10.121423 45.385685 11518</gx:coord>
<gx:coord >10.164904 45.412766 11509</gx:coord>
<gx:coord >10.208915 45.440048 11509</gx:coord>
<gx:coord >10.253318 45.46756 11500</gx:coord>
<gx:coord >10.292649 45.491778 11500</gx:coord>
<gx:coord >10.315626 45.504906 11500</gx:coord>
<gx:coord >10.342255 45.519012 11500</gx:coord>
<gx:coord >10.375247 45.536096 11499</gx:coord>
<gx:coord >10.397019 45.546387 11507</gx:coord>
<gx:coord >10.432823 45.562211 11507</gx:coord>
<gx:coord >10.482811 45.584184 11506</gx:coord>
<gx:coord >10.533691 45.606669 11506</gx:coord>
<gx:coord >10.583719 45.629105 11505</gx:coord>
<gx:coord >10.634096 45.651901 11505</gx:coord>
<gx:coord >10.683723 45.67417 11513</gx:coord>
<gx:coord >10.734879 45.69698 11512</gx:coord>
<gx:coord >10.785158 45.719284 11504</gx:coord>
<gx:coord >10.835609 45.741484 11496</gx:coord>
<gx:coord >10.886147 45.763596 11496</gx:coord>
<gx:coord >10.936756 45.785889 11496</gx:coord>
<gx:coord >10.988204 45.808594 11496</gx:coord>
<gx:coord >11.039062 45.83133 11495</gx:coord>
<gx:coord >11.090767 45.854327 11495</gx:coord>
<gx:coord >11.141853 45.877091 11511</gx:coord>
<gx:coord >11.193352 45.900227 11518</gx:coord>
<gx:coord >11.244301 45.923364 11518</gx:coord>
<gx:coord >11.29562 45.946609 11518</gx:coord>
<gx:coord >11.31364 45.955536 11518</gx:coord>
<gx:coord >11.324089 45.961397 11518</gx:coord>
<gx:coord >11.33568 45.968765 11518</gx:coord>
<gx:coord >11.344858 45.975357 11518</gx:coord>
<gx:coord >11.356045 45.984283 11518</gx:coord>
<gx:coord >11.395234 46.017517 11518</gx:coord>
<gx:coord >11.426605 46.043049 11518</gx:coord>
<gx:coord >11.467315 46.075241 11518</gx:coord>
<gx:coord >11.506303 46.10582 11518</gx:coord>
<gx:coord >11.546899 46.137863 11518</gx:coord>
<gx:coord >11.586868 46.169485 11526</gx:coord>
<gx:coord >11.627586 46.201746 11518</gx:coord>
<gx:coord >11.668716 46.234379 11511</gx:coord>
<gx:coord >11.709483 46.266586 11511</gx:coord>
<gx:coord >11.750615 46.299042 11510</gx:coord>
<gx:coord >11.791881 46.331635 11510</gx:coord>
<gx:coord >11.833168 46.36412 11502</gx:coord>
<gx:coord >11.873742 46.395813 11510</gx:coord>
<gx:coord >11.915477 46.428452 11510</gx:coord>
<gx:coord >11.956943 46.460953 11517</gx:coord>
<gx:coord >11.998444 46.493442 11517</gx:coord>
<gx:coord >12.040547 46.526321 11525</gx:coord>
<gx:coord >12.081253 46.55801 11532</gx:coord>
<gx:coord >12.122932 46.590504 11532</gx:coord>
<gx:coord >12.164947 46.623093 11532</gx:coord>
<gx:coord >12.207083 46.655731 11525</gx:coord>
<gx:coord >12.228922 46.67308 11525</gx:coord>
<gx:coord >12.241173 46.683888 11525</gx:coord>
<gx:coord >12.253326 46.695712 11525</gx:coord>
<gx:coord >12.269719 46.713226 11525</gx:coord>
<gx:coord >12.304821 46.750763 11525</gx:coord>
<gx:coord >12.339924 46.787201 11532</gx:coord>
<gx:coord >12.374931 46.822986 11525</gx:coord>
<gx:coord >12.409995 46.858932 11525</gx:coord>
<gx:coord >12.445656 46.895645 11525</gx:coord>
<gx:coord >12.481173 46.932058 11525</gx:coord>
<gx:coord >12.517273 46.968796 11526</gx:coord>
<gx:coord >12.552979 47.004959 11526</gx:coord>
<gx:coord >12.588994 47.041874 11526</gx:coord>
<gx:coord >12.624136 47.077906 11526</gx:coord>
<gx:coord >12.659701 47.11417 11526</gx:coord>
<gx:coord >12.695183 47.150345 11527</gx:coord>
<gx:coord >12.730888 47.1866 11527</gx:coord>
<gx:coord >12.767487 47.223495 11527</gx:coord>
<gx:coord >12.802711 47.258926 11527</gx:coord>
<gx:coord >12.839241 47.295731 11534</gx:coord>
<gx:coord >12.875061 47.331895 11535</gx:coord>
<gx:coord >12.911471 47.368485 11528</gx:coord>
<gx:coord >12.948233 47.405447 11528</gx:coord>
<gx:coord >12.984535 47.441849 11528</gx:coord>
<gx:coord >13.020137 47.477417 11528</gx:coord>
<gx:coord >13.056124 47.513448 11528</gx:coord>
<gx:coord >13.092604 47.549852 11529</gx:coord>
<gx:coord >13.128662 47.585744 11529</gx:coord>
<gx:coord >13.164848 47.621613 11529</gx:coord>
<gx:coord >13.2012 47.657714 11529</gx:coord>
<gx:coord >13.237539 47.693699 11529</gx:coord>
<gx:coord >13.27409 47.729823 11536</gx:coord>
<gx:coord >13.310429 47.765762 11536</gx:coord>
<gx:coord >13.347221 47.802017 11537</gx:coord>
<gx:coord >13.383614 47.837769 11537</gx:coord>
<gx:coord >13.419729 47.87339 11530</gx:coord>
<gx:coord >13.45628 47.909375 11530</gx:coord>
<gx:coord >13.493065 47.945435 11530</gx:coord>
<gx:coord >13.530086 47.981624 11530</gx:coord>
<gx:coord >13.566777 48.017423 11530</gx:coord>
<gx:coord >13.60375 48.053454 11530</gx:coord>
<gx:coord >13.640762 48.089447 11530</gx:coord>
<gx:coord >13.677017 48.124649 11530</gx:coord>
<gx:coord >13.714407 48.160944 11530</gx:coord>
<gx:coord >13.751269 48.196416 11530</gx:coord>
<gx:coord >13.787912 48.231674 11537</gx:coord>
<gx:coord >13.82397 48.266647 11537</gx:coord>
<gx:coord >13.858901 48.300293 11537</gx:coord>
<gx:coord >13.895451 48.335266 11537</gx:coord>
<gx:coord >13.932284 48.370514 11529</gx:coord>
<gx:coord >13.968623 48.40535 11521</gx:coord>
<gx:coord >14.004822 48.44021 11521</gx:coord>
<gx:coord >14.04102 48.474838 11514</gx:coord>
<gx:coord >14.077008 48.509125 11514</gx:coord>
<gx:coord >14.113206 48.543503 11514</gx:coord>
<gx:coord >14.149451 48.577912 11514</gx:coord>
<gx:coord >14.186519 48.613083 11521</gx:coord>
<gx:coord >14.202717 48.628464 11506</gx:coord>
<gx:coord >14.239727 48.663475 11453</gx:coord>
<gx:coord >14.27695 48.698529 11406</gx:coord>
<gx:coord >14.313847 48.733246 11345</gx:coord>
<gx:coord >14.351455 48.768494 11299</gx:coord>
<gx:coord >14.388765 48.803551 11253</gx:coord>
<gx:coord >14.425964 48.83844 11208</gx:coord>
<gx:coord >14.463284 48.873519 11208</gx:coord>
<gx:coord >14.500615 48.908386 11209</gx:coord>
<gx:coord >14.538743 48.943626 11209</gx:coord>
<gx:coord >14.576111 48.978308 11209</gx:coord>
<gx:coord >14.59353 48.995299 11209</gx:coord>
<gx:coord >14.615719 49.018296 11209</gx:coord>
<gx:coord >14.649979 49.055165 11209</gx:coord>
<gx:coord >14.683932 49.091309 11209</gx:coord>
<gx:coord >14.718427 49.127647 11209</gx:coord>
<gx:coord >14.753265 49.163818 11216</gx:coord>
<gx:coord >14.788465 49.199989 11209</gx:coord>
<gx:coord >14.823585 49.23587 11209</gx:coord>
<gx:coord >14.859079 49.272171 11201</gx:coord>
<gx:coord >14.894208 49.308177 11201</gx:coord>
<gx:coord >14.929119 49.343976 11201</gx:coord>
<gx:coord >14.964576 49.38002 11201</gx:coord>
<gx:coord >14.999084 49.415131 11201</gx:coord>
<gx:coord >15.034284 49.450836 11201</gx:coord>
<gx:coord >15.069382 49.486379 11194</gx:coord>
<gx:coord >15.104683 49.522202 11194</gx:coord>
<gx:coord >15.139754 49.55779 11194</gx:coord>
<gx:coord >15.174866 49.593567 11201</gx:coord>
<gx:coord >15.210571 49.629639 11201</gx:coord>
<gx:coord >15.246277 49.665253 11202</gx:coord>
<gx:coord >15.281685 49.700985 11202</gx:coord>
<gx:coord >15.316676 49.736298 11195</gx:coord>
<gx:coord >15.353022 49.772489 11195</gx:coord>
<gx:coord >15.388505 49.807729 11195</gx:coord>
<gx:coord >15.424371 49.843552 11195</gx:coord>
<gx:coord >15.460733 49.879838 11195</gx:coord>
<gx:coord >15.496288 49.914917 11195</gx:coord>
<gx:coord >15.532066 49.950302 11187</gx:coord>
<gx:coord >15.568295 49.985977 11188</gx:coord>
<gx:coord >15.581583 49.997895 11188</gx:coord>
<gx:coord >15.592563 50.006699 11188</gx:coord>
<gx:coord >15.606153 50.016329 11188</gx:coord>
<gx:coord >15.618294 50.024048 11196</gx:coord>
<gx:coord >15.650099 50.042957 11196</gx:coord>
<gx:coord >15.700041 50.072937 11196</gx:coord>
<gx:coord >15.748456 50.102591 11203</gx:coord>
<gx:coord >15.798191 50.133083 11203</gx:coord>
<gx:coord >15.83798 50.156684 11202</gx:coord>
<gx:coord >15.850154 50.163016 11197</gx:coord>
<gx:coord >15.863824 50.169388 11196</gx:coord>
<gx:coord >15.879581 50.17598 11196</gx:coord>
<gx:coord >15.896639 50.182343 11196</gx:coord>
<gx:coord >15.95663 50.203537 11196</gx:coord>
<gx:coord >16.015617 50.225209 11188</gx:coord>
<gx:coord >16.074928 50.247322 11180</gx:coord>
<gx:coord >16.134685 50.269667 11180</gx:coord>
<gx:coord >16.193703 50.291656 11180</gx:coord>
<gx:coord >16.253011 50.313612 11180</gx:coord>
<gx:coord >16.313064 50.335817 11188</gx:coord>
<gx:coord >16.372301 50.357464 11188</gx:coord>
<gx:coord >16.433543 50.379763 11196</gx:coord>
<gx:coord >16.493225 50.401337 11197</gx:coord>
<gx:coord >16.553205 50.423056 11197</gx:coord>
<gx:coord >16.612813 50.444657 11189</gx:coord>
<gx:coord >16.673343 50.466614 11181</gx:coord>
<gx:coord >16.733217 50.488276 11181</gx:coord>
<gx:coord >16.793493 50.510016 11181</gx:coord>
<gx:coord >16.853176 50.531523 11174</gx:coord>
<gx:coord >16.913524 50.553314 11175</gx:coord>
<gx:coord >16.974471 50.575096 11175</gx:coord>
<gx:coord >17.035415 50.596743 11175</gx:coord>
<gx:coord >17.096063 50.61839 11175</gx:coord>
<gx:coord >17.157753 50.640427 11182</gx:coord>
<gx:coord >17.219214 50.662242 11191</gx:coord>
<gx:coord >17.279935 50.683685 11191</gx:coord>
<gx:coord >17.340731 50.705063 11183</gx:coord>
<gx:coord >17.402649 50.72681 11183</gx:coord>
<gx:coord >17.46403 50.748413 11183</gx:coord>
<gx:coord >17.525101 50.769824 11183</gx:coord>
<gx:coord >17.586746 50.791378 11177</gx:coord>
<gx:coord >17.648423 50.812866 11169</gx:coord>
<gx:coord >17.709885 50.834299 11177</gx:coord>
<gx:coord >17.770462 50.85534 11184</gx:coord>
<gx:coord >17.831726 50.876568 11184</gx:coord>
<gx:coord >17.893091 50.897736 11184</gx:coord>
<gx:coord >17.954481 50.918884 11177</gx:coord>
<gx:coord >18.017044 50.940391 11169</gx:coord>
<gx:coord >18.078151 50.961319 11169</gx:coord>
<gx:coord >18.138502 50.981781 11162</gx:coord>
<gx:coord >18.200708 51.00293 11162</gx:coord>
<gx:coord >18.262863 51.023953 11155</gx:coord>
<gx:coord >18.324661 51.045087 11162</gx:coord>
<gx:coord >18.386459 51.066176 11162</gx:coord>
<gx:coord >18.449478 51.087636 11170</gx:coord>
<gx:coord >18.511963 51.108673 11171</gx:coord>
<gx:coord >18.567047 51.127206 11163</gx:coord>
<gx:coord >18.583968 51.133667 11163</gx:coord>
<gx:coord >18.601074 51.141218 11156</gx:coord>
<gx:coord >18.612518 51.146944 11141</gx:coord>
<gx:coord >18.626099 51.154532 11125</gx:coord>
<gx:coord >18.642537 51.164749 11095</gx:coord>
<gx:coord >18.668442 51.181346 11042</gx:coord>
<gx:coord >18.678665 51.187817 11013</gx:coord>
<gx:coord >18.683216 51.190704 10996</gx:coord>
<gx:coord >18.690948 51.195544 10963</gx:coord>
<gx:coord >18.700333 51.201363 10912</gx:coord>
<gx:coord >18.723227 51.215424 10782</gx:coord>
<gx:coord >18.749466 51.231389 10654</gx:coord>
<gx:coord >18.769548 51.243622 10540</gx:coord>
<gx:coord >18.790359 51.256109 10416</gx:coord>
<gx:coord >18.795974 51.259415 10393</gx:coord>
<gx:coord >18.804585 51.264542 10359</gx:coord>
<gx:coord >18.81218 51.269004 10335</gx:coord>
<gx:coord >18.827152 51.277863 10288</gx:coord>
<gx:coord >18.833239 51.281479 10258</gx:coord>
<gx:coord >18.846207 51.289207 10204</gx:coord>
<gx:coord >18.868425 51.302536 10081</gx:coord>
<gx:coord >18.884277 51.312111 9985</gx:coord>
<gx:coord >18.90213 51.322818 9926</gx:coord>
<gx:coord >18.903314 51.323547 9926</gx:coord>
<gx:coord >18.934565 51.342361 9824</gx:coord>
<gx:coord >18.962708 51.359268 9710</gx:coord>
<gx:coord >18.988419 51.37477 9588</gx:coord>
<gx:coord >19.015404 51.391113 9474</gx:coord>
<gx:coord >19.042647 51.407639 9359</gx:coord>
<gx:coord >19.068109 51.422974 9245</gx:coord>
<gx:coord >19.090452 51.436432 9123</gx:coord>
<gx:coord >19.11232 51.449533 8995</gx:coord>
<gx:coord >19.131725 51.461243 8873</gx:coord>
<gx:coord >19.154143 51.474518 8751</gx:coord>
<gx:coord >19.161344 51.478546 8720</gx:coord>
<gx:coord >19.180867 51.489029 8644</gx:coord>
<gx:coord >19.208603 51.502929 8538</gx:coord>
<gx:coord >19.23565 51.516083 8423</gx:coord>
<gx:coord >19.264823 51.530045 8294</gx:coord>
<gx:coord >19.29459 51.544464 8179</gx:coord>
<gx:coord >19.326065 51.559937 8088</gx:coord>
<gx:coord >19.340466 51.567032 8027</gx:coord>
<gx:coord >19.367676 51.580531 7906</gx:coord>
<gx:coord >19.393913 51.593628 7784</gx:coord>
<gx:coord >19.417953 51.605763 7647</gx:coord>
<gx:coord >19.440689 51.617308 7525</gx:coord>
<gx:coord >19.466957 51.630615 7403</gx:coord>
<gx:coord >19.495392 51.64482 7296</gx:coord>
<gx:coord >19.525749 51.659912 7197</gx:coord>
<gx:coord >19.556332 51.67511 7091</gx:coord>
<gx:coord >19.58252 51.688113 6976</gx:coord>
<gx:coord >19.608591 51.701111 6862</gx:coord>
<gx:coord >19.636459 51.714974 6762</gx:coord>
<gx:coord >19.647598 51.720514 6703</gx:coord>
<gx:coord >19.653353 51.723358 6672</gx:coord>
<gx:coord >19.656448 51.724843 6657</gx:coord>
<gx:coord >19.66095 51.727124 6618</gx:coord>
<gx:coord >19.662113 51.727707 6611</gx:coord>
<gx:coord >19.676666 51.734898 6490</gx:coord>
<gx:coord >19.690024 51.741531 6381</gx:coord>
<gx:coord >19.704945 51.748947 6254</gx:coord>
<gx:coord >19.720979 51.756958 6139</gx:coord>
<gx:coord >19.738083 51.765483 6003</gx:coord>
<gx:coord >19.754639 51.77377 5903</gx:coord>
<gx:coord >19.776207 51.784515 5766</gx:coord>
<gx:coord >19.798106 51.79541 5636</gx:coord>
<gx:coord >19.820099 51.806356 5514</gx:coord>
<gx:coord >19.842682 51.817575 5385</gx:coord>
<gx:coord >19.865189 51.828748 5271</gx:coord>
<gx:coord >19.889411 51.840637 5141</gx:coord>
<gx:coord >19.914427 51.852905 5019</gx:coord>
<gx:coord >19.939117 51.865012 4897</gx:coord>
<gx:coord >19.964459 51.877396 4775</gx:coord>
<gx:coord >19.987488 51.888707 4653</gx:coord>
<gx:coord >20.004196 51.896851 4568</gx:coord>
<gx:coord >20.015945 51.902618 4518</gx:coord>
<gx:coord >20.044479 51.916626 4409</gx:coord>
<gx:coord >20.065665 51.926973 4310</gx:coord>
<gx:coord >20.086899 51.937317 4188</gx:coord>
<gx:coord >20.109375 51.948294 4059</gx:coord>
<gx:coord >20.133743 51.960251 3937</gx:coord>
<gx:coord >20.146964 51.966729 3874</gx:coord>
<gx:coord >20.158107 51.972175 3808</gx:coord>
<gx:coord >20.170506 51.978227 3740</gx:coord>
<gx:coord >20.18369 51.984698 3678</gx:coord>
<gx:coord >20.197658 51.991541 3618</gx:coord>
<gx:coord >20.211705 51.998431 3556</gx:coord>
<gx:coord >20.223389 52.00415 3489</gx:coord>
<gx:coord >20.235138 52.009918 3427</gx:coord>
<gx:coord >20.248509 52.016493 3360</gx:coord>
<gx:coord >20.261143 52.022684 3301</gx:coord>
<gx:coord >20.271912 52.027954 3249</gx:coord>
<gx:coord >20.282174 52.032926 3176</gx:coord>
<gx:coord >20.293198 52.0383 3109</gx:coord>
<gx:coord >20.304461 52.043773 3043</gx:coord>
<gx:coord >20.315323 52.049057 2991</gx:coord>
<gx:coord >20.329572 52.055876 2917</gx:coord>
<gx:coord >20.343305 52.062533 2855</gx:coord>
<gx:coord >20.355453 52.068375 2789</gx:coord>
<gx:coord >20.366898 52.073868 2727</gx:coord>
<gx:coord >20.377755 52.079152 2665</gx:coord>
<gx:coord >20.388663 52.084413 2604</gx:coord>
<gx:coord >20.397923 52.088928 2542</gx:coord>
<gx:coord >20.407811 52.093723 2476</gx:coord>
<gx:coord >20.419268 52.099309 2414</gx:coord>
<gx:coord >20.431117 52.105035 2350</gx:coord>
<gx:coord >20.439043 52.108853 2304</gx:coord>
<gx:coord >20.4454 52.111972 2272</gx:coord>
<gx:coord >20.453415 52.115845 2244</gx:coord>
<gx:coord >20.461173 52.119606 2210</gx:coord>
<gx:coord >20.469648 52.123703 2178</gx:coord>
<gx:coord >20.477676 52.127563 2147</gx:coord>
<gx:coord >20.485735 52.13143 2113</gx:coord>
<gx:coord >20.493469 52.135162 2085</gx:coord>
<gx:coord >20.501556 52.139053 2054</gx:coord>
<gx:coord >20.508499 52.142349 2023</gx:coord>
<gx:coord >20.516418 52.146141 1989</gx:coord>
<gx:coord >20.524826 52.150177 1957</gx:coord>
<gx:coord >20.533212 52.154194 1925</gx:coord>
<gx:coord >20.541922 52.158431 1898</gx:coord>
<gx:coord >20.550084 52.162388 1873</gx:coord>
<gx:coord >20.558794 52.166624 1841</gx:coord>
<gx:coord >20.566864 52.170593 1822</gx:coord>
<gx:coord >20.571978 52.173048 1806</gx:coord>
<gx:coord >20.579529 52.176727 1782</gx:coord>
<gx:coord >20.58626 52.180031 1759</gx:coord>
<gx:coord >20.591583 52.182541 1736</gx:coord>
<gx:coord >20.598984 52.186111 1706</gx:coord>
<gx:coord >20.606349 52.189621 1675</gx:coord>
<gx:coord >20.615217 52.19381 1648</gx:coord>
<gx:coord >20.621652 52.196883 1613</gx:coord>
<gx:coord >20.627066 52.19949 1580</gx:coord>
<gx:coord >20.63256 52.202236 1550</gx:coord>
<gx:coord >20.637817 52.205076 1517</gx:coord>
<gx:coord >20.643624 52.208428 1485</gx:coord>
<gx:coord >20.648882 52.211686 1454</gx:coord>
<gx:coord >20.65414 52.215131 1423</gx:coord>
<gx:coord >20.65979 52.218949 1389</gx:coord>
<gx:coord >20.664825 52.222412 1361</gx:coord>
<gx:coord >20.674057 52.228775 1331</gx:coord>
<gx:coord >20.683594 52.235367 1302</gx:coord>
<gx:coord >20.692984 52.241899 1264</gx:coord>
<gx:coord >20.703892 52.24944 1233</gx:coord>
<gx:coord >20.711426 52.254515 1210</gx:coord>
<gx:coord >20.717076 52.257866 1195</gx:coord>
<gx:coord >20.721549 52.260054 1179</gx:coord>
<gx:coord >20.726776 52.262146 1164</gx:coord>
<gx:coord >20.732064 52.263778 1156</gx:coord>
<gx:coord >20.73761 52.265076 1142</gx:coord>
<gx:coord >20.743027 52.265991 1133</gx:coord>
<gx:coord >20.748936 52.266525 1117</gx:coord>
<gx:coord >20.751495 52.266678 1108</gx:coord>
<gx:coord >20.759687 52.266478 1092</gx:coord>
<gx:coord >20.764709 52.26592 1086</gx:coord>
<gx:coord >20.768814 52.265259 1077</gx:coord>
<gx:coord >20.773239 52.264252 1062</gx:coord>
<gx:coord >20.777206 52.263062 1056</gx:coord>
<gx:coord >20.780875 52.261684 1041</gx:coord>
<gx:coord >20.784454 52.26004 1031</gx:coord>
<gx:coord >20.788095 52.258006 1017</gx:coord>
<gx:coord >20.790253 52.256561 1002</gx:coord>
<gx:coord >20.792847 52.254547 992</gx:coord>
<gx:coord >20.795975 52.25148 976</gx:coord>
<gx:coord >20.797825 52.249301 961</gx:coord>
<gx:coord >20.800337 52.245995 945</gx:coord>
<gx:coord >20.804291 52.240448 919</gx:coord>
<gx:coord >20.807724 52.235229 890</gx:coord>
<gx:coord >20.810547 52.231064 869</gx:coord>
<gx:coord >20.811768 52.229279 853</gx:coord>
<gx:coord >20.812302 52.228455 846</gx:coord>
<gx:coord >20.813141 52.227173 830</gx:coord>
<gx:coord >20.813446 52.226715 822</gx:coord>
<gx:coord >20.814819 52.224701 789</gx:coord>
<gx:coord >20.815639 52.223418 766</gx:coord>
<gx:coord >20.817261 52.221039 733</gx:coord>
<gx:coord >20.817719 52.220261 724</gx:coord>
<gx:coord >20.818329 52.219345 715</gx:coord>
<gx:coord >20.818542 52.218995 715</gx:coord>
<gx:coord >20.819327 52.217831 706</gx:coord>
<gx:coord >20.820426 52.216109 691</gx:coord>
<gx:coord >20.821211 52.214805 675</gx:coord>
<gx:coord >20.822466 52.21285 643</gx:coord>
<gx:coord >20.82278 52.212478 643</gx:coord>
<gx:coord >20.823094 52.212059 635</gx:coord>
<gx:coord >20.823643 52.211314 627</gx:coord>
<gx:coord >20.824663 52.210243 619</gx:coord>
<gx:coord >20.826416 52.208771 610</gx:coord>
<gx:coord >20.827724 52.207776 610</gx:coord>
<gx:coord >20.830231 52.206299 602</gx:coord>
<gx:coord >20.832138 52.205292 595</gx:coord>
<gx:coord >20.833452 52.204704 594</gx:coord>
<gx:coord >20.836356 52.203493 579</gx:coord>
<gx:coord >20.838699 52.202591 571</gx:coord>
<gx:coord >20.842514 52.201263 555</gx:coord>
<gx:coord >20.843048 52.20108 547</gx:coord>
<gx:coord >20.84877 52.199249 517</gx:coord>
<gx:coord >20.85228 52.198151 501</gx:coord>
<gx:coord >20.854719 52.197441 494</gx:coord>
<gx:coord >20.857086 52.196732 486</gx:coord>
<gx:coord >20.864258 52.194626 448</gx:coord>
<gx:coord >20.872062 52.192414 418</gx:coord>
<gx:coord >20.879288 52.190414 395</gx:coord>
<gx:coord >20.886307 52.188446 372</gx:coord>
<gx:coord >20.893555 52.186386 349</gx:coord>
<gx:coord >20.900879 52.184326 311</gx:coord>
<gx:coord >20.907364 52.182541 295</gx:coord>
<gx:coord >20.914987 52.180403 258</gx:coord>
<gx:coord >20.922285 52.178309 227</gx:coord>
<gx:coord >20.92926 52.176361 204</gx:coord>
<gx:coord >20.93605 52.174484 174</gx:coord>
<gx:coord >20.943909 52.172287 143</gx:coord>
<gx:coord >20.955429 52.169037 119</gx:coord>
<gx:coord >20.959091 52.168076 114</gx:coord>
<gx:coord >20.960502 52.167648 114</gx:coord>
<gx:coord >20.962219 52.167206 106</gx:coord>
<gx:coord >20.962219 52.167206 106</gx:coord>
</gx:Track>
</Placemark>
<Placemark ><name >9H-WAS</name>
<Style ><LineStyle ><color >ff1c1ae3</color>
<width >4</width>
</LineStyle>
<IconStyle ><Icon ><href >http://maps.google.com/mapfiles/kml/shapes/airports.png</href>
</Icon>
</IconStyle>
</Style>
<gx:Track ><extrude >0</extrude>
<when >2025-08-13T20:19:44.100Z</when>
<when >2025-08-13T20:19:46.810Z</when>
<when >2025-08-13T20:19:48.060Z</when>
<when >2025-08-13T20:19:48.790Z</when>
<when >2025-08-13T20:19:49.790Z</when>
<when >2025-08-13T20:19:51.240Z</when>
<when >2025-08-13T20:19:52.080Z</when>
<when >2025-08-13T20:19:54.360Z</when>
<when >2025-08-13T20:19:55.900Z</when>
<when >2025-08-13T20:19:58.200Z</when>
<when >2025-08-13T20:20:02.850Z</when>
<when >2025-08-13T20:20:05.270Z</when>
<when >2025-08-13T20:20:07.070Z</when>
<when >2025-08-13T20:20:07.610Z</when>
<when >2025-08-13T20:20:11.520Z</when>
<when >2025-08-13T20:20:15.100Z</when>
<when >2025-08-13T20:20:16.050Z</when>
<when >2025-08-13T20:20:17.670Z</when>
<when >2025-08-13T20:20:21.540Z</when>
<when >2025-08-13T20:20:27.850Z</when>
<when >2025-08-13T20:20:36.070Z</when>
<when >2025-08-13T20:20:40.670Z</when>
<when >2025-08-13T20:20:43.960Z</when>
<when >2025-08-13T20:20:49.940Z</when>
<when >2025-08-13T20:20:51.460Z</when>
<when >2025-08-13T20:20:53.860Z</when>
<when >2025-08-13T20:20:55.580Z</when>
<when >2025-08-13T20:20:58.880Z</when>
<when >2025-08-13T20:21:01.820Z</when>
<when >2025-08-13T20:21:08.290Z</when>
<when >2025-08-13T20:21:14.070Z</when>
<when >2025-08-13T20:21:18.300Z</when>
<when >2025-08-13T20:21:21.440Z</when>
<when >2025-08-13T20:21:30.920Z</when>
<when >2025-08-13T20:21:38.600Z</when>
<when >2025-08-13T20:21:47.030Z</when>
<when >2025-08-13T20:21:55.410Z</when>
<when >2025-08-13T20:21:59.840Z</when>
<when >2025-08-13T20:22:04.180Z</when>
<when >2025-08-13T20:22:17.240Z</when>
<when >2025-08-13T20:22:24.870Z</when>
<when >2025-08-13T20:22:30.740Z</when>
<when >2025-08-13T20:22:37.430Z</when>
<when >2025-08-13T20:22:37.430Z</when>
<when >2025-08-13T20:22:54.220Z</when>
<when >2025-08-13T20:23:03.020Z</when>
<when >2025-08-13T20:23:21.790Z</when>
<when >2025-08-13T20:23:57.200Z</when>
<when >2025-08-13T20:23:57.200Z</when>
<gx:coord >20.9647 52.166449 0</gx:coord>
<gx:coord >20.967152 52.165751 0</gx:coord>
<gx:coord >20.967721 52.1656 0</gx:coord>
<gx:coord >20.968427 52.165402 0</gx:coord>
<gx:coord >20.9692 52.165192 0</gx:coord>
<gx:coord >20.969585 52.165088 0</gx:coord>
<gx:coord >20.97044 52.164825 0</gx:coord>
<gx:coord >20.971194 52.164611 0</gx:coord>
<gx:coord >20.97147 52.164528 0</gx:coord>
<gx:coord >20.971998 52.164389 0</gx:coord>
<gx:coord >20.972729 52.164196 0</gx:coord>
<gx:coord >20.973312 52.164064 0</gx:coord>
<gx:coord >20.973625 52.164001 0</gx:coord>
<gx:coord >20.974234 52.163924 0</gx:coord>
<gx:coord >20.974827 52.163876 0</gx:coord>
<gx:coord >20.975304 52.163853 0</gx:coord>
<gx:coord >20.975647 52.163853 0</gx:coord>
<gx:coord >20.975971 52.163853 0</gx:coord>
<gx:coord >20.976392 52.163866 0</gx:coord>
<gx:coord >20.976863 52.163889 0</gx:coord>
<gx:coord >20.977511 52.163924 0</gx:coord>
<gx:coord >20.977802 52.163956 0</gx:coord>
<gx:coord >20.977962 52.164017 0</gx:coord>
<gx:coord >20.978146 52.164196 0</gx:coord>
<gx:coord >20.978158 52.164261 0</gx:coord>
<gx:coord >20.978158 52.164366 0</gx:coord>
<gx:coord >20.978107 52.164436 0</gx:coord>
<gx:coord >20.977974 52.164528 0</gx:coord>
<gx:coord >20.977859 52.164574 0</gx:coord>
<gx:coord >20.977535 52.164677 0</gx:coord>
<gx:coord >20.977236 52.164762 0</gx:coord>
<gx:coord >20.97702 52.164825 0</gx:coord>
<gx:coord >20.976785 52.16489 0</gx:coord>
<gx:coord >20.976124 52.165077 0</gx:coord>
<gx:coord >20.975588 52.165227 0</gx:coord>
<gx:coord >20.974922 52.165409 0</gx:coord>
<gx:coord >20.974293 52.165588 0</gx:coord>
<gx:coord >20.973759 52.165741 0</gx:coord>
<gx:coord >20.973587 52.165786 0</gx:coord>
<gx:coord >20.972998 52.166333 0</gx:coord>
<gx:coord >20.97292 52.166438 0</gx:coord>
<gx:coord >20.972488 52.166915 0</gx:coord>
<gx:coord >20.972557 52.167057 0</gx:coord>
<gx:coord >20.972567 52.167066 0</gx:coord>
<gx:coord >20.973214 52.167241 0</gx:coord>
<gx:coord >20.973567 52.167357 0</gx:coord>
<gx:coord >20.973854 52.167446 0</gx:coord>
<gx:coord >20.97394 52.167473 0</gx:coord>
<gx:coord >20.97394 52.167473 0</gx:coord>
</gx:Track>
</Placemark>
</Folder>
</Folder>
</kml>
