<?xml version="1.0" encoding="UTF-8"?>
<kml xmlns="http://www.opengis.net/kml/2.2" xmlns:gx="http://www.google.com/kml/ext/2.2"><Folder ><Folder ><name >9H-WBI track</name>
<Placemark ><name >9H-WBI</name>
<Style ><LineStyle ><color >ff1c1ae3</color>
<width >4</width>
</LineStyle>
<IconStyle ><Icon ><href >http://maps.google.com/mapfiles/kml/shapes/airports.png</href>
</Icon>
</IconStyle>
</Style>
<gx:Track ><extrude >0</extrude>
<when >2025-07-31T03:30:14.390Z</when>
<when >2025-07-31T03:30:14.390Z</when>
<when >2025-07-31T03:31:34.110Z</when>
<when >2025-07-31T03:32:49.320Z</when>
<when >2025-07-31T03:34:04.130Z</when>
<when >2025-07-31T03:35:19.070Z</when>
<when >2025-07-31T03:36:26.050Z</when>
<when >2025-07-31T03:36:32.110Z</when>
<when >2025-07-31T03:36:34.100Z</when>
<when >2025-07-31T03:36:37.540Z</when>
<when >2025-07-31T03:36:39.070Z</when>
<when >2025-07-31T03:36:41.190Z</when>
<when >2025-07-31T03:36:42.730Z</when>
<when >2025-07-31T03:36:44.700Z</when>
<when >2025-07-31T03:36:51.210Z</when>
<when >2025-07-31T03:36:52.600Z</when>
<when >2025-07-31T03:36:54.690Z</when>
<when >2025-07-31T03:36:56.450Z</when>
<when >2025-07-31T03:37:03.440Z</when>
<when >2025-07-31T03:37:13.040Z</when>
<when >2025-07-31T03:37:20.520Z</when>
<when >2025-07-31T03:37:27.060Z</when>
<when >2025-07-31T03:37:35.350Z</when>
<when >2025-07-31T03:37:41.600Z</when>
<when >2025-07-31T03:37:46.830Z</when>
<when >2025-07-31T03:37:49.020Z</when>
<when >2025-07-31T03:37:50.990Z</when>
<when >2025-07-31T03:37:52.420Z</when>
<when >2025-07-31T03:37:56.140Z</when>
<when >2025-07-31T03:37:59.610Z</when>
<when >2025-07-31T03:38:04.210Z</when>
<when >2025-07-31T03:38:10.440Z</when>
<when >2025-07-31T03:38:16.560Z</when>
<when >2025-07-31T03:38:23.220Z</when>
<when >2025-07-31T03:38:30.120Z</when>
<when >2025-07-31T03:38:35.520Z</when>
<when >2025-07-31T03:38:41.630Z</when>
<when >2025-07-31T03:38:47.240Z</when>
<when >2025-07-31T03:38:55.500Z</when>
<when >2025-07-31T03:38:59.220Z</when>
<when >2025-07-31T03:39:02.170Z</when>
<when >2025-07-31T03:39:06.680Z</when>
<when >2025-07-31T03:39:14.810Z</when>
<when >2025-07-31T03:39:17.880Z</when>
<when >2025-07-31T03:39:23.240Z</when>
<when >2025-07-31T03:39:28.740Z</when>
<when >2025-07-31T03:39:33.750Z</when>
<when >2025-07-31T03:39:38.830Z</when>
<when >2025-07-31T03:39:43.170Z</when>
<when >2025-07-31T03:39:46.800Z</when>
<when >2025-07-31T03:39:52.870Z</when>
<when >2025-07-31T03:39:56.680Z</when>
<when >2025-07-31T03:39:58.020Z</when>
<when >2025-07-31T03:39:59.280Z</when>
<when >2025-07-31T03:40:01.070Z</when>
<when >2025-07-31T03:40:02.620Z</when>
<when >2025-07-31T03:40:04.690Z</when>
<when >2025-07-31T03:40:07.780Z</when>
<when >2025-07-31T03:40:13.500Z</when>
<when >2025-07-31T03:40:20.220Z</when>
<when >2025-07-31T03:40:26.410Z</when>
<when >2025-07-31T03:40:31.710Z</when>
<when >2025-07-31T03:40:34.030Z</when>
<when >2025-07-31T03:40:35.500Z</when>
<when >2025-07-31T03:40:37.310Z</when>
<when >2025-07-31T03:40:40.090Z</when>
<when >2025-07-31T03:40:42.570Z</when>
<when >2025-07-31T03:41:03.550Z</when>
<when >2025-07-31T03:41:04.780Z</when>
<when >2025-07-31T03:41:05.210Z</when>
<when >2025-07-31T03:41:06.390Z</when>
<when >2025-07-31T03:41:07.330Z</when>
<when >2025-07-31T03:41:08.480Z</when>
<when >2025-07-31T03:41:09.470Z</when>
<when >2025-07-31T03:41:11.370Z</when>
<when >2025-07-31T03:41:14.810Z</when>
<when >2025-07-31T03:41:15.560Z</when>
<when >2025-07-31T03:41:16.160Z</when>
<when >2025-07-31T03:41:17.230Z</when>
<when >2025-07-31T03:41:18.160Z</when>
<when >2025-07-31T03:41:19.240Z</when>
<when >2025-07-31T03:41:20.050Z</when>
<when >2025-07-31T03:41:21.340Z</when>
<when >2025-07-31T03:41:21.340Z</when>
<gx:coord >20.968231 52.170045 0</gx:coord>
<gx:coord >20.968231 52.170045 0</gx:coord>
<gx:coord >20.968227 52.170044 0</gx:coord>
<gx:coord >20.968227 52.170055 0</gx:coord>
<gx:coord >20.968231 52.170045 0</gx:coord>
<gx:coord >20.968231 52.170045 0</gx:coord>
<gx:coord >20.968094 52.170055 0</gx:coord>
<gx:coord >20.967979 52.170055 0</gx:coord>
<gx:coord >20.967922 52.170044 0</gx:coord>
<gx:coord >20.967827 52.17001 0</gx:coord>
<gx:coord >20.96778 52.169999 0</gx:coord>
<gx:coord >20.967712 52.169964 0</gx:coord>
<gx:coord >20.967655 52.16993 0</gx:coord>
<gx:coord >20.967623 52.169883 0</gx:coord>
<gx:coord >20.967662 52.16965 0</gx:coord>
<gx:coord >20.967731 52.169609 0</gx:coord>
<gx:coord >20.967808 52.16954 0</gx:coord>
<gx:coord >20.967865 52.169483 0</gx:coord>
<gx:coord >20.968094 52.169231 0</gx:coord>
<gx:coord >20.968437 52.168842 0</gx:coord>
<gx:coord >20.968723 52.168499 0</gx:coord>
<gx:coord >20.969016 52.16816 0</gx:coord>
<gx:coord >20.969428 52.167695 0</gx:coord>
<gx:coord >20.969761 52.167299 0</gx:coord>
<gx:coord >20.970095 52.16695 0</gx:coord>
<gx:coord >20.970213 52.16681 0</gx:coord>
<gx:coord >20.970345 52.166714 0</gx:coord>
<gx:coord >20.970459 52.166668 0</gx:coord>
<gx:coord >20.970821 52.166566 0</gx:coord>
<gx:coord >20.971154 52.166473 0</gx:coord>
<gx:coord >20.971606 52.166356 0</gx:coord>
<gx:coord >20.972233 52.166176 0</gx:coord>
<gx:coord >20.972881 52.165993 0</gx:coord>
<gx:coord >20.973587 52.165798 0</gx:coord>
<gx:coord >20.974293 52.1656 0</gx:coord>
<gx:coord >20.974846 52.165443 0</gx:coord>
<gx:coord >20.975513 52.16526 0</gx:coord>
<gx:coord >20.976157 52.165076 0</gx:coord>
<gx:coord >20.977116 52.164803 0</gx:coord>
<gx:coord >20.977592 52.164665 0</gx:coord>
<gx:coord >20.977903 52.164576 0</gx:coord>
<gx:coord >20.978432 52.164425 0</gx:coord>
<gx:coord >20.979462 52.164139 0</gx:coord>
<gx:coord >20.979843 52.164036 0</gx:coord>
<gx:coord >20.980434 52.163877 0</gx:coord>
<gx:coord >20.981062 52.163691 0</gx:coord>
<gx:coord >20.981689 52.163517 0</gx:coord>
<gx:coord >20.982323 52.163338 0</gx:coord>
<gx:coord >20.982886 52.163179 0</gx:coord>
<gx:coord >20.983396 52.163039 0</gx:coord>
<gx:coord >20.984083 52.162853 0</gx:coord>
<gx:coord >20.984535 52.16272 0</gx:coord>
<gx:coord >20.984612 52.162663 0</gx:coord>
<gx:coord >20.984711 52.162574 0</gx:coord>
<gx:coord >20.98477 52.162469 0</gx:coord>
<gx:coord >20.98475 52.162341 0</gx:coord>
<gx:coord >20.984671 52.162201 0</gx:coord>
<gx:coord >20.984535 52.162022 0</gx:coord>
<gx:coord >20.984299 52.161701 0</gx:coord>
<gx:coord >20.984024 52.161352 0</gx:coord>
<gx:coord >20.983867 52.161131 0</gx:coord>
<gx:coord >20.983612 52.161061 0</gx:coord>
<gx:coord >20.983494 52.161119 0</gx:coord>
<gx:coord >20.983455 52.161142 0</gx:coord>
<gx:coord >20.983391 52.161175 0</gx:coord>
<gx:coord >20.983318 52.161201 0</gx:coord>
<gx:coord >20.983257 52.161232 0</gx:coord>
<gx:coord >20.9832 52.161255 0</gx:coord>
<gx:coord >20.983124 52.161266 0</gx:coord>
<gx:coord >20.983063 52.161282 0</gx:coord>
<gx:coord >20.982925 52.161329 0</gx:coord>
<gx:coord >20.982768 52.161364 0</gx:coord>
<gx:coord >20.982572 52.161422 0</gx:coord>
<gx:coord >20.982317 52.161492 0</gx:coord>
<gx:coord >20.981712 52.161655 0</gx:coord>
<gx:coord >20.980512 52.162004 0</gx:coord>
<gx:coord >20.980263 52.162067 0</gx:coord>
<gx:coord >20.979786 52.162201 0</gx:coord>
<gx:coord >20.979176 52.162376 0</gx:coord>
<gx:coord >20.978707 52.162504 0</gx:coord>
<gx:coord >20.978069 52.162685 0</gx:coord>
<gx:coord >20.977573 52.162823 0</gx:coord>
<gx:coord >20.976963 52.162994 0</gx:coord>
<gx:coord >20.976963 52.162994 0</gx:coord>
</gx:Track>
</Placemark>
<Placemark ><name >9H-WBI</name>
<Style ><LineStyle ><color >ff1c1ae3</color>
<width >4</width>
</LineStyle>
<IconStyle ><Icon ><href >http://maps.google.com/mapfiles/kml/shapes/airports.png</href>
</Icon>
</IconStyle>
</Style>
<gx:Track ><altitudeMode >absolute</altitudeMode>
<extrude >1</extrude>
<when >2025-07-31T03:41:22.990Z</when>
<when >2025-07-31T03:41:24.380Z</when>
<when >2025-07-31T03:41:26.360Z</when>
<when >2025-07-31T03:41:28.380Z</when>
<when >2025-07-31T03:41:29.760Z</when>
<when >2025-07-31T03:41:32.060Z</when>
<when >2025-07-31T03:41:33.500Z</when>
<when >2025-07-31T03:41:34.950Z</when>
<when >2025-07-31T03:41:36.010Z</when>
<when >2025-07-31T03:41:37.730Z</when>
<when >2025-07-31T03:41:38.730Z</when>
<when >2025-07-31T03:41:41.140Z</when>
<when >2025-07-31T03:41:43.340Z</when>
<when >2025-07-31T03:41:46.020Z</when>
<when >2025-07-31T03:41:48.440Z</when>
<when >2025-07-31T03:41:50.490Z</when>
<when >2025-07-31T03:41:53.010Z</when>
<when >2025-07-31T03:41:55.350Z</when>
<when >2025-07-31T03:41:57.950Z</when>
<when >2025-07-31T03:41:59.920Z</when>
<when >2025-07-31T03:42:02.270Z</when>
<when >2025-07-31T03:42:04.990Z</when>
<when >2025-07-31T03:42:07.190Z</when>
<when >2025-07-31T03:42:09.670Z</when>
<when >2025-07-31T03:42:12.060Z</when>
<when >2025-07-31T03:42:14.480Z</when>
<when >2025-07-31T03:42:16.590Z</when>
<when >2025-07-31T03:42:18.840Z</when>
<when >2025-07-31T03:42:21.370Z</when>
<when >2025-07-31T03:42:23.570Z</when>
<when >2025-07-31T03:42:25.580Z</when>
<when >2025-07-31T03:42:28.150Z</when>
<when >2025-07-31T03:42:30.260Z</when>
<when >2025-07-31T03:42:32.430Z</when>
<when >2025-07-31T03:42:34.550Z</when>
<when >2025-07-31T03:42:36.990Z</when>
<when >2025-07-31T03:42:39.510Z</when>
<when >2025-07-31T03:42:41.430Z</when>
<when >2025-07-31T03:42:43.580Z</when>
<when >2025-07-31T03:42:45.960Z</when>
<when >2025-07-31T03:42:48.280Z</when>
<when >2025-07-31T03:42:50.430Z</when>
<when >2025-07-31T03:42:52.980Z</when>
<when >2025-07-31T03:42:55.270Z</when>
<when >2025-07-31T03:42:58.470Z</when>
<when >2025-07-31T03:43:01.690Z</when>
<when >2025-07-31T03:43:04.350Z</when>
<when >2025-07-31T03:43:07.780Z</when>
<when >2025-07-31T03:43:11.310Z</when>
<when >2025-07-31T03:43:14.240Z</when>
<when >2025-07-31T03:43:17.800Z</when>
<when >2025-07-31T03:43:20.810Z</when>
<when >2025-07-31T03:43:24.370Z</when>
<when >2025-07-31T03:43:28.240Z</when>
<when >2025-07-31T03:43:31.740Z</when>
<when >2025-07-31T03:43:34.910Z</when>
<when >2025-07-31T03:43:37.990Z</when>
<when >2025-07-31T03:43:39.970Z</when>
<when >2025-07-31T03:43:42.640Z</when>
<when >2025-07-31T03:43:43.870Z</when>
<when >2025-07-31T03:43:46.880Z</when>
<when >2025-07-31T03:43:49.820Z</when>
<when >2025-07-31T03:43:52.810Z</when>
<when >2025-07-31T03:43:54.880Z</when>
<when >2025-07-31T03:43:57.120Z</when>
<when >2025-07-31T03:43:59.830Z</when>
<when >2025-07-31T03:44:02.720Z</when>
<when >2025-07-31T03:44:05.700Z</when>
<when >2025-07-31T03:44:08.680Z</when>
<when >2025-07-31T03:44:11.020Z</when>
<when >2025-07-31T03:44:13.400Z</when>
<when >2025-07-31T03:44:15.990Z</when>
<when >2025-07-31T03:44:17.820Z</when>
<when >2025-07-31T03:44:19.830Z</when>
<when >2025-07-31T03:44:22.070Z</when>
<when >2025-07-31T03:44:23.900Z</when>
<when >2025-07-31T03:44:25.400Z</when>
<when >2025-07-31T03:44:27.490Z</when>
<when >2025-07-31T03:44:29.050Z</when>
<when >2025-07-31T03:44:30.650Z</when>
<when >2025-07-31T03:44:32.450Z</when>
<when >2025-07-31T03:44:33.560Z</when>
<when >2025-07-31T03:44:36.560Z</when>
<when >2025-07-31T03:44:39.950Z</when>
<when >2025-07-31T03:44:42.880Z</when>
<when >2025-07-31T03:44:46.240Z</when>
<when >2025-07-31T03:44:49.350Z</when>
<when >2025-07-31T03:44:52.990Z</when>
<when >2025-07-31T03:44:56.870Z</when>
<when >2025-07-31T03:45:00.600Z</when>
<when >2025-07-31T03:45:04.300Z</when>
<when >2025-07-31T03:45:08.440Z</when>
<when >2025-07-31T03:45:12.600Z</when>
<when >2025-07-31T03:45:17.280Z</when>
<when >2025-07-31T03:45:21.650Z</when>
<when >2025-07-31T03:45:26.250Z</when>
<when >2025-07-31T03:45:30.680Z</when>
<when >2025-07-31T03:45:35.000Z</when>
<when >2025-07-31T03:45:38.490Z</when>
<when >2025-07-31T03:45:40.050Z</when>
<when >2025-07-31T03:45:45.180Z</when>
<when >2025-07-31T03:45:53.100Z</when>
<when >2025-07-31T03:45:59.690Z</when>
<when >2025-07-31T03:46:07.180Z</when>
<when >2025-07-31T03:46:13.420Z</when>
<when >2025-07-31T03:46:18.910Z</when>
<when >2025-07-31T03:46:23.940Z</when>
<when >2025-07-31T03:46:28.700Z</when>
<when >2025-07-31T03:46:32.780Z</when>
<when >2025-07-31T03:46:41.310Z</when>
<when >2025-07-31T03:46:49.430Z</when>
<when >2025-07-31T03:46:54.900Z</when>
<when >2025-07-31T03:47:01.090Z</when>
<when >2025-07-31T03:47:07.590Z</when>
<when >2025-07-31T03:47:11.440Z</when>
<when >2025-07-31T03:47:15.450Z</when>
<when >2025-07-31T03:47:26.260Z</when>
<when >2025-07-31T03:47:35.090Z</when>
<when >2025-07-31T03:47:45.200Z</when>
<when >2025-07-31T03:47:55.210Z</when>
<when >2025-07-31T03:48:06.340Z</when>
<when >2025-07-31T03:48:17.910Z</when>
<when >2025-07-31T03:48:22.150Z</when>
<when >2025-07-31T03:48:31.430Z</when>
<when >2025-07-31T03:48:40.770Z</when>
<when >2025-07-31T03:48:50.370Z</when>
<when >2025-07-31T03:49:00.300Z</when>
<when >2025-07-31T03:49:10.100Z</when>
<when >2025-07-31T03:49:19.980Z</when>
<when >2025-07-31T03:49:29.440Z</when>
<when >2025-07-31T03:49:40.340Z</when>
<when >2025-07-31T03:49:51.990Z</when>
<when >2025-07-31T03:49:58.600Z</when>
<when >2025-07-31T03:50:08.510Z</when>
<when >2025-07-31T03:50:18.960Z</when>
<when >2025-07-31T03:50:30.110Z</when>
<when >2025-07-31T03:50:42.740Z</when>
<when >2025-07-31T03:50:55.480Z</when>
<when >2025-07-31T03:51:07.170Z</when>
<when >2025-07-31T03:51:18.420Z</when>
<when >2025-07-31T03:51:29.620Z</when>
<when >2025-07-31T03:51:42.760Z</when>
<when >2025-07-31T03:51:55.900Z</when>
<when >2025-07-31T03:51:58.340Z</when>
<when >2025-07-31T03:52:08.480Z</when>
<when >2025-07-31T03:52:11.100Z</when>
<when >2025-07-31T03:52:16.860Z</when>
<when >2025-07-31T03:52:30.250Z</when>
<when >2025-07-31T03:52:43.230Z</when>
<when >2025-07-31T03:52:56.090Z</when>
<when >2025-07-31T03:53:07.940Z</when>
<when >2025-07-31T03:53:20.550Z</when>
<when >2025-07-31T03:53:35.460Z</when>
<when >2025-07-31T03:53:45.730Z</when>
<when >2025-07-31T03:53:58.180Z</when>
<when >2025-07-31T03:54:10.950Z</when>
<when >2025-07-31T03:54:24.490Z</when>
<when >2025-07-31T03:54:39.120Z</when>
<when >2025-07-31T03:54:53.850Z</when>
<when >2025-07-31T03:55:08.530Z</when>
<when >2025-07-31T03:55:23.440Z</when>
<when >2025-07-31T03:55:37.610Z</when>
<when >2025-07-31T03:55:49.990Z</when>
<when >2025-07-31T03:56:01.670Z</when>
<when >2025-07-31T03:56:15.240Z</when>
<when >2025-07-31T03:56:26.950Z</when>
<when >2025-07-31T03:56:32.610Z</when>
<when >2025-07-31T03:56:38.130Z</when>
<when >2025-07-31T03:56:43.500Z</when>
<when >2025-07-31T03:56:53.320Z</when>
<when >2025-07-31T03:57:06.760Z</when>
<when >2025-07-31T03:57:20.970Z</when>
<when >2025-07-31T03:57:33.010Z</when>
<when >2025-07-31T03:57:38.520Z</when>
<when >2025-07-31T03:57:43.530Z</when>
<when >2025-07-31T03:58:01.630Z</when>
<when >2025-07-31T03:58:17.090Z</when>
<when >2025-07-31T03:58:25.730Z</when>
<when >2025-07-31T03:58:33.440Z</when>
<when >2025-07-31T03:58:48.550Z</when>
<when >2025-07-31T03:59:00.200Z</when>
<when >2025-07-31T03:59:19.810Z</when>
<when >2025-07-31T03:59:37.940Z</when>
<when >2025-07-31T03:59:57.690Z</when>
<when >2025-07-31T04:00:08.830Z</when>
<when >2025-07-31T04:00:21.320Z</when>
<when >2025-07-31T04:00:33.420Z</when>
<when >2025-07-31T04:00:50.070Z</when>
<when >2025-07-31T04:01:09.070Z</when>
<when >2025-07-31T04:01:28.510Z</when>
<when >2025-07-31T04:01:48.340Z</when>
<when >2025-07-31T04:02:08.000Z</when>
<when >2025-07-31T04:02:27.980Z</when>
<when >2025-07-31T04:02:47.810Z</when>
<when >2025-07-31T04:03:07.620Z</when>
<when >2025-07-31T04:03:27.510Z</when>
<when >2025-07-31T04:03:44.640Z</when>
<when >2025-07-31T04:04:04.520Z</when>
<when >2025-07-31T04:04:24.490Z</when>
<when >2025-07-31T04:04:44.020Z</when>
<when >2025-07-31T04:05:03.920Z</when>
<when >2025-07-31T04:05:23.510Z</when>
<when >2025-07-31T04:05:42.910Z</when>
<when >2025-07-31T04:06:00.710Z</when>
<when >2025-07-31T04:06:20.260Z</when>
<when >2025-07-31T04:06:40.220Z</when>
<when >2025-07-31T04:06:59.740Z</when>
<when >2025-07-31T04:07:19.650Z</when>
<when >2025-07-31T04:07:39.350Z</when>
<when >2025-07-31T04:07:58.960Z</when>
<when >2025-07-31T04:08:18.690Z</when>
<when >2025-07-31T04:08:38.320Z</when>
<when >2025-07-31T04:08:58.170Z</when>
<when >2025-07-31T04:09:17.800Z</when>
<when >2025-07-31T04:09:37.360Z</when>
<when >2025-07-31T04:09:57.340Z</when>
<when >2025-07-31T04:10:16.910Z</when>
<when >2025-07-31T04:10:36.690Z</when>
<when >2025-07-31T04:10:56.340Z</when>
<when >2025-07-31T04:11:16.220Z</when>
<when >2025-07-31T04:11:35.680Z</when>
<when >2025-07-31T04:11:55.280Z</when>
<when >2025-07-31T04:12:14.870Z</when>
<when >2025-07-31T04:12:34.440Z</when>
<when >2025-07-31T04:12:54.340Z</when>
<when >2025-07-31T04:13:14.260Z</when>
<when >2025-07-31T04:13:33.990Z</when>
<when >2025-07-31T04:13:53.660Z</when>
<when >2025-07-31T04:14:13.350Z</when>
<when >2025-07-31T04:14:33.310Z</when>
<when >2025-07-31T04:14:53.050Z</when>
<when >2025-07-31T04:15:12.690Z</when>
<when >2025-07-31T04:15:32.330Z</when>
<when >2025-07-31T04:15:52.180Z</when>
<when >2025-07-31T04:16:11.860Z</when>
<when >2025-07-31T04:16:31.360Z</when>
<when >2025-07-31T04:16:51.100Z</when>
<when >2025-07-31T04:17:10.740Z</when>
<when >2025-07-31T04:17:30.620Z</when>
<when >2025-07-31T04:17:50.400Z</when>
<when >2025-07-31T04:18:10.280Z</when>
<when >2025-07-31T04:18:29.950Z</when>
<when >2025-07-31T04:18:49.480Z</when>
<when >2025-07-31T04:19:09.340Z</when>
<when >2025-07-31T04:19:29.060Z</when>
<when >2025-07-31T04:19:48.540Z</when>
<when >2025-07-31T04:20:08.510Z</when>
<when >2025-07-31T04:20:28.290Z</when>
<when >2025-07-31T04:20:47.900Z</when>
<when >2025-07-31T04:20:55.970Z</when>
<when >2025-07-31T04:21:01.980Z</when>
<when >2025-07-31T04:21:07.280Z</when>
<when >2025-07-31T04:21:13.620Z</when>
<when >2025-07-31T04:21:33.360Z</when>
<when >2025-07-31T04:21:51.970Z</when>
<when >2025-07-31T04:22:11.650Z</when>
<when >2025-07-31T04:22:31.220Z</when>
<when >2025-07-31T04:22:50.810Z</when>
<when >2025-07-31T04:23:10.530Z</when>
<when >2025-07-31T04:23:30.250Z</when>
<when >2025-07-31T04:23:50.120Z</when>
<when >2025-07-31T04:24:09.910Z</when>
<when >2025-07-31T04:24:29.730Z</when>
<when >2025-07-31T04:24:49.450Z</when>
<when >2025-07-31T04:25:09.190Z</when>
<when >2025-07-31T04:25:29.110Z</when>
<when >2025-07-31T04:25:48.990Z</when>
<when >2025-07-31T04:26:08.950Z</when>
<when >2025-07-31T04:26:28.550Z</when>
<when >2025-07-31T04:26:48.130Z</when>
<when >2025-07-31T04:27:07.740Z</when>
<when >2025-07-31T04:27:27.540Z</when>
<when >2025-07-31T04:27:47.500Z</when>
<when >2025-07-31T04:28:07.140Z</when>
<when >2025-07-31T04:28:27.000Z</when>
<when >2025-07-31T04:28:46.480Z</when>
<when >2025-07-31T04:29:06.090Z</when>
<when >2025-07-31T04:29:26.000Z</when>
<when >2025-07-31T04:29:45.860Z</when>
<when >2025-07-31T04:30:05.360Z</when>
<when >2025-07-31T04:30:25.280Z</when>
<when >2025-07-31T04:30:44.990Z</when>
<when >2025-07-31T04:31:04.510Z</when>
<when >2025-07-31T04:31:24.080Z</when>
<when >2025-07-31T04:31:43.500Z</when>
<when >2025-07-31T04:32:02.970Z</when>
<when >2025-07-31T04:32:22.800Z</when>
<when >2025-07-31T04:32:42.430Z</when>
<when >2025-07-31T04:33:02.220Z</when>
<when >2025-07-31T04:33:21.770Z</when>
<when >2025-07-31T04:33:41.640Z</when>
<when >2025-07-31T04:34:01.480Z</when>
<when >2025-07-31T04:34:20.950Z</when>
<when >2025-07-31T04:34:40.510Z</when>
<when >2025-07-31T04:35:00.470Z</when>
<when >2025-07-31T04:35:20.050Z</when>
<when >2025-07-31T04:35:39.780Z</when>
<when >2025-07-31T04:35:59.460Z</when>
<when >2025-07-31T04:36:18.940Z</when>
<when >2025-07-31T04:36:38.650Z</when>
<when >2025-07-31T04:36:58.380Z</when>
<when >2025-07-31T04:37:18.120Z</when>
<when >2025-07-31T04:37:37.850Z</when>
<when >2025-07-31T04:37:57.530Z</when>
<when >2025-07-31T04:38:17.220Z</when>
<when >2025-07-31T04:38:36.750Z</when>
<when >2025-07-31T04:38:56.350Z</when>
<when >2025-07-31T04:39:16.010Z</when>
<when >2025-07-31T04:39:35.690Z</when>
<when >2025-07-31T04:39:55.630Z</when>
<when >2025-07-31T04:40:15.320Z</when>
<when >2025-07-31T04:40:25.640Z</when>
<when >2025-07-31T04:40:45.380Z</when>
<when >2025-07-31T04:41:05.310Z</when>
<when >2025-07-31T04:41:25.150Z</when>
<when >2025-07-31T04:41:44.720Z</when>
<when >2025-07-31T04:42:04.630Z</when>
<when >2025-07-31T04:42:24.440Z</when>
<when >2025-07-31T04:42:44.160Z</when>
<when >2025-07-31T04:43:03.790Z</when>
<when >2025-07-31T04:43:23.400Z</when>
<when >2025-07-31T04:43:43.250Z</when>
<when >2025-07-31T04:44:02.900Z</when>
<when >2025-07-31T04:44:22.620Z</when>
<when >2025-07-31T04:44:42.500Z</when>
<when >2025-07-31T04:45:02.460Z</when>
<when >2025-07-31T04:45:22.100Z</when>
<when >2025-07-31T04:45:41.460Z</when>
<when >2025-07-31T04:46:01.340Z</when>
<when >2025-07-31T04:46:21.200Z</when>
<when >2025-07-31T04:46:41.140Z</when>
<when >2025-07-31T04:47:01.010Z</when>
<when >2025-07-31T04:47:20.680Z</when>
<when >2025-07-31T04:47:40.520Z</when>
<when >2025-07-31T04:48:00.050Z</when>
<when >2025-07-31T04:48:19.700Z</when>
<when >2025-07-31T04:48:39.100Z</when>
<when >2025-07-31T04:48:58.960Z</when>
<when >2025-07-31T04:49:18.960Z</when>
<when >2025-07-31T04:49:38.570Z</when>
<when >2025-07-31T04:49:58.390Z</when>
<when >2025-07-31T04:50:18.300Z</when>
<when >2025-07-31T04:50:38.210Z</when>
<when >2025-07-31T04:50:58.160Z</when>
<when >2025-07-31T04:51:17.650Z</when>
<when >2025-07-31T04:51:37.500Z</when>
<when >2025-07-31T04:51:57.290Z</when>
<when >2025-07-31T04:52:17.230Z</when>
<when >2025-07-31T04:52:36.960Z</when>
<when >2025-07-31T04:52:56.780Z</when>
<when >2025-07-31T04:53:16.640Z</when>
<when >2025-07-31T04:53:36.310Z</when>
<when >2025-07-31T04:53:56.210Z</when>
<when >2025-07-31T04:54:15.910Z</when>
<when >2025-07-31T04:54:35.850Z</when>
<when >2025-07-31T04:54:55.820Z</when>
<when >2025-07-31T04:55:15.440Z</when>
<when >2025-07-31T04:55:35.320Z</when>
<when >2025-07-31T04:55:55.270Z</when>
<when >2025-07-31T04:56:15.270Z</when>
<when >2025-07-31T04:56:34.930Z</when>
<when >2025-07-31T04:56:54.530Z</when>
<when >2025-07-31T04:57:14.420Z</when>
<when >2025-07-31T04:57:34.320Z</when>
<when >2025-07-31T04:57:53.970Z</when>
<when >2025-07-31T04:58:13.570Z</when>
<when >2025-07-31T04:58:33.030Z</when>
<when >2025-07-31T04:58:52.790Z</when>
<when >2025-07-31T04:59:12.440Z</when>
<when >2025-07-31T04:59:32.150Z</when>
<when >2025-07-31T04:59:51.470Z</when>
<when >2025-07-31T05:00:04.550Z</when>
<when >2025-07-31T05:00:15.260Z</when>
<when >2025-07-31T05:00:32.540Z</when>
<when >2025-07-31T05:00:52.470Z</when>
<when >2025-07-31T05:01:12.260Z</when>
<when >2025-07-31T05:01:31.840Z</when>
<when >2025-07-31T05:01:51.570Z</when>
<when >2025-07-31T05:02:11.400Z</when>
<when >2025-07-31T05:02:30.830Z</when>
<when >2025-07-31T05:02:50.780Z</when>
<when >2025-07-31T05:03:10.210Z</when>
<when >2025-07-31T05:03:29.740Z</when>
<when >2025-07-31T05:03:49.390Z</when>
<when >2025-07-31T05:04:08.830Z</when>
<when >2025-07-31T05:04:28.090Z</when>
<when >2025-07-31T05:04:47.980Z</when>
<when >2025-07-31T05:05:07.440Z</when>
<when >2025-07-31T05:05:27.120Z</when>
<when >2025-07-31T05:05:47.060Z</when>
<when >2025-07-31T05:06:00.150Z</when>
<when >2025-07-31T05:06:07.010Z</when>
<when >2025-07-31T05:06:10.410Z</when>
<when >2025-07-31T05:06:14.980Z</when>
<when >2025-07-31T05:06:21.450Z</when>
<when >2025-07-31T05:06:24.470Z</when>
<when >2025-07-31T05:06:27.170Z</when>
<when >2025-07-31T05:06:31.330Z</when>
<when >2025-07-31T05:06:35.780Z</when>
<when >2025-07-31T05:06:38.820Z</when>
<when >2025-07-31T05:06:44.110Z</when>
<when >2025-07-31T05:06:49.220Z</when>
<when >2025-07-31T05:06:54.240Z</when>
<when >2025-07-31T05:06:57.880Z</when>
<when >2025-07-31T05:07:01.830Z</when>
<when >2025-07-31T05:07:07.010Z</when>
<when >2025-07-31T05:07:10.170Z</when>
<when >2025-07-31T05:07:16.670Z</when>
<when >2025-07-31T05:07:30.320Z</when>
<when >2025-07-31T05:07:42.870Z</when>
<when >2025-07-31T05:07:56.380Z</when>
<when >2025-07-31T05:08:09.740Z</when>
<when >2025-07-31T05:08:22.980Z</when>
<when >2025-07-31T05:08:36.510Z</when>
<when >2025-07-31T05:08:49.960Z</when>
<when >2025-07-31T05:08:55.490Z</when>
<when >2025-07-31T05:09:01.150Z</when>
<when >2025-07-31T05:09:07.030Z</when>
<when >2025-07-31T05:09:26.690Z</when>
<when >2025-07-31T05:09:46.380Z</when>
<when >2025-07-31T05:10:06.370Z</when>
<when >2025-07-31T05:10:25.700Z</when>
<when >2025-07-31T05:10:41.020Z</when>
<when >2025-07-31T05:10:44.910Z</when>
<when >2025-07-31T05:10:48.070Z</when>
<when >2025-07-31T05:10:55.080Z</when>
<when >2025-07-31T05:11:06.850Z</when>
<when >2025-07-31T05:11:17.100Z</when>
<when >2025-07-31T05:11:25.990Z</when>
<when >2025-07-31T05:11:31.890Z</when>
<when >2025-07-31T05:11:37.030Z</when>
<when >2025-07-31T05:11:49.860Z</when>
<when >2025-07-31T05:12:04.010Z</when>
<when >2025-07-31T05:12:18.690Z</when>
<when >2025-07-31T05:12:31.380Z</when>
<when >2025-07-31T05:12:42.640Z</when>
<when >2025-07-31T05:12:55.060Z</when>
<when >2025-07-31T05:13:04.580Z</when>
<when >2025-07-31T05:13:16.280Z</when>
<when >2025-07-31T05:13:22.830Z</when>
<when >2025-07-31T05:13:35.160Z</when>
<when >2025-07-31T05:13:47.210Z</when>
<when >2025-07-31T05:13:59.420Z</when>
<when >2025-07-31T05:14:11.330Z</when>
<when >2025-07-31T05:14:22.670Z</when>
<when >2025-07-31T05:14:33.300Z</when>
<when >2025-07-31T05:14:44.540Z</when>
<when >2025-07-31T05:14:55.770Z</when>
<when >2025-07-31T05:15:07.280Z</when>
<when >2025-07-31T05:15:18.720Z</when>
<when >2025-07-31T05:15:29.210Z</when>
<when >2025-07-31T05:15:38.780Z</when>
<when >2025-07-31T05:15:49.540Z</when>
<when >2025-07-31T05:16:01.360Z</when>
<when >2025-07-31T05:16:06.580Z</when>
<when >2025-07-31T05:16:08.570Z</when>
<when >2025-07-31T05:16:23.010Z</when>
<when >2025-07-31T05:16:32.530Z</when>
<when >2025-07-31T05:16:46.080Z</when>
<when >2025-07-31T05:16:58.750Z</when>
<when >2025-07-31T05:17:11.560Z</when>
<when >2025-07-31T05:17:23.980Z</when>
<when >2025-07-31T05:17:35.760Z</when>
<when >2025-07-31T05:17:43.020Z</when>
<when >2025-07-31T05:17:47.280Z</when>
<when >2025-07-31T05:17:50.630Z</when>
<when >2025-07-31T05:17:54.260Z</when>
<when >2025-07-31T05:17:57.360Z</when>
<when >2025-07-31T05:18:02.500Z</when>
<when >2025-07-31T05:18:11.990Z</when>
<when >2025-07-31T05:18:19.210Z</when>
<when >2025-07-31T05:18:23.250Z</when>
<when >2025-07-31T05:18:26.780Z</when>
<when >2025-07-31T05:18:30.260Z</when>
<when >2025-07-31T05:18:33.770Z</when>
<when >2025-07-31T05:18:36.990Z</when>
<when >2025-07-31T05:18:41.000Z</when>
<when >2025-07-31T05:18:48.000Z</when>
<when >2025-07-31T05:19:00.710Z</when>
<when >2025-07-31T05:19:13.510Z</when>
<when >2025-07-31T05:19:26.530Z</when>
<when >2025-07-31T05:19:39.790Z</when>
<when >2025-07-31T05:19:52.500Z</when>
<when >2025-07-31T05:20:05.830Z</when>
<when >2025-07-31T05:20:11.530Z</when>
<when >2025-07-31T05:20:29.430Z</when>
<when >2025-07-31T05:20:44.960Z</when>
<when >2025-07-31T05:20:56.010Z</when>
<when >2025-07-31T05:21:09.470Z</when>
<when >2025-07-31T05:21:16.350Z</when>
<when >2025-07-31T05:21:32.700Z</when>
<when >2025-07-31T05:21:46.430Z</when>
<when >2025-07-31T05:22:01.160Z</when>
<when >2025-07-31T05:22:15.980Z</when>
<when >2025-07-31T05:22:31.700Z</when>
<when >2025-07-31T05:22:44.240Z</when>
<when >2025-07-31T05:22:50.540Z</when>
<when >2025-07-31T05:22:55.080Z</when>
<when >2025-07-31T05:22:59.160Z</when>
<when >2025-07-31T05:23:06.500Z</when>
<when >2025-07-31T05:23:14.030Z</when>
<when >2025-07-31T05:23:21.400Z</when>
<when >2025-07-31T05:23:28.800Z</when>
<when >2025-07-31T05:23:36.990Z</when>
<when >2025-07-31T05:23:45.350Z</when>
<when >2025-07-31T05:23:52.850Z</when>
<when >2025-07-31T05:23:59.400Z</when>
<when >2025-07-31T05:24:06.690Z</when>
<when >2025-07-31T05:24:13.200Z</when>
<when >2025-07-31T05:24:19.350Z</when>
<when >2025-07-31T05:24:23.500Z</when>
<when >2025-07-31T05:24:26.690Z</when>
<when >2025-07-31T05:24:29.370Z</when>
<when >2025-07-31T05:24:32.510Z</when>
<when >2025-07-31T05:24:34.910Z</when>
<when >2025-07-31T05:24:37.990Z</when>
<when >2025-07-31T05:24:41.020Z</when>
<when >2025-07-31T05:24:44.400Z</when>
<when >2025-07-31T05:24:46.800Z</when>
<when >2025-07-31T05:24:50.260Z</when>
<when >2025-07-31T05:24:53.340Z</when>
<when >2025-07-31T05:24:55.920Z</when>
<when >2025-07-31T05:24:59.260Z</when>
<when >2025-07-31T05:25:01.910Z</when>
<when >2025-07-31T05:25:04.840Z</when>
<when >2025-07-31T05:25:07.720Z</when>
<when >2025-07-31T05:25:11.820Z</when>
<when >2025-07-31T05:25:19.180Z</when>
<when >2025-07-31T05:25:25.970Z</when>
<when >2025-07-31T05:25:32.200Z</when>
<when >2025-07-31T05:25:38.110Z</when>
<when >2025-07-31T05:25:44.770Z</when>
<when >2025-07-31T05:25:52.060Z</when>
<when >2025-07-31T05:25:59.200Z</when>
<when >2025-07-31T05:26:04.440Z</when>
<when >2025-07-31T05:26:07.720Z</when>
<when >2025-07-31T05:26:11.820Z</when>
<when >2025-07-31T05:26:16.330Z</when>
<when >2025-07-31T05:26:21.690Z</when>
<when >2025-07-31T05:26:25.750Z</when>
<when >2025-07-31T05:26:30.200Z</when>
<when >2025-07-31T05:26:35.110Z</when>
<when >2025-07-31T05:26:41.610Z</when>
<when >2025-07-31T05:26:47.490Z</when>
<when >2025-07-31T05:26:54.460Z</when>
<when >2025-07-31T05:27:00.950Z</when>
<when >2025-07-31T05:27:16.220Z</when>
<when >2025-07-31T05:27:26.790Z</when>
<when >2025-07-31T05:27:34.780Z</when>
<when >2025-07-31T05:27:38.000Z</when>
<when >2025-07-31T05:27:41.240Z</when>
<when >2025-07-31T05:27:44.230Z</when>
<when >2025-07-31T05:27:47.080Z</when>
<when >2025-07-31T05:27:50.310Z</when>
<when >2025-07-31T05:27:53.740Z</when>
<when >2025-07-31T05:27:56.870Z</when>
<when >2025-07-31T05:28:00.250Z</when>
<when >2025-07-31T05:28:03.350Z</when>
<when >2025-07-31T05:28:07.070Z</when>
<when >2025-07-31T05:28:10.230Z</when>
<when >2025-07-31T05:28:13.060Z</when>
<when >2025-07-31T05:28:16.230Z</when>
<when >2025-07-31T05:28:19.720Z</when>
<when >2025-07-31T05:28:26.080Z</when>
<when >2025-07-31T05:28:31.950Z</when>
<when >2025-07-31T05:28:37.630Z</when>
<when >2025-07-31T05:28:43.850Z</when>
<when >2025-07-31T05:28:49.840Z</when>
<when >2025-07-31T05:28:55.250Z</when>
<when >2025-07-31T05:28:56.940Z</when>
<when >2025-07-31T05:28:58.190Z</when>
<when >2025-07-31T05:29:02.280Z</when>
<when >2025-07-31T05:29:06.290Z</when>
<when >2025-07-31T05:29:08.740Z</when>
<when >2025-07-31T05:29:12.880Z</when>
<when >2025-07-31T05:29:16.470Z</when>
<when >2025-07-31T05:29:19.160Z</when>
<when >2025-07-31T05:29:22.870Z</when>
<when >2025-07-31T05:29:28.240Z</when>
<when >2025-07-31T05:29:33.940Z</when>
<when >2025-07-31T05:29:39.960Z</when>
<when >2025-07-31T05:29:45.820Z</when>
<when >2025-07-31T05:29:50.920Z</when>
<when >2025-07-31T05:29:54.870Z</when>
<when >2025-07-31T05:29:56.850Z</when>
<when >2025-07-31T05:30:00.530Z</when>
<when >2025-07-31T05:30:04.490Z</when>
<when >2025-07-31T05:30:07.950Z</when>
<when >2025-07-31T05:30:11.970Z</when>
<when >2025-07-31T05:30:15.370Z</when>
<when >2025-07-31T05:30:18.440Z</when>
<when >2025-07-31T05:30:21.560Z</when>
<when >2025-07-31T05:30:24.030Z</when>
<when >2025-07-31T05:30:27.440Z</when>
<when >2025-07-31T05:30:31.370Z</when>
<when >2025-07-31T05:30:33.990Z</when>
<when >2025-07-31T05:30:37.410Z</when>
<when >2025-07-31T05:30:40.910Z</when>
<when >2025-07-31T05:30:44.700Z</when>
<when >2025-07-31T05:30:49.570Z</when>
<when >2025-07-31T05:30:55.410Z</when>
<when >2025-07-31T05:31:01.300Z</when>
<when >2025-07-31T05:31:05.530Z</when>
<when >2025-07-31T05:31:08.920Z</when>
<when >2025-07-31T05:31:15.360Z</when>
<when >2025-07-31T05:31:21.020Z</when>
<when >2025-07-31T05:31:22.160Z</when>
<when >2025-07-31T05:31:25.220Z</when>
<when >2025-07-31T05:31:29.000Z</when>
<when >2025-07-31T05:31:34.790Z</when>
<when >2025-07-31T05:31:38.010Z</when>
<when >2025-07-31T05:31:41.730Z</when>
<when >2025-07-31T05:31:48.370Z</when>
<when >2025-07-31T05:31:56.720Z</when>
<when >2025-07-31T05:32:05.270Z</when>
<when >2025-07-31T05:32:13.730Z</when>
<when >2025-07-31T05:32:22.040Z</when>
<when >2025-07-31T05:32:29.560Z</when>
<when >2025-07-31T05:32:37.990Z</when>
<when >2025-07-31T05:32:46.630Z</when>
<when >2025-07-31T05:32:55.260Z</when>
<when >2025-07-31T05:33:04.130Z</when>
<when >2025-07-31T05:33:11.480Z</when>
<when >2025-07-31T05:33:19.310Z</when>
<when >2025-07-31T05:33:28.260Z</when>
<when >2025-07-31T05:33:36.850Z</when>
<when >2025-07-31T05:33:44.590Z</when>
<when >2025-07-31T05:33:45.550Z</when>
<when >2025-07-31T05:33:45.550Z</when>
<gx:coord >20.975723 52.163315 112</gx:coord>
<gx:coord >20.974655 52.163635 111</gx:coord>
<gx:coord >20.973053 52.164093 110</gx:coord>
<gx:coord >20.971222 52.164597 110</gx:coord>
<gx:coord >20.970311 52.164855 110</gx:coord>
<gx:coord >20.9678 52.165553 111</gx:coord>
<gx:coord >20.966387 52.165972 112</gx:coord>
<gx:coord >20.964966 52.166382 106</gx:coord>
<gx:coord >20.963876 52.16667 106</gx:coord>
<gx:coord >20.96199 52.167206 114</gx:coord>
<gx:coord >20.96077 52.167526 128</gx:coord>
<gx:coord >20.958405 52.168213 143</gx:coord>
<gx:coord >20.955715 52.168998 166</gx:coord>
<gx:coord >20.952835 52.169815 195</gx:coord>
<gx:coord >20.950143 52.170627 227</gx:coord>
<gx:coord >20.947876 52.17128 258</gx:coord>
<gx:coord >20.945121 52.172117 290</gx:coord>
<gx:coord >20.942612 52.172882 322</gx:coord>
<gx:coord >20.939784 52.173746 352</gx:coord>
<gx:coord >20.937509 52.174398 383</gx:coord>
<gx:coord >20.934919 52.17519 416</gx:coord>
<gx:coord >20.931937 52.176074 449</gx:coord>
<gx:coord >20.929426 52.176819 477</gx:coord>
<gx:coord >20.926666 52.177643 509</gx:coord>
<gx:coord >20.923933 52.178448 541</gx:coord>
<gx:coord >20.921186 52.17924 573</gx:coord>
<gx:coord >20.918753 52.179938 604</gx:coord>
<gx:coord >20.91629 52.180664 634</gx:coord>
<gx:coord >20.913417 52.181474 664</gx:coord>
<gx:coord >20.910797 52.182175 696</gx:coord>
<gx:coord >20.908432 52.18277 726</gx:coord>
<gx:coord >20.905228 52.183411 759</gx:coord>
<gx:coord >20.902666 52.183802 782</gx:coord>
<gx:coord >20.899841 52.184034 813</gx:coord>
<gx:coord >20.897173 52.184128 844</gx:coord>
<gx:coord >20.894089 52.184006 875</gx:coord>
<gx:coord >20.890808 52.183685 906</gx:coord>
<gx:coord >20.888443 52.183411 937</gx:coord>
<gx:coord >20.885849 52.18309 968</gx:coord>
<gx:coord >20.882812 52.182684 999</gx:coord>
<gx:coord >20.879909 52.182312 1031</gx:coord>
<gx:coord >20.877228 52.181946 1062</gx:coord>
<gx:coord >20.874023 52.181534 1092</gx:coord>
<gx:coord >20.871048 52.181168 1124</gx:coord>
<gx:coord >20.866961 52.18059 1155</gx:coord>
<gx:coord >20.862808 52.180069 1186</gx:coord>
<gx:coord >20.859349 52.179612 1215</gx:coord>
<gx:coord >20.854719 52.17896 1248</gx:coord>
<gx:coord >20.849991 52.178284 1279</gx:coord>
<gx:coord >20.846024 52.177734 1312</gx:coord>
<gx:coord >20.840986 52.177005 1341</gx:coord>
<gx:coord >20.83667 52.176353 1372</gx:coord>
<gx:coord >20.831569 52.175608 1405</gx:coord>
<gx:coord >20.825882 52.174759 1433</gx:coord>
<gx:coord >20.820618 52.173935 1464</gx:coord>
<gx:coord >20.815796 52.173188 1490</gx:coord>
<gx:coord >20.811081 52.17247 1514</gx:coord>
<gx:coord >20.80787 52.171977 1522</gx:coord>
<gx:coord >20.803554 52.171279 1537</gx:coord>
<gx:coord >20.80162 52.171005 1545</gx:coord>
<gx:coord >20.796491 52.170208 1568</gx:coord>
<gx:coord >20.791473 52.169403 1591</gx:coord>
<gx:coord >20.78629 52.168626 1613</gx:coord>
<gx:coord >20.782547 52.16803 1628</gx:coord>
<gx:coord >20.778599 52.167415 1644</gx:coord>
<gx:coord >20.773577 52.16667 1665</gx:coord>
<gx:coord >20.768241 52.165833 1697</gx:coord>
<gx:coord >20.762711 52.164963 1728</gx:coord>
<gx:coord >20.757176 52.16411 1759</gx:coord>
<gx:coord >20.752792 52.163452 1790</gx:coord>
<gx:coord >20.748062 52.16272 1822</gx:coord>
<gx:coord >20.743208 52.162015 1851</gx:coord>
<gx:coord >20.739517 52.161438 1882</gx:coord>
<gx:coord >20.735703 52.160889 1912</gx:coord>
<gx:coord >20.731583 52.160248 1943</gx:coord>
<gx:coord >20.727905 52.159595 1973</gx:coord>
<gx:coord >20.724845 52.159036 2005</gx:coord>
<gx:coord >20.720978 52.158142 2035</gx:coord>
<gx:coord >20.718175 52.15736 2064</gx:coord>
<gx:coord >20.715349 52.156476 2095</gx:coord>
<gx:coord >20.712132 52.155312 2125</gx:coord>
<gx:coord >20.710373 52.154572 2148</gx:coord>
<gx:coord >20.705566 52.152374 2209</gx:coord>
<gx:coord >20.700753 52.149539 2270</gx:coord>
<gx:coord >20.696869 52.146881 2332</gx:coord>
<gx:coord >20.69252 52.143768 2396</gx:coord>
<gx:coord >20.68859 52.140834 2457</gx:coord>
<gx:coord >20.684052 52.137451 2515</gx:coord>
<gx:coord >20.679169 52.133743 2576</gx:coord>
<gx:coord >20.674515 52.130127 2633</gx:coord>
<gx:coord >20.669937 52.126511 2694</gx:coord>
<gx:coord >20.664978 52.122528 2752</gx:coord>
<gx:coord >20.659866 52.118454 2814</gx:coord>
<gx:coord >20.654144 52.113739 2883</gx:coord>
<gx:coord >20.648882 52.109458 2945</gx:coord>
<gx:coord >20.643154 52.104756 3003</gx:coord>
<gx:coord >20.637503 52.100147 3064</gx:coord>
<gx:coord >20.632172 52.095749 3129</gx:coord>
<gx:coord >20.627747 52.092224 3178</gx:coord>
<gx:coord >20.625763 52.090622 3192</gx:coord>
<gx:coord >20.619125 52.08522 3230</gx:coord>
<gx:coord >20.608547 52.076732 3290</gx:coord>
<gx:coord >20.599518 52.069519 3328</gx:coord>
<gx:coord >20.588913 52.061096 3382</gx:coord>
<gx:coord >20.579987 52.054001 3448</gx:coord>
<gx:coord >20.571899 52.047404 3505</gx:coord>
<gx:coord >20.564994 52.041352 3565</gx:coord>
<gx:coord >20.558853 52.035324 3626</gx:coord>
<gx:coord >20.553818 52.030014 3687</gx:coord>
<gx:coord >20.543442 52.019028 3824</gx:coord>
<gx:coord >20.533371 52.008362 3937</gx:coord>
<gx:coord >20.526657 52.001266 4032</gx:coord>
<gx:coord >20.519028 51.993301 4165</gx:coord>
<gx:coord >20.511004 51.984931 4281</gx:coord>
<gx:coord >20.506439 51.980118 4342</gx:coord>
<gx:coord >20.501508 51.974968 4403</gx:coord>
<gx:coord >20.488089 51.961049 4531</gx:coord>
<gx:coord >20.477103 51.949551 4653</gx:coord>
<gx:coord >20.464478 51.936401 4783</gx:coord>
<gx:coord >20.45207 51.923295 4905</gx:coord>
<gx:coord >20.437788 51.908352 5011</gx:coord>
<gx:coord >20.422821 51.892711 5111</gx:coord>
<gx:coord >20.417497 51.887192 5156</gx:coord>
<gx:coord >20.405174 51.874237 5286</gx:coord>
<gx:coord >20.39299 51.861381 5408</gx:coord>
<gx:coord >20.380402 51.848113 5537</gx:coord>
<gx:coord >20.367355 51.834381 5659</gx:coord>
<gx:coord >20.354462 51.820787 5781</gx:coord>
<gx:coord >20.341558 51.807129 5903</gx:coord>
<gx:coord >20.329056 51.793927 6025</gx:coord>
<gx:coord >20.31476 51.778793 6139</gx:coord>
<gx:coord >20.299394 51.762589 6254</gx:coord>
<gx:coord >20.290451 51.753147 6329</gx:coord>
<gx:coord >20.277252 51.739181 6452</gx:coord>
<gx:coord >20.263317 51.724457 6565</gx:coord>
<gx:coord >20.248489 51.708736 6687</gx:coord>
<gx:coord >20.231472 51.690674 6786</gx:coord>
<gx:coord >20.214233 51.672379 6893</gx:coord>
<gx:coord >20.198216 51.655426 7015</gx:coord>
<gx:coord >20.182953 51.639187 7121</gx:coord>
<gx:coord >20.167618 51.62294 7243</gx:coord>
<gx:coord >20.149817 51.603928 7342</gx:coord>
<gx:coord >20.131607 51.584488 7441</gx:coord>
<gx:coord >20.12825 51.580904 7464</gx:coord>
<gx:coord >20.114365 51.566007 7579</gx:coord>
<gx:coord >20.110845 51.562317 7602</gx:coord>
<gx:coord >20.102844 51.553717 7661</gx:coord>
<gx:coord >20.084534 51.534119 7754</gx:coord>
<gx:coord >20.066452 51.514846 7860</gx:coord>
<gx:coord >20.048787 51.49585 7951</gx:coord>
<gx:coord >20.032196 51.47807 8057</gx:coord>
<gx:coord >20.01464 51.45932 8164</gx:coord>
<gx:coord >19.993929 51.437027 8248</gx:coord>
<gx:coord >19.979454 51.421417 8309</gx:coord>
<gx:coord >19.961929 51.402609 8416</gx:coord>
<gx:coord >19.943848 51.38315 8515</gx:coord>
<gx:coord >19.924671 51.362457 8614</gx:coord>
<gx:coord >19.903886 51.339935 8705</gx:coord>
<gx:coord >19.882804 51.317139 8789</gx:coord>
<gx:coord >19.861722 51.294342 8880</gx:coord>
<gx:coord >19.840012 51.270819 8963</gx:coord>
<gx:coord >19.819336 51.248474 9055</gx:coord>
<gx:coord >19.801331 51.228969 9154</gx:coord>
<gx:coord >19.784317 51.210487 9260</gx:coord>
<gx:coord >19.764557 51.189027 9359</gx:coord>
<gx:coord >19.747405 51.170563 9413</gx:coord>
<gx:coord >19.738349 51.161819 9436</gx:coord>
<gx:coord >19.728624 51.153534 9452</gx:coord>
<gx:coord >19.718529 51.145889 9480</gx:coord>
<gx:coord >19.698715 51.132233 9519</gx:coord>
<gx:coord >19.671478 51.113612 9603</gx:coord>
<gx:coord >19.643184 51.093658 9679</gx:coord>
<gx:coord >19.619504 51.076584 9786</gx:coord>
<gx:coord >19.608666 51.068756 9822</gx:coord>
<gx:coord >19.598846 51.06166 9838</gx:coord>
<gx:coord >19.562988 51.035637 9907</gx:coord>
<gx:coord >19.532166 51.013385 9991</gx:coord>
<gx:coord >19.514762 51.00087 10029</gx:coord>
<gx:coord >19.499283 50.989737 10060</gx:coord>
<gx:coord >19.468613 50.967671 10143</gx:coord>
<gx:coord >19.445114 50.950633 10181</gx:coord>
<gx:coord >19.404973 50.921585 10234</gx:coord>
<gx:coord >19.367447 50.894398 10302</gx:coord>
<gx:coord >19.326065 50.864548 10363</gx:coord>
<gx:coord >19.302597 50.847613 10424</gx:coord>
<gx:coord >19.27681 50.828899 10539</gx:coord>
<gx:coord >19.25148 50.810371 10606</gx:coord>
<gx:coord >19.216944 50.785217 10690</gx:coord>
<gx:coord >19.177933 50.756789 10759</gx:coord>
<gx:coord >19.137726 50.727368 10804</gx:coord>
<gx:coord >19.096911 50.697601 10858</gx:coord>
<gx:coord >19.056306 50.667968 10910</gx:coord>
<gx:coord >19.01533 50.637942 10963</gx:coord>
<gx:coord >18.974651 50.607962 11009</gx:coord>
<gx:coord >18.934343 50.578122 11062</gx:coord>
<gx:coord >18.894109 50.548235 11116</gx:coord>
<gx:coord >18.859517 50.522492 11146</gx:coord>
<gx:coord >18.819506 50.492792 11145</gx:coord>
<gx:coord >18.779124 50.462905 11145</gx:coord>
<gx:coord >18.739423 50.433563 11145</gx:coord>
<gx:coord >18.69902 50.403671 11145</gx:coord>
<gx:coord >18.659388 50.37427 11145</gx:coord>
<gx:coord >18.620045 50.344895 11145</gx:coord>
<gx:coord >18.584025 50.317978 11145</gx:coord>
<gx:coord >18.544773 50.288381 11153</gx:coord>
<gx:coord >18.50459 50.258331 11152</gx:coord>
<gx:coord >18.465345 50.228934 11144</gx:coord>
<gx:coord >18.425518 50.199051 11144</gx:coord>
<gx:coord >18.38614 50.169347 11144</gx:coord>
<gx:coord >18.34724 50.139954 11137</gx:coord>
<gx:coord >18.308138 50.110291 11144</gx:coord>
<gx:coord >18.269521 50.080944 11144</gx:coord>
<gx:coord >18.230727 50.051376 11144</gx:coord>
<gx:coord >18.192347 50.022171 11144</gx:coord>
<gx:coord >18.154112 49.993149 11136</gx:coord>
<gx:coord >18.115267 49.963493 11128</gx:coord>
<gx:coord >18.077136 49.934418 11128</gx:coord>
<gx:coord >18.038734 49.90507 11128</gx:coord>
<gx:coord >18.000505 49.875742 11136</gx:coord>
<gx:coord >17.961607 49.845809 11143</gx:coord>
<gx:coord >17.92311 49.816132 11151</gx:coord>
<gx:coord >17.884406 49.786129 11151</gx:coord>
<gx:coord >17.845434 49.756009 11151</gx:coord>
<gx:coord >17.806611 49.72589 11151</gx:coord>
<gx:coord >17.767045 49.695259 11151</gx:coord>
<gx:coord >17.727257 49.664534 11150</gx:coord>
<gx:coord >17.68741 49.633621 11157</gx:coord>
<gx:coord >17.647874 49.602905 11165</gx:coord>
<gx:coord >17.608048 49.571869 11157</gx:coord>
<gx:coord >17.568178 49.540985 11157</gx:coord>
<gx:coord >17.52928 49.510679 11157</gx:coord>
<gx:coord >17.490668 49.480408 11157</gx:coord>
<gx:coord >17.452288 49.450104 11157</gx:coord>
<gx:coord >17.413753 49.419617 11157</gx:coord>
<gx:coord >17.375022 49.388898 11157</gx:coord>
<gx:coord >17.336932 49.358546 11157</gx:coord>
<gx:coord >17.298255 49.327881 11157</gx:coord>
<gx:coord >17.259451 49.297394 11165</gx:coord>
<gx:coord >17.220202 49.266466 11165</gx:coord>
<gx:coord >17.181244 49.235742 11173</gx:coord>
<gx:coord >17.142193 49.204834 11165</gx:coord>
<gx:coord >17.1036 49.174072 11165</gx:coord>
<gx:coord >17.065711 49.143768 11173</gx:coord>
<gx:coord >17.027508 49.113123 11180</gx:coord>
<gx:coord >16.989723 49.082703 11180</gx:coord>
<gx:coord >16.952555 49.052838 11165</gx:coord>
<gx:coord >16.914649 49.022369 11157</gx:coord>
<gx:coord >16.877096 48.992273 11150</gx:coord>
<gx:coord >16.839728 48.962247 11150</gx:coord>
<gx:coord >16.824857 48.949814 11150</gx:coord>
<gx:coord >16.814575 48.940155 11150</gx:coord>
<gx:coord >16.806119 48.93129 11150</gx:coord>
<gx:coord >16.796867 48.920257 11150</gx:coord>
<gx:coord >16.770052 48.885389 11150</gx:coord>
<gx:coord >16.74367 48.852617 11157</gx:coord>
<gx:coord >16.71512 48.818075 11165</gx:coord>
<gx:coord >16.686894 48.783737 11173</gx:coord>
<gx:coord >16.65896 48.749131 11173</gx:coord>
<gx:coord >16.630771 48.714031 11180</gx:coord>
<gx:coord >16.602525 48.679092 11188</gx:coord>
<gx:coord >16.574249 48.64369 11188</gx:coord>
<gx:coord >16.546061 48.608217 11188</gx:coord>
<gx:coord >16.517872 48.572838 11196</gx:coord>
<gx:coord >16.489633 48.537598 11196</gx:coord>
<gx:coord >16.461604 48.502258 11188</gx:coord>
<gx:coord >16.433379 48.466652 11188</gx:coord>
<gx:coord >16.405262 48.431086 11188</gx:coord>
<gx:coord >16.377376 48.39537 11179</gx:coord>
<gx:coord >16.349699 48.360306 11179</gx:coord>
<gx:coord >16.32207 48.325366 11179</gx:coord>
<gx:coord >16.294026 48.290126 11179</gx:coord>
<gx:coord >16.265909 48.254746 11187</gx:coord>
<gx:coord >16.237582 48.218948 11195</gx:coord>
<gx:coord >16.209893 48.183661 11187</gx:coord>
<gx:coord >16.182157 48.148002 11187</gx:coord>
<gx:coord >16.154915 48.113022 11186</gx:coord>
<gx:coord >16.127437 48.077801 11186</gx:coord>
<gx:coord >16.099503 48.042114 11186</gx:coord>
<gx:coord >16.071762 48.006546 11194</gx:coord>
<gx:coord >16.044687 47.971569 11194</gx:coord>
<gx:coord >16.016968 47.935913 11194</gx:coord>
<gx:coord >15.989755 47.90067 11193</gx:coord>
<gx:coord >15.96286 47.865646 11193</gx:coord>
<gx:coord >15.935875 47.830765 11193</gx:coord>
<gx:coord >15.908837 47.795834 11200</gx:coord>
<gx:coord >15.881836 47.76091 11193</gx:coord>
<gx:coord >15.854328 47.725401 11193</gx:coord>
<gx:coord >15.82711 47.689774 11185</gx:coord>
<gx:coord >15.799819 47.653897 11193</gx:coord>
<gx:coord >15.772776 47.618517 11200</gx:coord>
<gx:coord >15.744987 47.582336 11208</gx:coord>
<gx:coord >15.717351 47.546221 11200</gx:coord>
<gx:coord >15.690448 47.511074 11208</gx:coord>
<gx:coord >15.663194 47.475136 11208</gx:coord>
<gx:coord >15.635658 47.438732 11208</gx:coord>
<gx:coord >15.608688 47.402847 11200</gx:coord>
<gx:coord >15.581154 47.366455 11208</gx:coord>
<gx:coord >15.553894 47.330383 11208</gx:coord>
<gx:coord >15.526909 47.294586 11215</gx:coord>
<gx:coord >15.499512 47.258286 11215</gx:coord>
<gx:coord >15.47206 47.222218 11215</gx:coord>
<gx:coord >15.444786 47.186096 11223</gx:coord>
<gx:coord >15.417692 47.149875 11223</gx:coord>
<gx:coord >15.390747 47.113815 11223</gx:coord>
<gx:coord >15.363831 47.077835 11222</gx:coord>
<gx:coord >15.337196 47.042154 11222</gx:coord>
<gx:coord >15.310645 47.006401 11214</gx:coord>
<gx:coord >15.284042 46.970444 11214</gx:coord>
<gx:coord >15.257334 46.934618 11222</gx:coord>
<gx:coord >15.23029 46.898354 11222</gx:coord>
<gx:coord >15.203738 46.862595 11214</gx:coord>
<gx:coord >15.189835 46.843841 11222</gx:coord>
<gx:coord >15.163143 46.807755 11283</gx:coord>
<gx:coord >15.136139 46.771033 11344</gx:coord>
<gx:coord >15.109149 46.734283 11382</gx:coord>
<gx:coord >15.082621 46.697983 11428</gx:coord>
<gx:coord >15.055557 46.661316 11489</gx:coord>
<gx:coord >15.028895 46.624969 11534</gx:coord>
<gx:coord >15.002702 46.589264 11542</gx:coord>
<gx:coord >14.976375 46.553238 11550</gx:coord>
<gx:coord >14.950115 46.517258 11551</gx:coord>
<gx:coord >14.923485 46.48064 11551</gx:coord>
<gx:coord >14.896992 46.444427 11551</gx:coord>
<gx:coord >14.870799 46.408447 11551</gx:coord>
<gx:coord >14.844177 46.371708 11558</gx:coord>
<gx:coord >14.817609 46.335022 11558</gx:coord>
<gx:coord >14.791649 46.299133 11558</gx:coord>
<gx:coord >14.765556 46.263195 11558</gx:coord>
<gx:coord >14.739052 46.226558 11566</gx:coord>
<gx:coord >14.712753 46.190015 11566</gx:coord>
<gx:coord >14.686317 46.153145 11574</gx:coord>
<gx:coord >14.660019 46.116369 11574</gx:coord>
<gx:coord >14.633856 46.07991 11574</gx:coord>
<gx:coord >14.607797 46.043289 11566</gx:coord>
<gx:coord >14.581939 46.007034 11566</gx:coord>
<gx:coord >14.555786 45.970614 11558</gx:coord>
<gx:coord >14.530089 45.934662 11558</gx:coord>
<gx:coord >14.50367 45.897853 11551</gx:coord>
<gx:coord >14.4771 45.860641 11558</gx:coord>
<gx:coord >14.450974 45.823837 11566</gx:coord>
<gx:coord >14.424911 45.786686 11566</gx:coord>
<gx:coord >14.398387 45.749084 11566</gx:coord>
<gx:coord >14.371628 45.711365 11574</gx:coord>
<gx:coord >14.344527 45.673599 11575</gx:coord>
<gx:coord >14.317798 45.636612 11590</gx:coord>
<gx:coord >14.290672 45.598848 11590</gx:coord>
<gx:coord >14.263893 45.561141 11597</gx:coord>
<gx:coord >14.236712 45.523041 11597</gx:coord>
<gx:coord >14.209769 45.485413 11597</gx:coord>
<gx:coord >14.182826 45.447647 11597</gx:coord>
<gx:coord >14.155616 45.410032 11582</gx:coord>
<gx:coord >14.12882 45.372697 11590</gx:coord>
<gx:coord >14.102158 45.33513 11591</gx:coord>
<gx:coord >14.075644 45.297592 11591</gx:coord>
<gx:coord >14.048901 45.259761 11583</gx:coord>
<gx:coord >14.022282 45.221786 11583</gx:coord>
<gx:coord >13.996314 45.184812 11583</gx:coord>
<gx:coord >13.969786 45.147012 11583</gx:coord>
<gx:coord >13.943325 45.109398 11576</gx:coord>
<gx:coord >13.916931 45.071784 11583</gx:coord>
<gx:coord >13.890708 45.034424 11592</gx:coord>
<gx:coord >13.864947 44.99744 11592</gx:coord>
<gx:coord >13.838687 44.959872 11592</gx:coord>
<gx:coord >13.812293 44.921978 11592</gx:coord>
<gx:coord >13.786403 44.884872 11592</gx:coord>
<gx:coord >13.760572 44.847885 11592</gx:coord>
<gx:coord >13.734741 44.810852 11592</gx:coord>
<gx:coord >13.708714 44.77327 11608</gx:coord>
<gx:coord >13.682735 44.735816 11608</gx:coord>
<gx:coord >13.656791 44.698334 11608</gx:coord>
<gx:coord >13.631622 44.661845 11616</gx:coord>
<gx:coord >13.61407 44.636893 11616</gx:coord>
<gx:coord >13.598663 44.616968 11616</gx:coord>
<gx:coord >13.57302 44.585541 11616</gx:coord>
<gx:coord >13.543597 44.550073 11617</gx:coord>
<gx:coord >13.513653 44.513343 11609</gx:coord>
<gx:coord >13.484998 44.477692 11617</gx:coord>
<gx:coord >13.456552 44.442032 11617</gx:coord>
<gx:coord >13.427303 44.405295 11617</gx:coord>
<gx:coord >13.399234 44.369962 11617</gx:coord>
<gx:coord >13.370361 44.333512 11618</gx:coord>
<gx:coord >13.342307 44.297974 11618</gx:coord>
<gx:coord >13.314187 44.262314 11625</gx:coord>
<gx:coord >13.286021 44.226395 11625</gx:coord>
<gx:coord >13.258209 44.190643 11625</gx:coord>
<gx:coord >13.230541 44.155289 11625</gx:coord>
<gx:coord >13.201989 44.119125 11633</gx:coord>
<gx:coord >13.17385 44.08334 11633</gx:coord>
<gx:coord >13.145796 44.047681 11640</gx:coord>
<gx:coord >13.117153 44.010951 11640</gx:coord>
<gx:coord >13.09858 43.987116 11633</gx:coord>
<gx:coord >13.088967 43.974687 11617</gx:coord>
<gx:coord >13.084142 43.96843 11594</gx:coord>
<gx:coord >13.077818 43.960281 11556</gx:coord>
<gx:coord >13.06894 43.9487 11487</gx:coord>
<gx:coord >13.064852 43.943436 11455</gx:coord>
<gx:coord >13.060764 43.938171 11410</gx:coord>
<gx:coord >13.054952 43.930801 11342</gx:coord>
<gx:coord >13.048756 43.922928 11255</gx:coord>
<gx:coord >13.044368 43.917335 11189</gx:coord>
<gx:coord >13.037044 43.907978 11074</gx:coord>
<gx:coord >13.029197 43.897969 10943</gx:coord>
<gx:coord >13.022265 43.889077 10853</gx:coord>
<gx:coord >13.016755 43.881958 10781</gx:coord>
<gx:coord >13.01107 43.874588 10719</gx:coord>
<gx:coord >13.003533 43.864792 10646</gx:coord>
<gx:coord >12.998984 43.858865 10610</gx:coord>
<gx:coord >12.989698 43.846715 10550</gx:coord>
<gx:coord >12.970191 43.821213 10458</gx:coord>
<gx:coord >12.952162 43.797695 10359</gx:coord>
<gx:coord >12.932674 43.772417 10260</gx:coord>
<gx:coord >12.913151 43.747101 10161</gx:coord>
<gx:coord >12.893989 43.722244 10055</gx:coord>
<gx:coord >12.874015 43.696305 9954</gx:coord>
<gx:coord >12.854387 43.6707 9855</gx:coord>
<gx:coord >12.846222 43.66004 9825</gx:coord>
<gx:coord >12.838227 43.649597 9802</gx:coord>
<gx:coord >12.829415 43.638161 9787</gx:coord>
<gx:coord >12.800511 43.60064 9779</gx:coord>
<gx:coord >12.77167 43.56308 9778</gx:coord>
<gx:coord >12.74231 43.524713 9778</gx:coord>
<gx:coord >12.714059 43.487657 9777</gx:coord>
<gx:coord >12.692021 43.458795 9778</gx:coord>
<gx:coord >12.686207 43.451248 9764</gx:coord>
<gx:coord >12.681608 43.44516 9752</gx:coord>
<gx:coord >12.671452 43.431839 9686</gx:coord>
<gx:coord >12.654811 43.410055 9579</gx:coord>
<gx:coord >12.639834 43.390366 9457</gx:coord>
<gx:coord >12.627315 43.373978 9320</gx:coord>
<gx:coord >12.618692 43.362671 9256</gx:coord>
<gx:coord >12.611389 43.353075 9206</gx:coord>
<gx:coord >12.593142 43.328979 9106</gx:coord>
<gx:coord >12.573329 43.302799 9014</gx:coord>
<gx:coord >12.552519 43.27533 8914</gx:coord>
<gx:coord >12.5354 43.252716 8846</gx:coord>
<gx:coord >12.520229 43.232691 8777</gx:coord>
<gx:coord >12.504076 43.211323 8716</gx:coord>
<gx:coord >12.491847 43.195077 8632</gx:coord>
<gx:coord >12.47702 43.175491 8525</gx:coord>
<gx:coord >12.469025 43.164911 8480</gx:coord>
<gx:coord >12.453706 43.144592 8411</gx:coord>
<gx:coord >12.438951 43.124954 8296</gx:coord>
<gx:coord >12.424324 43.105591 8182</gx:coord>
<gx:coord >12.41008 43.086639 8067</gx:coord>
<gx:coord >12.396538 43.068741 7953</gx:coord>
<gx:coord >12.384019 43.05217 7831</gx:coord>
<gx:coord >12.371116 43.035004 7717</gx:coord>
<gx:coord >12.357461 43.016921 7595</gx:coord>
<gx:coord >12.344251 42.999324 7481</gx:coord>
<gx:coord >12.33094 42.981491 7374</gx:coord>
<gx:coord >12.31914 42.965574 7252</gx:coord>
<gx:coord >12.308153 42.950817 7122</gx:coord>
<gx:coord >12.295617 42.934021 7001</gx:coord>
<gx:coord >12.282388 42.916322 6892</gx:coord>
<gx:coord >12.2762 42.908066 6834</gx:coord>
<gx:coord >12.273952 42.905056 6826</gx:coord>
<gx:coord >12.257996 42.883667 6763</gx:coord>
<gx:coord >12.247336 42.869397 6718</gx:coord>
<gx:coord >12.233021 42.850204 6626</gx:coord>
<gx:coord >12.219478 42.832062 6519</gx:coord>
<gx:coord >12.206322 42.814316 6405</gx:coord>
<gx:coord >12.193291 42.796915 6298</gx:coord>
<gx:coord >12.180964 42.780436 6184</gx:coord>
<gx:coord >12.173663 42.770142 6113</gx:coord>
<gx:coord >12.170169 42.764049 6068</gx:coord>
<gx:coord >12.167933 42.758882 6034</gx:coord>
<gx:coord >12.166273 42.753389 6000</gx:coord>
<gx:coord >12.165361 42.748352 5974</gx:coord>
<gx:coord >12.16474 42.740215 5934</gx:coord>
<gx:coord >12.164362 42.72496 5872</gx:coord>
<gx:coord >12.164356 42.713354 5802</gx:coord>
<gx:coord >12.164931 42.707209 5755</gx:coord>
<gx:coord >12.16611 42.701202 5714</gx:coord>
<gx:coord >12.167795 42.695847 5677</gx:coord>
<gx:coord >12.170233 42.690497 5635</gx:coord>
<gx:coord >12.173039 42.685684 5593</gx:coord>
<gx:coord >12.177259 42.679836 5553</gx:coord>
<gx:coord >12.185307 42.670154 5491</gx:coord>
<gx:coord >12.200317 42.652557 5392</gx:coord>
<gx:coord >12.214945 42.634914 5285</gx:coord>
<gx:coord >12.229281 42.617065 5178</gx:coord>
<gx:coord >12.243701 42.598846 5087</gx:coord>
<gx:coord >12.257184 42.58168 4980</gx:coord>
<gx:coord >12.271537 42.563456 4880</gx:coord>
<gx:coord >12.277409 42.556 4844</gx:coord>
<gx:coord >12.295824 42.532654 4774</gx:coord>
<gx:coord >12.311586 42.512993 4706</gx:coord>
<gx:coord >12.322665 42.499191 4653</gx:coord>
<gx:coord >12.335794 42.482734 4553</gx:coord>
<gx:coord >12.342629 42.474169 4501</gx:coord>
<gx:coord >12.358433 42.454468 4416</gx:coord>
<gx:coord >12.371436 42.43823 4325</gx:coord>
<gx:coord >12.385169 42.420959 4233</gx:coord>
<gx:coord >12.399029 42.403363 4134</gx:coord>
<gx:coord >12.413365 42.3853 4051</gx:coord>
<gx:coord >12.424601 42.371109 3951</gx:coord>
<gx:coord >12.430156 42.363693 3899</gx:coord>
<gx:coord >12.433521 42.358486 3868</gx:coord>
<gx:coord >12.436204 42.353319 3845</gx:coord>
<gx:coord >12.440164 42.344195 3792</gx:coord>
<gx:coord >12.443805 42.335164 3745</gx:coord>
<gx:coord >12.447572 42.325882 3677</gx:coord>
<gx:coord >12.451342 42.316589 3624</gx:coord>
<gx:coord >12.455437 42.306519 3571</gx:coord>
<gx:coord >12.459646 42.296339 3517</gx:coord>
<gx:coord >12.463427 42.287292 3464</gx:coord>
<gx:coord >12.466861 42.279099 3403</gx:coord>
<gx:coord >12.470568 42.270316 3342</gx:coord>
<gx:coord >12.473954 42.262403 3280</gx:coord>
<gx:coord >12.47702 42.254954 3215</gx:coord>
<gx:coord >12.478616 42.250113 3180</gx:coord>
<gx:coord >12.479408 42.245865 3134</gx:coord>
<gx:coord >12.479595 42.242432 3103</gx:coord>
<gx:coord >12.479345 42.238495 3063</gx:coord>
<gx:coord >12.478783 42.235336 3033</gx:coord>
<gx:coord >12.477467 42.231492 3000</gx:coord>
<gx:coord >12.475678 42.227907 2969</gx:coord>
<gx:coord >12.473165 42.224075 2938</gx:coord>
<gx:coord >12.470918 42.221466 2914</gx:coord>
<gx:coord >12.46736 42.218033 2883</gx:coord>
<gx:coord >12.463989 42.215385 2857</gx:coord>
<gx:coord >12.460668 42.21315 2833</gx:coord>
<gx:coord >12.456069 42.210683 2809</gx:coord>
<gx:coord >12.452504 42.209061 2786</gx:coord>
<gx:coord >12.448085 42.207424 2763</gx:coord>
<gx:coord >12.443702 42.206131 2740</gx:coord>
<gx:coord >12.437522 42.204712 2702</gx:coord>
<gx:coord >12.426304 42.202536 2640</gx:coord>
<gx:coord >12.415764 42.200488 2573</gx:coord>
<gx:coord >12.406186 42.198486 2517</gx:coord>
<gx:coord >12.397197 42.196518 2451</gx:coord>
<gx:coord >12.387149 42.19425 2389</gx:coord>
<gx:coord >12.376286 42.191711 2329</gx:coord>
<gx:coord >12.365237 42.189148 2267</gx:coord>
<gx:coord >12.357559 42.187317 2237</gx:coord>
<gx:coord >12.352018 42.186057 2206</gx:coord>
<gx:coord >12.34595 42.184614 2175</gx:coord>
<gx:coord >12.338957 42.183014 2144</gx:coord>
<gx:coord >12.331217 42.181183 2109</gx:coord>
<gx:coord >12.324808 42.179726 2078</gx:coord>
<gx:coord >12.318037 42.17819 2047</gx:coord>
<gx:coord >12.31043 42.176422 2016</gx:coord>
<gx:coord >12.300942 42.174225 1986</gx:coord>
<gx:coord >12.291657 42.172138 1955</gx:coord>
<gx:coord >12.281217 42.169785 1924</gx:coord>
<gx:coord >12.271479 42.167587 1910</gx:coord>
<gx:coord >12.247946 42.162369 1902</gx:coord>
<gx:coord >12.231935 42.158824 1879</gx:coord>
<gx:coord >12.219731 42.156006 1856</gx:coord>
<gx:coord >12.214881 42.154541 1848</gx:coord>
<gx:coord >12.210555 42.152847 1833</gx:coord>
<gx:coord >12.20656 42.150833 1826</gx:coord>
<gx:coord >12.203128 42.148769 1818</gx:coord>
<gx:coord >12.199295 42.146069 1803</gx:coord>
<gx:coord >12.195885 42.143234 1787</gx:coord>
<gx:coord >12.192827 42.140305 1772</gx:coord>
<gx:coord >12.190034 42.137084 1757</gx:coord>
<gx:coord >12.187798 42.133918 1741</gx:coord>
<gx:coord >12.185523 42.129913 1718</gx:coord>
<gx:coord >12.18415 42.126572 1703</gx:coord>
<gx:coord >12.183276 42.123184 1687</gx:coord>
<gx:coord >12.182777 42.119614 1671</gx:coord>
<gx:coord >12.182688 42.11567 1646</gx:coord>
<gx:coord >12.183151 42.108536 1627</gx:coord>
<gx:coord >12.183713 42.101807 1596</gx:coord>
<gx:coord >12.184275 42.095352 1561</gx:coord>
<gx:coord >12.184774 42.088486 1534</gx:coord>
<gx:coord >12.185274 42.081848 1499</gx:coord>
<gx:coord >12.185711 42.075989 1468</gx:coord>
<gx:coord >12.185818 42.074052 1460</gx:coord>
<gx:coord >12.185898 42.072601 1460</gx:coord>
<gx:coord >12.186201 42.06828 1452</gx:coord>
<gx:coord >12.186521 42.06409 1445</gx:coord>
<gx:coord >12.186647 42.061569 1445</gx:coord>
<gx:coord >12.186968 42.05734 1437</gx:coord>
<gx:coord >12.187223 42.053942 1437</gx:coord>
<gx:coord >12.187396 42.051178 1437</gx:coord>
<gx:coord >12.187646 42.047882 1429</gx:coord>
<gx:coord >12.18799 42.042676 1399</gx:coord>
<gx:coord >12.188395 42.037308 1367</gx:coord>
<gx:coord >12.188832 42.031906 1331</gx:coord>
<gx:coord >12.189331 42.026459 1300</gx:coord>
<gx:coord >12.190018 42.021835 1285</gx:coord>
<gx:coord >12.190767 42.018448 1277</gx:coord>
<gx:coord >12.191247 42.01656 1262</gx:coord>
<gx:coord >12.19214 42.013412 1232</gx:coord>
<gx:coord >12.193264 42.009933 1201</gx:coord>
<gx:coord >12.194377 42.006924 1171</gx:coord>
<gx:coord >12.195655 42.003479 1139</gx:coord>
<gx:coord >12.196822 42.000595 1108</gx:coord>
<gx:coord >12.197945 41.997849 1076</gx:coord>
<gx:coord >12.199007 41.995239 1048</gx:coord>
<gx:coord >12.19988 41.993042 1018</gx:coord>
<gx:coord >12.201129 41.989929 985</gx:coord>
<gx:coord >12.202553 41.986487 950</gx:coord>
<gx:coord >12.203438 41.984161 916</gx:coord>
<gx:coord >12.204789 41.980948 884</gx:coord>
<gx:coord >12.206066 41.977968 852</gx:coord>
<gx:coord >12.207496 41.974594 821</gx:coord>
<gx:coord >12.209387 41.970241 790</gx:coord>
<gx:coord >12.211431 41.965353 760</gx:coord>
<gx:coord >12.213475 41.960465 729</gx:coord>
<gx:coord >12.214945 41.956927 714</gx:coord>
<gx:coord >12.216094 41.954087 699</gx:coord>
<gx:coord >12.218202 41.949153 667</gx:coord>
<gx:coord >12.21998 41.944839 640</gx:coord>
<gx:coord >12.220355 41.944061 632</gx:coord>
<gx:coord >12.221291 41.941818 627</gx:coord>
<gx:coord >12.222415 41.939026 601</gx:coord>
<gx:coord >12.2241 41.935089 574</gx:coord>
<gx:coord >12.225037 41.932859 556</gx:coord>
<gx:coord >12.226059 41.930485 547</gx:coord>
<gx:coord >12.227847 41.926249 516</gx:coord>
<gx:coord >12.230093 41.920898 478</gx:coord>
<gx:coord >12.232318 41.915635 447</gx:coord>
<gx:coord >12.234525 41.910233 417</gx:coord>
<gx:coord >12.236534 41.905393 387</gx:coord>
<gx:coord >12.238706 41.900366 363</gx:coord>
<gx:coord >12.240813 41.895245 325</gx:coord>
<gx:coord >12.243049 41.889892 287</gx:coord>
<gx:coord >12.245386 41.884415 264</gx:coord>
<gx:coord >12.247648 41.879091 227</gx:coord>
<gx:coord >12.249564 41.874483 203</gx:coord>
<gx:coord >12.251608 41.869595 165</gx:coord>
<gx:coord >12.253876 41.86409 143</gx:coord>
<gx:coord >12.256143 41.858702 112</gx:coord>
<gx:coord >12.258183 41.853973 74</gx:coord>
<gx:coord >12.258507 41.853301 74</gx:coord>
<gx:coord >12.258507 41.853301 74</gx:coord>
</gx:Track>
</Placemark>
<Placemark ><name >9H-WBI</name>
<Style ><LineStyle ><color >ff1c1ae3</color>
<width >4</width>
</LineStyle>
<IconStyle ><Icon ><href >http://maps.google.com/mapfiles/kml/shapes/airports.png</href>
</Icon>
</IconStyle>
</Style>
<gx:Track ><extrude >0</extrude>
<when >2025-07-31T05:36:55.840Z</when>
<when >2025-07-31T05:37:36.370Z</when>
<when >2025-07-31T05:37:53.350Z</when>
<when >2025-07-31T05:38:02.520Z</when>
<when >2025-07-31T05:38:28.150Z</when>
<when >2025-07-31T05:38:32.540Z</when>
<when >2025-07-31T05:38:35.210Z</when>
<when >2025-07-31T05:38:38.710Z</when>
<when >2025-07-31T05:38:44.290Z</when>
<when >2025-07-31T05:38:47.830Z</when>
<when >2025-07-31T05:38:54.060Z</when>
<when >2025-07-31T05:38:57.350Z</when>
<when >2025-07-31T05:39:27.930Z</when>
<when >2025-07-31T05:39:34.620Z</when>
<when >2025-07-31T05:39:38.680Z</when>
<when >2025-07-31T05:39:41.320Z</when>
<when >2025-07-31T05:39:54.230Z</when>
<when >2025-07-31T05:39:54.230Z</when>
<gx:coord >12.271681 41.813976 0</gx:coord>
<gx:coord >12.273166 41.810415 0</gx:coord>
<gx:coord >12.273508 41.809067 0</gx:coord>
<gx:coord >12.273367 41.808449 0</gx:coord>
<gx:coord >12.272623 41.806726 0</gx:coord>
<gx:coord >12.27229 41.806572 0</gx:coord>
<gx:coord >12.27208 41.806505 0</gx:coord>
<gx:coord >12.271792 41.806435 0</gx:coord>
<gx:coord >12.271313 41.806307 0</gx:coord>
<gx:coord >12.270978 41.806214 0</gx:coord>
<gx:coord >12.270403 41.806051 0</gx:coord>
<gx:coord >12.270059 41.805954 0</gx:coord>
<gx:coord >12.266603 41.805004 0</gx:coord>
<gx:coord >12.265767 41.804775 0</gx:coord>
<gx:coord >12.265213 41.804619 0</gx:coord>
<gx:coord >12.264862 41.804526 0</gx:coord>
<gx:coord >12.263169 41.804061 0</gx:coord>
<gx:coord >12.263169 41.804061 0</gx:coord>
</gx:Track>
</Placemark>
</Folder>
</Folder>
</kml>
