<?xml version="1.0" encoding="UTF-8"?>
<kml xmlns="http://www.opengis.net/kml/2.2" xmlns:gx="http://www.google.com/kml/ext/2.2"><Folder ><Folder ><name >HA-LXJ track</name>
<Placemark ><name >HA-LXJ</name>
<Style ><LineStyle ><color >ff1c1ae3</color>
<width >4</width>
</LineStyle>
<IconStyle ><Icon ><href >http://maps.google.com/mapfiles/kml/shapes/airports.png</href>
</Icon>
</IconStyle>
</Style>
<gx:Track ><altitudeMode >absolute</altitudeMode>
<extrude >1</extrude>
<when >2025-09-02T13:36:36.730Z</when>
<when >2025-09-02T13:36:36.730Z</when>
<when >2025-09-02T13:36:39.640Z</when>
<when >2025-09-02T13:36:42.290Z</when>
<when >2025-09-02T13:36:46.070Z</when>
<when >2025-09-02T13:36:48.070Z</when>
<when >2025-09-02T13:36:50.190Z</when>
<when >2025-09-02T13:36:52.420Z</when>
<when >2025-09-02T13:36:54.630Z</when>
<when >2025-09-02T13:36:56.640Z</when>
<when >2025-09-02T13:36:58.450Z</when>
<when >2025-09-02T13:37:01.320Z</when>
<when >2025-09-02T13:37:02.720Z</when>
<when >2025-09-02T13:37:05.400Z</when>
<when >2025-09-02T13:37:08.880Z</when>
<when >2025-09-02T13:37:11.550Z</when>
<when >2025-09-02T13:37:23.320Z</when>
<when >2025-09-02T13:37:25.500Z</when>
<when >2025-09-02T13:37:34.500Z</when>
<when >2025-09-02T13:37:42.310Z</when>
<when >2025-09-02T13:37:44.500Z</when>
<when >2025-09-02T13:37:48.750Z</when>
<when >2025-09-02T13:37:54.140Z</when>
<when >2025-09-02T13:37:57.440Z</when>
<when >2025-09-02T13:38:00.700Z</when>
<when >2025-09-02T13:38:02.820Z</when>
<when >2025-09-02T13:38:05.980Z</when>
<when >2025-09-02T13:38:09.400Z</when>
<when >2025-09-02T13:38:11.980Z</when>
<when >2025-09-02T13:38:15.890Z</when>
<when >2025-09-02T13:38:19.420Z</when>
<when >2025-09-02T13:38:22.190Z</when>
<when >2025-09-02T13:38:25.930Z</when>
<when >2025-09-02T13:38:29.690Z</when>
<when >2025-09-02T13:38:34.200Z</when>
<when >2025-09-02T13:38:38.200Z</when>
<when >2025-09-02T13:38:42.380Z</when>
<when >2025-09-02T13:38:46.290Z</when>
<when >2025-09-02T13:38:49.400Z</when>
<when >2025-09-02T13:38:52.990Z</when>
<when >2025-09-02T13:38:56.400Z</when>
<when >2025-09-02T13:39:00.940Z</when>
<when >2025-09-02T13:39:07.190Z</when>
<when >2025-09-02T13:39:14.420Z</when>
<when >2025-09-02T13:39:19.140Z</when>
<when >2025-09-02T13:39:23.240Z</when>
<when >2025-09-02T13:39:28.350Z</when>
<when >2025-09-02T13:39:32.170Z</when>
<when >2025-09-02T13:39:36.570Z</when>
<when >2025-09-02T13:39:40.530Z</when>
<when >2025-09-02T13:39:44.010Z</when>
<when >2025-09-02T13:39:49.210Z</when>
<when >2025-09-02T13:39:55.040Z</when>
<when >2025-09-02T13:39:59.850Z</when>
<when >2025-09-02T13:40:06.170Z</when>
<when >2025-09-02T13:40:12.390Z</when>
<when >2025-09-02T13:40:17.330Z</when>
<when >2025-09-02T13:40:21.440Z</when>
<when >2025-09-02T13:40:25.460Z</when>
<when >2025-09-02T13:40:33.910Z</when>
<when >2025-09-02T13:40:42.340Z</when>
<when >2025-09-02T13:40:46.810Z</when>
<when >2025-09-02T13:40:53.820Z</when>
<when >2025-09-02T13:40:58.470Z</when>
<when >2025-09-02T13:41:04.080Z</when>
<when >2025-09-02T13:41:07.710Z</when>
<when >2025-09-02T13:41:12.650Z</when>
<when >2025-09-02T13:41:18.360Z</when>
<when >2025-09-02T13:41:23.220Z</when>
<when >2025-09-02T13:41:27.800Z</when>
<when >2025-09-02T13:41:36.170Z</when>
<when >2025-09-02T13:41:45.620Z</when>
<when >2025-09-02T13:41:55.170Z</when>
<when >2025-09-02T13:42:06.200Z</when>
<when >2025-09-02T13:42:19.090Z</when>
<when >2025-09-02T13:42:30.750Z</when>
<when >2025-09-02T13:42:42.880Z</when>
<when >2025-09-02T13:42:53.570Z</when>
<when >2025-09-02T13:43:04.400Z</when>
<when >2025-09-02T13:43:15.590Z</when>
<when >2025-09-02T13:43:25.140Z</when>
<when >2025-09-02T13:43:35.360Z</when>
<when >2025-09-02T13:43:45.500Z</when>
<when >2025-09-02T13:43:57.080Z</when>
<when >2025-09-02T13:44:05.730Z</when>
<when >2025-09-02T13:44:15.980Z</when>
<when >2025-09-02T13:44:26.360Z</when>
<when >2025-09-02T13:44:35.310Z</when>
<when >2025-09-02T13:44:47.700Z</when>
<when >2025-09-02T13:45:00.320Z</when>
<when >2025-09-02T13:45:12.850Z</when>
<when >2025-09-02T13:45:28.050Z</when>
<when >2025-09-02T13:45:36.640Z</when>
<when >2025-09-02T13:45:46.790Z</when>
<when >2025-09-02T13:45:57.520Z</when>
<when >2025-09-02T13:46:09.370Z</when>
<when >2025-09-02T13:46:21.760Z</when>
<when >2025-09-02T13:46:34.140Z</when>
<when >2025-09-02T13:46:47.190Z</when>
<when >2025-09-02T13:46:59.770Z</when>
<when >2025-09-02T13:47:12.950Z</when>
<when >2025-09-02T13:47:18.080Z</when>
<when >2025-09-02T13:47:23.660Z</when>
<when >2025-09-02T13:47:27.680Z</when>
<when >2025-09-02T13:47:32.200Z</when>
<when >2025-09-02T13:47:38.040Z</when>
<when >2025-09-02T13:47:50.610Z</when>
<when >2025-09-02T13:48:03.400Z</when>
<when >2025-09-02T13:48:18.700Z</when>
<when >2025-09-02T13:48:34.120Z</when>
<when >2025-09-02T13:48:48.520Z</when>
<when >2025-09-02T13:49:00.340Z</when>
<when >2025-09-02T13:49:13.310Z</when>
<when >2025-09-02T13:49:25.630Z</when>
<when >2025-09-02T13:49:40.950Z</when>
<when >2025-09-02T13:49:56.530Z</when>
<when >2025-09-02T13:50:11.670Z</when>
<when >2025-09-02T13:50:26.500Z</when>
<when >2025-09-02T13:50:41.190Z</when>
<when >2025-09-02T13:50:56.310Z</when>
<when >2025-09-02T13:51:10.320Z</when>
<when >2025-09-02T13:51:25.100Z</when>
<when >2025-09-02T13:51:41.830Z</when>
<when >2025-09-02T13:51:56.180Z</when>
<when >2025-09-02T13:52:11.050Z</when>
<when >2025-09-02T13:52:29.450Z</when>
<when >2025-09-02T13:52:45.600Z</when>
<when >2025-09-02T13:52:56.360Z</when>
<when >2025-09-02T13:53:01.440Z</when>
<when >2025-09-02T13:53:05.830Z</when>
<when >2025-09-02T13:53:10.490Z</when>
<when >2025-09-02T13:53:15.120Z</when>
<when >2025-09-02T13:53:19.080Z</when>
<when >2025-09-02T13:53:24.990Z</when>
<when >2025-09-02T13:53:29.020Z</when>
<when >2025-09-02T13:53:33.920Z</when>
<when >2025-09-02T13:53:39.060Z</when>
<when >2025-09-02T13:53:44.200Z</when>
<when >2025-09-02T13:53:51.800Z</when>
<when >2025-09-02T13:54:07.890Z</when>
<when >2025-09-02T13:54:27.220Z</when>
<when >2025-09-02T13:54:44.650Z</when>
<when >2025-09-02T13:55:01.150Z</when>
<when >2025-09-02T13:55:19.380Z</when>
<when >2025-09-02T13:55:38.390Z</when>
<when >2025-09-02T13:55:53.860Z</when>
<when >2025-09-02T13:56:08.880Z</when>
<when >2025-09-02T13:56:21.510Z</when>
<when >2025-09-02T13:56:41.450Z</when>
<when >2025-09-02T13:56:59.850Z</when>
<when >2025-09-02T13:57:16.360Z</when>
<when >2025-09-02T13:57:34.600Z</when>
<when >2025-09-02T13:57:51.910Z</when>
<when >2025-09-02T13:58:08.330Z</when>
<when >2025-09-02T13:58:24.620Z</when>
<when >2025-09-02T13:58:40.800Z</when>
<when >2025-09-02T13:58:57.970Z</when>
<when >2025-09-02T13:59:15.620Z</when>
<when >2025-09-02T13:59:34.400Z</when>
<when >2025-09-02T13:59:53.820Z</when>
<when >2025-09-02T14:00:12.950Z</when>
<when >2025-09-02T14:00:32.550Z</when>
<when >2025-09-02T14:00:52.160Z</when>
<when >2025-09-02T14:01:11.660Z</when>
<when >2025-09-02T14:01:31.610Z</when>
<when >2025-09-02T14:01:50.740Z</when>
<when >2025-09-02T14:02:10.420Z</when>
<when >2025-09-02T14:02:30.280Z</when>
<when >2025-09-02T14:02:49.710Z</when>
<when >2025-09-02T14:03:09.000Z</when>
<when >2025-09-02T14:03:28.480Z</when>
<when >2025-09-02T14:03:48.190Z</when>
<when >2025-09-02T14:04:07.460Z</when>
<when >2025-09-02T14:04:26.660Z</when>
<when >2025-09-02T14:04:45.500Z</when>
<when >2025-09-02T14:05:04.930Z</when>
<when >2025-09-02T14:05:24.470Z</when>
<when >2025-09-02T14:05:44.150Z</when>
<when >2025-09-02T14:06:03.690Z</when>
<when >2025-09-02T14:06:23.280Z</when>
<when >2025-09-02T14:06:43.230Z</when>
<when >2025-09-02T14:07:02.250Z</when>
<when >2025-09-02T14:07:21.440Z</when>
<when >2025-09-02T14:07:40.600Z</when>
<when >2025-09-02T14:08:00.120Z</when>
<when >2025-09-02T14:08:19.200Z</when>
<when >2025-09-02T14:08:39.150Z</when>
<when >2025-09-02T14:08:58.580Z</when>
<when >2025-09-02T14:09:17.790Z</when>
<when >2025-09-02T14:09:37.430Z</when>
<when >2025-09-02T14:09:57.240Z</when>
<when >2025-09-02T14:10:17.200Z</when>
<when >2025-09-02T14:10:36.940Z</when>
<when >2025-09-02T14:10:56.310Z</when>
<when >2025-09-02T14:11:15.590Z</when>
<when >2025-09-02T14:11:35.420Z</when>
<when >2025-09-02T14:11:55.290Z</when>
<when >2025-09-02T14:12:14.130Z</when>
<when >2025-09-02T14:12:34.030Z</when>
<when >2025-09-02T14:12:53.690Z</when>
<when >2025-09-02T14:13:13.640Z</when>
<when >2025-09-02T14:13:32.780Z</when>
<when >2025-09-02T14:13:52.340Z</when>
<when >2025-09-02T14:14:11.670Z</when>
<when >2025-09-02T14:14:30.960Z</when>
<when >2025-09-02T14:14:50.610Z</when>
<when >2025-09-02T14:15:10.550Z</when>
<when >2025-09-02T14:15:29.490Z</when>
<when >2025-09-02T14:15:49.460Z</when>
<when >2025-09-02T14:16:08.290Z</when>
<when >2025-09-02T14:16:27.720Z</when>
<when >2025-09-02T14:16:47.660Z</when>
<when >2025-09-02T14:17:07.460Z</when>
<when >2025-09-02T14:17:26.380Z</when>
<when >2025-09-02T14:17:46.360Z</when>
<when >2025-09-02T14:18:05.310Z</when>
<when >2025-09-02T14:18:24.510Z</when>
<when >2025-09-02T14:18:43.970Z</when>
<when >2025-09-02T14:19:03.520Z</when>
<when >2025-09-02T14:19:23.410Z</when>
<when >2025-09-02T14:19:42.850Z</when>
<when >2025-09-02T14:20:01.870Z</when>
<when >2025-09-02T14:20:21.190Z</when>
<when >2025-09-02T14:20:40.620Z</when>
<when >2025-09-02T14:20:59.830Z</when>
<when >2025-09-02T14:21:18.570Z</when>
<when >2025-09-02T14:21:38.460Z</when>
<when >2025-09-02T14:21:58.070Z</when>
<when >2025-09-02T14:22:17.300Z</when>
<when >2025-09-02T14:22:37.050Z</when>
<when >2025-09-02T14:22:56.560Z</when>
<when >2025-09-02T14:23:16.330Z</when>
<when >2025-09-02T14:23:35.670Z</when>
<when >2025-09-02T14:23:55.110Z</when>
<when >2025-09-02T14:24:14.610Z</when>
<when >2025-09-02T14:24:34.160Z</when>
<when >2025-09-02T14:24:53.890Z</when>
<when >2025-09-02T14:25:13.690Z</when>
<when >2025-09-02T14:25:33.230Z</when>
<when >2025-09-02T14:25:53.040Z</when>
<when >2025-09-02T14:26:12.960Z</when>
<when >2025-09-02T14:26:32.320Z</when>
<when >2025-09-02T14:26:51.960Z</when>
<when >2025-09-02T14:27:11.740Z</when>
<when >2025-09-02T14:27:31.740Z</when>
<when >2025-09-02T14:27:51.690Z</when>
<when >2025-09-02T14:28:11.000Z</when>
<when >2025-09-02T14:28:29.700Z</when>
<when >2025-09-02T14:28:49.220Z</when>
<when >2025-09-02T14:29:08.750Z</when>
<when >2025-09-02T14:29:28.300Z</when>
<when >2025-09-02T14:29:47.630Z</when>
<when >2025-09-02T14:30:07.540Z</when>
<when >2025-09-02T14:30:26.700Z</when>
<when >2025-09-02T14:30:46.430Z</when>
<when >2025-09-02T14:31:06.250Z</when>
<when >2025-09-02T14:31:25.620Z</when>
<when >2025-09-02T14:31:45.460Z</when>
<when >2025-09-02T14:32:04.960Z</when>
<when >2025-09-02T14:32:24.740Z</when>
<when >2025-09-02T14:32:44.460Z</when>
<when >2025-09-02T14:33:03.890Z</when>
<when >2025-09-02T14:33:23.760Z</when>
<when >2025-09-02T14:33:42.930Z</when>
<when >2025-09-02T14:34:02.910Z</when>
<when >2025-09-02T14:34:18.010Z</when>
<when >2025-09-02T14:34:28.350Z</when>
<when >2025-09-02T14:34:39.220Z</when>
<when >2025-09-02T14:34:59.210Z</when>
<when >2025-09-02T14:35:18.740Z</when>
<when >2025-09-02T14:35:38.530Z</when>
<when >2025-09-02T14:35:57.660Z</when>
<when >2025-09-02T14:36:17.000Z</when>
<when >2025-09-02T14:36:36.640Z</when>
<when >2025-09-02T14:36:56.330Z</when>
<when >2025-09-02T14:37:15.920Z</when>
<when >2025-09-02T14:37:35.530Z</when>
<when >2025-09-02T14:37:55.510Z</when>
<when >2025-09-02T14:38:14.940Z</when>
<when >2025-09-02T14:38:34.140Z</when>
<when >2025-09-02T14:38:53.940Z</when>
<when >2025-09-02T14:39:13.820Z</when>
<when >2025-09-02T14:39:33.810Z</when>
<when >2025-09-02T14:39:53.600Z</when>
<when >2025-09-02T14:40:13.090Z</when>
<when >2025-09-02T14:40:32.520Z</when>
<when >2025-09-02T14:40:52.440Z</when>
<when >2025-09-02T14:41:11.710Z</when>
<when >2025-09-02T14:41:31.220Z</when>
<when >2025-09-02T14:41:50.930Z</when>
<when >2025-09-02T14:42:10.680Z</when>
<when >2025-09-02T14:42:30.380Z</when>
<when >2025-09-02T14:42:49.930Z</when>
<when >2025-09-02T14:43:09.880Z</when>
<when >2025-09-02T14:43:29.290Z</when>
<when >2025-09-02T14:43:48.760Z</when>
<when >2025-09-02T14:44:08.470Z</when>
<when >2025-09-02T14:44:28.170Z</when>
<when >2025-09-02T14:44:47.520Z</when>
<when >2025-09-02T14:45:07.220Z</when>
<when >2025-09-02T14:45:26.970Z</when>
<when >2025-09-02T14:45:46.370Z</when>
<when >2025-09-02T14:46:06.370Z</when>
<when >2025-09-02T14:46:26.280Z</when>
<when >2025-09-02T14:46:46.140Z</when>
<when >2025-09-02T14:47:05.860Z</when>
<when >2025-09-02T14:47:25.250Z</when>
<when >2025-09-02T14:47:44.820Z</when>
<when >2025-09-02T14:48:04.190Z</when>
<when >2025-09-02T14:48:23.580Z</when>
<when >2025-09-02T14:48:43.570Z</when>
<when >2025-09-02T14:49:03.520Z</when>
<when >2025-09-02T14:49:23.230Z</when>
<when >2025-09-02T14:49:42.910Z</when>
<when >2025-09-02T14:50:02.430Z</when>
<when >2025-09-02T14:50:22.080Z</when>
<when >2025-09-02T14:50:41.840Z</when>
<when >2025-09-02T14:51:01.240Z</when>
<when >2025-09-02T14:51:21.070Z</when>
<when >2025-09-02T14:51:41.060Z</when>
<when >2025-09-02T14:51:51.160Z</when>
<when >2025-09-02T14:52:01.210Z</when>
<when >2025-09-02T14:52:21.070Z</when>
<when >2025-09-02T14:52:40.720Z</when>
<when >2025-09-02T14:53:00.200Z</when>
<when >2025-09-02T14:53:19.540Z</when>
<when >2025-09-02T14:53:39.440Z</when>
<when >2025-09-02T14:53:59.400Z</when>
<when >2025-09-02T14:54:19.060Z</when>
<when >2025-09-02T14:54:38.880Z</when>
<when >2025-09-02T14:54:58.470Z</when>
<when >2025-09-02T14:55:18.390Z</when>
<when >2025-09-02T14:55:38.250Z</when>
<when >2025-09-02T14:55:58.000Z</when>
<when >2025-09-02T14:56:17.680Z</when>
<when >2025-09-02T14:56:37.600Z</when>
<when >2025-09-02T14:56:56.920Z</when>
<when >2025-09-02T14:57:16.600Z</when>
<when >2025-09-02T14:57:36.520Z</when>
<when >2025-09-02T14:57:56.490Z</when>
<when >2025-09-02T14:58:16.130Z</when>
<when >2025-09-02T14:58:35.650Z</when>
<when >2025-09-02T14:58:55.620Z</when>
<when >2025-09-02T14:59:14.920Z</when>
<when >2025-09-02T14:59:34.580Z</when>
<when >2025-09-02T14:59:54.240Z</when>
<when >2025-09-02T15:00:13.890Z</when>
<when >2025-09-02T15:00:33.740Z</when>
<when >2025-09-02T15:00:53.480Z</when>
<when >2025-09-02T15:01:13.400Z</when>
<when >2025-09-02T15:01:33.150Z</when>
<when >2025-09-02T15:01:53.130Z</when>
<when >2025-09-02T15:02:13.030Z</when>
<when >2025-09-02T15:02:32.910Z</when>
<when >2025-09-02T15:02:52.420Z</when>
<when >2025-09-02T15:03:11.970Z</when>
<when >2025-09-02T15:03:31.960Z</when>
<when >2025-09-02T15:03:51.720Z</when>
<when >2025-09-02T15:04:11.230Z</when>
<when >2025-09-02T15:04:24.440Z</when>
<when >2025-09-02T15:04:44.310Z</when>
<when >2025-09-02T15:05:01.530Z</when>
<when >2025-09-02T15:05:05.100Z</when>
<when >2025-09-02T15:05:06.520Z</when>
<when >2025-09-02T15:05:08.100Z</when>
<when >2025-09-02T15:05:09.810Z</when>
<when >2025-09-02T15:05:19.990Z</when>
<when >2025-09-02T15:05:25.420Z</when>
<when >2025-09-02T15:05:33.020Z</when>
<when >2025-09-02T15:05:35.070Z</when>
<when >2025-09-02T15:05:38.120Z</when>
<when >2025-09-02T15:05:39.890Z</when>
<when >2025-09-02T15:05:54.620Z</when>
<when >2025-09-02T15:06:01.140Z</when>
<when >2025-09-02T15:06:12.340Z</when>
<when >2025-09-02T15:06:24.260Z</when>
<when >2025-09-02T15:06:35.810Z</when>
<when >2025-09-02T15:06:41.780Z</when>
<when >2025-09-02T15:06:55.020Z</when>
<when >2025-09-02T15:07:06.880Z</when>
<when >2025-09-02T15:07:08.040Z</when>
<when >2025-09-02T15:07:09.330Z</when>
<when >2025-09-02T15:07:22.990Z</when>
<when >2025-09-02T15:07:31.200Z</when>
<when >2025-09-02T15:07:41.600Z</when>
<when >2025-09-02T15:07:52.480Z</when>
<when >2025-09-02T15:08:03.250Z</when>
<when >2025-09-02T15:08:14.710Z</when>
<when >2025-09-02T15:08:25.610Z</when>
<when >2025-09-02T15:08:37.030Z</when>
<when >2025-09-02T15:08:44.880Z</when>
<when >2025-09-02T15:08:47.390Z</when>
<when >2025-09-02T15:08:49.580Z</when>
<when >2025-09-02T15:08:52.570Z</when>
<when >2025-09-02T15:08:59.780Z</when>
<when >2025-09-02T15:09:07.610Z</when>
<when >2025-09-02T15:09:15.110Z</when>
<when >2025-09-02T15:09:22.360Z</when>
<when >2025-09-02T15:09:33.830Z</when>
<when >2025-09-02T15:09:45.380Z</when>
<when >2025-09-02T15:09:56.390Z</when>
<when >2025-09-02T15:10:07.810Z</when>
<when >2025-09-02T15:10:19.780Z</when>
<when >2025-09-02T15:10:30.810Z</when>
<when >2025-09-02T15:10:42.350Z</when>
<when >2025-09-02T15:10:54.180Z</when>
<when >2025-09-02T15:11:06.620Z</when>
<when >2025-09-02T15:11:17.570Z</when>
<when >2025-09-02T15:11:26.200Z</when>
<when >2025-09-02T15:11:38.550Z</when>
<when >2025-09-02T15:11:50.600Z</when>
<when >2025-09-02T15:12:02.420Z</when>
<when >2025-09-02T15:12:08.560Z</when>
<when >2025-09-02T15:12:22.330Z</when>
<when >2025-09-02T15:12:34.970Z</when>
<when >2025-09-02T15:12:46.560Z</when>
<when >2025-09-02T15:12:58.560Z</when>
<when >2025-09-02T15:13:10.350Z</when>
<when >2025-09-02T15:13:22.730Z</when>
<when >2025-09-02T15:13:35.140Z</when>
<when >2025-09-02T15:13:47.100Z</when>
<when >2025-09-02T15:13:59.680Z</when>
<when >2025-09-02T15:14:12.110Z</when>
<when >2025-09-02T15:14:23.140Z</when>
<when >2025-09-02T15:14:34.310Z</when>
<when >2025-09-02T15:14:45.430Z</when>
<when >2025-09-02T15:14:57.530Z</when>
<when >2025-09-02T15:15:09.940Z</when>
<when >2025-09-02T15:15:16.900Z</when>
<when >2025-09-02T15:15:31.680Z</when>
<when >2025-09-02T15:15:48.110Z</when>
<when >2025-09-02T15:16:04.300Z</when>
<when >2025-09-02T15:16:19.620Z</when>
<when >2025-09-02T15:16:35.190Z</when>
<when >2025-09-02T15:16:52.160Z</when>
<when >2025-09-02T15:17:01.050Z</when>
<when >2025-09-02T15:17:12.710Z</when>
<when >2025-09-02T15:17:25.340Z</when>
<when >2025-09-02T15:17:32.200Z</when>
<when >2025-09-02T15:17:43.850Z</when>
<when >2025-09-02T15:17:56.710Z</when>
<when >2025-09-02T15:18:09.970Z</when>
<when >2025-09-02T15:18:22.830Z</when>
<when >2025-09-02T15:18:36.250Z</when>
<when >2025-09-02T15:18:50.350Z</when>
<when >2025-09-02T15:18:58.520Z</when>
<when >2025-09-02T15:19:05.970Z</when>
<when >2025-09-02T15:19:13.250Z</when>
<when >2025-09-02T15:19:20.380Z</when>
<when >2025-09-02T15:19:26.390Z</when>
<when >2025-09-02T15:19:32.380Z</when>
<when >2025-09-02T15:19:39.420Z</when>
<when >2025-09-02T15:19:46.640Z</when>
<when >2025-09-02T15:19:53.470Z</when>
<when >2025-09-02T15:19:55.640Z</when>
<when >2025-09-02T15:20:01.950Z</when>
<when >2025-09-02T15:20:12.480Z</when>
<when >2025-09-02T15:20:21.980Z</when>
<when >2025-09-02T15:20:30.630Z</when>
<when >2025-09-02T15:20:37.940Z</when>
<when >2025-09-02T15:20:46.400Z</when>
<when >2025-09-02T15:20:55.760Z</when>
<when >2025-09-02T15:21:05.870Z</when>
<when >2025-09-02T15:21:15.750Z</when>
<when >2025-09-02T15:21:23.860Z</when>
<when >2025-09-02T15:21:29.030Z</when>
<when >2025-09-02T15:21:33.000Z</when>
<when >2025-09-02T15:21:40.730Z</when>
<when >2025-09-02T15:21:47.250Z</when>
<when >2025-09-02T15:21:51.160Z</when>
<when >2025-09-02T15:21:54.680Z</when>
<when >2025-09-02T15:21:56.820Z</when>
<when >2025-09-02T15:21:58.990Z</when>
<when >2025-09-02T15:22:01.980Z</when>
<when >2025-09-02T15:22:04.620Z</when>
<when >2025-09-02T15:22:07.420Z</when>
<when >2025-09-02T15:22:10.450Z</when>
<when >2025-09-02T15:22:13.600Z</when>
<when >2025-09-02T15:22:17.180Z</when>
<when >2025-09-02T15:22:20.270Z</when>
<when >2025-09-02T15:22:23.430Z</when>
<when >2025-09-02T15:22:26.850Z</when>
<when >2025-09-02T15:22:33.660Z</when>
<when >2025-09-02T15:22:42.090Z</when>
<when >2025-09-02T15:22:50.760Z</when>
<when >2025-09-02T15:22:59.480Z</when>
<when >2025-09-02T15:23:08.620Z</when>
<when >2025-09-02T15:23:17.040Z</when>
<when >2025-09-02T15:23:25.730Z</when>
<when >2025-09-02T15:23:36.050Z</when>
<when >2025-09-02T15:23:42.230Z</when>
<when >2025-09-02T15:23:47.610Z</when>
<when >2025-09-02T15:23:53.150Z</when>
<when >2025-09-02T15:23:59.210Z</when>
<when >2025-09-02T15:24:05.080Z</when>
<when >2025-09-02T15:24:11.130Z</when>
<when >2025-09-02T15:24:17.430Z</when>
<when >2025-09-02T15:24:23.300Z</when>
<when >2025-09-02T15:24:29.690Z</when>
<when >2025-09-02T15:24:35.770Z</when>
<when >2025-09-02T15:24:41.800Z</when>
<when >2025-09-02T15:24:47.830Z</when>
<when >2025-09-02T15:24:54.340Z</when>
<when >2025-09-02T15:25:00.510Z</when>
<when >2025-09-02T15:25:06.390Z</when>
<when >2025-09-02T15:25:12.670Z</when>
<when >2025-09-02T15:25:17.090Z</when>
<when >2025-09-02T15:25:20.920Z</when>
<when >2025-09-02T15:25:25.490Z</when>
<when >2025-09-02T15:25:29.360Z</when>
<when >2025-09-02T15:25:33.360Z</when>
<when >2025-09-02T15:25:38.150Z</when>
<when >2025-09-02T15:25:42.880Z</when>
<when >2025-09-02T15:25:47.360Z</when>
<when >2025-09-02T15:25:52.130Z</when>
<when >2025-09-02T15:25:57.820Z</when>
<when >2025-09-02T15:26:02.270Z</when>
<when >2025-09-02T15:26:06.870Z</when>
<when >2025-09-02T15:26:12.240Z</when>
<when >2025-09-02T15:26:18.280Z</when>
<when >2025-09-02T15:26:21.990Z</when>
<when >2025-09-02T15:26:24.550Z</when>
<when >2025-09-02T15:26:26.480Z</when>
<when >2025-09-02T15:26:30.010Z</when>
<when >2025-09-02T15:26:32.780Z</when>
<when >2025-09-02T15:26:35.560Z</when>
<when >2025-09-02T15:26:37.860Z</when>
<when >2025-09-02T15:26:40.730Z</when>
<when >2025-09-02T15:26:43.850Z</when>
<when >2025-09-02T15:26:46.320Z</when>
<when >2025-09-02T15:26:48.750Z</when>
<when >2025-09-02T15:26:51.630Z</when>
<when >2025-09-02T15:26:55.080Z</when>
<when >2025-09-02T15:26:58.290Z</when>
<when >2025-09-02T15:27:01.330Z</when>
<when >2025-09-02T15:27:04.060Z</when>
<when >2025-09-02T15:27:07.420Z</when>
<when >2025-09-02T15:27:10.510Z</when>
<when >2025-09-02T15:27:12.820Z</when>
<when >2025-09-02T15:27:15.690Z</when>
<when >2025-09-02T15:27:18.080Z</when>
<when >2025-09-02T15:27:20.630Z</when>
<when >2025-09-02T15:27:23.620Z</when>
<when >2025-09-02T15:27:26.870Z</when>
<when >2025-09-02T15:27:29.490Z</when>
<when >2025-09-02T15:27:33.010Z</when>
<when >2025-09-02T15:27:36.360Z</when>
<when >2025-09-02T15:27:41.780Z</when>
<when >2025-09-02T15:28:01.560Z</when>
<when >2025-09-02T15:28:07.120Z</when>
<when >2025-09-02T15:28:09.710Z</when>
<when >2025-09-02T15:28:12.780Z</when>
<when >2025-09-02T15:28:15.460Z</when>
<when >2025-09-02T15:28:18.460Z</when>
<when >2025-09-02T15:28:22.530Z</when>
<when >2025-09-02T15:28:31.060Z</when>
<when >2025-09-02T15:28:38.580Z</when>
<when >2025-09-02T15:28:42.450Z</when>
<when >2025-09-02T15:28:48.470Z</when>
<when >2025-09-02T15:29:05.730Z</when>
<when >2025-09-02T15:29:25.570Z</when>
<when >2025-09-02T15:29:31.520Z</when>
<when >2025-09-02T15:29:34.890Z</when>
<when >2025-09-02T15:29:36.520Z</when>
<when >2025-09-02T15:29:39.320Z</when>
<when >2025-09-02T15:29:42.040Z</when>
<when >2025-09-02T15:29:46.900Z</when>
<when >2025-09-02T15:29:51.680Z</when>
<when >2025-09-02T15:29:58.100Z</when>
<when >2025-09-02T15:30:04.580Z</when>
<when >2025-09-02T15:30:10.460Z</when>
<when >2025-09-02T15:30:15.940Z</when>
<when >2025-09-02T15:30:21.110Z</when>
<when >2025-09-02T15:30:27.930Z</when>
<when >2025-09-02T15:30:33.910Z</when>
<when >2025-09-02T15:30:40.230Z</when>
<when >2025-09-02T15:30:47.140Z</when>
<when >2025-09-02T15:30:53.970Z</when>
<when >2025-09-02T15:31:02.480Z</when>
<when >2025-09-02T15:31:11.550Z</when>
<when >2025-09-02T15:31:20.240Z</when>
<when >2025-09-02T15:31:28.230Z</when>
<when >2025-09-02T15:31:35.480Z</when>
<when >2025-09-02T15:31:43.180Z</when>
<when >2025-09-02T15:31:50.770Z</when>
<when >2025-09-02T15:31:59.410Z</when>
<when >2025-09-02T15:32:05.460Z</when>
<when >2025-09-02T15:32:12.250Z</when>
<when >2025-09-02T15:32:20.380Z</when>
<when >2025-09-02T15:32:27.840Z</when>
<when >2025-09-02T15:32:34.700Z</when>
<when >2025-09-02T15:32:41.490Z</when>
<when >2025-09-02T15:32:50.480Z</when>
<when >2025-09-02T15:32:52.950Z</when>
<when >2025-09-02T15:32:57.160Z</when>
<when >2025-09-02T15:33:00.480Z</when>
<when >2025-09-02T15:33:01.800Z</when>
<when >2025-09-02T15:33:04.920Z</when>
<when >2025-09-02T15:33:05.290Z</when>
<when >2025-09-02T15:33:06.340Z</when>
<when >2025-09-02T15:33:07.210Z</when>
<when >2025-09-02T15:33:07.210Z</when>
<gx:coord >19.891225 39.658401 769</gx:coord>
<gx:coord >19.891225 39.658401 769</gx:coord>
<gx:coord >19.889221 39.65962 801</gx:coord>
<gx:coord >19.886536 39.660924 830</gx:coord>
<gx:coord >19.883301 39.662134 860</gx:coord>
<gx:coord >19.880776 39.66275 888</gx:coord>
<gx:coord >19.877014 39.663438 922</gx:coord>
<gx:coord >19.875916 39.663577 943</gx:coord>
<gx:coord >19.872009 39.66381 983</gx:coord>
<gx:coord >19.869995 39.663857 998</gx:coord>
<gx:coord >19.866505 39.663849 1031</gx:coord>
<gx:coord >19.864416 39.663849 1054</gx:coord>
<gx:coord >19.861968 39.663803 1078</gx:coord>
<gx:coord >19.858743 39.663712 1114</gx:coord>
<gx:coord >19.854614 39.663577 1146</gx:coord>
<gx:coord >19.850647 39.663484 1185</gx:coord>
<gx:coord >19.837585 39.663112 1317</gx:coord>
<gx:coord >19.833845 39.663025 1355</gx:coord>
<gx:coord >19.822388 39.662786 1454</gx:coord>
<gx:coord >19.81366 39.6626 1535</gx:coord>
<gx:coord >19.808588 39.662521 1568</gx:coord>
<gx:coord >19.804588 39.66243 1603</gx:coord>
<gx:coord >19.798259 39.662292 1652</gx:coord>
<gx:coord >19.793482 39.662338 1683</gx:coord>
<gx:coord >19.789185 39.662832 1715</gx:coord>
<gx:coord >19.786377 39.663345 1739</gx:coord>
<gx:coord >19.781372 39.664881 1795</gx:coord>
<gx:coord >19.778748 39.666091 1822</gx:coord>
<gx:coord >19.775513 39.667953 1850</gx:coord>
<gx:coord >19.772823 39.669846 1892</gx:coord>
<gx:coord >19.769592 39.672236 1927</gx:coord>
<gx:coord >19.766907 39.674331 1960</gx:coord>
<gx:coord >19.762852 39.677582 1993</gx:coord>
<gx:coord >19.759508 39.680191 2009</gx:coord>
<gx:coord >19.755371 39.683595 2039</gx:coord>
<gx:coord >19.751686 39.686554 2067</gx:coord>
<gx:coord >19.747864 39.689693 2098</gx:coord>
<gx:coord >19.743896 39.692905 2127</gx:coord>
<gx:coord >19.74064 39.695526 2151</gx:coord>
<gx:coord >19.737427 39.698119 2169</gx:coord>
<gx:coord >19.733887 39.700959 2197</gx:coord>
<gx:coord >19.729004 39.704776 2226</gx:coord>
<gx:coord >19.722728 39.709717 2283</gx:coord>
<gx:coord >19.715563 39.71521 2338</gx:coord>
<gx:coord >19.709351 39.719952 2400</gx:coord>
<gx:coord >19.704224 39.723769 2462</gx:coord>
<gx:coord >19.698914 39.727773 2529</gx:coord>
<gx:coord >19.694426 39.731094 2587</gx:coord>
<gx:coord >19.689575 39.734663 2649</gx:coord>
<gx:coord >19.685181 39.737921 2703</gx:coord>
<gx:coord >19.679688 39.741971 2762</gx:coord>
<gx:coord >19.673706 39.746347 2839</gx:coord>
<gx:coord >19.668152 39.750444 2875</gx:coord>
<gx:coord >19.661049 39.755676 2940</gx:coord>
<gx:coord >19.653407 39.761307 3003</gx:coord>
<gx:coord >19.645883 39.766891 3084</gx:coord>
<gx:coord >19.639709 39.771485 3127</gx:coord>
<gx:coord >19.634837 39.775085 3162</gx:coord>
<gx:coord >19.629578 39.779027 3189</gx:coord>
<gx:coord >19.618347 39.78736 3228</gx:coord>
<gx:coord >19.607252 39.795593 3289</gx:coord>
<gx:coord >19.602295 39.799324 3312</gx:coord>
<gx:coord >19.593567 39.805748 3377</gx:coord>
<gx:coord >19.585817 39.811523 3427</gx:coord>
<gx:coord >19.579224 39.816362 3495</gx:coord>
<gx:coord >19.57251 39.821389 3560</gx:coord>
<gx:coord >19.565674 39.826417 3619</gx:coord>
<gx:coord >19.55859 39.831711 3690</gx:coord>
<gx:coord >19.551126 39.83725 3747</gx:coord>
<gx:coord >19.546265 39.840941 3793</gx:coord>
<gx:coord >19.533512 39.850479 3937</gx:coord>
<gx:coord >19.520197 39.860458 4074</gx:coord>
<gx:coord >19.507181 39.870209 4181</gx:coord>
<gx:coord >19.491418 39.881973 4326</gx:coord>
<gx:coord >19.473625 39.895294 4432</gx:coord>
<gx:coord >19.456238 39.908209 4547</gx:coord>
<gx:coord >19.440125 39.920173 4676</gx:coord>
<gx:coord >19.422705 39.933115 4790</gx:coord>
<gx:coord >19.406662 39.944986 4920</gx:coord>
<gx:coord >19.390015 39.957367 5057</gx:coord>
<gx:coord >19.375305 39.968262 5187</gx:coord>
<gx:coord >19.360046 39.979614 5286</gx:coord>
<gx:coord >19.345863 39.990141 5415</gx:coord>
<gx:coord >19.32801 40.003362 5536</gx:coord>
<gx:coord >19.314575 40.013306 5643</gx:coord>
<gx:coord >19.299296 40.02459 5765</gx:coord>
<gx:coord >19.283081 40.036606 5887</gx:coord>
<gx:coord >19.270082 40.046237 5993</gx:coord>
<gx:coord >19.250244 40.060913 6085</gx:coord>
<gx:coord >19.231193 40.075099 6207</gx:coord>
<gx:coord >19.211467 40.08967 6306</gx:coord>
<gx:coord >19.18866 40.106506 6405</gx:coord>
<gx:coord >19.172852 40.118225 6489</gx:coord>
<gx:coord >19.156411 40.13031 6580</gx:coord>
<gx:coord >19.139099 40.143082 6702</gx:coord>
<gx:coord >19.119446 40.157547 6816</gx:coord>
<gx:coord >19.099794 40.172021 6938</gx:coord>
<gx:coord >19.079102 40.187164 7045</gx:coord>
<gx:coord >19.057861 40.202728 7159</gx:coord>
<gx:coord >19.036248 40.218573 7265</gx:coord>
<gx:coord >19.01465 40.234494 7381</gx:coord>
<gx:coord >19.006597 40.241104 7424</gx:coord>
<gx:coord >18.997858 40.249577 7470</gx:coord>
<gx:coord >18.992615 40.255554 7493</gx:coord>
<gx:coord >18.986809 40.263496 7524</gx:coord>
<gx:coord >18.98053 40.272812 7562</gx:coord>
<gx:coord >18.966772 40.293755 7669</gx:coord>
<gx:coord >18.952664 40.315076 7768</gx:coord>
<gx:coord >18.935486 40.340698 7859</gx:coord>
<gx:coord >18.918395 40.365771 7966</gx:coord>
<gx:coord >18.901367 40.39064 8057</gx:coord>
<gx:coord >18.887121 40.411392 8163</gx:coord>
<gx:coord >18.872742 40.432388 8262</gx:coord>
<gx:coord >18.857239 40.455048 8376</gx:coord>
<gx:coord >18.83968 40.480662 8460</gx:coord>
<gx:coord >18.821078 40.507802 8544</gx:coord>
<gx:coord >18.803467 40.533646 8628</gx:coord>
<gx:coord >18.785217 40.560379 8735</gx:coord>
<gx:coord >18.767395 40.58638 8818</gx:coord>
<gx:coord >18.749207 40.61293 8902</gx:coord>
<gx:coord >18.732056 40.637924 9009</gx:coord>
<gx:coord >18.713712 40.664637 9107</gx:coord>
<gx:coord >18.693054 40.694687 9191</gx:coord>
<gx:coord >18.674988 40.720963 9282</gx:coord>
<gx:coord >18.656595 40.747686 9381</gx:coord>
<gx:coord >18.634248 40.7799 9450</gx:coord>
<gx:coord >18.6129 40.810252 9526</gx:coord>
<gx:coord >18.599479 40.830083 9579</gx:coord>
<gx:coord >18.594173 40.839766 9606</gx:coord>
<gx:coord >18.590178 40.848518 9624</gx:coord>
<gx:coord >18.586609 40.857971 9648</gx:coord>
<gx:coord >18.584123 40.867185 9664</gx:coord>
<gx:coord >18.582375 40.875937 9691</gx:coord>
<gx:coord >18.581116 40.888458 9714</gx:coord>
<gx:coord >18.580994 40.895782 9735</gx:coord>
<gx:coord >18.581626 40.907453 9756</gx:coord>
<gx:coord >18.583312 40.9183 9784</gx:coord>
<gx:coord >18.585876 40.929108 9807</gx:coord>
<gx:coord >18.59024 40.943671 9839</gx:coord>
<gx:coord >18.60029 40.977933 9930</gx:coord>
<gx:coord >18.611023 41.01796 9999</gx:coord>
<gx:coord >18.620728 41.055222 10067</gx:coord>
<gx:coord >18.629883 41.089691 10151</gx:coord>
<gx:coord >18.640615 41.128762 10235</gx:coord>
<gx:coord >18.651914 41.169915 10296</gx:coord>
<gx:coord >18.66059 41.202594 10380</gx:coord>
<gx:coord >18.668705 41.233552 10480</gx:coord>
<gx:coord >18.675964 41.26149 10548</gx:coord>
<gx:coord >18.686371 41.30352 10609</gx:coord>
<gx:coord >18.696289 41.343155 10678</gx:coord>
<gx:coord >18.705847 41.378888 10754</gx:coord>
<gx:coord >18.716679 41.417805 10823</gx:coord>
<gx:coord >18.727282 41.455466 10906</gx:coord>
<gx:coord >18.73737 41.490875 10990</gx:coord>
<gx:coord >18.74753 41.526179 11059</gx:coord>
<gx:coord >18.756536 41.559743 11143</gx:coord>
<gx:coord >18.766084 41.596893 11211</gx:coord>
<gx:coord >18.77576 41.635254 11287</gx:coord>
<gx:coord >18.785918 41.674029 11356</gx:coord>
<gx:coord >18.79748 41.716391 11417</gx:coord>
<gx:coord >18.808594 41.755681 11455</gx:coord>
<gx:coord >18.820858 41.799534 11455</gx:coord>
<gx:coord >18.832099 41.841384 11455</gx:coord>
<gx:coord >18.843238 41.883865 11454</gx:coord>
<gx:coord >18.854711 41.926994 11454</gx:coord>
<gx:coord >18.865761 41.967773 11454</gx:coord>
<gx:coord >18.877321 42.010483 11454</gx:coord>
<gx:coord >18.889075 42.053523 11454</gx:coord>
<gx:coord >18.900417 42.094711 11454</gx:coord>
<gx:coord >18.91209 42.137192 11461</gx:coord>
<gx:coord >18.923439 42.178422 11468</gx:coord>
<gx:coord >18.935192 42.22125 11461</gx:coord>
<gx:coord >18.946434 42.262123 11461</gx:coord>
<gx:coord >18.958095 42.304733 11460</gx:coord>
<gx:coord >18.969206 42.344879 11460</gx:coord>
<gx:coord >18.980543 42.385673 11460</gx:coord>
<gx:coord >18.992552 42.429062 11451</gx:coord>
<gx:coord >19.004225 42.471405 11451</gx:coord>
<gx:coord >19.015898 42.51384 11451</gx:coord>
<gx:coord >19.027043 42.554518 11442</gx:coord>
<gx:coord >19.038807 42.599075 11450</gx:coord>
<gx:coord >19.04991 42.639988 11458</gx:coord>
<gx:coord >19.061467 42.681564 11457</gx:coord>
<gx:coord >19.073015 42.721985 11457</gx:coord>
<gx:coord >19.085168 42.764329 11456</gx:coord>
<gx:coord >19.096729 42.804922 11448</gx:coord>
<gx:coord >19.108691 42.847285 11448</gx:coord>
<gx:coord >19.12049 42.888931 11439</gx:coord>
<gx:coord >19.131477 42.928024 11432</gx:coord>
<gx:coord >19.143742 42.971812 11439</gx:coord>
<gx:coord >19.155513 43.01343 11431</gx:coord>
<gx:coord >19.167938 43.056816 11431</gx:coord>
<gx:coord >19.179957 43.098633 11438</gx:coord>
<gx:coord >19.191774 43.140152 11438</gx:coord>
<gx:coord >19.203974 43.181625 11446</gx:coord>
<gx:coord >19.216749 43.225021 11453</gx:coord>
<gx:coord >19.228167 43.265789 11460</gx:coord>
<gx:coord >19.239611 43.307454 11460</gx:coord>
<gx:coord >19.251251 43.349816 11460</gx:coord>
<gx:coord >19.262957 43.392086 11460</gx:coord>
<gx:coord >19.274618 43.433624 11460</gx:coord>
<gx:coord >19.287088 43.477137 11460</gx:coord>
<gx:coord >19.298891 43.517807 11460</gx:coord>
<gx:coord >19.311087 43.560093 11453</gx:coord>
<gx:coord >19.32312 43.601897 11453</gx:coord>
<gx:coord >19.334826 43.642676 11445</gx:coord>
<gx:coord >19.347055 43.684946 11437</gx:coord>
<gx:coord >19.358868 43.725815 11437</gx:coord>
<gx:coord >19.37112 43.768135 11437</gx:coord>
<gx:coord >19.383013 43.809036 11437</gx:coord>
<gx:coord >19.394893 43.850052 11437</gx:coord>
<gx:coord >19.406965 43.891937 11437</gx:coord>
<gx:coord >19.41912 43.933768 11437</gx:coord>
<gx:coord >19.431022 43.974454 11437</gx:coord>
<gx:coord >19.443757 44.018097 11430</gx:coord>
<gx:coord >19.455318 44.057968 11430</gx:coord>
<gx:coord >19.467446 44.099587 11438</gx:coord>
<gx:coord >19.479718 44.141739 11446</gx:coord>
<gx:coord >19.491773 44.182822 11446</gx:coord>
<gx:coord >19.504685 44.226116 11446</gx:coord>
<gx:coord >19.516676 44.267082 11446</gx:coord>
<gx:coord >19.528868 44.308606 11446</gx:coord>
<gx:coord >19.540859 44.349107 11446</gx:coord>
<gx:coord >19.55352 44.391842 11438</gx:coord>
<gx:coord >19.565342 44.431549 11438</gx:coord>
<gx:coord >19.577964 44.474304 11438</gx:coord>
<gx:coord >19.590499 44.516741 11439</gx:coord>
<gx:coord >19.602945 44.559128 11439</gx:coord>
<gx:coord >19.614682 44.600396 11439</gx:coord>
<gx:coord >19.627271 44.643677 11439</gx:coord>
<gx:coord >19.639827 44.685379 11439</gx:coord>
<gx:coord >19.652775 44.727814 11439</gx:coord>
<gx:coord >19.665661 44.769287 11439</gx:coord>
<gx:coord >19.678791 44.811976 11439</gx:coord>
<gx:coord >19.691251 44.8535 11439</gx:coord>
<gx:coord >19.704046 44.896002 11439</gx:coord>
<gx:coord >19.716708 44.938039 11439</gx:coord>
<gx:coord >19.729745 44.981461 11432</gx:coord>
<gx:coord >19.742901 45.024114 11439</gx:coord>
<gx:coord >19.756299 45.066756 11439</gx:coord>
<gx:coord >19.769374 45.109909 11447</gx:coord>
<gx:coord >19.781669 45.151611 11439</gx:coord>
<gx:coord >19.79388 45.193518 11432</gx:coord>
<gx:coord >19.806453 45.235931 11432</gx:coord>
<gx:coord >19.819403 45.280384 11432</gx:coord>
<gx:coord >19.831957 45.323547 11432</gx:coord>
<gx:coord >19.844323 45.364551 11432</gx:coord>
<gx:coord >19.857134 45.405533 11432</gx:coord>
<gx:coord >19.870213 45.446823 11424</gx:coord>
<gx:coord >19.883579 45.489217 11432</gx:coord>
<gx:coord >19.896763 45.531326 11424</gx:coord>
<gx:coord >19.909492 45.572127 11424</gx:coord>
<gx:coord >19.92247 45.61421 11424</gx:coord>
<gx:coord >19.935496 45.656387 11424</gx:coord>
<gx:coord >19.948631 45.698703 11424</gx:coord>
<gx:coord >19.961746 45.741251 11424</gx:coord>
<gx:coord >19.974417 45.782181 11424</gx:coord>
<gx:coord >19.987839 45.825185 11432</gx:coord>
<gx:coord >20.001146 45.867462 11432</gx:coord>
<gx:coord >20.014544 45.909943 11432</gx:coord>
<gx:coord >20.028282 45.952738 11432</gx:coord>
<gx:coord >20.041809 45.99408 11432</gx:coord>
<gx:coord >20.055473 46.03737 11439</gx:coord>
<gx:coord >20.068203 46.07872 11439</gx:coord>
<gx:coord >20.080998 46.122025 11432</gx:coord>
<gx:coord >20.089774 46.153885 11440</gx:coord>
<gx:coord >20.094955 46.17698 11440</gx:coord>
<gx:coord >20.099213 46.201606 11440</gx:coord>
<gx:coord >20.106052 46.245575 11425</gx:coord>
<gx:coord >20.11322 46.288605 11425</gx:coord>
<gx:coord >20.120773 46.332558 11425</gx:coord>
<gx:coord >20.127757 46.373749 11425</gx:coord>
<gx:coord >20.134858 46.416595 11425</gx:coord>
<gx:coord >20.142128 46.460157 11425</gx:coord>
<gx:coord >20.149194 46.503433 11425</gx:coord>
<gx:coord >20.156273 46.546419 11425</gx:coord>
<gx:coord >20.16353 46.590088 11425</gx:coord>
<gx:coord >20.170898 46.634262 11417</gx:coord>
<gx:coord >20.178133 46.6772 11417</gx:coord>
<gx:coord >20.185318 46.719686 11417</gx:coord>
<gx:coord >20.192536 46.763397 11417</gx:coord>
<gx:coord >20.199771 46.807297 11417</gx:coord>
<gx:coord >20.207085 46.851662 11417</gx:coord>
<gx:coord >20.214351 46.895467 11425</gx:coord>
<gx:coord >20.221642 46.939087 11417</gx:coord>
<gx:coord >20.229401 46.9823 11417</gx:coord>
<gx:coord >20.23716 47.026703 11425</gx:coord>
<gx:coord >20.243408 47.069183 11425</gx:coord>
<gx:coord >20.249863 47.112625 11417</gx:coord>
<gx:coord >20.256676 47.155322 11418</gx:coord>
<gx:coord >20.264353 47.200152 11418</gx:coord>
<gx:coord >20.271959 47.243585 11418</gx:coord>
<gx:coord >20.279564 47.287018 11418</gx:coord>
<gx:coord >20.287216 47.330612 11418</gx:coord>
<gx:coord >20.29534 47.37449 11411</gx:coord>
<gx:coord >20.303078 47.41777 11411</gx:coord>
<gx:coord >20.310129 47.461217 11411</gx:coord>
<gx:coord >20.316397 47.503952 11411</gx:coord>
<gx:coord >20.323017 47.547944 11411</gx:coord>
<gx:coord >20.330271 47.591517 11403</gx:coord>
<gx:coord >20.337959 47.635483 11403</gx:coord>
<gx:coord >20.34565 47.678833 11403</gx:coord>
<gx:coord >20.353511 47.723213 11411</gx:coord>
<gx:coord >20.361187 47.766925 11411</gx:coord>
<gx:coord >20.368793 47.810917 11411</gx:coord>
<gx:coord >20.376399 47.855188 11411</gx:coord>
<gx:coord >20.383935 47.898435 11411</gx:coord>
<gx:coord >20.391518 47.942001 11411</gx:coord>
<gx:coord >20.399076 47.985348 11403</gx:coord>
<gx:coord >20.406682 48.028456 11403</gx:coord>
<gx:coord >20.414589 48.073151 11418</gx:coord>
<gx:coord >20.422528 48.117696 11411</gx:coord>
<gx:coord >20.430378 48.162014 11403</gx:coord>
<gx:coord >20.437895 48.205587 11411</gx:coord>
<gx:coord >20.445557 48.250031 11411</gx:coord>
<gx:coord >20.453724 48.294036 11411</gx:coord>
<gx:coord >20.461819 48.33747 11411</gx:coord>
<gx:coord >20.469192 48.381601 11403</gx:coord>
<gx:coord >20.475986 48.426152 11403</gx:coord>
<gx:coord >20.483164 48.471039 11410</gx:coord>
<gx:coord >20.485888 48.493745 11402</gx:coord>
<gx:coord >20.48746 48.516129 11395</gx:coord>
<gx:coord >20.489572 48.561035 11395</gx:coord>
<gx:coord >20.491887 48.605378 11402</gx:coord>
<gx:coord >20.494361 48.648788 11403</gx:coord>
<gx:coord >20.496802 48.692011 11403</gx:coord>
<gx:coord >20.499187 48.736655 11403</gx:coord>
<gx:coord >20.501545 48.780716 11403</gx:coord>
<gx:coord >20.503813 48.824266 11396</gx:coord>
<gx:coord >20.506122 48.868607 11388</gx:coord>
<gx:coord >20.508305 48.912003 11380</gx:coord>
<gx:coord >20.51077 48.956268 11388</gx:coord>
<gx:coord >20.513571 48.999908 11396</gx:coord>
<gx:coord >20.515956 49.043714 11403</gx:coord>
<gx:coord >20.517763 49.087519 11396</gx:coord>
<gx:coord >20.519353 49.131232 11388</gx:coord>
<gx:coord >20.520654 49.173967 11381</gx:coord>
<gx:coord >20.522391 49.217239 11374</gx:coord>
<gx:coord >20.524557 49.261159 11381</gx:coord>
<gx:coord >20.527159 49.305198 11381</gx:coord>
<gx:coord >20.529644 49.348114 11381</gx:coord>
<gx:coord >20.532109 49.391693 11381</gx:coord>
<gx:coord >20.534604 49.435501 11382</gx:coord>
<gx:coord >20.537061 49.478531 11382</gx:coord>
<gx:coord >20.539446 49.521881 11382</gx:coord>
<gx:coord >20.541759 49.565323 11390</gx:coord>
<gx:coord >20.544 49.608765 11390</gx:coord>
<gx:coord >20.546289 49.652663 11391</gx:coord>
<gx:coord >20.548591 49.69605 11391</gx:coord>
<gx:coord >20.550892 49.740368 11399</gx:coord>
<gx:coord >20.553107 49.783173 11399</gx:coord>
<gx:coord >20.55542 49.827484 11391</gx:coord>
<gx:coord >20.557721 49.871273 11383</gx:coord>
<gx:coord >20.559874 49.914334 11383</gx:coord>
<gx:coord >20.562142 49.956848 11384</gx:coord>
<gx:coord >20.564455 49.999191 11377</gx:coord>
<gx:coord >20.566912 50.042404 11377</gx:coord>
<gx:coord >20.569225 50.085251 11369</gx:coord>
<gx:coord >20.571454 50.127077 11362</gx:coord>
<gx:coord >20.573904 50.155567 11362</gx:coord>
<gx:coord >20.578549 50.198364 11362</gx:coord>
<gx:coord >20.582813 50.235306 11354</gx:coord>
<gx:coord >20.583753 50.243225 11339</gx:coord>
<gx:coord >20.584073 50.246204 11323</gx:coord>
<gx:coord >20.584476 50.249588 11316</gx:coord>
<gx:coord >20.584816 50.252768 11301</gx:coord>
<gx:coord >20.58734 50.275067 11191</gx:coord>
<gx:coord >20.588596 50.286713 11105</gx:coord>
<gx:coord >20.590457 50.303929 11010</gx:coord>
<gx:coord >20.590909 50.308273 10986</gx:coord>
<gx:coord >20.591571 50.314962 10962</gx:coord>
<gx:coord >20.592016 50.319059 10945</gx:coord>
<gx:coord >20.59539 50.350662 10866</gx:coord>
<gx:coord >20.596841 50.363982 10798</gx:coord>
<gx:coord >20.599514 50.388328 10691</gx:coord>
<gx:coord >20.60226 50.413513 10569</gx:coord>
<gx:coord >20.604786 50.437866 10447</gx:coord>
<gx:coord >20.606015 50.450638 10409</gx:coord>
<gx:coord >20.608644 50.477569 10310</gx:coord>
<gx:coord >20.611002 50.501953 10188</gx:coord>
<gx:coord >20.611291 50.504654 10180</gx:coord>
<gx:coord >20.611508 50.507446 10173</gx:coord>
<gx:coord >20.614544 50.534958 10075</gx:coord>
<gx:coord >20.61729 50.551208 10006</gx:coord>
<gx:coord >20.621783 50.571884 9884</gx:coord>
<gx:coord >20.627192 50.593231 9762</gx:coord>
<gx:coord >20.632844 50.614619 9640</gx:coord>
<gx:coord >20.638685 50.637131 9526</gx:coord>
<gx:coord >20.644106 50.6586 9404</gx:coord>
<gx:coord >20.64949 50.68049 9290</gx:coord>
<gx:coord >20.653406 50.696411 9193</gx:coord>
<gx:coord >20.654602 50.701113 9164</gx:coord>
<gx:coord >20.65567 50.705396 9125</gx:coord>
<gx:coord >20.657196 50.711401 9074</gx:coord>
<gx:coord >20.660681 50.725479 8940</gx:coord>
<gx:coord >20.664597 50.741101 8825</gx:coord>
<gx:coord >20.668182 50.755998 8711</gx:coord>
<gx:coord >20.671616 50.770615 8620</gx:coord>
<gx:coord >20.676727 50.793007 8505</gx:coord>
<gx:coord >20.681985 50.816849 8383</gx:coord>
<gx:coord >20.686736 50.838501 8261</gx:coord>
<gx:coord >20.691784 50.861206 8139</gx:coord>
<gx:coord >20.697021 50.884668 8025</gx:coord>
<gx:coord >20.702028 50.906662 7904</gx:coord>
<gx:coord >20.707224 50.929459 7790</gx:coord>
<gx:coord >20.712662 50.952867 7675</gx:coord>
<gx:coord >20.718231 50.977121 7561</gx:coord>
<gx:coord >20.72319 50.998675 7439</gx:coord>
<gx:coord >20.726929 51.014875 7355</gx:coord>
<gx:coord >20.732686 51.039322 7256</gx:coord>
<gx:coord >20.737991 51.062032 7142</gx:coord>
<gx:coord >20.743301 51.084732 7034</gx:coord>
<gx:coord >20.746078 51.096435 6991</gx:coord>
<gx:coord >20.752135 51.122498 6898</gx:coord>
<gx:coord >20.757599 51.145873 6784</gx:coord>
<gx:coord >20.762676 51.167496 6670</gx:coord>
<gx:coord >20.767798 51.189468 6563</gx:coord>
<gx:coord >20.772781 51.211093 6441</gx:coord>
<gx:coord >20.778046 51.233624 6335</gx:coord>
<gx:coord >20.783386 51.256667 6229</gx:coord>
<gx:coord >20.788434 51.278137 6114</gx:coord>
<gx:coord >20.79363 51.300385 6008</gx:coord>
<gx:coord >20.798752 51.322586 5916</gx:coord>
<gx:coord >20.803299 51.342091 5802</gx:coord>
<gx:coord >20.807953 51.361736 5688</gx:coord>
<gx:coord >20.812559 51.381271 5566</gx:coord>
<gx:coord >20.817681 51.402649 5451</gx:coord>
<gx:coord >20.822983 51.424255 5345</gx:coord>
<gx:coord >20.825773 51.435791 5307</gx:coord>
<gx:coord >20.832008 51.461838 5208</gx:coord>
<gx:coord >20.838689 51.489487 5117</gx:coord>
<gx:coord >20.845221 51.517319 5041</gx:coord>
<gx:coord >20.851364 51.543289 4949</gx:coord>
<gx:coord >20.857618 51.569458 4866</gx:coord>
<gx:coord >20.864334 51.597988 4782</gx:coord>
<gx:coord >20.867714 51.612442 4721</gx:coord>
<gx:coord >20.872316 51.631165 4614</gx:coord>
<gx:coord >20.877533 51.652222 4500</gx:coord>
<gx:coord >20.880259 51.663254 4438</gx:coord>
<gx:coord >20.884936 51.682709 4317</gx:coord>
<gx:coord >20.889664 51.70315 4211</gx:coord>
<gx:coord >20.894734 51.724915 4105</gx:coord>
<gx:coord >20.899411 51.744827 4006</gx:coord>
<gx:coord >20.904607 51.766617 3907</gx:coord>
<gx:coord >20.909877 51.788635 3815</gx:coord>
<gx:coord >20.912857 51.801235 3762</gx:coord>
<gx:coord >20.915593 51.812622 3708</gx:coord>
<gx:coord >20.918266 51.823792 3640</gx:coord>
<gx:coord >20.920938 51.834778 3578</gx:coord>
<gx:coord >20.923157 51.844017 3510</gx:coord>
<gx:coord >20.925466 51.853134 3443</gx:coord>
<gx:coord >20.928116 51.863848 3388</gx:coord>
<gx:coord >20.930885 51.874924 3327</gx:coord>
<gx:coord >20.933557 51.88559 3263</gx:coord>
<gx:coord >20.934372 51.888754 3253</gx:coord>
<gx:coord >20.936724 51.89825 3215</gx:coord>
<gx:coord >20.940569 51.914078 3176</gx:coord>
<gx:coord >20.944061 51.928253 3130</gx:coord>
<gx:coord >20.947004 51.940473 3077</gx:coord>
<gx:coord >20.949554 51.951324 3016</gx:coord>
<gx:coord >20.952454 51.96373 2970</gx:coord>
<gx:coord >20.955636 51.97697 2917</gx:coord>
<gx:coord >20.959091 51.991058 2886</gx:coord>
<gx:coord >20.962524 52.005203 2841</gx:coord>
<gx:coord >20.965118 52.016006 2818</gx:coord>
<gx:coord >20.966701 52.022638 2803</gx:coord>
<gx:coord >20.968094 52.028366 2787</gx:coord>
<gx:coord >20.970459 52.038574 2765</gx:coord>
<gx:coord >20.972061 52.047134 2742</gx:coord>
<gx:coord >20.972037 52.051919 2726</gx:coord>
<gx:coord >20.971095 52.056807 2703</gx:coord>
<gx:coord >20.970154 52.059402 2696</gx:coord>
<gx:coord >20.968781 52.062012 2688</gx:coord>
<gx:coord >20.966339 52.065582 2672</gx:coord>
<gx:coord >20.96364 52.068585 2665</gx:coord>
<gx:coord >20.960693 52.071259 2664</gx:coord>
<gx:coord >20.956656 52.074264 2648</gx:coord>
<gx:coord >20.952262 52.076871 2637</gx:coord>
<gx:coord >20.946655 52.07959 2621</gx:coord>
<gx:coord >20.941772 52.081467 2613</gx:coord>
<gx:coord >20.936802 52.083063 2605</gx:coord>
<gx:coord >20.93076 52.084739 2590</gx:coord>
<gx:coord >20.918808 52.08783 2559</gx:coord>
<gx:coord >20.904694 52.091492 2505</gx:coord>
<gx:coord >20.889718 52.095399 2460</gx:coord>
<gx:coord >20.874651 52.099496 2406</gx:coord>
<gx:coord >20.858612 52.103943 2368</gx:coord>
<gx:coord >20.843887 52.108109 2315</gx:coord>
<gx:coord >20.828781 52.112411 2269</gx:coord>
<gx:coord >20.811166 52.117511 2216</gx:coord>
<gx:coord >20.800629 52.12056 2191</gx:coord>
<gx:coord >20.79092 52.12333 2156</gx:coord>
<gx:coord >20.781784 52.125916 2125</gx:coord>
<gx:coord >20.771615 52.128823 2094</gx:coord>
<gx:coord >20.761337 52.131775 2064</gx:coord>
<gx:coord >20.751343 52.134613 2033</gx:coord>
<gx:coord >20.74028 52.137772 2002</gx:coord>
<gx:coord >20.73073 52.140462 1971</gx:coord>
<gx:coord >20.719822 52.143534 1935</gx:coord>
<gx:coord >20.709307 52.146467 1904</gx:coord>
<gx:coord >20.69931 52.149261 1873</gx:coord>
<gx:coord >20.688904 52.152193 1843</gx:coord>
<gx:coord >20.677996 52.155219 1818</gx:coord>
<gx:coord >20.667343 52.158188 1782</gx:coord>
<gx:coord >20.657501 52.160934 1750</gx:coord>
<gx:coord >20.646973 52.163818 1714</gx:coord>
<gx:coord >20.639801 52.165833 1683</gx:coord>
<gx:coord >20.632952 52.167695 1652</gx:coord>
<gx:coord >20.625992 52.169632 1621</gx:coord>
<gx:coord >20.61882 52.1716 1590</gx:coord>
<gx:coord >20.611921 52.173467 1559</gx:coord>
<gx:coord >20.604248 52.175583 1524</gx:coord>
<gx:coord >20.596462 52.177657 1492</gx:coord>
<gx:coord >20.5883 52.179938 1461</gx:coord>
<gx:coord >20.580139 52.182126 1430</gx:coord>
<gx:coord >20.570879 52.184686 1395</gx:coord>
<gx:coord >20.56282 52.186935 1367</gx:coord>
<gx:coord >20.555191 52.189041 1333</gx:coord>
<gx:coord >20.545578 52.19165 1302</gx:coord>
<gx:coord >20.535566 52.194602 1276</gx:coord>
<gx:coord >20.529556 52.196732 1250</gx:coord>
<gx:coord >20.525894 52.198334 1241</gx:coord>
<gx:coord >20.52301 52.199816 1226</gx:coord>
<gx:coord >20.518188 52.202682 1202</gx:coord>
<gx:coord >20.514984 52.205109 1187</gx:coord>
<gx:coord >20.512085 52.207809 1170</gx:coord>
<gx:coord >20.509872 52.21019 1157</gx:coord>
<gx:coord >20.507551 52.213362 1147</gx:coord>
<gx:coord >20.506134 52.216003 1129</gx:coord>
<gx:coord >20.504837 52.219299 1113</gx:coord>
<gx:coord >20.504177 52.221881 1097</gx:coord>
<gx:coord >20.503863 52.225466 1089</gx:coord>
<gx:coord >20.504227 52.229553 1066</gx:coord>
<gx:coord >20.505142 52.233032 1050</gx:coord>
<gx:coord >20.506688 52.236359 1035</gx:coord>
<gx:coord >20.508499 52.239304 1027</gx:coord>
<gx:coord >20.511017 52.242233 1011</gx:coord>
<gx:coord >20.514535 52.24553 995</gx:coord>
<gx:coord >20.516968 52.247392 987</gx:coord>
<gx:coord >20.520859 52.249786 984</gx:coord>
<gx:coord >20.524445 52.251663 976</gx:coord>
<gx:coord >20.527954 52.253128 975</gx:coord>
<gx:coord >20.532837 52.254868 975</gx:coord>
<gx:coord >20.538101 52.256195 974</gx:coord>
<gx:coord >20.542526 52.257065 967</gx:coord>
<gx:coord >20.548828 52.257913 974</gx:coord>
<gx:coord >20.555028 52.258518 974</gx:coord>
<gx:coord >20.564804 52.259262 966</gx:coord>
<gx:coord >20.599915 52.26173 966</gx:coord>
<gx:coord >20.610273 52.262196 959</gx:coord>
<gx:coord >20.6147 52.262146 959</gx:coord>
<gx:coord >20.620004 52.261777 959</gx:coord>
<gx:coord >20.624619 52.261139 959</gx:coord>
<gx:coord >20.629654 52.260132 959</gx:coord>
<gx:coord >20.636139 52.258438 966</gx:coord>
<gx:coord >20.649338 52.254593 966</gx:coord>
<gx:coord >20.660934 52.25116 972</gx:coord>
<gx:coord >20.666774 52.24944 968</gx:coord>
<gx:coord >20.674935 52.247066 967</gx:coord>
<gx:coord >20.700047 52.239897 966</gx:coord>
<gx:coord >20.728073 52.232071 967</gx:coord>
<gx:coord >20.736465 52.229782 967</gx:coord>
<gx:coord >20.741196 52.2285 976</gx:coord>
<gx:coord >20.743365 52.227887 977</gx:coord>
<gx:coord >20.747053 52.226909 972</gx:coord>
<gx:coord >20.750584 52.225978 958</gx:coord>
<gx:coord >20.756705 52.224349 929</gx:coord>
<gx:coord >20.763218 52.22258 903</gx:coord>
<gx:coord >20.771301 52.220392 860</gx:coord>
<gx:coord >20.779724 52.218155 823</gx:coord>
<gx:coord >20.786839 52.216202 792</gx:coord>
<gx:coord >20.793762 52.214264 763</gx:coord>
<gx:coord >20.79963 52.212618 742</gx:coord>
<gx:coord >20.807571 52.210419 707</gx:coord>
<gx:coord >20.813756 52.208707 684</gx:coord>
<gx:coord >20.820897 52.206705 661</gx:coord>
<gx:coord >20.827724 52.204797 624</gx:coord>
<gx:coord >20.83519 52.202682 593</gx:coord>
<gx:coord >20.843658 52.200302 562</gx:coord>
<gx:coord >20.85228 52.19783 532</gx:coord>
<gx:coord >20.861154 52.1953 494</gx:coord>
<gx:coord >20.869158 52.193112 463</gx:coord>
<gx:coord >20.876465 52.191147 433</gx:coord>
<gx:coord >20.88446 52.188969 409</gx:coord>
<gx:coord >20.892181 52.186798 365</gx:coord>
<gx:coord >20.899811 52.184601 348</gx:coord>
<gx:coord >20.906677 52.182724 312</gx:coord>
<gx:coord >20.913391 52.180847 281</gx:coord>
<gx:coord >20.921402 52.178604 250</gx:coord>
<gx:coord >20.929031 52.176453 219</gx:coord>
<gx:coord >20.935822 52.174576 188</gx:coord>
<gx:coord >20.942001 52.172836 151</gx:coord>
<gx:coord >20.948966 52.17086 122</gx:coord>
<gx:coord >20.953369 52.169632 116</gx:coord>
<gx:coord >20.956573 52.168716 112</gx:coord>
<gx:coord >20.959473 52.167892 112</gx:coord>
<gx:coord >20.961129 52.167415 111</gx:coord>
<gx:coord >20.963211 52.16684 110</gx:coord>
<gx:coord >20.964347 52.166577 110</gx:coord>
<gx:coord >20.964966 52.166382 110</gx:coord>
<gx:coord >20.965288 52.166298 109</gx:coord>
<gx:coord >20.965288 52.166298 109</gx:coord>
</gx:Track>
</Placemark>
<Placemark ><name >HA-LXJ</name>
<Style ><LineStyle ><color >ff1c1ae3</color>
<width >4</width>
</LineStyle>
<IconStyle ><Icon ><href >http://maps.google.com/mapfiles/kml/shapes/airports.png</href>
</Icon>
</IconStyle>
</Style>
<gx:Track ><extrude >0</extrude>
<when >2025-09-02T15:33:07.210Z</when>
<when >2025-09-02T15:33:09.020Z</when>
<when >2025-09-02T15:33:11.830Z</when>
<when >2025-09-02T15:33:14.000Z</when>
<when >2025-09-02T15:33:16.750Z</when>
<when >2025-09-02T15:33:16.930Z</when>
<when >2025-09-02T15:33:19.580Z</when>
<when >2025-09-02T15:33:22.150Z</when>
<when >2025-09-02T15:33:22.770Z</when>
<when >2025-09-02T15:33:27.230Z</when>
<when >2025-09-02T15:33:28.550Z</when>
<when >2025-09-02T15:33:31.290Z</when>
<when >2025-09-02T15:33:34.660Z</when>
<when >2025-09-02T15:33:37.970Z</when>
<when >2025-09-02T15:33:44.740Z</when>
<when >2025-09-02T15:33:51.500Z</when>
<when >2025-09-02T15:33:58.080Z</when>
<when >2025-09-02T15:34:00.350Z</when>
<when >2025-09-02T15:34:03.190Z</when>
<when >2025-09-02T15:34:05.110Z</when>
<when >2025-09-02T15:34:07.150Z</when>
<when >2025-09-02T15:34:09.530Z</when>
<when >2025-09-02T15:34:12.300Z</when>
<when >2025-09-02T15:34:15.000Z</when>
<when >2025-09-02T15:34:17.020Z</when>
<when >2025-09-02T15:34:18.550Z</when>
<when >2025-09-02T15:34:20.070Z</when>
<when >2025-09-02T15:34:23.560Z</when>
<when >2025-09-02T15:34:30.240Z</when>
<when >2025-09-02T15:34:35.920Z</when>
<when >2025-09-02T15:34:43.740Z</when>
<when >2025-09-02T15:34:51.460Z</when>
<when >2025-09-02T15:34:58.050Z</when>
<when >2025-09-02T15:35:03.950Z</when>
<when >2025-09-02T15:35:09.890Z</when>
<when >2025-09-02T15:35:14.230Z</when>
<when >2025-09-02T15:35:15.530Z</when>
<when >2025-09-02T15:35:22.080Z</when>
<when >2025-09-02T15:35:26.300Z</when>
<when >2025-09-02T15:35:32.000Z</when>
<when >2025-09-02T15:35:36.530Z</when>
<when >2025-09-02T15:35:43.220Z</when>
<when >2025-09-02T15:35:48.180Z</when>
<when >2025-09-02T15:35:57.070Z</when>
<when >2025-09-02T15:36:02.550Z</when>
<when >2025-09-02T15:36:11.470Z</when>
<when >2025-09-02T15:36:16.190Z</when>
<when >2025-09-02T15:36:20.780Z</when>
<when >2025-09-02T15:36:28.350Z</when>
<when >2025-09-02T15:36:36.110Z</when>
<when >2025-09-02T15:36:46.110Z</when>
<when >2025-09-02T15:36:50.190Z</when>
<when >2025-09-02T15:36:52.820Z</when>
<when >2025-09-02T15:36:56.450Z</when>
<when >2025-09-02T15:36:59.710Z</when>
<when >2025-09-02T15:37:02.880Z</when>
<when >2025-09-02T15:37:06.690Z</when>
<when >2025-09-02T15:37:11.710Z</when>
<when >2025-09-02T15:37:15.280Z</when>
<when >2025-09-02T15:37:22.870Z</when>
<when >2025-09-02T15:37:29.420Z</when>
<when >2025-09-02T15:37:35.960Z</when>
<when >2025-09-02T15:37:54.350Z</when>
<when >2025-09-02T15:38:03.030Z</when>
<when >2025-09-02T15:38:03.030Z</when>
<gx:coord >20.965524 52.166228 0</gx:coord>
<gx:coord >20.966348 52.165984 0</gx:coord>
<gx:coord >20.968172 52.165472 0</gx:coord>
<gx:coord >20.969448 52.165112 0</gx:coord>
<gx:coord >20.969658 52.165043 0</gx:coord>
<gx:coord >20.970116 52.164917 0</gx:coord>
<gx:coord >20.971279 52.164619 0</gx:coord>
<gx:coord >20.97188 52.164436 0</gx:coord>
<gx:coord >20.972538 52.164265 0</gx:coord>
<gx:coord >20.973244 52.16407 0</gx:coord>
<gx:coord >20.973822 52.163982 0</gx:coord>
<gx:coord >20.974411 52.163901 0</gx:coord>
<gx:coord >20.97496 52.163854 0</gx:coord>
<gx:coord >20.975549 52.163842 0</gx:coord>
<gx:coord >20.976569 52.163889 0</gx:coord>
<gx:coord >20.977249 52.163921 0</gx:coord>
<gx:coord >20.977746 52.163947 0</gx:coord>
<gx:coord >20.977942 52.164017 0</gx:coord>
<gx:coord >20.97805 52.16407 0</gx:coord>
<gx:coord >20.978127 52.164173 0</gx:coord>
<gx:coord >20.978139 52.164226 0</gx:coord>
<gx:coord >20.978158 52.164331 0</gx:coord>
<gx:coord >20.97805 52.164494 0</gx:coord>
<gx:coord >20.977982 52.164552 0</gx:coord>
<gx:coord >20.977917 52.164574 0</gx:coord>
<gx:coord >20.977764 52.164631 0</gx:coord>
<gx:coord >20.977628 52.164657 0</gx:coord>
<gx:coord >20.97744 52.164711 0</gx:coord>
<gx:coord >20.977116 52.164803 0</gx:coord>
<gx:coord >20.976734 52.164906 0</gx:coord>
<gx:coord >20.976105 52.165089 0</gx:coord>
<gx:coord >20.97547 52.165262 0</gx:coord>
<gx:coord >20.974921 52.165425 0</gx:coord>
<gx:coord >20.974411 52.165565 0</gx:coord>
<gx:coord >20.973816 52.16573 0</gx:coord>
<gx:coord >20.973548 52.165809 0</gx:coord>
<gx:coord >20.973434 52.165867 0</gx:coord>
<gx:coord >20.973214 52.166077 0</gx:coord>
<gx:coord >20.973097 52.166228 0</gx:coord>
<gx:coord >20.972881 52.166484 0</gx:coord>
<gx:coord >20.972595 52.166817 0</gx:coord>
<gx:coord >20.972252 52.167206 0</gx:coord>
<gx:coord >20.972057 52.167439 0</gx:coord>
<gx:coord >20.971756 52.167789 0</gx:coord>
<gx:coord >20.971451 52.168133 0</gx:coord>
<gx:coord >20.97105 52.168591 0</gx:coord>
<gx:coord >20.97086 52.168812 0</gx:coord>
<gx:coord >20.970707 52.168991 0</gx:coord>
<gx:coord >20.970383 52.169369 0</gx:coord>
<gx:coord >20.970056 52.169743 0</gx:coord>
<gx:coord >20.969791 52.170044 0</gx:coord>
<gx:coord >20.969683 52.170104 0</gx:coord>
<gx:coord >20.969639 52.170124 0</gx:coord>
<gx:coord >20.969487 52.170127 0</gx:coord>
<gx:coord >20.969369 52.170104 0</gx:coord>
<gx:coord >20.969251 52.170069 0</gx:coord>
<gx:coord >20.969162 52.170033 0</gx:coord>
<gx:coord >20.968957 52.169999 0</gx:coord>
<gx:coord >20.968898 52.169999 0</gx:coord>
<gx:coord >20.968666 52.170021 0</gx:coord>
<gx:coord >20.968486 52.170034 0</gx:coord>
<gx:coord >20.96838 52.170033 0</gx:coord>
<gx:coord >20.968227 52.170055 0</gx:coord>
<gx:coord >20.968227 52.170055 0</gx:coord>
<gx:coord >20.968227 52.170055 0</gx:coord>
</gx:Track>
</Placemark>
</Folder>
</Folder>
</kml>
