<?xml version="1.0" encoding="UTF-8"?>
<kml xmlns="http://www.opengis.net/kml/2.2">
    <Document>
        <name>Edited Path</name>
        <description>Path edited with KML Path Editor</description>
        <Style id="pathStyle">
            <LineStyle>
                <color>ff0000ff</color>
                <width>3</width>
            </LineStyle>
        </Style>
        <Placemark>
            <name>Edited Path</name>
            <description>Total points: 605</description>
            <styleUrl>#pathStyle</styleUrl>
            <LineString>
                <tessellate>1</tessellate>
                <coordinates>10.251823,59.180614,0 10.251823,59.180614,0 10.251801,59.18066,0 10.252144,59.18066,0 10.253494,59.18066,0 10.253796,59.18066,0 10.254227,59.180672,0 10.254684,59.180672,0 10.255211,59.180763,0 10.255595,59.181103,0 10.255737,59.181187,0 10.2564,59.181499,0 10.256561,59.181576,0 10.257431,59.181988,0 10.258484,59.18248,0 10.258827,59.18264,0 10.259549,59.182766,0 10.260307,59.182766,0 10.26075,59.182766,0 10.262438,59.18285,0 10.262509,59.182953,0 10.262462,59.183208,0 10.262466,59.183418,0 10.262438,59.183781,0 10.262438,59.183907,0 10.262421,59.18438,0 10.262421,59.18454,0 10.262414,59.185001,0 10.262398,59.185341,0 10.262414,59.185551,0 10.262398,59.186108,0 10.262391,59.186352,0 10.262375,59.186977,0 10.262367,59.187214,0 10.262367,59.187561,0 10.262343,59.188053,0 10.262343,59.188519,0 10.26232,59.189449,0 10.262296,59.190075,0 10.262296,59.190369,0 10.262272,59.190983,0 10.26226,59.191704,0 10.262238,59.192722,0 10.262225,59.193021,0 10.262201,59.194057,0 10.262192,59.194748,0 10.262178,59.195127,0 10.262169,59.195538,0 10.262154,59.19593,0 10.262154,59.196245,0 10.262154,59.196396,0 10.262154,59.19678,0 10.26213,59.197059,0 10.26178,59.197575,0 10.261276,59.197781,0 10.260307,59.198177,0 10.259691,59.198433,0 10.259383,59.198547,0 10.258415,59.196568,0 10.258415,59.196568,0 10.258863,59.180556,0 10.258957,59.178043,0 10.259033,59.175613,0 10.259052,59.173806,0 10.259052,59.171898,0 10.259216,59.1698,0 10.259242,59.168174,0 10.259308,59.166412,0 10.259308,59.164948,0 10.259336,59.163751,0 10.259431,59.162355,0 10.259526,59.160167,0 10.259526,59.15742,0 10.259583,59.15593,0 10.25962,59.15337,0 10.25962,59.152579,0 10.25962,59.14932,0 10.259583,59.14769,0 10.259583,59.14563,0 10.25962,59.144013,0 10.259583,59.1427,0 10.259583,59.139313,0 10.259674,59.13707,0 10.259674,59.134872,0 10.259715,59.132002,0 10.259715,59.130001,0 10.259766,59.126724,0 10.25981,59.125206,0 10.259857,59.121277,0 10.259905,59.119666,0 10.259857,59.118622,0 10.259999,59.116594,0 10.260189,59.114778,0 10.260498,59.11322,0 10.260773,59.112122,0 10.261322,59.110474,0 10.262054,59.108963,0 10.263125,59.10705,0 10.263693,59.106073,0 10.264709,59.10466,0 10.266345,59.102721,0 10.267181,59.101868,0 10.269754,59.099416,0 10.273315,59.096649,0 10.276062,59.094818,0 10.279449,59.092941,0 10.28009,59.092575,0 10.282635,59.091409,0 10.287844,59.089268,0 10.291727,59.088011,0 10.295746,59.086853,0 10.299133,59.086029,0 10.305084,59.084885,0 10.31048,59.084054,0 10.31488,59.083466,0 10.319666,59.08289,0 10.325775,59.082138,0 10.330558,59.081447,0 10.337585,59.08017,0 10.341156,59.079391,0 10.345459,59.078247,0 10.350542,59.076698,0 10.355372,59.074929,0 10.35916,59.073347,0 10.362665,59.071764,0 10.366699,59.069824,0 10.369484,59.068459,0 10.373474,59.066391,0 10.376587,59.064743,0 10.37915,59.063278,0 10.384543,59.060312,0 10.385205,59.05994,0 10.389038,59.057785,0 10.390415,59.057007,0 10.393433,59.055222,0 10.399017,59.052063,0 10.405095,59.048627,0 10.410019,59.045881,0 10.416229,59.04245,0 10.421385,59.039643,0 10.427582,59.036362,0 10.433223,59.033358,0 10.439026,59.030365,0 10.445251,59.027252,0 10.451408,59.024234,0 10.458416,59.020836,0 10.464193,59.018089,0 10.472351,59.014297,0 10.480499,59.010498,0 10.487776,59.007242,0 10.496111,59.003518,0 10.503119,59.000399,0 10.512969,58.99607,0 10.523438,58.991547,0 10.533237,58.987272,0 10.542613,58.983222,0 10.552747,58.978799,0 10.56134,58.975067,0 10.570742,58.970978,0 10.58116,58.966463,0 10.590179,58.962524,0 10.608626,58.954499,0 10.626434,58.946503,0 10.638554,58.940393,0 10.654175,58.931808,0 10.66924,58.923402,0 10.683825,58.915255,0 10.699677,58.906448,0 10.705719,58.903107,0 10.706818,58.902512,0 10.712522,58.899334,0 10.737526,58.885508,0 10.750974,58.878107,0 10.758551,58.873963,0 10.762624,58.871729,0 10.766886,58.869355,0 10.771545,58.866806,0 10.786285,58.858841,0 10.804321,58.848953,0 10.82547,58.83742,0 10.846164,58.826111,0 10.864288,58.816192,0 10.884882,58.804825,0 10.905348,58.79361,0 10.925262,58.782581,0 10.949028,58.769485,0 10.97525,58.755069,0 10.990356,58.746736,0 11.010864,58.735377,0 11.031738,58.723786,0 11.050031,58.713684,0 11.066528,58.70456,0 11.075016,58.69986,0 11.084015,58.694877,0 11.113911,58.678207,0 11.140228,58.663501,0 11.167236,58.648418,0 11.192765,58.634079,0 11.222003,58.617691,0 11.248937,58.602539,0 11.275605,58.58757,0 11.303514,58.571915,0 11.331246,58.556305,0 11.357941,58.541301,0 11.386139,58.525473,0 11.414062,58.509739,0 11.444183,58.492701,0 11.473846,58.475942,0 11.50296,58.459416,0 11.531708,58.443169,0 11.560541,58.426849,0 11.588627,58.410919,0 11.619049,58.393637,0 11.650726,58.375622,0 11.683694,58.356857,0 11.714355,58.339264,0 11.743853,58.322342,0 11.776703,58.303466,0 11.811218,58.283588,0 11.849907,58.261368,0 11.883911,58.241784,0 11.914584,58.224243,0 11.953125,58.202225,0 11.993774,58.178613,0 12.031624,58.156448,0 12.072876,58.132386,0 12.111452,58.109848,0 12.149373,58.087601,0 12.199768,58.058042,0 12.244883,58.03157,0 12.287567,58.006509,0 12.339752,57.975971,0 12.388641,57.947155,0 12.43158,57.921784,0 12.471609,57.898224,0 12.510315,57.875278,0 12.544615,57.854874,0 12.561401,57.84488,0 12.608551,57.816716,0 12.650208,57.791764,0 12.690308,57.767882,0 12.738116,57.739288,0 12.787732,57.709459,0 12.840958,57.677261,0 12.894317,57.644984,0 12.947731,57.612762,0 13.001032,57.580582,0 13.05477,57.548063,0 13.107462,57.5159,0 13.160115,57.483588,0 13.212519,57.451492,0 13.26582,57.418762,0 13.318531,57.3862,0 13.371563,57.353577,0 13.423233,57.321762,0 13.477035,57.288208,0 13.529577,57.255386,0 13.58202,57.222702,0 13.633767,57.190355,0 13.684416,57.158524,0 13.735743,57.126572,0 13.787155,57.094345,0 13.837546,57.062569,0 13.887663,57.030762,0 13.93856,56.998398,0 13.98914,56.966206,0 14.040439,56.933527,0 14.091511,56.900986,0 14.141378,56.869171,0 14.191501,56.836977,0 14.243259,56.803711,0 14.293213,56.771525,0 14.344625,56.738388,0 14.395266,56.705612,0 14.445692,56.672834,0 14.495173,56.640472,0 14.545721,56.607521,0 14.595251,56.57526,0 14.644692,56.542923,0 14.69488,56.51001,0 14.744568,56.477417,0 14.793692,56.445007,0 14.843044,56.412421,0 14.892634,56.379547,0 14.941822,56.346863,0 14.991511,56.313812,0 15.040783,56.280807,0 15.090151,56.247765,0 15.13916,56.214844,0 15.189015,56.181473,0 15.23837,56.148285,0 15.287561,56.115045,0 15.332193,56.084786,0 15.382147,56.050989,0 15.431962,56.017227,0 15.480818,55.983902,0 15.530506,55.950073,0 15.579214,55.916639,0 15.627636,55.883286,0 15.676491,55.849777,0 15.724682,55.816727,0 15.773371,55.782806,0 15.821085,55.749563,0 15.869837,55.715767,0 15.917816,55.682435,0 15.966048,55.648819,0 16.013002,55.616098,0 16.061845,55.58194,0 16.109476,55.548458,0 16.15731,55.514511,0 16.205583,55.480453,0 16.252441,55.447449,0 16.299106,55.41449,0 16.346687,55.380798,0 16.394348,55.346793,0 16.439542,55.314393,0 16.487166,55.280411,0 16.533535,55.247314,0 16.58045,55.21384,0 16.628557,55.179392,0 16.675581,55.145548,0 16.722645,55.111313,0 16.768449,55.077896,0 16.816595,55.042877,0 16.862183,55.009755,0 16.908958,54.975772,0 16.956428,54.941025,0 17.002425,54.907527,0 17.033332,54.884811,0 17.084131,54.846392,0 17.109796,54.825618,0 17.122482,54.817886,0 17.139983,54.806042,0 17.166203,54.787683,0 17.180165,54.77503,0 17.200876,54.760562,0 17.217076,54.747381,0 17.245191,54.73008,0 17.2682,54.713221,0 17.282904,54.700491,0 17.296269,54.689976,0 17.311478,54.67883,0 17.663991,54.414302,0 17.737604,54.358768,0 17.75551,54.344862,0 17.776109,54.330058,0 17.789949,54.318628,0 17.792667,54.316164,0 17.822806,54.294481,0 17.841533,54.27976,0 17.861762,54.264601,0 17.879151,54.25325,0 17.899182,54.239343,0 17.909286,54.229033,0 17.92958,54.212894,0 17.950118,54.198159,0 17.965636,54.185663,0 19.096387,53.290996,0 19.115529,53.276693,0 19.128643,53.266214,0 19.136421,53.259774,0 19.152266,53.246855,0 19.165022,53.236772,0 19.173523,53.228712,0 19.188633,53.217377,0 19.208356,53.201198,0 19.220702,53.190348,0 19.238893,53.175926,0 19.258639,53.160468,0 19.272344,53.151768,0 19.280398,53.141584,0 19.288556,53.13222,0 19.298649,53.125772,0 19.311116,53.115988,0 20.379325,52.442632,0 20.388412,52.437332,0 20.398407,52.431519,0 20.401993,52.429413,0 20.404201,52.428108,0 20.41954,52.419022,0 20.433884,52.410599,0 20.446106,52.403482,0 20.458603,52.396088,0 20.470352,52.389221,0 20.48393,52.381276,0 20.4968,52.373688,0 20.506923,52.367636,0 20.516262,52.36205,0 20.525364,52.356557,0 20.534389,52.35111,0 20.543413,52.345524,0 20.55283,52.339426,0 20.56468,52.331279,0 20.578003,52.321793,0 20.587997,52.314606,0 20.597325,52.307863,0 20.60682,52.301113,0 20.616629,52.29413,0 20.628008,52.286217,0 20.634613,52.281647,0 20.6459,52.27388,0 20.657671,52.265734,0 20.665741,52.260132,0 20.672607,52.255371,0 20.679932,52.250336,0 20.688198,52.244552,0 20.69063,52.242876,0 20.699692,52.236511,0 20.725632,52.217972,0 20.732269,52.213165,0 20.737008,52.209685,0 20.758745,52.193904,0 20.760803,52.192429,0 20.767365,52.187622,0 20.772858,52.183685,0 20.777344,52.180357,0 20.784683,52.174896,0 20.795393,52.166251,0 20.807321,52.15601,0 20.830549,52.13548,0 20.846008,52.12198,0 20.8535,52.115524,0 20.856916,52.112577,0 20.857391,52.112091,0 20.860367,52.109528,0 20.863429,52.106851,0 20.86649,52.104151,0 20.870285,52.10083,0 20.872498,52.098862,0 20.874176,52.097443,0 20.880432,52.091995,0 20.885167,52.087858,0 20.890424,52.083249,0 20.895761,52.078594,0 20.900234,52.07473,0 20.904628,52.070866,0 20.909651,52.066537,0 20.914078,52.062653,0 20.919067,52.058343,0 20.923309,52.054596,0 20.928877,52.049778,0 20.935059,52.044434,0 20.939331,52.040634,0 20.942841,52.037567,0 20.947083,52.03381,0 20.95234,52.029248,0 20.957363,52.024826,0 20.962463,52.020357,0 20.967712,52.015778,0 20.973053,52.011063,0 20.978928,52.005844,0 20.986481,51.999298,0 20.992661,51.9944,0 20.996399,51.991974,0 21.002093,51.989027,0 21.005402,51.987625,0 21.010646,51.985815,0 21.01593,51.984467,0 21.020142,51.983627,0 21.026733,51.982696,0 21.031342,51.982269,0 21.041408,51.981672,0 21.054382,51.981079,0 21.062622,51.981125,0 21.069502,51.981672,0 21.072464,51.982132,0 21.077271,51.983139,0 21.080566,51.984186,0 21.083603,51.985336,0 21.087708,51.987398,0 21.090611,51.989306,0 21.093292,51.991608,0 21.095123,51.993668,0 21.096654,51.99601,0 21.097595,51.998105,0 21.098223,52.000013,0 21.098633,52.002594,0 21.098615,52.005134,0 21.098145,52.00802,0 21.09726,52.011063,0 21.096191,52.013809,0 21.094142,52.017517,0 21.092181,52.020543,0 21.088562,52.025482,0 21.08696,52.027588,0 21.085358,52.029556,0 21.082999,52.032507,0 21.079102,52.037247,0 21.075287,52.041687,0 21.071167,52.046494,0 21.0672,52.051071,0 21.063851,52.054945,0 21.059849,52.059554,0 21.055603,52.064438,0 21.051941,52.068649,0 21.048355,52.072769,0 21.04393,52.077896,0 21.042404,52.07959,0 21.039054,52.083435,0 21.035233,52.087784,0 21.031834,52.091814,0 21.028976,52.095062,0 21.027361,52.096935,0 21.024857,52.099823,0 21.021083,52.104151,0 21.017317,52.108341,0 21.013184,52.113052,0 21.009521,52.11731,0 21.00563,52.12175,0 21.002014,52.125844,0 20.997849,52.130676,0 20.994638,52.134317,0 20.99144,52.137909,0 20.987418,52.14251,0 20.983808,52.1467,0 20.979462,52.151688,0 20.975647,52.156036,0 20.971959,52.1602,0 20.969772,52.16272,0 20.969238,52.163315,0 20.968475,52.164185,0 20.968475,52.164185,0 20.968094,52.164688,0 20.967152,52.165774,0 20.966225,52.166817,0 20.965622,52.167497,0 20.965481,52.167664,0 20.964718,52.168556,0 20.964279,52.169071,0 20.963837,52.169568,0 20.963366,52.170115,0 20.963052,52.170511,0 20.962875,52.170814,0 20.962738,52.171116,0 20.962679,52.171302,0 20.962522,52.171861,0 20.962486,52.172012,0 20.962467,52.172253,0 20.962483,52.172524,0 20.962486,52.172756,0 20.962483,52.172908,0 20.962503,52.173153,0 20.962522,52.173409,0 20.962522,52.173502,0 20.962561,52.173618,0 20.962601,52.1737,0 20.96264,52.173758,0 20.962715,52.17382,0 20.962772,52.173878,0 20.962915,52.173944,0 20.963097,52.174026,0 20.963345,52.174072,0 20.963478,52.174072,0 20.96365,52.174049,0 20.96386,52.173992,0 20.964033,52.173886,0 20.964108,52.17382,0 20.964229,52.1737,0 20.964464,52.173432,0 20.964602,52.173281,0 20.96489,52.172939,0 20.965195,52.172596,0 20.965233,52.172562,0 20.965233,52.172539,0 20.965308,52.172455,0 20.965465,52.17228,0 20.965614,52.172092,0 20.965767,52.171921,0 20.966034,52.171623,0 20.966152,52.171489,0 20.966289,52.171384,0 20.966396,52.171337,0 20.966544,52.171291,0 20.966603,52.171279,0 20.96674,52.171279,0 20.966956,52.171314,0 20.967178,52.171383,0 20.967388,52.171452,0 20.96756,52.171509,0 20.967917,52.171628,0 20.968246,52.171669,0 20.968304,52.171658,0 20.968475,52.171577,0 20.968685,52.17136,0 20.968937,52.171046,0 20.969232,52.170709,0 20.969582,52.170319,0 20.96984,52.170022,0 20.970097,52.169735,0 20.970421,52.169357,0 20.970566,52.169208,0 20.970554,52.169037,0 20.97037,52.16894,0 20.970211,52.168922,0 20.970116,52.168911,0 20.97002,52.168877,0 20.969958,52.168893,0 20.969938,52.168905,0 20.969849,52.168911,0 20.969742,52.168928,0 20.969585,52.16894,0 20.969467,52.168957,0 20.969219,52.168968,0 20.969212,52.168975,0 20.969212,52.168975,0</coordinates>
            </LineString>
        </Placemark>
    </Document>
</kml>