<?xml version="1.0" encoding="UTF-8"?>
<kml xmlns="http://www.opengis.net/kml/2.2" xmlns:gx="http://www.google.com/kml/ext/2.2"><Folder ><Folder ><name >9H-WAQ track</name>
<Placemark ><name >9H-WAQ</name>
<Style ><LineStyle ><color >ff1c1ae3</color>
<width >4</width>
</LineStyle>
<IconStyle ><Icon ><href >http://maps.google.com/mapfiles/kml/shapes/airports.png</href>
</Icon>
</IconStyle>
</Style>
<gx:Track ><altitudeMode >absolute</altitudeMode>
<extrude >1</extrude>
<when >2025-07-09T07:23:02.190Z</when>
<when >2025-07-09T07:23:02.190Z</when>
<when >2025-07-09T07:23:04.560Z</when>
<when >2025-07-09T07:23:06.570Z</when>
<when >2025-07-09T07:23:08.350Z</when>
<when >2025-07-09T07:23:10.230Z</when>
<when >2025-07-09T07:23:12.460Z</when>
<when >2025-07-09T07:23:14.330Z</when>
<when >2025-07-09T07:23:17.000Z</when>
<when >2025-07-09T07:23:18.370Z</when>
<when >2025-07-09T07:23:20.710Z</when>
<when >2025-07-09T07:23:22.960Z</when>
<when >2025-07-09T07:23:25.110Z</when>
<when >2025-07-09T07:23:26.770Z</when>
<when >2025-07-09T07:23:29.390Z</when>
<when >2025-07-09T07:23:31.400Z</when>
<when >2025-07-09T07:23:33.320Z</when>
<when >2025-07-09T07:23:35.610Z</when>
<when >2025-07-09T07:23:37.470Z</when>
<when >2025-07-09T07:23:39.970Z</when>
<when >2025-07-09T07:23:42.190Z</when>
<when >2025-07-09T07:23:44.480Z</when>
<when >2025-07-09T07:23:46.590Z</when>
<when >2025-07-09T07:23:49.010Z</when>
<when >2025-07-09T07:23:51.450Z</when>
<when >2025-07-09T07:23:54.130Z</when>
<when >2025-07-09T07:23:56.530Z</when>
<when >2025-07-09T07:23:59.210Z</when>
<when >2025-07-09T07:24:02.280Z</when>
<when >2025-07-09T07:24:06.190Z</when>
<when >2025-07-09T07:24:10.190Z</when>
<when >2025-07-09T07:24:14.490Z</when>
<when >2025-07-09T07:24:18.560Z</when>
<when >2025-07-09T07:24:22.960Z</when>
<when >2025-07-09T07:24:25.970Z</when>
<when >2025-07-09T07:24:28.470Z</when>
<when >2025-07-09T07:24:31.960Z</when>
<when >2025-07-09T07:24:35.890Z</when>
<when >2025-07-09T07:24:39.390Z</when>
<when >2025-07-09T07:24:42.970Z</when>
<when >2025-07-09T07:24:46.020Z</when>
<when >2025-07-09T07:24:49.420Z</when>
<when >2025-07-09T07:24:52.400Z</when>
<when >2025-07-09T07:24:55.610Z</when>
<when >2025-07-09T07:24:58.100Z</when>
<when >2025-07-09T07:25:00.720Z</when>
<when >2025-07-09T07:25:03.780Z</when>
<when >2025-07-09T07:25:06.270Z</when>
<when >2025-07-09T07:25:08.720Z</when>
<when >2025-07-09T07:25:11.120Z</when>
<when >2025-07-09T07:25:13.530Z</when>
<when >2025-07-09T07:25:15.730Z</when>
<when >2025-07-09T07:25:17.680Z</when>
<when >2025-07-09T07:25:20.130Z</when>
<when >2025-07-09T07:25:22.190Z</when>
<when >2025-07-09T07:25:24.210Z</when>
<when >2025-07-09T07:25:26.360Z</when>
<when >2025-07-09T07:25:28.400Z</when>
<when >2025-07-09T07:25:30.410Z</when>
<when >2025-07-09T07:25:32.310Z</when>
<when >2025-07-09T07:25:35.910Z</when>
<when >2025-07-09T07:25:38.890Z</when>
<when >2025-07-09T07:25:41.180Z</when>
<when >2025-07-09T07:25:42.720Z</when>
<when >2025-07-09T07:25:45.930Z</when>
<when >2025-07-09T07:25:49.330Z</when>
<when >2025-07-09T07:25:52.340Z</when>
<when >2025-07-09T07:25:55.280Z</when>
<when >2025-07-09T07:25:58.280Z</when>
<when >2025-07-09T07:26:01.580Z</when>
<when >2025-07-09T07:26:04.510Z</when>
<when >2025-07-09T07:26:07.390Z</when>
<when >2025-07-09T07:26:10.450Z</when>
<when >2025-07-09T07:26:13.880Z</when>
<when >2025-07-09T07:26:17.690Z</when>
<when >2025-07-09T07:26:21.530Z</when>
<when >2025-07-09T07:26:26.930Z</when>
<when >2025-07-09T07:26:32.640Z</when>
<when >2025-07-09T07:26:38.300Z</when>
<when >2025-07-09T07:26:43.060Z</when>
<when >2025-07-09T07:26:47.550Z</when>
<when >2025-07-09T07:26:52.330Z</when>
<when >2025-07-09T07:26:57.290Z</when>
<when >2025-07-09T07:27:01.490Z</when>
<when >2025-07-09T07:27:05.430Z</when>
<when >2025-07-09T07:27:10.170Z</when>
<when >2025-07-09T07:27:14.760Z</when>
<when >2025-07-09T07:27:16.340Z</when>
<when >2025-07-09T07:27:17.940Z</when>
<when >2025-07-09T07:27:21.730Z</when>
<when >2025-07-09T07:27:30.070Z</when>
<when >2025-07-09T07:27:31.370Z</when>
<when >2025-07-09T07:27:33.870Z</when>
<when >2025-07-09T07:27:36.100Z</when>
<when >2025-07-09T07:27:40.250Z</when>
<when >2025-07-09T07:27:45.450Z</when>
<when >2025-07-09T07:27:50.590Z</when>
<when >2025-07-09T07:27:55.330Z</when>
<when >2025-07-09T07:28:00.320Z</when>
<when >2025-07-09T07:28:03.170Z</when>
<when >2025-07-09T07:28:11.690Z</when>
<when >2025-07-09T07:28:15.630Z</when>
<when >2025-07-09T07:28:18.190Z</when>
<when >2025-07-09T07:28:20.550Z</when>
<when >2025-07-09T07:28:21.510Z</when>
<when >2025-07-09T07:28:29.600Z</when>
<when >2025-07-09T07:28:38.630Z</when>
<when >2025-07-09T07:28:48.010Z</when>
<when >2025-07-09T07:28:58.830Z</when>
<when >2025-07-09T07:29:10.600Z</when>
<when >2025-07-09T07:29:21.330Z</when>
<when >2025-07-09T07:29:32.140Z</when>
<when >2025-07-09T07:29:35.950Z</when>
<when >2025-07-09T07:29:43.970Z</when>
<when >2025-07-09T07:29:46.440Z</when>
<when >2025-07-09T07:29:52.660Z</when>
<when >2025-07-09T07:29:58.830Z</when>
<when >2025-07-09T07:30:01.020Z</when>
<when >2025-07-09T07:30:10.290Z</when>
<when >2025-07-09T07:30:19.940Z</when>
<when >2025-07-09T07:30:31.710Z</when>
<when >2025-07-09T07:30:40.580Z</when>
<when >2025-07-09T07:30:49.170Z</when>
<when >2025-07-09T07:30:58.210Z</when>
<when >2025-07-09T07:31:07.150Z</when>
<when >2025-07-09T07:31:15.010Z</when>
<when >2025-07-09T07:31:23.510Z</when>
<when >2025-07-09T07:31:27.150Z</when>
<when >2025-07-09T07:31:35.660Z</when>
<when >2025-07-09T07:31:45.180Z</when>
<when >2025-07-09T07:31:52.330Z</when>
<when >2025-07-09T07:32:01.890Z</when>
<when >2025-07-09T07:32:10.640Z</when>
<when >2025-07-09T07:32:19.930Z</when>
<when >2025-07-09T07:32:28.850Z</when>
<when >2025-07-09T07:32:37.510Z</when>
<when >2025-07-09T07:32:46.680Z</when>
<when >2025-07-09T07:32:55.950Z</when>
<when >2025-07-09T07:33:04.470Z</when>
<when >2025-07-09T07:33:13.960Z</when>
<when >2025-07-09T07:33:19.990Z</when>
<when >2025-07-09T07:33:28.920Z</when>
<when >2025-07-09T07:33:37.610Z</when>
<when >2025-07-09T07:33:47.230Z</when>
<when >2025-07-09T07:33:50.930Z</when>
<when >2025-07-09T07:33:54.490Z</when>
<when >2025-07-09T07:33:58.170Z</when>
<when >2025-07-09T07:34:01.630Z</when>
<when >2025-07-09T07:34:04.110Z</when>
<when >2025-07-09T07:34:07.760Z</when>
<when >2025-07-09T07:34:19.610Z</when>
<when >2025-07-09T07:34:31.660Z</when>
<when >2025-07-09T07:34:44.370Z</when>
<when >2025-07-09T07:34:56.850Z</when>
<when >2025-07-09T07:35:10.400Z</when>
<when >2025-07-09T07:35:24.560Z</when>
<when >2025-07-09T07:35:37.990Z</when>
<when >2025-07-09T07:35:50.410Z</when>
<when >2025-07-09T07:36:03.800Z</when>
<when >2025-07-09T07:36:19.110Z</when>
<when >2025-07-09T07:36:30.490Z</when>
<when >2025-07-09T07:36:43.070Z</when>
<when >2025-07-09T07:36:56.420Z</when>
<when >2025-07-09T07:37:10.250Z</when>
<when >2025-07-09T07:37:24.160Z</when>
<when >2025-07-09T07:37:40.310Z</when>
<when >2025-07-09T07:37:50.560Z</when>
<when >2025-07-09T07:38:03.440Z</when>
<when >2025-07-09T07:38:13.140Z</when>
<when >2025-07-09T07:38:18.480Z</when>
<when >2025-07-09T07:38:35.270Z</when>
<when >2025-07-09T07:38:50.150Z</when>
<when >2025-07-09T07:39:05.410Z</when>
<when >2025-07-09T07:39:23.730Z</when>
<when >2025-07-09T07:39:38.630Z</when>
<when >2025-07-09T07:39:45.440Z</when>
<when >2025-07-09T07:40:03.080Z</when>
<when >2025-07-09T07:40:19.980Z</when>
<when >2025-07-09T07:40:34.730Z</when>
<when >2025-07-09T07:40:48.830Z</when>
<when >2025-07-09T07:41:03.860Z</when>
<when >2025-07-09T07:41:23.830Z</when>
<when >2025-07-09T07:41:41.720Z</when>
<when >2025-07-09T07:41:45.170Z</when>
<when >2025-07-09T07:41:54.550Z</when>
<when >2025-07-09T07:42:03.340Z</when>
<when >2025-07-09T07:42:14.580Z</when>
<when >2025-07-09T07:42:20.550Z</when>
<when >2025-07-09T07:42:40.300Z</when>
<when >2025-07-09T07:42:56.920Z</when>
<when >2025-07-09T07:43:15.200Z</when>
<when >2025-07-09T07:43:31.180Z</when>
<when >2025-07-09T07:43:47.760Z</when>
<when >2025-07-09T07:44:03.880Z</when>
<when >2025-07-09T07:44:19.550Z</when>
<when >2025-07-09T07:44:27.500Z</when>
<when >2025-07-09T07:44:47.020Z</when>
<when >2025-07-09T07:45:06.470Z</when>
<when >2025-07-09T07:45:26.390Z</when>
<when >2025-07-09T07:45:46.390Z</when>
<when >2025-07-09T07:46:06.040Z</when>
<when >2025-07-09T07:46:25.670Z</when>
<when >2025-07-09T07:46:45.190Z</when>
<when >2025-07-09T07:47:04.830Z</when>
<when >2025-07-09T07:47:24.540Z</when>
<when >2025-07-09T07:47:44.090Z</when>
<when >2025-07-09T07:48:04.070Z</when>
<when >2025-07-09T07:48:10.040Z</when>
<when >2025-07-09T07:48:21.880Z</when>
<when >2025-07-09T07:48:31.100Z</when>
<when >2025-07-09T07:48:45.350Z</when>
<when >2025-07-09T07:49:03.730Z</when>
<when >2025-07-09T07:49:19.320Z</when>
<when >2025-07-09T07:49:39.130Z</when>
<when >2025-07-09T07:49:58.990Z</when>
<when >2025-07-09T07:50:18.840Z</when>
<when >2025-07-09T07:50:36.120Z</when>
<when >2025-07-09T07:50:47.100Z</when>
<when >2025-07-09T07:50:53.320Z</when>
<when >2025-07-09T07:51:13.230Z</when>
<when >2025-07-09T07:51:32.640Z</when>
<when >2025-07-09T07:51:52.230Z</when>
<when >2025-07-09T07:52:11.780Z</when>
<when >2025-07-09T07:52:31.600Z</when>
<when >2025-07-09T07:52:51.350Z</when>
<when >2025-07-09T07:53:11.330Z</when>
<when >2025-07-09T07:53:31.260Z</when>
<when >2025-07-09T07:53:51.190Z</when>
<when >2025-07-09T07:54:10.890Z</when>
<when >2025-07-09T07:54:30.550Z</when>
<when >2025-07-09T07:54:50.520Z</when>
<when >2025-07-09T07:55:09.920Z</when>
<when >2025-07-09T07:55:29.410Z</when>
<when >2025-07-09T07:55:48.990Z</when>
<when >2025-07-09T07:56:08.550Z</when>
<when >2025-07-09T07:56:28.170Z</when>
<when >2025-07-09T07:56:48.080Z</when>
<when >2025-07-09T07:57:07.800Z</when>
<when >2025-07-09T07:57:27.450Z</when>
<when >2025-07-09T07:57:47.350Z</when>
<when >2025-07-09T07:58:06.850Z</when>
<when >2025-07-09T07:58:26.540Z</when>
<when >2025-07-09T07:58:46.380Z</when>
<when >2025-07-09T07:59:06.320Z</when>
<when >2025-07-09T07:59:25.970Z</when>
<when >2025-07-09T07:59:45.870Z</when>
<when >2025-07-09T08:00:05.650Z</when>
<when >2025-07-09T08:00:25.280Z</when>
<when >2025-07-09T08:00:45.280Z</when>
<when >2025-07-09T08:01:05.120Z</when>
<when >2025-07-09T08:01:24.860Z</when>
<when >2025-07-09T08:01:40.760Z</when>
<when >2025-07-09T08:01:47.400Z</when>
<when >2025-07-09T08:01:53.980Z</when>
<when >2025-07-09T08:02:10.700Z</when>
<when >2025-07-09T08:02:30.580Z</when>
<when >2025-07-09T08:02:50.220Z</when>
<when >2025-07-09T08:03:10.100Z</when>
<when >2025-07-09T08:03:29.490Z</when>
<when >2025-07-09T08:03:49.380Z</when>
<when >2025-07-09T08:04:09.230Z</when>
<when >2025-07-09T08:04:29.220Z</when>
<when >2025-07-09T08:04:48.870Z</when>
<when >2025-07-09T08:05:08.760Z</when>
<when >2025-07-09T08:05:28.650Z</when>
<when >2025-07-09T08:05:48.440Z</when>
<when >2025-07-09T08:06:08.270Z</when>
<when >2025-07-09T08:06:28.150Z</when>
<when >2025-07-09T08:06:47.690Z</when>
<when >2025-07-09T08:07:07.650Z</when>
<when >2025-07-09T08:07:27.320Z</when>
<when >2025-07-09T08:07:46.900Z</when>
<when >2025-07-09T08:08:06.380Z</when>
<when >2025-07-09T08:08:26.250Z</when>
<when >2025-07-09T08:08:45.890Z</when>
<when >2025-07-09T08:09:05.790Z</when>
<when >2025-07-09T08:09:25.450Z</when>
<when >2025-07-09T08:09:45.240Z</when>
<when >2025-07-09T08:10:04.850Z</when>
<when >2025-07-09T08:10:24.830Z</when>
<when >2025-07-09T08:10:44.700Z</when>
<when >2025-07-09T08:11:04.210Z</when>
<when >2025-07-09T08:11:24.060Z</when>
<when >2025-07-09T08:11:44.000Z</when>
<when >2025-07-09T08:12:03.710Z</when>
<when >2025-07-09T08:12:23.130Z</when>
<when >2025-07-09T08:12:42.980Z</when>
<when >2025-07-09T08:13:02.970Z</when>
<when >2025-07-09T08:13:22.810Z</when>
<when >2025-07-09T08:13:42.800Z</when>
<when >2025-07-09T08:14:02.330Z</when>
<when >2025-07-09T08:14:21.860Z</when>
<when >2025-07-09T08:14:41.330Z</when>
<when >2025-07-09T08:15:01.130Z</when>
<when >2025-07-09T08:15:21.060Z</when>
<when >2025-07-09T08:15:40.870Z</when>
<when >2025-07-09T08:16:00.410Z</when>
<when >2025-07-09T08:16:20.330Z</when>
<when >2025-07-09T08:16:39.810Z</when>
<when >2025-07-09T08:16:59.580Z</when>
<when >2025-07-09T08:17:19.390Z</when>
<when >2025-07-09T08:17:39.050Z</when>
<when >2025-07-09T08:17:58.710Z</when>
<when >2025-07-09T08:18:18.560Z</when>
<when >2025-07-09T08:18:38.110Z</when>
<when >2025-07-09T08:18:57.850Z</when>
<when >2025-07-09T08:19:17.760Z</when>
<when >2025-07-09T08:19:37.300Z</when>
<when >2025-07-09T08:19:56.980Z</when>
<when >2025-07-09T08:20:16.670Z</when>
<when >2025-07-09T08:20:36.270Z</when>
<when >2025-07-09T08:20:55.990Z</when>
<when >2025-07-09T08:21:15.870Z</when>
<when >2025-07-09T08:21:35.420Z</when>
<when >2025-07-09T08:21:55.240Z</when>
<when >2025-07-09T08:22:14.920Z</when>
<when >2025-07-09T08:22:34.760Z</when>
<when >2025-07-09T08:22:54.650Z</when>
<when >2025-07-09T08:23:14.380Z</when>
<when >2025-07-09T08:23:34.220Z</when>
<when >2025-07-09T08:23:54.020Z</when>
<when >2025-07-09T08:24:13.680Z</when>
<when >2025-07-09T08:24:33.610Z</when>
<when >2025-07-09T08:24:53.390Z</when>
<when >2025-07-09T08:25:13.150Z</when>
<when >2025-07-09T08:25:32.930Z</when>
<when >2025-07-09T08:25:52.670Z</when>
<when >2025-07-09T08:26:12.500Z</when>
<when >2025-07-09T08:26:32.120Z</when>
<when >2025-07-09T08:26:51.600Z</when>
<when >2025-07-09T08:27:11.420Z</when>
<when >2025-07-09T08:27:20.930Z</when>
<when >2025-07-09T08:27:25.540Z</when>
<when >2025-07-09T08:27:30.490Z</when>
<when >2025-07-09T08:27:35.050Z</when>
<when >2025-07-09T08:27:40.050Z</when>
<when >2025-07-09T08:27:44.640Z</when>
<when >2025-07-09T08:27:49.560Z</when>
<when >2025-07-09T08:27:54.780Z</when>
<when >2025-07-09T08:27:59.870Z</when>
<when >2025-07-09T08:28:06.450Z</when>
<when >2025-07-09T08:28:21.720Z</when>
<when >2025-07-09T08:28:36.250Z</when>
<when >2025-07-09T08:28:56.230Z</when>
<when >2025-07-09T08:29:15.820Z</when>
<when >2025-07-09T08:29:35.250Z</when>
<when >2025-07-09T08:29:54.700Z</when>
<when >2025-07-09T08:30:14.640Z</when>
<when >2025-07-09T08:30:34.620Z</when>
<when >2025-07-09T08:30:54.560Z</when>
<when >2025-07-09T08:31:14.370Z</when>
<when >2025-07-09T08:31:33.890Z</when>
<when >2025-07-09T08:31:53.820Z</when>
<when >2025-07-09T08:32:13.820Z</when>
<when >2025-07-09T08:32:33.530Z</when>
<when >2025-07-09T08:32:53.150Z</when>
<when >2025-07-09T08:33:12.880Z</when>
<when >2025-07-09T08:33:32.810Z</when>
<when >2025-07-09T08:33:52.390Z</when>
<when >2025-07-09T08:34:12.330Z</when>
<when >2025-07-09T08:34:32.070Z</when>
<when >2025-07-09T08:34:51.740Z</when>
<when >2025-07-09T08:35:11.280Z</when>
<when >2025-07-09T08:35:30.730Z</when>
<when >2025-07-09T08:35:50.290Z</when>
<when >2025-07-09T08:36:10.170Z</when>
<when >2025-07-09T08:36:29.850Z</when>
<when >2025-07-09T08:36:49.620Z</when>
<when >2025-07-09T08:37:09.390Z</when>
<when >2025-07-09T08:37:29.110Z</when>
<when >2025-07-09T08:37:44.710Z</when>
<when >2025-07-09T08:37:50.530Z</when>
<when >2025-07-09T08:37:54.940Z</when>
<when >2025-07-09T08:38:07.490Z</when>
<when >2025-07-09T08:38:15.930Z</when>
<when >2025-07-09T08:38:25.990Z</when>
<when >2025-07-09T08:38:31.800Z</when>
<when >2025-07-09T08:38:34.180Z</when>
<when >2025-07-09T08:38:40.940Z</when>
<when >2025-07-09T08:38:42.770Z</when>
<when >2025-07-09T08:38:44.650Z</when>
<when >2025-07-09T08:38:46.730Z</when>
<when >2025-07-09T08:38:48.080Z</when>
<when >2025-07-09T08:38:50.680Z</when>
<when >2025-07-09T08:39:01.780Z</when>
<when >2025-07-09T08:39:10.480Z</when>
<when >2025-07-09T08:39:13.880Z</when>
<when >2025-07-09T08:39:16.210Z</when>
<when >2025-07-09T08:39:17.590Z</when>
<when >2025-07-09T08:39:26.270Z</when>
<when >2025-07-09T08:39:30.340Z</when>
<when >2025-07-09T08:39:35.940Z</when>
<when >2025-07-09T08:39:48.740Z</when>
<when >2025-07-09T08:39:52.000Z</when>
<when >2025-07-09T08:39:56.280Z</when>
<when >2025-07-09T08:40:04.490Z</when>
<when >2025-07-09T08:40:12.840Z</when>
<when >2025-07-09T08:40:20.850Z</when>
<when >2025-07-09T08:40:30.460Z</when>
<when >2025-07-09T08:40:41.280Z</when>
<when >2025-07-09T08:40:51.790Z</when>
<when >2025-07-09T08:41:01.840Z</when>
<when >2025-07-09T08:41:10.850Z</when>
<when >2025-07-09T08:41:18.480Z</when>
<when >2025-07-09T08:41:24.720Z</when>
<when >2025-07-09T08:41:26.220Z</when>
<when >2025-07-09T08:41:33.800Z</when>
<when >2025-07-09T08:41:41.580Z</when>
<when >2025-07-09T08:41:49.940Z</when>
<when >2025-07-09T08:41:58.140Z</when>
<when >2025-07-09T08:42:06.630Z</when>
<when >2025-07-09T08:42:15.200Z</when>
<when >2025-07-09T08:42:23.950Z</when>
<when >2025-07-09T08:42:32.430Z</when>
<when >2025-07-09T08:42:41.440Z</when>
<when >2025-07-09T08:42:50.380Z</when>
<when >2025-07-09T08:42:51.880Z</when>
<when >2025-07-09T08:42:55.290Z</when>
<when >2025-07-09T08:43:07.940Z</when>
<when >2025-07-09T08:43:19.630Z</when>
<when >2025-07-09T08:43:30.860Z</when>
<when >2025-07-09T08:43:37.310Z</when>
<when >2025-07-09T08:43:49.930Z</when>
<when >2025-07-09T08:43:55.690Z</when>
<when >2025-07-09T08:44:05.130Z</when>
<when >2025-07-09T08:44:09.680Z</when>
<when >2025-07-09T08:44:15.660Z</when>
<when >2025-07-09T08:44:17.220Z</when>
<when >2025-07-09T08:44:18.790Z</when>
<when >2025-07-09T08:44:27.950Z</when>
<when >2025-07-09T08:44:37.180Z</when>
<when >2025-07-09T08:44:38.690Z</when>
<when >2025-07-09T08:44:43.280Z</when>
<when >2025-07-09T08:44:56.610Z</when>
<when >2025-07-09T08:45:10.650Z</when>
<when >2025-07-09T08:45:26.440Z</when>
<when >2025-07-09T08:45:41.440Z</when>
<when >2025-07-09T08:45:54.950Z</when>
<when >2025-07-09T08:46:07.670Z</when>
<when >2025-07-09T08:46:18.330Z</when>
<when >2025-07-09T08:46:24.230Z</when>
<when >2025-07-09T08:46:29.860Z</when>
<when >2025-07-09T08:46:37.870Z</when>
<when >2025-07-09T08:46:50.000Z</when>
<when >2025-07-09T08:46:57.440Z</when>
<when >2025-07-09T08:47:07.380Z</when>
<when >2025-07-09T08:47:15.350Z</when>
<when >2025-07-09T08:47:26.830Z</when>
<when >2025-07-09T08:47:37.960Z</when>
<when >2025-07-09T08:47:49.350Z</when>
<when >2025-07-09T08:48:00.210Z</when>
<when >2025-07-09T08:48:11.480Z</when>
<when >2025-07-09T08:48:22.010Z</when>
<when >2025-07-09T08:48:32.870Z</when>
<when >2025-07-09T08:48:43.870Z</when>
<when >2025-07-09T08:48:47.680Z</when>
<when >2025-07-09T08:48:55.720Z</when>
<when >2025-07-09T08:49:09.710Z</when>
<when >2025-07-09T08:49:21.800Z</when>
<when >2025-07-09T08:49:34.120Z</when>
<when >2025-07-09T08:49:46.620Z</when>
<when >2025-07-09T08:49:53.940Z</when>
<when >2025-07-09T08:49:59.760Z</when>
<when >2025-07-09T08:50:07.330Z</when>
<when >2025-07-09T08:50:14.590Z</when>
<when >2025-07-09T08:50:22.060Z</when>
<when >2025-07-09T08:50:31.830Z</when>
<when >2025-07-09T08:50:41.840Z</when>
<when >2025-07-09T08:50:51.880Z</when>
<when >2025-07-09T08:51:01.460Z</when>
<when >2025-07-09T08:51:11.400Z</when>
<when >2025-07-09T08:51:22.740Z</when>
<when >2025-07-09T08:51:32.830Z</when>
<when >2025-07-09T08:51:41.440Z</when>
<when >2025-07-09T08:51:50.920Z</when>
<when >2025-07-09T08:51:59.610Z</when>
<when >2025-07-09T08:52:07.750Z</when>
<when >2025-07-09T08:52:15.450Z</when>
<when >2025-07-09T08:52:20.800Z</when>
<when >2025-07-09T08:52:29.340Z</when>
<when >2025-07-09T08:52:34.780Z</when>
<when >2025-07-09T08:52:37.820Z</when>
<when >2025-07-09T08:52:40.590Z</when>
<when >2025-07-09T08:52:44.340Z</when>
<when >2025-07-09T08:52:46.530Z</when>
<when >2025-07-09T08:52:49.740Z</when>
<when >2025-07-09T08:52:52.210Z</when>
<when >2025-07-09T08:52:54.850Z</when>
<when >2025-07-09T08:52:57.210Z</when>
<when >2025-07-09T08:52:59.160Z</when>
<when >2025-07-09T08:53:01.740Z</when>
<when >2025-07-09T08:53:12.080Z</when>
<when >2025-07-09T08:53:20.500Z</when>
<when >2025-07-09T08:53:29.170Z</when>
<when >2025-07-09T08:53:37.720Z</when>
<when >2025-07-09T08:53:42.440Z</when>
<when >2025-07-09T08:53:57.050Z</when>
<when >2025-07-09T08:54:08.040Z</when>
<when >2025-07-09T08:54:16.390Z</when>
<when >2025-07-09T08:54:25.000Z</when>
<when >2025-07-09T08:54:30.190Z</when>
<when >2025-07-09T08:54:38.280Z</when>
<when >2025-07-09T08:54:45.930Z</when>
<when >2025-07-09T08:54:49.620Z</when>
<when >2025-07-09T08:54:53.330Z</when>
<when >2025-07-09T08:54:57.320Z</when>
<when >2025-07-09T08:55:03.020Z</when>
<when >2025-07-09T08:55:08.190Z</when>
<when >2025-07-09T08:55:13.670Z</when>
<when >2025-07-09T08:55:19.180Z</when>
<when >2025-07-09T08:55:24.240Z</when>
<when >2025-07-09T08:55:27.500Z</when>
<when >2025-07-09T08:55:30.480Z</when>
<when >2025-07-09T08:55:33.570Z</when>
<when >2025-07-09T08:55:36.620Z</when>
<when >2025-07-09T08:55:39.340Z</when>
<when >2025-07-09T08:55:42.040Z</when>
<when >2025-07-09T08:55:44.820Z</when>
<when >2025-07-09T08:55:47.880Z</when>
<when >2025-07-09T08:55:50.770Z</when>
<when >2025-07-09T08:55:53.820Z</when>
<when >2025-07-09T08:55:56.320Z</when>
<when >2025-07-09T08:55:59.470Z</when>
<when >2025-07-09T08:56:02.550Z</when>
<when >2025-07-09T08:56:05.540Z</when>
<when >2025-07-09T08:56:08.540Z</when>
<when >2025-07-09T08:56:11.720Z</when>
<when >2025-07-09T08:56:14.730Z</when>
<when >2025-07-09T08:56:17.770Z</when>
<when >2025-07-09T08:56:20.240Z</when>
<when >2025-07-09T08:56:23.260Z</when>
<when >2025-07-09T08:56:26.290Z</when>
<when >2025-07-09T08:56:28.190Z</when>
<when >2025-07-09T08:56:31.160Z</when>
<when >2025-07-09T08:56:33.740Z</when>
<when >2025-07-09T08:56:37.940Z</when>
<when >2025-07-09T08:56:43.810Z</when>
<when >2025-07-09T08:56:49.940Z</when>
<when >2025-07-09T08:56:54.560Z</when>
<when >2025-07-09T08:56:58.250Z</when>
<when >2025-07-09T08:57:03.350Z</when>
<when >2025-07-09T08:57:08.010Z</when>
<when >2025-07-09T08:57:13.150Z</when>
<when >2025-07-09T08:57:17.560Z</when>
<when >2025-07-09T08:57:20.970Z</when>
<when >2025-07-09T08:57:23.970Z</when>
<when >2025-07-09T08:57:26.870Z</when>
<when >2025-07-09T08:57:29.330Z</when>
<when >2025-07-09T08:57:31.830Z</when>
<when >2025-07-09T08:57:34.760Z</when>
<when >2025-07-09T08:57:37.990Z</when>
<when >2025-07-09T08:57:41.740Z</when>
<when >2025-07-09T08:57:46.570Z</when>
<when >2025-07-09T08:57:52.930Z</when>
<when >2025-07-09T08:57:59.620Z</when>
<when >2025-07-09T08:58:05.470Z</when>
<when >2025-07-09T08:58:13.230Z</when>
<when >2025-07-09T08:58:14.360Z</when>
<when >2025-07-09T08:58:18.470Z</when>
<when >2025-07-09T08:58:22.870Z</when>
<when >2025-07-09T08:58:27.990Z</when>
<when >2025-07-09T08:58:34.480Z</when>
<when >2025-07-09T08:58:38.580Z</when>
<when >2025-07-09T08:58:41.040Z</when>
<when >2025-07-09T08:58:42.660Z</when>
<when >2025-07-09T08:58:44.780Z</when>
<when >2025-07-09T08:58:46.810Z</when>
<when >2025-07-09T08:58:48.660Z</when>
<when >2025-07-09T08:58:50.270Z</when>
<when >2025-07-09T08:58:52.760Z</when>
<when >2025-07-09T08:58:55.900Z</when>
<when >2025-07-09T08:59:00.180Z</when>
<when >2025-07-09T08:59:08.970Z</when>
<when >2025-07-09T08:59:17.680Z</when>
<when >2025-07-09T08:59:30.880Z</when>
<when >2025-07-09T08:59:34.580Z</when>
<when >2025-07-09T08:59:37.080Z</when>
<when >2025-07-09T08:59:39.860Z</when>
<when >2025-07-09T08:59:42.370Z</when>
<when >2025-07-09T08:59:44.790Z</when>
<when >2025-07-09T08:59:47.770Z</when>
<when >2025-07-09T08:59:51.600Z</when>
<when >2025-07-09T08:59:56.930Z</when>
<when >2025-07-09T09:00:14.830Z</when>
<when >2025-07-09T09:00:28.370Z</when>
<when >2025-07-09T09:00:36.830Z</when>
<when >2025-07-09T09:00:44.060Z</when>
<when >2025-07-09T09:00:51.400Z</when>
<when >2025-07-09T09:00:59.140Z</when>
<when >2025-07-09T09:01:06.120Z</when>
<when >2025-07-09T09:01:14.720Z</when>
<when >2025-07-09T09:01:22.670Z</when>
<when >2025-07-09T09:01:30.580Z</when>
<when >2025-07-09T09:01:39.150Z</when>
<when >2025-07-09T09:01:47.420Z</when>
<when >2025-07-09T09:01:55.860Z</when>
<when >2025-07-09T09:02:00.830Z</when>
<when >2025-07-09T09:02:06.180Z</when>
<when >2025-07-09T09:02:14.800Z</when>
<when >2025-07-09T09:02:21.950Z</when>
<when >2025-07-09T09:02:30.360Z</when>
<when >2025-07-09T09:02:38.590Z</when>
<when >2025-07-09T09:02:47.120Z</when>
<when >2025-07-09T09:02:55.590Z</when>
<when >2025-07-09T09:03:02.520Z</when>
<when >2025-07-09T09:03:11.080Z</when>
<when >2025-07-09T09:03:18.550Z</when>
<when >2025-07-09T09:03:27.290Z</when>
<when >2025-07-09T09:03:34.540Z</when>
<when >2025-07-09T09:03:43.210Z</when>
<when >2025-07-09T09:03:51.150Z</when>
<when >2025-07-09T09:03:59.220Z</when>
<when >2025-07-09T09:04:07.750Z</when>
<when >2025-07-09T09:04:15.980Z</when>
<when >2025-07-09T09:04:22.790Z</when>
<when >2025-07-09T09:04:25.990Z</when>
<when >2025-07-09T09:04:27.150Z</when>
<when >2025-07-09T09:04:30.730Z</when>
<when >2025-07-09T09:04:32.740Z</when>
<when >2025-07-09T09:04:32.740Z</when>
<gx:coord >9.690008 45.670898 405</gx:coord>
<gx:coord >9.690008 45.670898 405</gx:coord>
<gx:coord >9.687263 45.671376 427</gx:coord>
<gx:coord >9.684917 45.671677 466</gx:coord>
<gx:coord >9.683075 45.671888 488</gx:coord>
<gx:coord >9.68074 45.672028 511</gx:coord>
<gx:coord >9.678337 45.672075 549</gx:coord>
<gx:coord >9.675941 45.671997 587</gx:coord>
<gx:coord >9.672926 45.671677 603</gx:coord>
<gx:coord >9.671184 45.671448 633</gx:coord>
<gx:coord >9.668639 45.670944 656</gx:coord>
<gx:coord >9.666093 45.670349 702</gx:coord>
<gx:coord >9.663882 45.669708 725</gx:coord>
<gx:coord >9.662064 45.669095 763</gx:coord>
<gx:coord >9.659461 45.668106 801</gx:coord>
<gx:coord >9.657451 45.667236 831</gx:coord>
<gx:coord >9.655576 45.666367 862</gx:coord>
<gx:coord >9.653412 45.665278 885</gx:coord>
<gx:coord >9.651764 45.664347 908</gx:coord>
<gx:coord >9.649547 45.663071 946</gx:coord>
<gx:coord >9.647872 45.662018 976</gx:coord>
<gx:coord >9.646063 45.660782 1014</gx:coord>
<gx:coord >9.644142 45.659459 1045</gx:coord>
<gx:coord >9.642312 45.658081 1083</gx:coord>
<gx:coord >9.640366 45.656619 1106</gx:coord>
<gx:coord >9.638443 45.655176 1144</gx:coord>
<gx:coord >9.63652 45.65364 1167</gx:coord>
<gx:coord >9.634541 45.651993 1197</gx:coord>
<gx:coord >9.632126 45.650102 1236</gx:coord>
<gx:coord >9.629173 45.647681 1267</gx:coord>
<gx:coord >9.626152 45.645167 1297</gx:coord>
<gx:coord >9.62255 45.642242 1328</gx:coord>
<gx:coord >9.619133 45.639542 1350</gx:coord>
<gx:coord >9.615382 45.636566 1389</gx:coord>
<gx:coord >9.612635 45.634415 1411</gx:coord>
<gx:coord >9.610425 45.632721 1434</gx:coord>
<gx:coord >9.607209 45.630295 1472</gx:coord>
<gx:coord >9.603525 45.627548 1503</gx:coord>
<gx:coord >9.600128 45.62501 1533</gx:coord>
<gx:coord >9.596625 45.622467 1556</gx:coord>
<gx:coord >9.593536 45.620262 1594</gx:coord>
<gx:coord >9.590127 45.617706 1625</gx:coord>
<gx:coord >9.587082 45.615327 1655</gx:coord>
<gx:coord >9.584298 45.612762 1686</gx:coord>
<gx:coord >9.582275 45.610486 1709</gx:coord>
<gx:coord >9.580346 45.608093 1739</gx:coord>
<gx:coord >9.578537 45.605301 1777</gx:coord>
<gx:coord >9.577263 45.602665 1808</gx:coord>
<gx:coord >9.576302 45.600198 1846</gx:coord>
<gx:coord >9.575657 45.597702 1861</gx:coord>
<gx:coord >9.575272 45.595124 1891</gx:coord>
<gx:coord >9.575203 45.592843 1930</gx:coord>
<gx:coord >9.575255 45.590744 1960</gx:coord>
<gx:coord >9.575615 45.588281 1998</gx:coord>
<gx:coord >9.576126 45.586029 2029</gx:coord>
<gx:coord >9.576863 45.583923 2059</gx:coord>
<gx:coord >9.577744 45.581763 2090</gx:coord>
<gx:coord >9.578773 45.579901 2120</gx:coord>
<gx:coord >9.579941 45.577946 2151</gx:coord>
<gx:coord >9.581314 45.576084 2189</gx:coord>
<gx:coord >9.584061 45.572918 2219</gx:coord>
<gx:coord >9.58671 45.570328 2265</gx:coord>
<gx:coord >9.588921 45.568542 2304</gx:coord>
<gx:coord >9.590529 45.567307 2312</gx:coord>
<gx:coord >9.594012 45.564926 2342</gx:coord>
<gx:coord >9.598137 45.562584 2357</gx:coord>
<gx:coord >9.601984 45.56076 2380</gx:coord>
<gx:coord >9.60607 45.559204 2395</gx:coord>
<gx:coord >9.610359 45.557835 2403</gx:coord>
<gx:coord >9.615851 45.556549 2426</gx:coord>
<gx:coord >9.62054 45.555817 2441</gx:coord>
<gx:coord >9.625465 45.555415 2464</gx:coord>
<gx:coord >9.630615 45.555322 2479</gx:coord>
<gx:coord >9.636383 45.555648 2494</gx:coord>
<gx:coord >9.64325 45.556412 2525</gx:coord>
<gx:coord >9.650185 45.557323 2563</gx:coord>
<gx:coord >9.659935 45.558767 2616</gx:coord>
<gx:coord >9.670303 45.560256 2677</gx:coord>
<gx:coord >9.680697 45.561768 2745</gx:coord>
<gx:coord >9.689255 45.562956 2798</gx:coord>
<gx:coord >9.697906 45.56412 2867</gx:coord>
<gx:coord >9.707108 45.56533 2928</gx:coord>
<gx:coord >9.716469 45.566528 2996</gx:coord>
<gx:coord >9.724374 45.56749 3050</gx:coord>
<gx:coord >9.732033 45.568449 3118</gx:coord>
<gx:coord >9.740854 45.569504 3179</gx:coord>
<gx:coord >9.749696 45.570557 3240</gx:coord>
<gx:coord >9.753046 45.570969 3263</gx:coord>
<gx:coord >9.756065 45.571289 3271</gx:coord>
<gx:coord >9.763344 45.572174 3309</gx:coord>
<gx:coord >9.779976 45.574127 3355</gx:coord>
<gx:coord >9.782707 45.574501 3377</gx:coord>
<gx:coord >9.787788 45.575106 3400</gx:coord>
<gx:coord >9.792369 45.575638 3431</gx:coord>
<gx:coord >9.800766 45.576643 3492</gx:coord>
<gx:coord >9.811595 45.577972 3553</gx:coord>
<gx:coord >9.822121 45.579203 3614</gx:coord>
<gx:coord >9.832146 45.580367 3682</gx:coord>
<gx:coord >9.84241 45.581589 3728</gx:coord>
<gx:coord >9.848625 45.582322 3751</gx:coord>
<gx:coord >9.867027 45.584556 3796</gx:coord>
<gx:coord >9.875679 45.585581 3827</gx:coord>
<gx:coord >9.88113 45.586212 3850</gx:coord>
<gx:coord >9.886665 45.586884 3888</gx:coord>
<gx:coord >9.8887 45.587082 3903</gx:coord>
<gx:coord >9.906519 45.589188 4017</gx:coord>
<gx:coord >9.926683 45.591522 4147</gx:coord>
<gx:coord >9.947708 45.59396 4261</gx:coord>
<gx:coord >9.972153 45.5968 4376</gx:coord>
<gx:coord >9.999344 45.599965 4497</gx:coord>
<gx:coord >10.024338 45.602805 4618</gx:coord>
<gx:coord >10.049675 45.605738 4748</gx:coord>
<gx:coord >10.058519 45.606766 4801</gx:coord>
<gx:coord >10.077141 45.608903 4931</gx:coord>
<gx:coord >10.083373 45.60965 4969</gx:coord>
<gx:coord >10.097672 45.611277 5083</gx:coord>
<gx:coord >10.112022 45.61286 5198</gx:coord>
<gx:coord >10.116934 45.613403 5236</gx:coord>
<gx:coord >10.138252 45.615793 5358</gx:coord>
<gx:coord >10.160637 45.6184 5480</gx:coord>
<gx:coord >10.188103 45.621705 5586</gx:coord>
<gx:coord >10.208576 45.624619 5685</gx:coord>
<gx:coord >10.228477 45.62799 5768</gx:coord>
<gx:coord >10.249008 45.63204 5867</gx:coord>
<gx:coord >10.269264 45.636695 5966</gx:coord>
<gx:coord >10.28643 45.641071 6058</gx:coord>
<gx:coord >10.30531 45.646408 6111</gx:coord>
<gx:coord >10.313014 45.648743 6149</gx:coord>
<gx:coord >10.331369 45.654739 6256</gx:coord>
<gx:coord >10.35125 45.66188 6355</gx:coord>
<gx:coord >10.365869 45.667511 6416</gx:coord>
<gx:coord >10.385162 45.675568 6476</gx:coord>
<gx:coord >10.402177 45.683304 6529</gx:coord>
<gx:coord >10.419708 45.691999 6582</gx:coord>
<gx:coord >10.436462 45.70089 6628</gx:coord>
<gx:coord >10.452255 45.709968 6674</gx:coord>
<gx:coord >10.468117 45.719791 6712</gx:coord>
<gx:coord >10.483635 45.730172 6757</gx:coord>
<gx:coord >10.497236 45.739929 6818</gx:coord>
<gx:coord >10.511444 45.750841 6856</gx:coord>
<gx:coord >10.520481 45.75824 6879</gx:coord>
<gx:coord >10.533073 45.769136 6879</gx:coord>
<gx:coord >10.544865 45.780075 6886</gx:coord>
<gx:coord >10.557526 45.792114 6886</gx:coord>
<gx:coord >10.563087 45.7966 6886</gx:coord>
<gx:coord >10.568848 45.800698 6886</gx:coord>
<gx:coord >10.575302 45.804516 6886</gx:coord>
<gx:coord >10.581844 45.807907 6901</gx:coord>
<gx:coord >10.586667 45.81015 6917</gx:coord>
<gx:coord >10.594103 45.813492 6932</gx:coord>
<gx:coord >10.618219 45.823837 7039</gx:coord>
<gx:coord >10.642871 45.834457 7153</gx:coord>
<gx:coord >10.668595 45.845856 7266</gx:coord>
<gx:coord >10.694435 45.857492 7365</gx:coord>
<gx:coord >10.721832 45.869968 7457</gx:coord>
<gx:coord >10.751328 45.883484 7548</gx:coord>
<gx:coord >10.779129 45.896255 7655</gx:coord>
<gx:coord >10.805121 45.908249 7754</gx:coord>
<gx:coord >10.833 45.921129 7845</gx:coord>
<gx:coord >10.865547 45.936119 7929</gx:coord>
<gx:coord >10.889717 45.947198 8005</gx:coord>
<gx:coord >10.916458 45.959473 8104</gx:coord>
<gx:coord >10.945473 45.972709 8203</gx:coord>
<gx:coord >10.975074 45.986252 8303</gx:coord>
<gx:coord >11.005348 46.000082 8402</gx:coord>
<gx:coord >11.040573 46.016235 8478</gx:coord>
<gx:coord >11.062964 46.026489 8546</gx:coord>
<gx:coord >11.091591 46.039558 8661</gx:coord>
<gx:coord >11.11274 46.049148 8737</gx:coord>
<gx:coord >11.12455 46.054455 8783</gx:coord>
<gx:coord >11.161766 46.071353 8859</gx:coord>
<gx:coord >11.194862 46.086343 8943</gx:coord>
<gx:coord >11.229568 46.10202 9026</gx:coord>
<gx:coord >11.271149 46.120792 9103</gx:coord>
<gx:coord >11.3052 46.136124 9186</gx:coord>
<gx:coord >11.320942 46.143173 9225</gx:coord>
<gx:coord >11.361806 46.161621 9301</gx:coord>
<gx:coord >11.401129 46.179291 9377</gx:coord>
<gx:coord >11.435944 46.194949 9461</gx:coord>
<gx:coord >11.469258 46.209869 9552</gx:coord>
<gx:coord >11.504402 46.225581 9644</gx:coord>
<gx:coord >11.551849 46.246902 9705</gx:coord>
<gx:coord >11.594696 46.266128 9773</gx:coord>
<gx:coord >11.602969 46.269836 9796</gx:coord>
<gx:coord >11.625458 46.279861 9872</gx:coord>
<gx:coord >11.646812 46.289311 9956</gx:coord>
<gx:coord >11.673644 46.301193 10016</gx:coord>
<gx:coord >11.688046 46.307602 10039</gx:coord>
<gx:coord >11.735596 46.328834 10100</gx:coord>
<gx:coord >11.776245 46.346989 10176</gx:coord>
<gx:coord >11.820954 46.366837 10245</gx:coord>
<gx:coord >11.860813 46.38446 10328</gx:coord>
<gx:coord >11.901695 46.402572 10412</gx:coord>
<gx:coord >11.941871 46.420303 10488</gx:coord>
<gx:coord >11.981127 46.437653 10557</gx:coord>
<gx:coord >12.00109 46.446487 10580</gx:coord>
<gx:coord >12.05056 46.468258 10588</gx:coord>
<gx:coord >12.099498 46.4897 10580</gx:coord>
<gx:coord >12.149437 46.511551 10580</gx:coord>
<gx:coord >12.199714 46.5336 10572</gx:coord>
<gx:coord >12.249481 46.55531 10572</gx:coord>
<gx:coord >12.299328 46.576996 10572</gx:coord>
<gx:coord >12.349169 46.598648 10572</gx:coord>
<gx:coord >12.399307 46.620251 10565</gx:coord>
<gx:coord >12.449452 46.641998 10565</gx:coord>
<gx:coord >12.499695 46.663917 10565</gx:coord>
<gx:coord >12.551076 46.686081 10565</gx:coord>
<gx:coord >12.566551 46.692764 10572</gx:coord>
<gx:coord >12.5975 46.705856 10618</gx:coord>
<gx:coord >12.621817 46.715424 10680</gx:coord>
<gx:coord >12.660713 46.729695 10733</gx:coord>
<gx:coord >12.711316 46.748108 10802</gx:coord>
<gx:coord >12.754234 46.763818 10893</gx:coord>
<gx:coord >12.808719 46.783722 10939</gx:coord>
<gx:coord >12.86396 46.803946 10985</gx:coord>
<gx:coord >12.919453 46.824142 11046</gx:coord>
<gx:coord >12.967506 46.84156 11114</gx:coord>
<gx:coord >12.997965 46.85257 11175</gx:coord>
<gx:coord >13.015248 46.858795 11183</gx:coord>
<gx:coord >13.070068 46.878616 11183</gx:coord>
<gx:coord >13.123581 46.897934 11183</gx:coord>
<gx:coord >13.176659 46.917206 11184</gx:coord>
<gx:coord >13.230638 46.936852 11184</gx:coord>
<gx:coord >13.285629 46.956573 11184</gx:coord>
<gx:coord >13.340431 46.976282 11184</gx:coord>
<gx:coord >13.396137 46.996346 11184</gx:coord>
<gx:coord >13.451591 47.016174 11176</gx:coord>
<gx:coord >13.507347 47.036087 11184</gx:coord>
<gx:coord >13.562481 47.055747 11184</gx:coord>
<gx:coord >13.617622 47.075317 11192</gx:coord>
<gx:coord >13.673964 47.09513 11192</gx:coord>
<gx:coord >13.728614 47.114356 11192</gx:coord>
<gx:coord >13.783241 47.133545 11192</gx:coord>
<gx:coord >13.837898 47.152863 11184</gx:coord>
<gx:coord >13.892564 47.172081 11169</gx:coord>
<gx:coord >13.947425 47.1914 11169</gx:coord>
<gx:coord >14.002968 47.210953 11161</gx:coord>
<gx:coord >14.057968 47.230225 11153</gx:coord>
<gx:coord >14.112854 47.249264 11153</gx:coord>
<gx:coord >14.16849 47.268491 11161</gx:coord>
<gx:coord >14.223038 47.287399 11153</gx:coord>
<gx:coord >14.278107 47.306442 11161</gx:coord>
<gx:coord >14.333382 47.325714 11161</gx:coord>
<gx:coord >14.388921 47.344976 11161</gx:coord>
<gx:coord >14.443863 47.363892 11161</gx:coord>
<gx:coord >14.499207 47.382869 11161</gx:coord>
<gx:coord >14.55455 47.40184 11161</gx:coord>
<gx:coord >14.609413 47.420563 11153</gx:coord>
<gx:coord >14.665375 47.439468 11153</gx:coord>
<gx:coord >14.720924 47.458282 11147</gx:coord>
<gx:coord >14.77668 47.477188 11147</gx:coord>
<gx:coord >14.821261 47.492453 11154</gx:coord>
<gx:coord >14.83936 47.49939 11154</gx:coord>
<gx:coord >14.856812 47.506805 11147</gx:coord>
<gx:coord >14.900208 47.526809 11154</gx:coord>
<gx:coord >14.951981 47.550247 11154</gx:coord>
<gx:coord >15.003803 47.573315 11154</gx:coord>
<gx:coord >15.055918 47.596498 11162</gx:coord>
<gx:coord >15.107231 47.619461 11162</gx:coord>
<gx:coord >15.159443 47.642957 11162</gx:coord>
<gx:coord >15.211533 47.66629 11170</gx:coord>
<gx:coord >15.264165 47.689835 11162</gx:coord>
<gx:coord >15.315998 47.712878 11162</gx:coord>
<gx:coord >15.368394 47.736154 11162</gx:coord>
<gx:coord >15.42072 47.759291 11162</gx:coord>
<gx:coord >15.473007 47.782333 11162</gx:coord>
<gx:coord >15.52502 47.805331 11162</gx:coord>
<gx:coord >15.577205 47.828235 11154</gx:coord>
<gx:coord >15.628601 47.850723 11154</gx:coord>
<gx:coord >15.680923 47.873657 11139</gx:coord>
<gx:coord >15.732422 47.896247 11139</gx:coord>
<gx:coord >15.783989 47.918839 11139</gx:coord>
<gx:coord >15.835075 47.941086 11132</gx:coord>
<gx:coord >15.887398 47.963791 11132</gx:coord>
<gx:coord >15.93919 47.986186 11133</gx:coord>
<gx:coord >15.992043 48.008972 11140</gx:coord>
<gx:coord >16.043983 48.031482 11148</gx:coord>
<gx:coord >16.096309 48.054153 11148</gx:coord>
<gx:coord >16.148705 48.076731 11148</gx:coord>
<gx:coord >16.20195 48.099609 11155</gx:coord>
<gx:coord >16.254836 48.122305 11156</gx:coord>
<gx:coord >16.307021 48.144697 11156</gx:coord>
<gx:coord >16.359981 48.167358 11164</gx:coord>
<gx:coord >16.413285 48.190085 11156</gx:coord>
<gx:coord >16.465618 48.212494 11156</gx:coord>
<gx:coord >16.5178 48.234822 11157</gx:coord>
<gx:coord >16.570834 48.257538 11150</gx:coord>
<gx:coord >16.624498 48.280289 11150</gx:coord>
<gx:coord >16.67788 48.302765 11150</gx:coord>
<gx:coord >16.731544 48.325333 11142</gx:coord>
<gx:coord >16.784433 48.347488 11142</gx:coord>
<gx:coord >16.837487 48.369591 11150</gx:coord>
<gx:coord >16.890212 48.391571 11142</gx:coord>
<gx:coord >16.94352 48.413862 11150</gx:coord>
<gx:coord >16.997822 48.436523 11151</gx:coord>
<gx:coord >17.051697 48.458954 11151</gx:coord>
<gx:coord >17.104918 48.48099 11158</gx:coord>
<gx:coord >17.159095 48.503448 11158</gx:coord>
<gx:coord >17.212337 48.525513 11151</gx:coord>
<gx:coord >17.266171 48.547886 11158</gx:coord>
<gx:coord >17.320163 48.570184 11151</gx:coord>
<gx:coord >17.373962 48.592255 11158</gx:coord>
<gx:coord >17.427626 48.614319 11151</gx:coord>
<gx:coord >17.481783 48.636658 11143</gx:coord>
<gx:coord >17.535119 48.658587 11151</gx:coord>
<gx:coord >17.589111 48.680606 11143</gx:coord>
<gx:coord >17.643609 48.702718 11143</gx:coord>
<gx:coord >17.697214 48.724503 11143</gx:coord>
<gx:coord >17.751019 48.746338 11143</gx:coord>
<gx:coord >17.805007 48.768124 11143</gx:coord>
<gx:coord >17.85884 48.789917 11151</gx:coord>
<gx:coord >17.913138 48.81189 11136</gx:coord>
<gx:coord >17.967706 48.833856 11136</gx:coord>
<gx:coord >18.021804 48.855698 11136</gx:coord>
<gx:coord >18.076594 48.877762 11151</gx:coord>
<gx:coord >18.131104 48.899597 11151</gx:coord>
<gx:coord >18.186035 48.921707 11158</gx:coord>
<gx:coord >18.241319 48.943817 11158</gx:coord>
<gx:coord >18.296039 48.965515 11158</gx:coord>
<gx:coord >18.351288 48.987478 11158</gx:coord>
<gx:coord >18.406581 49.009544 11151</gx:coord>
<gx:coord >18.46144 49.031377 11151</gx:coord>
<gx:coord >18.51695 49.05349 11158</gx:coord>
<gx:coord >18.572388 49.07547 11158</gx:coord>
<gx:coord >18.62739 49.097351 11158</gx:coord>
<gx:coord >18.682462 49.119324 11158</gx:coord>
<gx:coord >18.737183 49.141287 11158</gx:coord>
<gx:coord >18.792259 49.163399 11158</gx:coord>
<gx:coord >18.846829 49.185279 11151</gx:coord>
<gx:coord >18.901062 49.206802 11151</gx:coord>
<gx:coord >18.956205 49.228638 11151</gx:coord>
<gx:coord >18.982262 49.239258 11143</gx:coord>
<gx:coord >18.994798 49.245071 11143</gx:coord>
<gx:coord >19.007334 49.251709 11143</gx:coord>
<gx:coord >19.01825 49.258301 11143</gx:coord>
<gx:coord >19.029404 49.266001 11143</gx:coord>
<gx:coord >19.03909 49.273542 11143</gx:coord>
<gx:coord >19.048631 49.282108 11143</gx:coord>
<gx:coord >19.057899 49.291718 11143</gx:coord>
<gx:coord >19.065905 49.301287 11144</gx:coord>
<gx:coord >19.075229 49.314042 11144</gx:coord>
<gx:coord >19.096633 49.343765 11144</gx:coord>
<gx:coord >19.118183 49.371597 11152</gx:coord>
<gx:coord >19.148818 49.409683 11152</gx:coord>
<gx:coord >19.178876 49.446991 11152</gx:coord>
<gx:coord >19.208511 49.484253 11144</gx:coord>
<gx:coord >19.238026 49.521386 11137</gx:coord>
<gx:coord >19.268461 49.559419 11137</gx:coord>
<gx:coord >19.299003 49.59787 11144</gx:coord>
<gx:coord >19.329071 49.63591 11152</gx:coord>
<gx:coord >19.359098 49.674077 11152</gx:coord>
<gx:coord >19.388716 49.711552 11152</gx:coord>
<gx:coord >19.419448 49.749864 11152</gx:coord>
<gx:coord >19.450329 49.788224 11159</gx:coord>
<gx:coord >19.480912 49.826164 11159</gx:coord>
<gx:coord >19.511141 49.863876 11160</gx:coord>
<gx:coord >19.541425 49.901505 11160</gx:coord>
<gx:coord >19.572216 49.939911 11160</gx:coord>
<gx:coord >19.60243 49.977505 11153</gx:coord>
<gx:coord >19.633074 50.015442 11153</gx:coord>
<gx:coord >19.664082 50.053436 11145</gx:coord>
<gx:coord >19.694775 50.091046 11145</gx:coord>
<gx:coord >19.725157 50.128326 11146</gx:coord>
<gx:coord >19.755571 50.165716 11154</gx:coord>
<gx:coord >19.78608 50.203051 11154</gx:coord>
<gx:coord >19.81724 50.241074 11154</gx:coord>
<gx:coord >19.84832 50.278793 11161</gx:coord>
<gx:coord >19.879315 50.316545 11162</gx:coord>
<gx:coord >19.910122 50.354578 11155</gx:coord>
<gx:coord >19.941002 50.392285 11155</gx:coord>
<gx:coord >19.965483 50.421982 11147</gx:coord>
<gx:coord >19.974703 50.433065 11124</gx:coord>
<gx:coord >19.981746 50.441574 11094</gx:coord>
<gx:coord >20.001622 50.465469 10995</gx:coord>
<gx:coord >20.014714 50.481293 10926</gx:coord>
<gx:coord >20.030461 50.500443 10812</gx:coord>
<gx:coord >20.039508 50.511459 10728</gx:coord>
<gx:coord >20.043255 50.516006 10690</gx:coord>
<gx:coord >20.053663 50.528549 10577</gx:coord>
<gx:coord >20.056698 50.532257 10546</gx:coord>
<gx:coord >20.059662 50.535782 10523</gx:coord>
<gx:coord >20.063039 50.539716 10493</gx:coord>
<gx:coord >20.065341 50.542463 10493</gx:coord>
<gx:coord >20.069347 50.547272 10470</gx:coord>
<gx:coord >20.086645 50.56788 10424</gx:coord>
<gx:coord >20.100081 50.583894 10394</gx:coord>
<gx:coord >20.105129 50.589853 10371</gx:coord>
<gx:coord >20.108618 50.594043 10348</gx:coord>
<gx:coord >20.110919 50.596789 10333</gx:coord>
<gx:coord >20.123835 50.612198 10219</gx:coord>
<gx:coord >20.129989 50.619598 10188</gx:coord>
<gx:coord >20.138236 50.629376 10150</gx:coord>
<gx:coord >20.15731 50.651962 10074</gx:coord>
<gx:coord >20.162139 50.65768 10051</gx:coord>
<gx:coord >20.1683 50.665035 9998</gx:coord>
<gx:coord >20.18013 50.679187 9891</gx:coord>
<gx:coord >20.192129 50.693665 9769</gx:coord>
<gx:coord >20.203629 50.707537 9647</gx:coord>
<gx:coord >20.21759 50.724249 9525</gx:coord>
<gx:coord >20.233105 50.742783 9396</gx:coord>
<gx:coord >20.248322 50.761047 9282</gx:coord>
<gx:coord >20.262649 50.778076 9160</gx:coord>
<gx:coord >20.275574 50.793426 9038</gx:coord>
<gx:coord >20.286552 50.806503 8947</gx:coord>
<gx:coord >20.295385 50.81694 8878</gx:coord>
<gx:coord >20.297546 50.819449 8863</gx:coord>
<gx:coord >20.308304 50.832204 8749</gx:coord>
<gx:coord >20.319511 50.845459 8619</gx:coord>
<gx:coord >20.331462 50.859604 8497</gx:coord>
<gx:coord >20.343094 50.873356 8368</gx:coord>
<gx:coord >20.355072 50.887601 8254</gx:coord>
<gx:coord >20.367432 50.902219 8124</gx:coord>
<gx:coord >20.379639 50.916824 8010</gx:coord>
<gx:coord >20.391846 50.931174 7880</gx:coord>
<gx:coord >20.404739 50.94621 7751</gx:coord>
<gx:coord >20.417633 50.961247 7621</gx:coord>
<gx:coord >20.419798 50.963745 7613</gx:coord>
<gx:coord >20.424728 50.969487 7575</gx:coord>
<gx:coord >20.442513 50.990341 7476</gx:coord>
<gx:coord >20.45877 51.00943 7378</gx:coord>
<gx:coord >20.473987 51.027374 7249</gx:coord>
<gx:coord >20.483017 51.037918 7180</gx:coord>
<gx:coord >20.500043 51.057953 7081</gx:coord>
<gx:coord >20.507763 51.067062 7020</gx:coord>
<gx:coord >20.520457 51.08194 6891</gx:coord>
<gx:coord >20.526395 51.089035 6814</gx:coord>
<gx:coord >20.534487 51.098557 6738</gx:coord>
<gx:coord >20.536575 51.100997 6715</gx:coord>
<gx:coord >20.538635 51.103464 6700</gx:coord>
<gx:coord >20.550919 51.117849 6616</gx:coord>
<gx:coord >20.563289 51.132385 6517</gx:coord>
<gx:coord >20.565338 51.13484 6502</gx:coord>
<gx:coord >20.57138 51.141907 6471</gx:coord>
<gx:coord >20.588899 51.162323 6418</gx:coord>
<gx:coord >20.607085 51.183472 6334</gx:coord>
<gx:coord >20.626831 51.206497 6258</gx:coord>
<gx:coord >20.645018 51.227829 6167</gx:coord>
<gx:coord >20.661349 51.246964 6075</gx:coord>
<gx:coord >20.676422 51.264628 5977</gx:coord>
<gx:coord >20.688858 51.279431 5863</gx:coord>
<gx:coord >20.695038 51.287811 5802</gx:coord>
<gx:coord >20.700226 51.296144 5741</gx:coord>
<gx:coord >20.706558 51.308247 5680</gx:coord>
<gx:coord >20.715612 51.326294 5573</gx:coord>
<gx:coord >20.721283 51.337203 5490</gx:coord>
<gx:coord >20.7289 51.3517 5368</gx:coord>
<gx:coord >20.735245 51.363318 5276</gx:coord>
<gx:coord >20.744266 51.37999 5154</gx:coord>
<gx:coord >20.752945 51.395905 5032</gx:coord>
<gx:coord >20.761785 51.412125 4918</gx:coord>
<gx:coord >20.770024 51.42746 4796</gx:coord>
<gx:coord >20.77858 51.443249 4674</gx:coord>
<gx:coord >20.786578 51.45813 4545</gx:coord>
<gx:coord >20.794678 51.473228 4423</gx:coord>
<gx:coord >20.802761 51.488525 4302</gx:coord>
<gx:coord >20.805664 51.493898 4248</gx:coord>
<gx:coord >20.811691 51.505117 4180</gx:coord>
<gx:coord >20.821991 51.524063 4081</gx:coord>
<gx:coord >20.83082 51.540115 3974</gx:coord>
<gx:coord >20.839615 51.556278 3867</gx:coord>
<gx:coord >20.848339 51.572159 3768</gx:coord>
<gx:coord >20.8535 51.581602 3692</gx:coord>
<gx:coord >20.857544 51.589096 3624</gx:coord>
<gx:coord >20.86274 51.598709 3563</gx:coord>
<gx:coord >20.867691 51.607764 3502</gx:coord>
<gx:coord >20.87291 51.61734 3441</gx:coord>
<gx:coord >20.879517 51.629562 3395</gx:coord>
<gx:coord >20.886123 51.641785 3357</gx:coord>
<gx:coord >20.892715 51.653898 3319</gx:coord>
<gx:coord >20.898743 51.665117 3273</gx:coord>
<gx:coord >20.904999 51.676708 3227</gx:coord>
<gx:coord >20.911942 51.68965 3190</gx:coord>
<gx:coord >20.917969 51.700962 3152</gx:coord>
<gx:coord >20.922794 51.710312 3091</gx:coord>
<gx:coord >20.928192 51.720747 3045</gx:coord>
<gx:coord >20.933112 51.730133 2992</gx:coord>
<gx:coord >20.937805 51.738902 2939</gx:coord>
<gx:coord >20.94202 51.747116 2885</gx:coord>
<gx:coord >20.945053 51.752961 2847</gx:coord>
<gx:coord >20.949631 51.762178 2802</gx:coord>
<gx:coord >20.952225 51.768044 2779</gx:coord>
<gx:coord >20.953229 51.771378 2748</gx:coord>
<gx:coord >20.953674 51.774468 2741</gx:coord>
<gx:coord >20.9536 51.778473 2718</gx:coord>
<gx:coord >20.953155 51.780899 2695</gx:coord>
<gx:coord >20.951893 51.784515 2664</gx:coord>
<gx:coord >20.950482 51.787125 2642</gx:coord>
<gx:coord >20.948552 51.789871 2611</gx:coord>
<gx:coord >20.946622 51.792252 2581</gx:coord>
<gx:coord >20.944841 51.794266 2565</gx:coord>
<gx:coord >20.942614 51.796692 2550</gx:coord>
<gx:coord >20.933304 51.806589 2512</gx:coord>
<gx:coord >20.925615 51.814957 2466</gx:coord>
<gx:coord >20.918266 51.823425 2413</gx:coord>
<gx:coord >20.911255 51.83182 2375</gx:coord>
<gx:coord >20.907516 51.836382 2352</gx:coord>
<gx:coord >20.895996 51.850708 2322</gx:coord>
<gx:coord >20.887088 51.861694 2299</gx:coord>
<gx:coord >20.880356 51.869946 2253</gx:coord>
<gx:coord >20.873489 51.878372 2215</gx:coord>
<gx:coord >20.869273 51.883392 2192</gx:coord>
<gx:coord >20.862885 51.891128 2162</gx:coord>
<gx:coord >20.856934 51.898407 2131</gx:coord>
<gx:coord >20.854111 51.901886 2101</gx:coord>
<gx:coord >20.851188 51.905419 2070</gx:coord>
<gx:coord >20.84816 51.90921 2040</gx:coord>
<gx:coord >20.843733 51.914544 2002</gx:coord>
<gx:coord >20.839767 51.919418 1979</gx:coord>
<gx:coord >20.835571 51.924413 1949</gx:coord>
<gx:coord >20.831299 51.929626 1926</gx:coord>
<gx:coord >20.827567 51.934375 1881</gx:coord>
<gx:coord >20.825527 51.93754 1873</gx:coord>
<gx:coord >20.824203 51.940475 1850</gx:coord>
<gx:coord >20.823408 51.943546 1827</gx:coord>
<gx:coord >20.823094 51.946571 1812</gx:coord>
<gx:coord >20.823408 51.949365 1797</gx:coord>
<gx:coord >20.824051 51.95192 1782</gx:coord>
<gx:coord >20.825213 51.954672 1774</gx:coord>
<gx:coord >20.827096 51.957558 1759</gx:coord>
<gx:coord >20.829136 51.960072 1743</gx:coord>
<gx:coord >20.831883 51.962632 1728</gx:coord>
<gx:coord >20.834351 51.964645 1721</gx:coord>
<gx:coord >20.837936 51.966934 1705</gx:coord>
<gx:coord >20.841751 51.968948 1690</gx:coord>
<gx:coord >20.845947 51.970734 1675</gx:coord>
<gx:coord >20.850324 51.972175 1660</gx:coord>
<gx:coord >20.855255 51.973434 1644</gx:coord>
<gx:coord >20.860055 51.974363 1629</gx:coord>
<gx:coord >20.865479 51.974991 1606</gx:coord>
<gx:coord >20.869751 51.97522 1591</gx:coord>
<gx:coord >20.875044 51.975155 1576</gx:coord>
<gx:coord >20.880356 51.974762 1576</gx:coord>
<gx:coord >20.883676 51.97427 1561</gx:coord>
<gx:coord >20.888748 51.973251 1568</gx:coord>
<gx:coord >20.892936 51.972175 1561</gx:coord>
<gx:coord >20.899763 51.970034 1545</gx:coord>
<gx:coord >20.908966 51.966888 1538</gx:coord>
<gx:coord >20.918832 51.963423 1507</gx:coord>
<gx:coord >20.92598 51.960938 1477</gx:coord>
<gx:coord >20.931937 51.958908 1439</gx:coord>
<gx:coord >20.94002 51.956115 1408</gx:coord>
<gx:coord >20.947553 51.953554 1378</gx:coord>
<gx:coord >20.955558 51.950854 1355</gx:coord>
<gx:coord >20.962777 51.94862 1317</gx:coord>
<gx:coord >20.968427 51.947316 1294</gx:coord>
<gx:coord >20.973607 51.946432 1271</gx:coord>
<gx:coord >20.97847 51.945923 1256</gx:coord>
<gx:coord >20.982819 51.94574 1248</gx:coord>
<gx:coord >20.98671 51.945786 1241</gx:coord>
<gx:coord >20.991891 51.946153 1225</gx:coord>
<gx:coord >20.997009 51.946838 1218</gx:coord>
<gx:coord >21.002655 51.947845 1202</gx:coord>
<gx:coord >21.009862 51.949365 1195</gx:coord>
<gx:coord >21.018964 51.951413 1180</gx:coord>
<gx:coord >21.028595 51.953522 1157</gx:coord>
<gx:coord >21.036682 51.955261 1134</gx:coord>
<gx:coord >21.046587 51.957325 1111</gx:coord>
<gx:coord >21.04866 51.957733 1103</gx:coord>
<gx:coord >21.054153 51.958832 1103</gx:coord>
<gx:coord >21.059952 51.959976 1096</gx:coord>
<gx:coord >21.066363 51.961235 1088</gx:coord>
<gx:coord >21.074445 51.962772 1065</gx:coord>
<gx:coord >21.07933 51.963867 1050</gx:coord>
<gx:coord >21.082077 51.964737 1042</gx:coord>
<gx:coord >21.083603 51.965332 1042</gx:coord>
<gx:coord >21.085589 51.966263 1035</gx:coord>
<gx:coord >21.087265 51.967255 1027</gx:coord>
<gx:coord >21.088715 51.968307 1020</gx:coord>
<gx:coord >21.089748 51.969196 1020</gx:coord>
<gx:coord >21.09108 51.970642 1012</gx:coord>
<gx:coord >21.092453 51.972702 997</gx:coord>
<gx:coord >21.093985 51.975434 989</gx:coord>
<gx:coord >21.096878 51.9814 966</gx:coord>
<gx:coord >21.099636 51.987351 943</gx:coord>
<gx:coord >21.103821 51.996277 928</gx:coord>
<gx:coord >21.104736 51.99885 928</gx:coord>
<gx:coord >21.10505 52.000479 928</gx:coord>
<gx:coord >21.104972 52.002574 928</gx:coord>
<gx:coord >21.10466 52.004288 928</gx:coord>
<gx:coord >21.10403 52.006019 928</gx:coord>
<gx:coord >21.102982 52.008087 928</gx:coord>
<gx:coord >21.101283 52.010674 928</gx:coord>
<gx:coord >21.098615 52.014212 928</gx:coord>
<gx:coord >21.088943 52.02594 928</gx:coord>
<gx:coord >21.08139 52.034821 921</gx:coord>
<gx:coord >21.076736 52.040131 905</gx:coord>
<gx:coord >21.072798 52.044657 875</gx:coord>
<gx:coord >21.068878 52.049057 844</gx:coord>
<gx:coord >21.064911 52.053635 806</gx:coord>
<gx:coord >21.061325 52.0578 776</gx:coord>
<gx:coord >21.057129 52.062607 745</gx:coord>
<gx:coord >21.053238 52.067047 715</gx:coord>
<gx:coord >21.049576 52.071396 684</gx:coord>
<gx:coord >21.045532 52.076019 654</gx:coord>
<gx:coord >21.041643 52.080456 631</gx:coord>
<gx:coord >21.037674 52.084946 608</gx:coord>
<gx:coord >21.035461 52.087509 570</gx:coord>
<gx:coord >21.03309 52.090232 555</gx:coord>
<gx:coord >21.029587 52.09433 540</gx:coord>
<gx:coord >21.026611 52.097672 509</gx:coord>
<gx:coord >21.023124 52.10173 479</gx:coord>
<gx:coord >21.019669 52.105682 456</gx:coord>
<gx:coord >21.016139 52.109737 425</gx:coord>
<gx:coord >21.012421 52.113968 410</gx:coord>
<gx:coord >21.009445 52.117355 379</gx:coord>
<gx:coord >21.005783 52.121567 349</gx:coord>
<gx:coord >21.002563 52.125192 319</gx:coord>
<gx:coord >20.998875 52.129429 296</gx:coord>
<gx:coord >20.995865 52.132919 265</gx:coord>
<gx:coord >20.99205 52.137222 242</gx:coord>
<gx:coord >20.988517 52.141299 219</gx:coord>
<gx:coord >20.985064 52.145303 181</gx:coord>
<gx:coord >20.981293 52.149536 159</gx:coord>
<gx:coord >20.977844 52.153543 136</gx:coord>
<gx:coord >20.974884 52.156906 113</gx:coord>
<gx:coord >20.973607 52.158431 113</gx:coord>
<gx:coord >20.973057 52.158989 113</gx:coord>
<gx:coord >20.971802 52.160479 113</gx:coord>
<gx:coord >20.971146 52.161209 113</gx:coord>
<gx:coord >20.971146 52.161209 113</gx:coord>
</gx:Track>
</Placemark>
<Placemark ><name >9H-WAQ</name>
<Style ><LineStyle ><color >ff1c1ae3</color>
<width >4</width>
</LineStyle>
<IconStyle ><Icon ><href >http://maps.google.com/mapfiles/kml/shapes/airports.png</href>
</Icon>
</IconStyle>
</Style>
<gx:Track ><extrude >0</extrude>
<when >2025-07-09T09:04:35.800Z</when>
<when >2025-07-09T09:04:36.680Z</when>
<when >2025-07-09T09:04:38.300Z</when>
<when >2025-07-09T09:04:41.380Z</when>
<when >2025-07-09T09:04:43.630Z</when>
<when >2025-07-09T09:04:44.830Z</when>
<when >2025-07-09T09:04:47.380Z</when>
<when >2025-07-09T09:04:50.720Z</when>
<when >2025-07-09T09:04:54.070Z</when>
<when >2025-07-09T09:04:56.340Z</when>
<when >2025-07-09T09:04:59.500Z</when>
<when >2025-07-09T09:05:02.370Z</when>
<when >2025-07-09T09:05:04.550Z</when>
<when >2025-07-09T09:05:06.350Z</when>
<when >2025-07-09T09:05:08.640Z</when>
<when >2025-07-09T09:05:10.320Z</when>
<when >2025-07-09T09:05:13.480Z</when>
<when >2025-07-09T09:05:15.950Z</when>
<when >2025-07-09T09:05:17.330Z</when>
<when >2025-07-09T09:05:20.540Z</when>
<when >2025-07-09T09:05:23.990Z</when>
<when >2025-07-09T09:05:27.530Z</when>
<when >2025-07-09T09:05:30.920Z</when>
<when >2025-07-09T09:05:36.590Z</when>
<when >2025-07-09T09:05:42.750Z</when>
<when >2025-07-09T09:05:48.870Z</when>
<when >2025-07-09T09:05:55.290Z</when>
<when >2025-07-09T09:05:56.790Z</when>
<when >2025-07-09T09:06:00.900Z</when>
<when >2025-07-09T09:06:05.330Z</when>
<when >2025-07-09T09:06:07.380Z</when>
<when >2025-07-09T09:06:10.720Z</when>
<when >2025-07-09T09:06:16.380Z</when>
<when >2025-07-09T09:06:21.470Z</when>
<when >2025-07-09T09:06:27.530Z</when>
<when >2025-07-09T09:06:34.000Z</when>
<when >2025-07-09T09:06:36.110Z</when>
<when >2025-07-09T09:06:38.160Z</when>
<when >2025-07-09T09:06:39.690Z</when>
<when >2025-07-09T09:06:42.250Z</when>
<when >2025-07-09T09:06:46.390Z</when>
<when >2025-07-09T09:06:48.340Z</when>
<when >2025-07-09T09:06:50.590Z</when>
<when >2025-07-09T09:06:53.790Z</when>
<when >2025-07-09T09:07:02.570Z</when>
<when >2025-07-09T09:07:09.760Z</when>
<when >2025-07-09T09:07:17.050Z</when>
<when >2025-07-09T09:07:25.030Z</when>
<when >2025-07-09T09:07:31.840Z</when>
<when >2025-07-09T09:07:39.090Z</when>
<when >2025-07-09T09:07:47.040Z</when>
<when >2025-07-09T09:07:53.990Z</when>
<when >2025-07-09T09:08:00.210Z</when>
<when >2025-07-09T09:08:04.520Z</when>
<when >2025-07-09T09:08:13.520Z</when>
<when >2025-07-09T09:08:20.410Z</when>
<when >2025-07-09T09:08:22.860Z</when>
<when >2025-07-09T09:08:26.640Z</when>
<when >2025-07-09T09:08:28.560Z</when>
<when >2025-07-09T09:08:32.030Z</when>
<when >2025-07-09T09:08:33.510Z</when>
<when >2025-07-09T09:08:34.820Z</when>
<when >2025-07-09T09:08:38.340Z</when>
<when >2025-07-09T09:08:39.930Z</when>
<when >2025-07-09T09:08:42.260Z</when>
<when >2025-07-09T09:08:44.690Z</when>
<when >2025-07-09T09:08:46.820Z</when>
<when >2025-07-09T09:08:48.940Z</when>
<when >2025-07-09T09:08:53.380Z</when>
<when >2025-07-09T09:08:57.630Z</when>
<when >2025-07-09T09:08:59.920Z</when>
<when >2025-07-09T09:09:03.170Z</when>
<when >2025-07-09T09:09:09.360Z</when>
<when >2025-07-09T09:09:30.210Z</when>
<when >2025-07-09T09:09:30.210Z</when>
<gx:coord >20.970078 52.162399 0</gx:coord>
<gx:coord >20.96983 52.162697 0</gx:coord>
<gx:coord >20.969391 52.163177 0</gx:coord>
<gx:coord >20.968643 52.164052 0</gx:coord>
<gx:coord >20.968304 52.164448 0</gx:coord>
<gx:coord >20.967858 52.164936 0</gx:coord>
<gx:coord >20.967329 52.165553 0</gx:coord>
<gx:coord >20.966544 52.166426 0</gx:coord>
<gx:coord >20.965916 52.167171 0</gx:coord>
<gx:coord >20.965519 52.167629 0</gx:coord>
<gx:coord >20.964947 52.168293 0</gx:coord>
<gx:coord >20.964504 52.1688 0</gx:coord>
<gx:coord >20.964165 52.169186 0</gx:coord>
<gx:coord >20.963898 52.169495 0</gx:coord>
<gx:coord >20.963601 52.169824 0</gx:coord>
<gx:coord >20.963444 52.169999 0</gx:coord>
<gx:coord >20.963135 52.170353 0</gx:coord>
<gx:coord >20.962934 52.170639 0</gx:coord>
<gx:coord >20.962849 52.170799 0</gx:coord>
<gx:coord >20.962699 52.171174 0</gx:coord>
<gx:coord >20.962582 52.171555 0</gx:coord>
<gx:coord >20.962503 52.171861 0</gx:coord>
<gx:coord >20.962483 52.172094 0</gx:coord>
<gx:coord >20.962483 52.172455 0</gx:coord>
<gx:coord >20.962486 52.172859 0</gx:coord>
<gx:coord >20.962505 52.173294 0</gx:coord>
<gx:coord >20.962543 52.173592 0</gx:coord>
<gx:coord >20.962561 52.173653 0</gx:coord>
<gx:coord >20.962718 52.173828 0</gx:coord>
<gx:coord >20.963039 52.173992 0</gx:coord>
<gx:coord >20.963189 52.174049 0</gx:coord>
<gx:coord >20.963484 52.174142 0</gx:coord>
<gx:coord >20.963974 52.174305 0</gx:coord>
<gx:coord >20.964445 52.174456 0</gx:coord>
<gx:coord >20.964896 52.174619 0</gx:coord>
<gx:coord >20.965233 52.174713 0</gx:coord>
<gx:coord >20.965367 52.174724 0</gx:coord>
<gx:coord >20.965485 52.174712 0</gx:coord>
<gx:coord >20.965576 52.17469 0</gx:coord>
<gx:coord >20.96572 52.174643 0</gx:coord>
<gx:coord >20.965897 52.174491 0</gx:coord>
<gx:coord >20.965975 52.174421 0</gx:coord>
<gx:coord >20.966034 52.174335 0</gx:coord>
<gx:coord >20.966129 52.174221 0</gx:coord>
<gx:coord >20.966473 52.173832 0</gx:coord>
<gx:coord >20.966797 52.173466 0</gx:coord>
<gx:coord >20.967121 52.173077 0</gx:coord>
<gx:coord >20.967464 52.172699 0</gx:coord>
<gx:coord >20.96776 52.17235 0</gx:coord>
<gx:coord >20.968094 52.171978 0</gx:coord>
<gx:coord >20.968418 52.171612 0</gx:coord>
<gx:coord >20.968741 52.171233 0</gx:coord>
<gx:coord >20.969086 52.170845 0</gx:coord>
<gx:coord >20.969296 52.170605 0</gx:coord>
<gx:coord >20.96962 52.170227 0</gx:coord>
<gx:coord >20.969963 52.169838 0</gx:coord>
<gx:coord >20.970075 52.169708 0</gx:coord>
<gx:coord >20.970173 52.169615 0</gx:coord>
<gx:coord >20.970173 52.169568 0</gx:coord>
<gx:coord >20.970115 52.169475 0</gx:coord>
<gx:coord >20.970056 52.16944 0</gx:coord>
<gx:coord >20.970001 52.169415 0</gx:coord>
<gx:coord >20.96986 52.169347 0</gx:coord>
<gx:coord >20.969801 52.169336 0</gx:coord>
<gx:coord >20.969715 52.169312 0</gx:coord>
<gx:coord >20.969639 52.169312 0</gx:coord>
<gx:coord >20.969585 52.169312 0</gx:coord>
<gx:coord >20.969526 52.169312 0</gx:coord>
<gx:coord >20.969429 52.169323 0</gx:coord>
<gx:coord >20.96931 52.169336 0</gx:coord>
<gx:coord >20.969251 52.169347 0</gx:coord>
<gx:coord >20.969124 52.169357 0</gx:coord>
<gx:coord >20.968895 52.169369 0</gx:coord>
<gx:coord >20.96882 52.169382 0</gx:coord>
<gx:coord >20.96882 52.169382 0</gx:coord>
</gx:Track>
</Placemark>
</Folder>
</Folder>
</kml>
