<?xml version="1.0" encoding="UTF-8"?>
<kml xmlns="http://www.opengis.net/kml/2.2" xmlns:gx="http://www.google.com/kml/ext/2.2"><Folder ><Folder ><name >9H-WBU track</name>
<Placemark ><name >9H-WBU</name>
<Style ><LineStyle ><color >ff1c1ae3</color>
<width >4</width>
</LineStyle>
<IconStyle ><Icon ><href >http://maps.google.com/mapfiles/kml/shapes/airports.png</href>
</Icon>
</IconStyle>
</Style>
<gx:Track ><extrude >0</extrude>
<when >2025-07-07T08:38:02.530Z</when>
<when >2025-07-07T08:38:02.530Z</when>
<when >2025-07-07T08:38:27.160Z</when>
<when >2025-07-07T08:38:46.760Z</when>
<when >2025-07-07T08:39:03.240Z</when>
<when >2025-07-07T08:39:09.170Z</when>
<when >2025-07-07T08:39:13.010Z</when>
<when >2025-07-07T08:39:17.810Z</when>
<when >2025-07-07T08:39:21.320Z</when>
<when >2025-07-07T08:39:28.160Z</when>
<when >2025-07-07T08:39:35.250Z</when>
<when >2025-07-07T08:39:39.980Z</when>
<when >2025-07-07T08:39:43.820Z</when>
<when >2025-07-07T08:39:46.740Z</when>
<when >2025-07-07T08:39:58.030Z</when>
<when >2025-07-07T08:40:03.760Z</when>
<when >2025-07-07T08:40:10.560Z</when>
<when >2025-07-07T08:40:25.990Z</when>
<when >2025-07-07T08:40:31.520Z</when>
<when >2025-07-07T08:41:51.490Z</when>
<when >2025-07-07T08:43:07.290Z</when>
<when >2025-07-07T08:44:26.970Z</when>
<when >2025-07-07T08:44:37.080Z</when>
<when >2025-07-07T08:44:42.700Z</when>
<when >2025-07-07T08:44:54.380Z</when>
<when >2025-07-07T08:44:56.690Z</when>
<when >2025-07-07T08:44:59.380Z</when>
<when >2025-07-07T08:45:03.890Z</when>
<when >2025-07-07T08:45:05.890Z</when>
<when >2025-07-07T08:45:07.310Z</when>
<when >2025-07-07T08:45:08.770Z</when>
<when >2025-07-07T08:45:10.570Z</when>
<when >2025-07-07T08:45:12.270Z</when>
<when >2025-07-07T08:45:14.260Z</when>
<when >2025-07-07T08:45:16.080Z</when>
<when >2025-07-07T08:45:23.890Z</when>
<when >2025-07-07T08:45:29.780Z</when>
<when >2025-07-07T08:45:37.650Z</when>
<when >2025-07-07T08:45:47.600Z</when>
<when >2025-07-07T08:45:56.490Z</when>
<when >2025-07-07T08:46:04.650Z</when>
<when >2025-07-07T08:46:07.740Z</when>
<when >2025-07-07T08:46:10.040Z</when>
<when >2025-07-07T08:46:13.470Z</when>
<when >2025-07-07T08:46:20.100Z</when>
<when >2025-07-07T08:46:26.170Z</when>
<when >2025-07-07T08:46:29.050Z</when>
<when >2025-07-07T08:46:31.690Z</when>
<when >2025-07-07T08:46:37.370Z</when>
<when >2025-07-07T08:46:43.490Z</when>
<when >2025-07-07T08:46:49.770Z</when>
<when >2025-07-07T08:46:55.470Z</when>
<when >2025-07-07T08:47:01.630Z</when>
<when >2025-07-07T08:47:03.540Z</when>
<when >2025-07-07T08:47:05.050Z</when>
<when >2025-07-07T08:47:06.510Z</when>
<when >2025-07-07T08:47:07.990Z</when>
<when >2025-07-07T08:47:09.620Z</when>
<when >2025-07-07T08:47:11.450Z</when>
<when >2025-07-07T08:47:14.570Z</when>
<when >2025-07-07T08:47:16.440Z</when>
<when >2025-07-07T08:47:18.130Z</when>
<when >2025-07-07T08:47:19.890Z</when>
<when >2025-07-07T08:47:22.020Z</when>
<when >2025-07-07T08:47:23.890Z</when>
<when >2025-07-07T08:47:25.960Z</when>
<when >2025-07-07T08:47:29.400Z</when>
<when >2025-07-07T08:47:35.750Z</when>
<when >2025-07-07T08:47:40.870Z</when>
<when >2025-07-07T08:47:46.040Z</when>
<when >2025-07-07T08:47:50.530Z</when>
<when >2025-07-07T08:47:54.400Z</when>
<when >2025-07-07T08:47:58.490Z</when>
<when >2025-07-07T08:48:02.000Z</when>
<when >2025-07-07T08:48:06.070Z</when>
<when >2025-07-07T08:48:09.680Z</when>
<when >2025-07-07T08:48:13.450Z</when>
<when >2025-07-07T08:48:17.380Z</when>
<when >2025-07-07T08:48:21.320Z</when>
<when >2025-07-07T08:48:25.270Z</when>
<when >2025-07-07T08:48:29.320Z</when>
<when >2025-07-07T08:48:33.490Z</when>
<when >2025-07-07T08:48:37.520Z</when>
<when >2025-07-07T08:48:41.500Z</when>
<when >2025-07-07T08:48:45.380Z</when>
<when >2025-07-07T08:48:49.660Z</when>
<when >2025-07-07T08:48:53.810Z</when>
<when >2025-07-07T08:48:57.970Z</when>
<when >2025-07-07T08:49:01.940Z</when>
<when >2025-07-07T08:49:05.970Z</when>
<when >2025-07-07T08:49:09.870Z</when>
<when >2025-07-07T08:49:14.350Z</when>
<when >2025-07-07T08:49:18.300Z</when>
<when >2025-07-07T08:49:22.400Z</when>
<when >2025-07-07T08:49:26.670Z</when>
<when >2025-07-07T08:49:30.960Z</when>
<when >2025-07-07T08:49:34.560Z</when>
<when >2025-07-07T08:49:38.570Z</when>
<when >2025-07-07T08:49:42.540Z</when>
<when >2025-07-07T08:49:46.640Z</when>
<when >2025-07-07T08:49:50.630Z</when>
<when >2025-07-07T08:49:51.560Z</when>
<when >2025-07-07T08:49:54.520Z</when>
<when >2025-07-07T08:49:55.980Z</when>
<when >2025-07-07T08:49:57.760Z</when>
<when >2025-07-07T08:49:58.640Z</when>
<when >2025-07-07T08:50:00.020Z</when>
<when >2025-07-07T08:50:01.500Z</when>
<when >2025-07-07T08:50:02.410Z</when>
<when >2025-07-07T08:50:03.610Z</when>
<when >2025-07-07T08:50:04.940Z</when>
<when >2025-07-07T08:50:07.030Z</when>
<when >2025-07-07T08:50:10.320Z</when>
<when >2025-07-07T08:50:17.440Z</when>
<when >2025-07-07T08:50:22.040Z</when>
<when >2025-07-07T08:50:24.290Z</when>
<when >2025-07-07T08:50:25.750Z</when>
<when >2025-07-07T08:50:26.560Z</when>
<when >2025-07-07T08:50:27.700Z</when>
<when >2025-07-07T08:50:28.590Z</when>
<when >2025-07-07T08:50:30.170Z</when>
<when >2025-07-07T08:50:31.450Z</when>
<when >2025-07-07T08:50:32.530Z</when>
<when >2025-07-07T08:50:34.420Z</when>
<when >2025-07-07T08:50:39.470Z</when>
<when >2025-07-07T08:50:41.610Z</when>
<when >2025-07-07T08:50:42.490Z</when>
<when >2025-07-07T08:50:43.710Z</when>
<when >2025-07-07T08:50:44.760Z</when>
<when >2025-07-07T08:50:45.260Z</when>
<when >2025-07-07T08:50:46.320Z</when>
<when >2025-07-07T08:50:47.160Z</when>
<when >2025-07-07T08:50:48.170Z</when>
<when >2025-07-07T08:50:49.030Z</when>
<when >2025-07-07T08:50:50.080Z</when>
<when >2025-07-07T08:50:50.600Z</when>
<when >2025-07-07T08:50:51.390Z</when>
<when >2025-07-07T08:50:52.100Z</when>
<when >2025-07-07T08:50:53.180Z</when>
<when >2025-07-07T08:50:54.250Z</when>
<when >2025-07-07T08:50:55.090Z</when>
<when >2025-07-07T08:50:55.570Z</when>
<when >2025-07-07T08:50:55.570Z</when>
<gx:coord >-0.472785 39.490551 0</gx:coord>
<gx:coord >-0.472785 39.490551 0</gx:coord>
<gx:coord >-0.472794 39.490519 0</gx:coord>
<gx:coord >-0.472875 39.490185 0</gx:coord>
<gx:coord >-0.472905 39.490002 0</gx:coord>
<gx:coord >-0.472916 39.489926 0</gx:coord>
<gx:coord >-0.472931 39.489868 0</gx:coord>
<gx:coord >-0.472949 39.489807 0</gx:coord>
<gx:coord >-0.472961 39.489763 0</gx:coord>
<gx:coord >-0.472994 39.48967 0</gx:coord>
<gx:coord >-0.473053 39.489588 0</gx:coord>
<gx:coord >-0.473099 39.489532 0</gx:coord>
<gx:coord >-0.473129 39.48951 0</gx:coord>
<gx:coord >-0.473158 39.489475 0</gx:coord>
<gx:coord >-0.473203 39.489349 0</gx:coord>
<gx:coord >-0.473233 39.489269 0</gx:coord>
<gx:coord >-0.473263 39.489189 0</gx:coord>
<gx:coord >-0.473338 39.489017 0</gx:coord>
<gx:coord >-0.473373 39.488972 0</gx:coord>
<gx:coord >-0.473419 39.488983 0</gx:coord>
<gx:coord >-0.473419 39.488983 0</gx:coord>
<gx:coord >-0.473419 39.488983 0</gx:coord>
<gx:coord >-0.473404 39.488995 0</gx:coord>
<gx:coord >-0.473389 39.489041 0</gx:coord>
<gx:coord >-0.473278 39.489212 0</gx:coord>
<gx:coord >-0.473267 39.489251 0</gx:coord>
<gx:coord >-0.473263 39.489304 0</gx:coord>
<gx:coord >-0.473308 39.489407 0</gx:coord>
<gx:coord >-0.473367 39.489452 0</gx:coord>
<gx:coord >-0.473404 39.489484 0</gx:coord>
<gx:coord >-0.473465 39.489507 0</gx:coord>
<gx:coord >-0.473526 39.489542 0</gx:coord>
<gx:coord >-0.473576 39.489567 0</gx:coord>
<gx:coord >-0.473666 39.48959 0</gx:coord>
<gx:coord >-0.473755 39.489612 0</gx:coord>
<gx:coord >-0.474084 39.489738 0</gx:coord>
<gx:coord >-0.474368 39.489841 0</gx:coord>
<gx:coord >-0.474756 39.48999 0</gx:coord>
<gx:coord >-0.475263 39.490185 0</gx:coord>
<gx:coord >-0.475769 39.49038 0</gx:coord>
<gx:coord >-0.476257 39.490566 0</gx:coord>
<gx:coord >-0.476471 39.490612 0</gx:coord>
<gx:coord >-0.476651 39.490631 0</gx:coord>
<gx:coord >-0.47689 39.490654 0</gx:coord>
<gx:coord >-0.477432 39.490717 0</gx:coord>
<gx:coord >-0.47792 39.490768 0</gx:coord>
<gx:coord >-0.478174 39.490837 0</gx:coord>
<gx:coord >-0.478378 39.490915 0</gx:coord>
<gx:coord >-0.478831 39.491077 0</gx:coord>
<gx:coord >-0.479309 39.491264 0</gx:coord>
<gx:coord >-0.479797 39.49145 0</gx:coord>
<gx:coord >-0.480249 39.491627 0</gx:coord>
<gx:coord >-0.480713 39.4918 0</gx:coord>
<gx:coord >-0.480876 39.491821 0</gx:coord>
<gx:coord >-0.480995 39.491798 0</gx:coord>
<gx:coord >-0.48111 39.491776 0</gx:coord>
<gx:coord >-0.481201 39.491718 0</gx:coord>
<gx:coord >-0.481279 39.491661 0</gx:coord>
<gx:coord >-0.481353 39.491592 0</gx:coord>
<gx:coord >-0.481522 39.491497 0</gx:coord>
<gx:coord >-0.481644 39.491462 0</gx:coord>
<gx:coord >-0.481742 39.491467 0</gx:coord>
<gx:coord >-0.481861 39.491467 0</gx:coord>
<gx:coord >-0.481995 39.491501 0</gx:coord>
<gx:coord >-0.4821 39.491535 0</gx:coord>
<gx:coord >-0.482234 39.491581 0</gx:coord>
<gx:coord >-0.482473 39.491673 0</gx:coord>
<gx:coord >-0.482971 39.491858 0</gx:coord>
<gx:coord >-0.483414 39.492032 0</gx:coord>
<gx:coord >-0.483917 39.492219 0</gx:coord>
<gx:coord >-0.484428 39.492416 0</gx:coord>
<gx:coord >-0.484894 39.492591 0</gx:coord>
<gx:coord >-0.485397 39.492789 0</gx:coord>
<gx:coord >-0.485832 39.492954 0</gx:coord>
<gx:coord >-0.486343 39.49315 0</gx:coord>
<gx:coord >-0.486802 39.49332 0</gx:coord>
<gx:coord >-0.487274 39.49351 0</gx:coord>
<gx:coord >-0.487747 39.493685 0</gx:coord>
<gx:coord >-0.488235 39.493871 0</gx:coord>
<gx:coord >-0.488742 39.494064 0</gx:coord>
<gx:coord >-0.489227 39.494244 0</gx:coord>
<gx:coord >-0.489731 39.494441 0</gx:coord>
<gx:coord >-0.490205 39.494625 0</gx:coord>
<gx:coord >-0.490662 39.494791 0</gx:coord>
<gx:coord >-0.491135 39.494977 0</gx:coord>
<gx:coord >-0.491638 39.495163 0</gx:coord>
<gx:coord >-0.492126 39.495349 0</gx:coord>
<gx:coord >-0.49263 39.495535 0</gx:coord>
<gx:coord >-0.493086 39.495712 0</gx:coord>
<gx:coord >-0.493564 39.495884 0</gx:coord>
<gx:coord >-0.494041 39.496067 0</gx:coord>
<gx:coord >-0.494553 39.496269 0</gx:coord>
<gx:coord >-0.495071 39.496466 0</gx:coord>
<gx:coord >-0.495544 39.496653 0</gx:coord>
<gx:coord >-0.496063 39.49685 0</gx:coord>
<gx:coord >-0.496564 39.497028 0</gx:coord>
<gx:coord >-0.497012 39.4972 0</gx:coord>
<gx:coord >-0.497482 39.497386 0</gx:coord>
<gx:coord >-0.497955 39.49756 0</gx:coord>
<gx:coord >-0.498444 39.497747 0</gx:coord>
<gx:coord >-0.498825 39.497898 0</gx:coord>
<gx:coord >-0.498901 39.497921 0</gx:coord>
<gx:coord >-0.499115 39.498003 0</gx:coord>
<gx:coord >-0.499207 39.498014 0</gx:coord>
<gx:coord >-0.499313 39.498014 0</gx:coord>
<gx:coord >-0.499385 39.49799 0</gx:coord>
<gx:coord >-0.499466 39.497956 0</gx:coord>
<gx:coord >-0.499535 39.497898 0</gx:coord>
<gx:coord >-0.499579 39.497864 0</gx:coord>
<gx:coord >-0.499624 39.497807 0</gx:coord>
<gx:coord >-0.499664 39.497747 0</gx:coord>
<gx:coord >-0.499725 39.497642 0</gx:coord>
<gx:coord >-0.499832 39.497479 0</gx:coord>
<gx:coord >-0.500102 39.497086 0</gx:coord>
<gx:coord >-0.500259 39.496816 0</gx:coord>
<gx:coord >-0.50029 39.496688 0</gx:coord>
<gx:coord >-0.500296 39.496593 0</gx:coord>
<gx:coord >-0.500281 39.496525 0</gx:coord>
<gx:coord >-0.500244 39.496466 0</gx:coord>
<gx:coord >-0.500183 39.496408 0</gx:coord>
<gx:coord >-0.500072 39.496342 0</gx:coord>
<gx:coord >-0.499982 39.496296 0</gx:coord>
<gx:coord >-0.499893 39.496273 0</gx:coord>
<gx:coord >-0.499741 39.496222 0</gx:coord>
<gx:coord >-0.499281 39.496056 0</gx:coord>
<gx:coord >-0.499039 39.495966 0</gx:coord>
<gx:coord >-0.498917 39.495919 0</gx:coord>
<gx:coord >-0.498749 39.49585 0</gx:coord>
<gx:coord >-0.498549 39.495781 0</gx:coord>
<gx:coord >-0.49843 39.495735 0</gx:coord>
<gx:coord >-0.498206 39.495644 0</gx:coord>
<gx:coord >-0.497955 39.495547 0</gx:coord>
<gx:coord >-0.497665 39.495431 0</gx:coord>
<gx:coord >-0.497375 39.495326 0</gx:coord>
<gx:coord >-0.497087 39.49522 0</gx:coord>
<gx:coord >-0.496887 39.49514 0</gx:coord>
<gx:coord >-0.496669 39.495049 0</gx:coord>
<gx:coord >-0.496295 39.494911 0</gx:coord>
<gx:coord >-0.495877 39.494751 0</gx:coord>
<gx:coord >-0.495415 39.494579 0</gx:coord>
<gx:coord >-0.494967 39.494408 0</gx:coord>
<gx:coord >-0.494743 39.494316 0</gx:coord>
<gx:coord >-0.494743 39.494316 0</gx:coord>
</gx:Track>
</Placemark>
<Placemark ><name >9H-WBU</name>
<Style ><LineStyle ><color >ff1c1ae3</color>
<width >4</width>
</LineStyle>
<IconStyle ><Icon ><href >http://maps.google.com/mapfiles/kml/shapes/airports.png</href>
</Icon>
</IconStyle>
</Style>
<gx:Track ><altitudeMode >absolute</altitudeMode>
<extrude >1</extrude>
<when >2025-07-07T08:50:56.500Z</when>
<when >2025-07-07T08:50:58.160Z</when>
<when >2025-07-07T08:50:59.660Z</when>
<when >2025-07-07T08:51:01.720Z</when>
<when >2025-07-07T08:51:04.190Z</when>
<when >2025-07-07T08:51:06.100Z</when>
<when >2025-07-07T08:51:07.860Z</when>
<when >2025-07-07T08:51:10.040Z</when>
<when >2025-07-07T08:51:12.190Z</when>
<when >2025-07-07T08:51:13.260Z</when>
<when >2025-07-07T08:51:14.620Z</when>
<when >2025-07-07T08:51:16.170Z</when>
<when >2025-07-07T08:51:17.630Z</when>
<when >2025-07-07T08:51:18.550Z</when>
<when >2025-07-07T08:51:20.560Z</when>
<when >2025-07-07T08:51:23.760Z</when>
<when >2025-07-07T08:51:25.970Z</when>
<when >2025-07-07T08:51:28.420Z</when>
<when >2025-07-07T08:51:30.950Z</when>
<when >2025-07-07T08:51:33.150Z</when>
<when >2025-07-07T08:51:35.090Z</when>
<when >2025-07-07T08:51:37.940Z</when>
<when >2025-07-07T08:51:39.810Z</when>
<when >2025-07-07T08:51:42.910Z</when>
<when >2025-07-07T08:51:45.240Z</when>
<when >2025-07-07T08:51:47.640Z</when>
<when >2025-07-07T08:51:48.760Z</when>
<when >2025-07-07T08:51:52.670Z</when>
<when >2025-07-07T08:51:56.840Z</when>
<when >2025-07-07T08:52:00.780Z</when>
<when >2025-07-07T08:52:05.340Z</when>
<when >2025-07-07T08:52:08.200Z</when>
<when >2025-07-07T08:52:11.390Z</when>
<when >2025-07-07T08:52:14.540Z</when>
<when >2025-07-07T08:52:16.540Z</when>
<when >2025-07-07T08:52:19.660Z</when>
<when >2025-07-07T08:52:23.390Z</when>
<when >2025-07-07T08:52:26.200Z</when>
<when >2025-07-07T08:52:29.810Z</when>
<when >2025-07-07T08:52:33.980Z</when>
<when >2025-07-07T08:52:36.020Z</when>
<when >2025-07-07T08:52:38.940Z</when>
<when >2025-07-07T08:52:43.060Z</when>
<when >2025-07-07T08:52:45.540Z</when>
<when >2025-07-07T08:52:48.380Z</when>
<when >2025-07-07T08:52:52.090Z</when>
<when >2025-07-07T08:52:55.150Z</when>
<when >2025-07-07T08:52:58.080Z</when>
<when >2025-07-07T08:53:01.090Z</when>
<when >2025-07-07T08:53:03.480Z</when>
<when >2025-07-07T08:53:05.950Z</when>
<when >2025-07-07T08:53:07.860Z</when>
<when >2025-07-07T08:53:10.440Z</when>
<when >2025-07-07T08:53:13.120Z</when>
<when >2025-07-07T08:53:14.860Z</when>
<when >2025-07-07T08:53:17.430Z</when>
<when >2025-07-07T08:53:19.510Z</when>
<when >2025-07-07T08:53:21.860Z</when>
<when >2025-07-07T08:53:23.940Z</when>
<when >2025-07-07T08:53:26.290Z</when>
<when >2025-07-07T08:53:28.430Z</when>
<when >2025-07-07T08:53:30.450Z</when>
<when >2025-07-07T08:53:33.050Z</when>
<when >2025-07-07T08:53:35.020Z</when>
<when >2025-07-07T08:53:36.990Z</when>
<when >2025-07-07T08:53:38.520Z</when>
<when >2025-07-07T08:53:41.820Z</when>
<when >2025-07-07T08:53:43.710Z</when>
<when >2025-07-07T08:53:46.850Z</when>
<when >2025-07-07T08:53:49.510Z</when>
<when >2025-07-07T08:53:52.560Z</when>
<when >2025-07-07T08:53:55.350Z</when>
<when >2025-07-07T08:53:58.400Z</when>
<when >2025-07-07T08:54:01.580Z</when>
<when >2025-07-07T08:54:04.640Z</when>
<when >2025-07-07T08:54:06.920Z</when>
<when >2025-07-07T08:54:09.310Z</when>
<when >2025-07-07T08:54:11.750Z</when>
<when >2025-07-07T08:54:13.860Z</when>
<when >2025-07-07T08:54:15.900Z</when>
<when >2025-07-07T08:54:18.050Z</when>
<when >2025-07-07T08:54:19.810Z</when>
<when >2025-07-07T08:54:21.860Z</when>
<when >2025-07-07T08:54:23.960Z</when>
<when >2025-07-07T08:54:25.970Z</when>
<when >2025-07-07T08:54:27.880Z</when>
<when >2025-07-07T08:54:30.510Z</when>
<when >2025-07-07T08:54:32.250Z</when>
<when >2025-07-07T08:54:34.660Z</when>
<when >2025-07-07T08:54:39.280Z</when>
<when >2025-07-07T08:54:43.870Z</when>
<when >2025-07-07T08:54:48.150Z</when>
<when >2025-07-07T08:54:52.790Z</when>
<when >2025-07-07T08:54:57.310Z</when>
<when >2025-07-07T08:55:02.180Z</when>
<when >2025-07-07T08:55:06.780Z</when>
<when >2025-07-07T08:55:11.380Z</when>
<when >2025-07-07T08:55:16.780Z</when>
<when >2025-07-07T08:55:21.400Z</when>
<when >2025-07-07T08:55:26.230Z</when>
<when >2025-07-07T08:55:30.580Z</when>
<when >2025-07-07T08:55:35.740Z</when>
<when >2025-07-07T08:55:40.670Z</when>
<when >2025-07-07T08:55:45.430Z</when>
<when >2025-07-07T08:55:50.030Z</when>
<when >2025-07-07T08:55:52.200Z</when>
<when >2025-07-07T08:55:54.610Z</when>
<when >2025-07-07T08:56:01.640Z</when>
<when >2025-07-07T08:56:09.930Z</when>
<when >2025-07-07T08:56:17.830Z</when>
<when >2025-07-07T08:56:26.490Z</when>
<when >2025-07-07T08:56:34.690Z</when>
<when >2025-07-07T08:56:40.480Z</when>
<when >2025-07-07T08:56:45.970Z</when>
<when >2025-07-07T08:56:51.430Z</when>
<when >2025-07-07T08:56:56.430Z</when>
<when >2025-07-07T08:57:01.940Z</when>
<when >2025-07-07T08:57:12.840Z</when>
<when >2025-07-07T08:57:20.080Z</when>
<when >2025-07-07T08:57:28.260Z</when>
<when >2025-07-07T08:57:36.380Z</when>
<when >2025-07-07T08:57:45.700Z</when>
<when >2025-07-07T08:57:56.570Z</when>
<when >2025-07-07T08:58:07.740Z</when>
<when >2025-07-07T08:58:17.110Z</when>
<when >2025-07-07T08:58:23.310Z</when>
<when >2025-07-07T08:58:25.780Z</when>
<when >2025-07-07T08:58:30.460Z</when>
<when >2025-07-07T08:58:43.240Z</when>
<when >2025-07-07T08:58:55.150Z</when>
<when >2025-07-07T08:59:05.200Z</when>
<when >2025-07-07T08:59:15.110Z</when>
<when >2025-07-07T08:59:26.050Z</when>
<when >2025-07-07T08:59:37.420Z</when>
<when >2025-07-07T08:59:43.490Z</when>
<when >2025-07-07T08:59:49.390Z</when>
<when >2025-07-07T08:59:59.500Z</when>
<when >2025-07-07T09:00:05.240Z</when>
<when >2025-07-07T09:00:10.150Z</when>
<when >2025-07-07T09:00:16.500Z</when>
<when >2025-07-07T09:00:24.120Z</when>
<when >2025-07-07T09:00:36.650Z</when>
<when >2025-07-07T09:00:50.360Z</when>
<when >2025-07-07T09:01:03.970Z</when>
<when >2025-07-07T09:01:17.720Z</when>
<when >2025-07-07T09:01:31.520Z</when>
<when >2025-07-07T09:01:45.000Z</when>
<when >2025-07-07T09:01:58.710Z</when>
<when >2025-07-07T09:02:06.010Z</when>
<when >2025-07-07T09:02:07.440Z</when>
<when >2025-07-07T09:02:08.520Z</when>
<when >2025-07-07T09:02:10.600Z</when>
<when >2025-07-07T09:02:18.560Z</when>
<when >2025-07-07T09:02:24.100Z</when>
<when >2025-07-07T09:02:27.280Z</when>
<when >2025-07-07T09:02:35.120Z</when>
<when >2025-07-07T09:02:47.780Z</when>
<when >2025-07-07T09:03:02.190Z</when>
<when >2025-07-07T09:03:14.620Z</when>
<when >2025-07-07T09:03:27.070Z</when>
<when >2025-07-07T09:03:40.470Z</when>
<when >2025-07-07T09:03:53.960Z</when>
<when >2025-07-07T09:04:08.100Z</when>
<when >2025-07-07T09:04:21.830Z</when>
<when >2025-07-07T09:04:34.490Z</when>
<when >2025-07-07T09:04:46.200Z</when>
<when >2025-07-07T09:04:55.530Z</when>
<when >2025-07-07T09:05:09.310Z</when>
<when >2025-07-07T09:05:24.060Z</when>
<when >2025-07-07T09:05:39.030Z</when>
<when >2025-07-07T09:05:54.050Z</when>
<when >2025-07-07T09:06:08.660Z</when>
<when >2025-07-07T09:06:24.390Z</when>
<when >2025-07-07T09:06:42.490Z</when>
<when >2025-07-07T09:06:57.470Z</when>
<when >2025-07-07T09:07:13.410Z</when>
<when >2025-07-07T09:07:29.150Z</when>
<when >2025-07-07T09:07:44.390Z</when>
<when >2025-07-07T09:07:58.320Z</when>
<when >2025-07-07T09:08:11.780Z</when>
<when >2025-07-07T09:08:28.150Z</when>
<when >2025-07-07T09:08:45.230Z</when>
<when >2025-07-07T09:09:01.670Z</when>
<when >2025-07-07T09:09:16.590Z</when>
<when >2025-07-07T09:09:33.270Z</when>
<when >2025-07-07T09:09:50.370Z</when>
<when >2025-07-07T09:10:06.730Z</when>
<when >2025-07-07T09:10:21.860Z</when>
<when >2025-07-07T09:10:39.720Z</when>
<when >2025-07-07T09:10:56.970Z</when>
<when >2025-07-07T09:11:13.530Z</when>
<when >2025-07-07T09:11:29.920Z</when>
<when >2025-07-07T09:11:47.520Z</when>
<when >2025-07-07T09:12:04.050Z</when>
<when >2025-07-07T09:12:20.180Z</when>
<when >2025-07-07T09:12:36.450Z</when>
<when >2025-07-07T09:12:51.350Z</when>
<when >2025-07-07T09:13:06.570Z</when>
<when >2025-07-07T09:13:22.420Z</when>
<when >2025-07-07T09:13:38.590Z</when>
<when >2025-07-07T09:13:54.260Z</when>
<when >2025-07-07T09:14:10.480Z</when>
<when >2025-07-07T09:14:19.220Z</when>
<when >2025-07-07T09:14:38.790Z</when>
<when >2025-07-07T09:14:58.350Z</when>
<when >2025-07-07T09:15:18.260Z</when>
<when >2025-07-07T09:15:38.090Z</when>
<when >2025-07-07T09:15:57.670Z</when>
<when >2025-07-07T09:16:17.640Z</when>
<when >2025-07-07T09:16:32.130Z</when>
<when >2025-07-07T09:16:41.550Z</when>
<when >2025-07-07T09:16:50.950Z</when>
<when >2025-07-07T09:17:00.370Z</when>
<when >2025-07-07T09:17:09.540Z</when>
<when >2025-07-07T09:17:19.510Z</when>
<when >2025-07-07T09:17:29.150Z</when>
<when >2025-07-07T09:17:35.870Z</when>
<when >2025-07-07T09:17:41.410Z</when>
<when >2025-07-07T09:17:47.030Z</when>
<when >2025-07-07T09:17:52.810Z</when>
<when >2025-07-07T09:17:58.290Z</when>
<when >2025-07-07T09:18:17.790Z</when>
<when >2025-07-07T09:18:35.910Z</when>
<when >2025-07-07T09:18:55.620Z</when>
<when >2025-07-07T09:19:15.210Z</when>
<when >2025-07-07T09:19:34.810Z</when>
<when >2025-07-07T09:19:54.530Z</when>
<when >2025-07-07T09:20:14.240Z</when>
<when >2025-07-07T09:20:34.070Z</when>
<when >2025-07-07T09:20:53.660Z</when>
<when >2025-07-07T09:21:13.510Z</when>
<when >2025-07-07T09:21:32.960Z</when>
<when >2025-07-07T09:21:52.620Z</when>
<when >2025-07-07T09:22:12.590Z</when>
<when >2025-07-07T09:22:32.580Z</when>
<when >2025-07-07T09:22:52.040Z</when>
<when >2025-07-07T09:23:11.650Z</when>
<when >2025-07-07T09:23:31.590Z</when>
<when >2025-07-07T09:23:51.400Z</when>
<when >2025-07-07T09:24:10.910Z</when>
<when >2025-07-07T09:24:30.390Z</when>
<when >2025-07-07T09:24:50.300Z</when>
<when >2025-07-07T09:25:10.230Z</when>
<when >2025-07-07T09:25:29.860Z</when>
<when >2025-07-07T09:25:38.010Z</when>
<when >2025-07-07T09:25:44.890Z</when>
<when >2025-07-07T09:25:51.060Z</when>
<when >2025-07-07T09:25:57.750Z</when>
<when >2025-07-07T09:26:17.510Z</when>
<when >2025-07-07T09:26:37.410Z</when>
<when >2025-07-07T09:26:57.390Z</when>
<when >2025-07-07T09:27:17.170Z</when>
<when >2025-07-07T09:27:36.970Z</when>
<when >2025-07-07T09:27:56.860Z</when>
<when >2025-07-07T09:28:16.390Z</when>
<when >2025-07-07T09:28:36.160Z</when>
<when >2025-07-07T09:28:55.810Z</when>
<when >2025-07-07T09:29:15.570Z</when>
<when >2025-07-07T09:29:35.000Z</when>
<when >2025-07-07T09:29:54.380Z</when>
<when >2025-07-07T09:30:14.250Z</when>
<when >2025-07-07T09:30:34.250Z</when>
<when >2025-07-07T09:30:53.950Z</when>
<when >2025-07-07T09:31:13.810Z</when>
<when >2025-07-07T09:31:33.100Z</when>
<when >2025-07-07T09:31:52.640Z</when>
<when >2025-07-07T09:32:12.360Z</when>
<when >2025-07-07T09:32:32.240Z</when>
<when >2025-07-07T09:32:52.140Z</when>
<when >2025-07-07T09:33:11.700Z</when>
<when >2025-07-07T09:33:31.370Z</when>
<when >2025-07-07T09:33:51.240Z</when>
<when >2025-07-07T09:34:11.090Z</when>
<when >2025-07-07T09:34:30.790Z</when>
<when >2025-07-07T09:34:50.480Z</when>
<when >2025-07-07T09:35:10.080Z</when>
<when >2025-07-07T09:35:30.030Z</when>
<when >2025-07-07T09:35:49.610Z</when>
<when >2025-07-07T09:36:09.500Z</when>
<when >2025-07-07T09:36:29.320Z</when>
<when >2025-07-07T09:36:48.960Z</when>
<when >2025-07-07T09:37:08.900Z</when>
<when >2025-07-07T09:37:28.790Z</when>
<when >2025-07-07T09:37:48.380Z</when>
<when >2025-07-07T09:38:07.870Z</when>
<when >2025-07-07T09:38:27.640Z</when>
<when >2025-07-07T09:38:47.420Z</when>
<when >2025-07-07T09:39:07.020Z</when>
<when >2025-07-07T09:39:26.810Z</when>
<when >2025-07-07T09:39:46.510Z</when>
<when >2025-07-07T09:40:06.030Z</when>
<when >2025-07-07T09:40:25.840Z</when>
<when >2025-07-07T09:40:45.730Z</when>
<when >2025-07-07T09:41:05.330Z</when>
<when >2025-07-07T09:41:24.860Z</when>
<when >2025-07-07T09:41:44.750Z</when>
<when >2025-07-07T09:42:04.170Z</when>
<when >2025-07-07T09:42:23.760Z</when>
<when >2025-07-07T09:42:43.530Z</when>
<when >2025-07-07T09:43:02.770Z</when>
<when >2025-07-07T09:43:22.560Z</when>
<when >2025-07-07T09:43:42.180Z</when>
<when >2025-07-07T09:44:01.830Z</when>
<when >2025-07-07T09:44:21.600Z</when>
<when >2025-07-07T09:44:41.590Z</when>
<when >2025-07-07T09:45:01.290Z</when>
<when >2025-07-07T09:45:21.210Z</when>
<when >2025-07-07T09:45:40.770Z</when>
<when >2025-07-07T09:46:00.540Z</when>
<when >2025-07-07T09:46:20.490Z</when>
<when >2025-07-07T09:46:40.330Z</when>
<when >2025-07-07T09:47:00.330Z</when>
<when >2025-07-07T09:47:19.780Z</when>
<when >2025-07-07T09:47:39.430Z</when>
<when >2025-07-07T09:47:59.390Z</when>
<when >2025-07-07T09:48:19.090Z</when>
<when >2025-07-07T09:48:38.490Z</when>
<when >2025-07-07T09:48:58.340Z</when>
<when >2025-07-07T09:49:18.030Z</when>
<when >2025-07-07T09:49:38.020Z</when>
<when >2025-07-07T09:49:57.560Z</when>
<when >2025-07-07T09:50:17.410Z</when>
<when >2025-07-07T09:50:37.190Z</when>
<when >2025-07-07T09:50:57.000Z</when>
<when >2025-07-07T09:51:16.660Z</when>
<when >2025-07-07T09:51:36.300Z</when>
<when >2025-07-07T09:51:56.220Z</when>
<when >2025-07-07T09:52:16.150Z</when>
<when >2025-07-07T09:52:36.140Z</when>
<when >2025-07-07T09:52:56.010Z</when>
<when >2025-07-07T09:53:15.240Z</when>
<when >2025-07-07T09:53:34.910Z</when>
<when >2025-07-07T09:53:54.540Z</when>
<when >2025-07-07T09:54:05.250Z</when>
<when >2025-07-07T09:54:13.830Z</when>
<when >2025-07-07T09:54:22.660Z</when>
<when >2025-07-07T09:54:32.040Z</when>
<when >2025-07-07T09:54:43.120Z</when>
<when >2025-07-07T09:54:50.770Z</when>
<when >2025-07-07T09:55:00.890Z</when>
<when >2025-07-07T09:55:10.910Z</when>
<when >2025-07-07T09:55:20.200Z</when>
<when >2025-07-07T09:55:30.510Z</when>
<when >2025-07-07T09:55:40.660Z</when>
<when >2025-07-07T09:55:50.800Z</when>
<when >2025-07-07T09:56:00.560Z</when>
<when >2025-07-07T09:56:10.360Z</when>
<when >2025-07-07T09:56:20.230Z</when>
<when >2025-07-07T09:56:27.750Z</when>
<when >2025-07-07T09:56:34.680Z</when>
<when >2025-07-07T09:56:42.060Z</when>
<when >2025-07-07T09:56:53.040Z</when>
<when >2025-07-07T09:57:12.470Z</when>
<when >2025-07-07T09:57:32.050Z</when>
<when >2025-07-07T09:57:51.580Z</when>
<when >2025-07-07T09:58:11.110Z</when>
<when >2025-07-07T09:58:30.840Z</when>
<when >2025-07-07T09:58:50.750Z</when>
<when >2025-07-07T09:59:10.340Z</when>
<when >2025-07-07T09:59:30.070Z</when>
<when >2025-07-07T09:59:49.630Z</when>
<when >2025-07-07T10:00:09.210Z</when>
<when >2025-07-07T10:00:29.120Z</when>
<when >2025-07-07T10:00:48.790Z</when>
<when >2025-07-07T10:01:08.660Z</when>
<when >2025-07-07T10:01:28.200Z</when>
<when >2025-07-07T10:01:45.940Z</when>
<when >2025-07-07T10:01:52.530Z</when>
<when >2025-07-07T10:02:03.440Z</when>
<when >2025-07-07T10:02:22.970Z</when>
<when >2025-07-07T10:02:42.950Z</when>
<when >2025-07-07T10:03:02.640Z</when>
<when >2025-07-07T10:03:22.400Z</when>
<when >2025-07-07T10:03:29.190Z</when>
<when >2025-07-07T10:03:34.250Z</when>
<when >2025-07-07T10:03:39.370Z</when>
<when >2025-07-07T10:03:44.140Z</when>
<when >2025-07-07T10:03:49.740Z</when>
<when >2025-07-07T10:04:09.710Z</when>
<when >2025-07-07T10:04:24.880Z</when>
<when >2025-07-07T10:04:44.580Z</when>
<when >2025-07-07T10:05:04.080Z</when>
<when >2025-07-07T10:05:23.800Z</when>
<when >2025-07-07T10:05:43.390Z</when>
<when >2025-07-07T10:06:03.010Z</when>
<when >2025-07-07T10:06:22.870Z</when>
<when >2025-07-07T10:06:42.560Z</when>
<when >2025-07-07T10:07:02.300Z</when>
<when >2025-07-07T10:07:22.070Z</when>
<when >2025-07-07T10:07:41.500Z</when>
<when >2025-07-07T10:08:01.390Z</when>
<when >2025-07-07T10:08:20.860Z</when>
<when >2025-07-07T10:08:40.500Z</when>
<when >2025-07-07T10:09:00.000Z</when>
<when >2025-07-07T10:09:19.860Z</when>
<when >2025-07-07T10:09:39.820Z</when>
<when >2025-07-07T10:09:59.280Z</when>
<when >2025-07-07T10:10:19.040Z</when>
<when >2025-07-07T10:10:38.510Z</when>
<when >2025-07-07T10:10:58.080Z</when>
<when >2025-07-07T10:11:18.030Z</when>
<when >2025-07-07T10:11:37.530Z</when>
<when >2025-07-07T10:11:57.200Z</when>
<when >2025-07-07T10:12:16.860Z</when>
<when >2025-07-07T10:12:36.410Z</when>
<when >2025-07-07T10:12:56.140Z</when>
<when >2025-07-07T10:13:15.880Z</when>
<when >2025-07-07T10:13:35.430Z</when>
<when >2025-07-07T10:13:55.130Z</when>
<when >2025-07-07T10:14:15.080Z</when>
<when >2025-07-07T10:14:34.540Z</when>
<when >2025-07-07T10:14:54.230Z</when>
<when >2025-07-07T10:15:14.010Z</when>
<when >2025-07-07T10:15:33.880Z</when>
<when >2025-07-07T10:15:53.570Z</when>
<when >2025-07-07T10:16:12.900Z</when>
<when >2025-07-07T10:16:32.600Z</when>
<when >2025-07-07T10:16:51.980Z</when>
<when >2025-07-07T10:17:11.920Z</when>
<when >2025-07-07T10:17:31.690Z</when>
<when >2025-07-07T10:17:51.580Z</when>
<when >2025-07-07T10:18:11.310Z</when>
<when >2025-07-07T10:18:31.030Z</when>
<when >2025-07-07T10:18:50.530Z</when>
<when >2025-07-07T10:19:10.230Z</when>
<when >2025-07-07T10:19:30.020Z</when>
<when >2025-07-07T10:19:49.460Z</when>
<when >2025-07-07T10:20:09.340Z</when>
<when >2025-07-07T10:20:29.200Z</when>
<when >2025-07-07T10:20:48.970Z</when>
<when >2025-07-07T10:21:08.860Z</when>
<when >2025-07-07T10:21:28.390Z</when>
<when >2025-07-07T10:21:47.970Z</when>
<when >2025-07-07T10:22:07.730Z</when>
<when >2025-07-07T10:22:27.650Z</when>
<when >2025-07-07T10:22:47.290Z</when>
<when >2025-07-07T10:23:06.670Z</when>
<when >2025-07-07T10:23:19.750Z</when>
<when >2025-07-07T10:23:29.480Z</when>
<when >2025-07-07T10:23:40.080Z</when>
<when >2025-07-07T10:23:59.860Z</when>
<when >2025-07-07T10:24:19.450Z</when>
<when >2025-07-07T10:24:39.080Z</when>
<when >2025-07-07T10:24:58.590Z</when>
<when >2025-07-07T10:25:18.540Z</when>
<when >2025-07-07T10:25:38.360Z</when>
<when >2025-07-07T10:25:58.080Z</when>
<when >2025-07-07T10:26:17.900Z</when>
<when >2025-07-07T10:26:37.330Z</when>
<when >2025-07-07T10:26:57.150Z</when>
<when >2025-07-07T10:27:16.760Z</when>
<when >2025-07-07T10:27:36.190Z</when>
<when >2025-07-07T10:27:55.460Z</when>
<when >2025-07-07T10:28:07.270Z</when>
<when >2025-07-07T10:28:14.380Z</when>
<when >2025-07-07T10:28:21.140Z</when>
<when >2025-07-07T10:28:28.750Z</when>
<when >2025-07-07T10:28:48.600Z</when>
<when >2025-07-07T10:29:08.130Z</when>
<when >2025-07-07T10:29:28.030Z</when>
<when >2025-07-07T10:29:48.010Z</when>
<when >2025-07-07T10:30:07.540Z</when>
<when >2025-07-07T10:30:27.340Z</when>
<when >2025-07-07T10:30:47.230Z</when>
<when >2025-07-07T10:31:07.160Z</when>
<when >2025-07-07T10:31:27.140Z</when>
<when >2025-07-07T10:31:47.010Z</when>
<when >2025-07-07T10:32:06.780Z</when>
<when >2025-07-07T10:32:26.480Z</when>
<when >2025-07-07T10:32:46.240Z</when>
<when >2025-07-07T10:33:05.600Z</when>
<when >2025-07-07T10:33:25.370Z</when>
<when >2025-07-07T10:33:45.180Z</when>
<when >2025-07-07T10:34:04.900Z</when>
<when >2025-07-07T10:34:24.790Z</when>
<when >2025-07-07T10:34:44.670Z</when>
<when >2025-07-07T10:35:04.500Z</when>
<when >2025-07-07T10:35:13.740Z</when>
<when >2025-07-07T10:35:23.410Z</when>
<when >2025-07-07T10:35:33.400Z</when>
<when >2025-07-07T10:35:42.400Z</when>
<when >2025-07-07T10:35:49.770Z</when>
<when >2025-07-07T10:35:56.400Z</when>
<when >2025-07-07T10:36:06.210Z</when>
<when >2025-07-07T10:36:25.870Z</when>
<when >2025-07-07T10:36:45.760Z</when>
<when >2025-07-07T10:37:05.570Z</when>
<when >2025-07-07T10:37:25.300Z</when>
<when >2025-07-07T10:37:45.050Z</when>
<when >2025-07-07T10:38:04.920Z</when>
<when >2025-07-07T10:38:24.600Z</when>
<when >2025-07-07T10:38:44.440Z</when>
<when >2025-07-07T10:39:04.000Z</when>
<when >2025-07-07T10:39:23.690Z</when>
<when >2025-07-07T10:39:43.480Z</when>
<when >2025-07-07T10:40:03.170Z</when>
<when >2025-07-07T10:40:22.830Z</when>
<when >2025-07-07T10:40:42.570Z</when>
<when >2025-07-07T10:41:02.510Z</when>
<when >2025-07-07T10:41:22.170Z</when>
<when >2025-07-07T10:41:42.140Z</when>
<when >2025-07-07T10:42:01.960Z</when>
<when >2025-07-07T10:42:21.750Z</when>
<when >2025-07-07T10:42:41.590Z</when>
<when >2025-07-07T10:43:01.440Z</when>
<when >2025-07-07T10:43:21.040Z</when>
<when >2025-07-07T10:43:40.600Z</when>
<when >2025-07-07T10:44:00.140Z</when>
<when >2025-07-07T10:44:19.630Z</when>
<when >2025-07-07T10:44:39.400Z</when>
<when >2025-07-07T10:44:59.180Z</when>
<when >2025-07-07T10:45:19.130Z</when>
<when >2025-07-07T10:45:38.520Z</when>
<when >2025-07-07T10:45:58.150Z</when>
<when >2025-07-07T10:46:17.990Z</when>
<when >2025-07-07T10:46:37.630Z</when>
<when >2025-07-07T10:46:56.920Z</when>
<when >2025-07-07T10:47:16.600Z</when>
<when >2025-07-07T10:47:36.250Z</when>
<when >2025-07-07T10:47:55.820Z</when>
<when >2025-07-07T10:48:02.370Z</when>
<when >2025-07-07T10:48:20.350Z</when>
<when >2025-07-07T10:48:39.690Z</when>
<when >2025-07-07T10:48:59.320Z</when>
<when >2025-07-07T10:49:18.670Z</when>
<when >2025-07-07T10:49:31.880Z</when>
<when >2025-07-07T10:49:51.550Z</when>
<when >2025-07-07T10:50:11.000Z</when>
<when >2025-07-07T10:50:30.550Z</when>
<when >2025-07-07T10:50:50.210Z</when>
<when >2025-07-07T10:51:10.180Z</when>
<when >2025-07-07T10:51:29.900Z</when>
<when >2025-07-07T10:51:49.430Z</when>
<when >2025-07-07T10:52:08.960Z</when>
<when >2025-07-07T10:52:28.780Z</when>
<when >2025-07-07T10:52:48.740Z</when>
<when >2025-07-07T10:53:08.710Z</when>
<when >2025-07-07T10:53:28.590Z</when>
<when >2025-07-07T10:53:48.100Z</when>
<when >2025-07-07T10:54:07.910Z</when>
<when >2025-07-07T10:54:27.510Z</when>
<when >2025-07-07T10:54:47.450Z</when>
<when >2025-07-07T10:55:07.180Z</when>
<when >2025-07-07T10:55:27.090Z</when>
<when >2025-07-07T10:55:46.860Z</when>
<when >2025-07-07T10:56:06.400Z</when>
<when >2025-07-07T10:56:26.100Z</when>
<when >2025-07-07T10:56:46.020Z</when>
<when >2025-07-07T10:57:05.920Z</when>
<when >2025-07-07T10:57:25.330Z</when>
<when >2025-07-07T10:57:45.240Z</when>
<when >2025-07-07T10:58:04.930Z</when>
<when >2025-07-07T10:58:24.690Z</when>
<when >2025-07-07T10:58:44.630Z</when>
<when >2025-07-07T10:59:04.040Z</when>
<when >2025-07-07T10:59:23.550Z</when>
<when >2025-07-07T10:59:43.440Z</when>
<when >2025-07-07T11:00:03.160Z</when>
<when >2025-07-07T11:00:22.970Z</when>
<when >2025-07-07T11:00:42.770Z</when>
<when >2025-07-07T11:01:02.750Z</when>
<when >2025-07-07T11:01:22.400Z</when>
<when >2025-07-07T11:01:42.310Z</when>
<when >2025-07-07T11:02:02.280Z</when>
<when >2025-07-07T11:02:22.110Z</when>
<when >2025-07-07T11:02:42.020Z</when>
<when >2025-07-07T11:03:01.880Z</when>
<when >2025-07-07T11:03:21.650Z</when>
<when >2025-07-07T11:03:41.430Z</when>
<when >2025-07-07T11:04:00.950Z</when>
<when >2025-07-07T11:04:20.830Z</when>
<when >2025-07-07T11:04:40.680Z</when>
<when >2025-07-07T11:05:00.500Z</when>
<when >2025-07-07T11:05:20.080Z</when>
<when >2025-07-07T11:05:39.900Z</when>
<when >2025-07-07T11:05:59.670Z</when>
<when >2025-07-07T11:06:19.650Z</when>
<when >2025-07-07T11:06:39.360Z</when>
<when >2025-07-07T11:06:59.210Z</when>
<when >2025-07-07T11:07:19.180Z</when>
<when >2025-07-07T11:07:38.760Z</when>
<when >2025-07-07T11:07:58.700Z</when>
<when >2025-07-07T11:08:18.500Z</when>
<when >2025-07-07T11:08:38.350Z</when>
<when >2025-07-07T11:08:58.320Z</when>
<when >2025-07-07T11:09:17.690Z</when>
<when >2025-07-07T11:09:37.180Z</when>
<when >2025-07-07T11:09:57.150Z</when>
<when >2025-07-07T11:10:16.910Z</when>
<when >2025-07-07T11:10:36.860Z</when>
<when >2025-07-07T11:10:56.820Z</when>
<when >2025-07-07T11:11:06.290Z</when>
<when >2025-07-07T11:11:11.700Z</when>
<when >2025-07-07T11:11:16.450Z</when>
<when >2025-07-07T11:11:21.170Z</when>
<when >2025-07-07T11:11:26.540Z</when>
<when >2025-07-07T11:11:33.450Z</when>
<when >2025-07-07T11:11:53.010Z</when>
<when >2025-07-07T11:12:12.570Z</when>
<when >2025-07-07T11:12:32.370Z</when>
<when >2025-07-07T11:12:52.050Z</when>
<when >2025-07-07T11:13:11.980Z</when>
<when >2025-07-07T11:13:31.590Z</when>
<when >2025-07-07T11:13:51.310Z</when>
<when >2025-07-07T11:14:11.310Z</when>
<when >2025-07-07T11:14:31.030Z</when>
<when >2025-07-07T11:14:50.840Z</when>
<when >2025-07-07T11:15:10.820Z</when>
<when >2025-07-07T11:15:30.460Z</when>
<when >2025-07-07T11:15:50.110Z</when>
<when >2025-07-07T11:16:09.920Z</when>
<when >2025-07-07T11:16:29.740Z</when>
<when >2025-07-07T11:16:49.730Z</when>
<when >2025-07-07T11:17:09.560Z</when>
<when >2025-07-07T11:17:29.240Z</when>
<when >2025-07-07T11:17:49.220Z</when>
<when >2025-07-07T11:18:01.540Z</when>
<when >2025-07-07T11:18:17.640Z</when>
<when >2025-07-07T11:18:33.570Z</when>
<when >2025-07-07T11:18:50.960Z</when>
<when >2025-07-07T11:18:58.090Z</when>
<when >2025-07-07T11:19:17.990Z</when>
<when >2025-07-07T11:19:37.970Z</when>
<when >2025-07-07T11:19:45.760Z</when>
<when >2025-07-07T11:19:48.650Z</when>
<when >2025-07-07T11:19:50.580Z</when>
<when >2025-07-07T11:19:52.180Z</when>
<when >2025-07-07T11:19:54.650Z</when>
<when >2025-07-07T11:20:00.210Z</when>
<when >2025-07-07T11:20:09.430Z</when>
<when >2025-07-07T11:20:20.730Z</when>
<when >2025-07-07T11:20:31.780Z</when>
<when >2025-07-07T11:20:41.860Z</when>
<when >2025-07-07T11:20:51.240Z</when>
<when >2025-07-07T11:21:04.470Z</when>
<when >2025-07-07T11:21:11.640Z</when>
<when >2025-07-07T11:21:23.250Z</when>
<when >2025-07-07T11:21:34.680Z</when>
<when >2025-07-07T11:21:45.480Z</when>
<when >2025-07-07T11:21:55.710Z</when>
<when >2025-07-07T11:22:06.270Z</when>
<when >2025-07-07T11:22:18.490Z</when>
<when >2025-07-07T11:22:31.060Z</when>
<when >2025-07-07T11:22:41.900Z</when>
<when >2025-07-07T11:22:52.710Z</when>
<when >2025-07-07T11:23:04.250Z</when>
<when >2025-07-07T11:23:15.400Z</when>
<when >2025-07-07T11:23:26.110Z</when>
<when >2025-07-07T11:23:33.190Z</when>
<when >2025-07-07T11:23:38.930Z</when>
<when >2025-07-07T11:23:45.340Z</when>
<when >2025-07-07T11:23:51.380Z</when>
<when >2025-07-07T11:24:03.810Z</when>
<when >2025-07-07T11:24:15.630Z</when>
<when >2025-07-07T11:24:26.400Z</when>
<when >2025-07-07T11:24:32.590Z</when>
<when >2025-07-07T11:24:44.900Z</when>
<when >2025-07-07T11:24:58.350Z</when>
<when >2025-07-07T11:25:10.830Z</when>
<when >2025-07-07T11:25:22.610Z</when>
<when >2025-07-07T11:25:32.230Z</when>
<when >2025-07-07T11:25:43.090Z</when>
<when >2025-07-07T11:25:52.320Z</when>
<when >2025-07-07T11:26:00.210Z</when>
<when >2025-07-07T11:26:07.510Z</when>
<when >2025-07-07T11:26:20.810Z</when>
<when >2025-07-07T11:26:32.250Z</when>
<when >2025-07-07T11:26:44.800Z</when>
<when >2025-07-07T11:26:58.930Z</when>
<when >2025-07-07T11:27:11.620Z</when>
<when >2025-07-07T11:27:25.030Z</when>
<when >2025-07-07T11:27:32.000Z</when>
<when >2025-07-07T11:27:43.540Z</when>
<when >2025-07-07T11:27:54.380Z</when>
<when >2025-07-07T11:28:03.710Z</when>
<when >2025-07-07T11:28:10.390Z</when>
<when >2025-07-07T11:28:20.030Z</when>
<when >2025-07-07T11:28:32.500Z</when>
<when >2025-07-07T11:28:44.140Z</when>
<when >2025-07-07T11:28:55.670Z</when>
<when >2025-07-07T11:29:06.430Z</when>
<when >2025-07-07T11:29:17.220Z</when>
<when >2025-07-07T11:29:26.300Z</when>
<when >2025-07-07T11:29:36.390Z</when>
<when >2025-07-07T11:29:51.160Z</when>
<when >2025-07-07T11:30:04.590Z</when>
<when >2025-07-07T11:30:17.330Z</when>
<when >2025-07-07T11:30:27.940Z</when>
<when >2025-07-07T11:30:32.010Z</when>
<when >2025-07-07T11:30:35.070Z</when>
<when >2025-07-07T11:30:38.990Z</when>
<when >2025-07-07T11:30:42.140Z</when>
<when >2025-07-07T11:30:45.160Z</when>
<when >2025-07-07T11:30:48.440Z</when>
<when >2025-07-07T11:30:52.220Z</when>
<when >2025-07-07T11:30:55.300Z</when>
<when >2025-07-07T11:31:09.070Z</when>
<when >2025-07-07T11:31:17.440Z</when>
<when >2025-07-07T11:31:28.200Z</when>
<when >2025-07-07T11:31:39.710Z</when>
<when >2025-07-07T11:31:52.740Z</when>
<when >2025-07-07T11:32:05.750Z</when>
<when >2025-07-07T11:32:16.770Z</when>
<when >2025-07-07T11:32:28.020Z</when>
<when >2025-07-07T11:32:32.930Z</when>
<when >2025-07-07T11:32:36.330Z</when>
<when >2025-07-07T11:32:50.310Z</when>
<when >2025-07-07T11:32:55.300Z</when>
<when >2025-07-07T11:33:00.820Z</when>
<when >2025-07-07T11:33:06.560Z</when>
<when >2025-07-07T11:33:12.080Z</when>
<when >2025-07-07T11:33:16.430Z</when>
<when >2025-07-07T11:33:21.610Z</when>
<when >2025-07-07T11:33:26.880Z</when>
<when >2025-07-07T11:33:33.120Z</when>
<when >2025-07-07T11:33:38.490Z</when>
<when >2025-07-07T11:33:41.590Z</when>
<when >2025-07-07T11:33:46.970Z</when>
<when >2025-07-07T11:33:50.140Z</when>
<when >2025-07-07T11:33:52.860Z</when>
<when >2025-07-07T11:33:56.550Z</when>
<when >2025-07-07T11:34:00.050Z</when>
<when >2025-07-07T11:34:03.070Z</when>
<when >2025-07-07T11:34:06.610Z</when>
<when >2025-07-07T11:34:10.030Z</when>
<when >2025-07-07T11:34:13.850Z</when>
<when >2025-07-07T11:34:16.920Z</when>
<when >2025-07-07T11:34:20.640Z</when>
<when >2025-07-07T11:34:23.980Z</when>
<when >2025-07-07T11:34:27.690Z</when>
<when >2025-07-07T11:34:31.070Z</when>
<when >2025-07-07T11:34:34.090Z</when>
<when >2025-07-07T11:34:37.400Z</when>
<when >2025-07-07T11:34:41.080Z</when>
<when >2025-07-07T11:34:44.600Z</when>
<when >2025-07-07T11:34:47.950Z</when>
<when >2025-07-07T11:34:51.500Z</when>
<when >2025-07-07T11:34:55.110Z</when>
<when >2025-07-07T11:34:59.050Z</when>
<when >2025-07-07T11:35:02.720Z</when>
<when >2025-07-07T11:35:06.700Z</when>
<when >2025-07-07T11:35:10.750Z</when>
<when >2025-07-07T11:35:14.700Z</when>
<when >2025-07-07T11:35:17.590Z</when>
<when >2025-07-07T11:35:21.270Z</when>
<when >2025-07-07T11:35:25.340Z</when>
<when >2025-07-07T11:35:29.380Z</when>
<when >2025-07-07T11:35:33.320Z</when>
<when >2025-07-07T11:35:39.700Z</when>
<when >2025-07-07T11:35:43.460Z</when>
<when >2025-07-07T11:35:47.110Z</when>
<when >2025-07-07T11:35:50.270Z</when>
<when >2025-07-07T11:35:52.740Z</when>
<when >2025-07-07T11:35:56.220Z</when>
<when >2025-07-07T11:35:59.380Z</when>
<when >2025-07-07T11:36:02.080Z</when>
<when >2025-07-07T11:36:05.270Z</when>
<when >2025-07-07T11:36:08.580Z</when>
<when >2025-07-07T11:36:12.110Z</when>
<when >2025-07-07T11:36:15.910Z</when>
<when >2025-07-07T11:36:20.580Z</when>
<when >2025-07-07T11:36:24.730Z</when>
<when >2025-07-07T11:36:28.090Z</when>
<when >2025-07-07T11:36:32.090Z</when>
<when >2025-07-07T11:36:35.110Z</when>
<when >2025-07-07T11:36:37.690Z</when>
<when >2025-07-07T11:36:40.640Z</when>
<when >2025-07-07T11:36:43.640Z</when>
<when >2025-07-07T11:36:46.570Z</when>
<when >2025-07-07T11:36:49.560Z</when>
<when >2025-07-07T11:36:52.520Z</when>
<when >2025-07-07T11:36:55.480Z</when>
<when >2025-07-07T11:36:58.480Z</when>
<when >2025-07-07T11:37:01.580Z</when>
<when >2025-07-07T11:37:04.710Z</when>
<when >2025-07-07T11:37:07.700Z</when>
<when >2025-07-07T11:37:11.040Z</when>
<when >2025-07-07T11:37:14.830Z</when>
<when >2025-07-07T11:37:17.800Z</when>
<when >2025-07-07T11:37:20.690Z</when>
<when >2025-07-07T11:37:23.290Z</when>
<when >2025-07-07T11:37:26.570Z</when>
<when >2025-07-07T11:37:29.880Z</when>
<when >2025-07-07T11:37:33.110Z</when>
<when >2025-07-07T11:37:35.950Z</when>
<when >2025-07-07T11:37:38.390Z</when>
<when >2025-07-07T11:37:42.070Z</when>
<when >2025-07-07T11:37:46.130Z</when>
<when >2025-07-07T11:37:51.470Z</when>
<when >2025-07-07T11:37:57.860Z</when>
<when >2025-07-07T11:38:04.020Z</when>
<when >2025-07-07T11:38:07.670Z</when>
<when >2025-07-07T11:38:10.010Z</when>
<when >2025-07-07T11:38:13.480Z</when>
<when >2025-07-07T11:38:15.960Z</when>
<when >2025-07-07T11:38:19.220Z</when>
<when >2025-07-07T11:38:24.110Z</when>
<when >2025-07-07T11:38:30.090Z</when>
<when >2025-07-07T11:38:36.110Z</when>
<when >2025-07-07T11:38:40.720Z</when>
<when >2025-07-07T11:38:45.270Z</when>
<when >2025-07-07T11:38:46.850Z</when>
<when >2025-07-07T11:38:48.580Z</when>
<when >2025-07-07T11:38:51.690Z</when>
<when >2025-07-07T11:38:55.720Z</when>
<when >2025-07-07T11:38:59.420Z</when>
<when >2025-07-07T11:39:04.210Z</when>
<when >2025-07-07T11:39:11.460Z</when>
<when >2025-07-07T11:39:17.390Z</when>
<when >2025-07-07T11:39:23.110Z</when>
<when >2025-07-07T11:39:28.650Z</when>
<when >2025-07-07T11:39:34.260Z</when>
<when >2025-07-07T11:39:40.640Z</when>
<when >2025-07-07T11:39:46.650Z</when>
<when >2025-07-07T11:39:52.120Z</when>
<when >2025-07-07T11:39:58.920Z</when>
<when >2025-07-07T11:40:05.680Z</when>
<when >2025-07-07T11:40:11.070Z</when>
<when >2025-07-07T11:40:16.620Z</when>
<when >2025-07-07T11:40:21.490Z</when>
<when >2025-07-07T11:40:27.300Z</when>
<when >2025-07-07T11:40:33.580Z</when>
<when >2025-07-07T11:40:40.350Z</when>
<when >2025-07-07T11:40:46.400Z</when>
<when >2025-07-07T11:40:54.250Z</when>
<when >2025-07-07T11:41:02.860Z</when>
<when >2025-07-07T11:41:09.470Z</when>
<when >2025-07-07T11:41:17.910Z</when>
<when >2025-07-07T11:41:25.460Z</when>
<when >2025-07-07T11:41:32.800Z</when>
<when >2025-07-07T11:41:40.920Z</when>
<when >2025-07-07T11:41:48.800Z</when>
<when >2025-07-07T11:41:56.990Z</when>
<when >2025-07-07T11:42:04.540Z</when>
<when >2025-07-07T11:42:13.790Z</when>
<when >2025-07-07T11:42:19.090Z</when>
<when >2025-07-07T11:42:24.180Z</when>
<when >2025-07-07T11:42:24.180Z</when>
<when >2025-07-07T11:42:26.180Z</when>
<when >2025-07-07T11:42:28.570Z</when>
<when >2025-07-07T11:42:29.120Z</when>
<when >2025-07-07T11:42:29.120Z</when>
<gx:coord >-0.494325 39.494156 71</gx:coord>
<gx:coord >-0.493429 39.493835 71</gx:coord>
<gx:coord >-0.492594 39.493515 71</gx:coord>
<gx:coord >-0.491399 39.493057 71</gx:coord>
<gx:coord >-0.489907 39.492508 71</gx:coord>
<gx:coord >-0.488474 39.491913 71</gx:coord>
<gx:coord >-0.487122 39.491427 71</gx:coord>
<gx:coord >-0.485488 39.490768 71</gx:coord>
<gx:coord >-0.483697 39.490128 63</gx:coord>
<gx:coord >-0.482801 39.489761 63</gx:coord>
<gx:coord >-0.481567 39.489332 63</gx:coord>
<gx:coord >-0.480286 39.48882 71</gx:coord>
<gx:coord >-0.478861 39.488297 71</gx:coord>
<gx:coord >-0.477966 39.487936 79</gx:coord>
<gx:coord >-0.476196 39.487237 94</gx:coord>
<gx:coord >-0.473308 39.486145 132</gx:coord>
<gx:coord >-0.471516 39.485413 155</gx:coord>
<gx:coord >-0.469177 39.484537 193</gx:coord>
<gx:coord >-0.466979 39.483719 231</gx:coord>
<gx:coord >-0.465027 39.482955 254</gx:coord>
<gx:coord >-0.463196 39.48221 284</gx:coord>
<gx:coord >-0.460754 39.481232 315</gx:coord>
<gx:coord >-0.459045 39.480534 345</gx:coord>
<gx:coord >-0.456543 39.47951 383</gx:coord>
<gx:coord >-0.45438 39.478638 421</gx:coord>
<gx:coord >-0.452148 39.477741 452</gx:coord>
<gx:coord >-0.451233 39.477368 460</gx:coord>
<gx:coord >-0.447632 39.475879 482</gx:coord>
<gx:coord >-0.443848 39.474296 521</gx:coord>
<gx:coord >-0.440369 39.472853 551</gx:coord>
<gx:coord >-0.435791 39.470944 581</gx:coord>
<gx:coord >-0.432945 39.469666 597</gx:coord>
<gx:coord >-0.42996 39.468109 620</gx:coord>
<gx:coord >-0.426974 39.466461 642</gx:coord>
<gx:coord >-0.425171 39.465358 650</gx:coord>
<gx:coord >-0.422119 39.463356 673</gx:coord>
<gx:coord >-0.419006 39.461168 696</gx:coord>
<gx:coord >-0.416199 39.459166 711</gx:coord>
<gx:coord >-0.412659 39.456513 741</gx:coord>
<gx:coord >-0.4093 39.453964 757</gx:coord>
<gx:coord >-0.407166 39.452323 772</gx:coord>
<gx:coord >-0.403807 39.449799 802</gx:coord>
<gx:coord >-0.399658 39.446784 825</gx:coord>
<gx:coord >-0.396851 39.444828 856</gx:coord>
<gx:coord >-0.393738 39.44264 886</gx:coord>
<gx:coord >-0.389771 39.439987 917</gx:coord>
<gx:coord >-0.386108 39.437613 940</gx:coord>
<gx:coord >-0.383208 39.435791 970</gx:coord>
<gx:coord >-0.379745 39.43364 1001</gx:coord>
<gx:coord >-0.37616 39.431514 1031</gx:coord>
<gx:coord >-0.373535 39.429932 1069</gx:coord>
<gx:coord >-0.370728 39.428302 1092</gx:coord>
<gx:coord >-0.367676 39.426533 1122</gx:coord>
<gx:coord >-0.364459 39.424759 1161</gx:coord>
<gx:coord >-0.362061 39.423414 1199</gx:coord>
<gx:coord >-0.358521 39.421459 1229</gx:coord>
<gx:coord >-0.355835 39.419969 1267</gx:coord>
<gx:coord >-0.353149 39.418526 1283</gx:coord>
<gx:coord >-0.350342 39.41699 1321</gx:coord>
<gx:coord >-0.346863 39.415128 1343</gx:coord>
<gx:coord >-0.344039 39.413635 1382</gx:coord>
<gx:coord >-0.341233 39.412125 1412</gx:coord>
<gx:coord >-0.337708 39.410287 1435</gx:coord>
<gx:coord >-0.334964 39.408875 1473</gx:coord>
<gx:coord >-0.332214 39.4074 1496</gx:coord>
<gx:coord >-0.330261 39.406376 1519</gx:coord>
<gx:coord >-0.325769 39.404022 1542</gx:coord>
<gx:coord >-0.323364 39.402745 1549</gx:coord>
<gx:coord >-0.318481 39.400185 1580</gx:coord>
<gx:coord >-0.314782 39.398209 1603</gx:coord>
<gx:coord >-0.310423 39.396057 1633</gx:coord>
<gx:coord >-0.305945 39.393997 1664</gx:coord>
<gx:coord >-0.301086 39.392131 1709</gx:coord>
<gx:coord >-0.296034 39.390564 1740</gx:coord>
<gx:coord >-0.290541 39.389282 1770</gx:coord>
<gx:coord >-0.286621 39.388593 1801</gx:coord>
<gx:coord >-0.28242 39.388092 1839</gx:coord>
<gx:coord >-0.277823 39.387634 1854</gx:coord>
<gx:coord >-0.2743 39.387451 1900</gx:coord>
<gx:coord >-0.270538 39.387314 1930</gx:coord>
<gx:coord >-0.266602 39.38729 1961</gx:coord>
<gx:coord >-0.263245 39.38729 1991</gx:coord>
<gx:coord >-0.259671 39.387314 2022</gx:coord>
<gx:coord >-0.25597 39.387405 2060</gx:coord>
<gx:coord >-0.252319 39.387476 2091</gx:coord>
<gx:coord >-0.248474 39.387616 2122</gx:coord>
<gx:coord >-0.243774 39.387802 2160</gx:coord>
<gx:coord >-0.240804 39.387909 2198</gx:coord>
<gx:coord >-0.236511 39.388081 2221</gx:coord>
<gx:coord >-0.228088 39.38836 2282</gx:coord>
<gx:coord >-0.220025 39.388596 2343</gx:coord>
<gx:coord >-0.211975 39.388733 2411</gx:coord>
<gx:coord >-0.203491 39.388826 2472</gx:coord>
<gx:coord >-0.195312 39.388779 2541</gx:coord>
<gx:coord >-0.186111 39.388596 2609</gx:coord>
<gx:coord >-0.177811 39.388321 2663</gx:coord>
<gx:coord >-0.169273 39.387909 2739</gx:coord>
<gx:coord >-0.159607 39.387383 2800</gx:coord>
<gx:coord >-0.151002 39.38681 2861</gx:coord>
<gx:coord >-0.142029 39.386126 2922</gx:coord>
<gx:coord >-0.133806 39.385483 2990</gx:coord>
<gx:coord >-0.124313 39.384659 3051</gx:coord>
<gx:coord >-0.115297 39.383835 3120</gx:coord>
<gx:coord >-0.10646 39.383011 3189</gx:coord>
<gx:coord >-0.097534 39.382122 3242</gx:coord>
<gx:coord >-0.093503 39.381729 3272</gx:coord>
<gx:coord >-0.088965 39.381317 3288</gx:coord>
<gx:coord >-0.07571 39.37999 3341</gx:coord>
<gx:coord >-0.059204 39.378398 3379</gx:coord>
<gx:coord >-0.043527 39.376877 3417</gx:coord>
<gx:coord >-0.025555 39.375092 3470</gx:coord>
<gx:coord >-0.008118 39.373417 3524</gx:coord>
<gx:coord >0.004211 39.372207 3577</gx:coord>
<gx:coord >0.015869 39.371136 3638</gx:coord>
<gx:coord >0.028123 39.369965 3707</gx:coord>
<gx:coord >0.039001 39.368948 3768</gx:coord>
<gx:coord >0.050991 39.367813 3829</gx:coord>
<gx:coord >0.074707 39.36555 3951</gx:coord>
<gx:coord >0.091115 39.364014 4050</gx:coord>
<gx:coord >0.109206 39.36232 4179</gx:coord>
<gx:coord >0.127179 39.360626 4286</gx:coord>
<gx:coord >0.147705 39.358707 4408</gx:coord>
<gx:coord >0.171721 39.356461 4530</gx:coord>
<gx:coord >0.197083 39.354098 4652</gx:coord>
<gx:coord >0.217957 39.352096 4781</gx:coord>
<gx:coord >0.231873 39.350793 4880</gx:coord>
<gx:coord >0.237281 39.350281 4895</gx:coord>
<gx:coord >0.248047 39.349257 4941</gx:coord>
<gx:coord >0.276306 39.346603 5049</gx:coord>
<gx:coord >0.304199 39.34395 5155</gx:coord>
<gx:coord >0.327332 39.341715 5277</gx:coord>
<gx:coord >0.350037 39.339574 5415</gx:coord>
<gx:coord >0.375 39.337153 5529</gx:coord>
<gx:coord >0.401419 39.334625 5651</gx:coord>
<gx:coord >0.415391 39.333298 5719</gx:coord>
<gx:coord >0.428885 39.332016 5750</gx:coord>
<gx:coord >0.452454 39.329937 5803</gx:coord>
<gx:coord >0.465247 39.329407 5834</gx:coord>
<gx:coord >0.47699 39.329379 5864</gx:coord>
<gx:coord >0.491758 39.32991 5902</gx:coord>
<gx:coord >0.509583 39.331101 5963</gx:coord>
<gx:coord >0.539226 39.333664 6062</gx:coord>
<gx:coord >0.571533 39.336548 6177</gx:coord>
<gx:coord >0.604188 39.33902 6268</gx:coord>
<gx:coord >0.637625 39.34108 6367</gx:coord>
<gx:coord >0.671265 39.342786 6466</gx:coord>
<gx:coord >0.704712 39.344276 6565</gx:coord>
<gx:coord >0.739129 39.345749 6664</gx:coord>
<gx:coord >0.757324 39.34651 6718</gx:coord>
<gx:coord >0.760986 39.34665 6733</gx:coord>
<gx:coord >0.763672 39.346743 6748</gx:coord>
<gx:coord >0.76886 39.346976 6779</gx:coord>
<gx:coord >0.788627 39.347763 6900</gx:coord>
<gx:coord >0.8023 39.348358 6977</gx:coord>
<gx:coord >0.810122 39.348679 7030</gx:coord>
<gx:coord >0.829346 39.349489 7099</gx:coord>
<gx:coord >0.860168 39.350746 7213</gx:coord>
<gx:coord >0.895744 39.352203 7312</gx:coord>
<gx:coord >0.926553 39.353531 7411</gx:coord>
<gx:coord >0.957703 39.354889 7518</gx:coord>
<gx:coord >0.990919 39.356323 7617</gx:coord>
<gx:coord >1.024356 39.357834 7708</gx:coord>
<gx:coord >1.059404 39.359299 7807</gx:coord>
<gx:coord >1.094543 39.360755 7899</gx:coord>
<gx:coord >1.126831 39.362058 8005</gx:coord>
<gx:coord >1.155884 39.363129 8112</gx:coord>
<gx:coord >1.17926 39.364014 8196</gx:coord>
<gx:coord >1.214168 39.365387 8287</gx:coord>
<gx:coord >1.251648 39.366807 8379</gx:coord>
<gx:coord >1.289401 39.368225 8470</gx:coord>
<gx:coord >1.327698 39.369646 8569</gx:coord>
<gx:coord >1.365171 39.371109 8668</gx:coord>
<gx:coord >1.405579 39.372626 8752</gx:coord>
<gx:coord >1.451987 39.374405 8828</gx:coord>
<gx:coord >1.491333 39.375838 8912</gx:coord>
<gx:coord >1.53307 39.377243 9004</gx:coord>
<gx:coord >1.575012 39.378678 9087</gx:coord>
<gx:coord >1.61511 39.380127 9179</gx:coord>
<gx:coord >1.652606 39.381546 9278</gx:coord>
<gx:coord >1.688133 39.382919 9377</gx:coord>
<gx:coord >1.73175 39.384543 9468</gx:coord>
<gx:coord >1.777466 39.386173 9552</gx:coord>
<gx:coord >1.820984 39.387662 9636</gx:coord>
<gx:coord >1.861755 39.389012 9727</gx:coord>
<gx:coord >1.907166 39.390502 9804</gx:coord>
<gx:coord >1.953857 39.391945 9887</gx:coord>
<gx:coord >1.998779 39.393388 9964</gx:coord>
<gx:coord >2.040651 39.394775 10048</gx:coord>
<gx:coord >2.089612 39.396423 10124</gx:coord>
<gx:coord >2.137634 39.397997 10200</gx:coord>
<gx:coord >2.183055 39.399399 10284</gx:coord>
<gx:coord >2.22915 39.400772 10360</gx:coord>
<gx:coord >2.278827 39.402237 10444</gx:coord>
<gx:coord >2.3254 39.403564 10520</gx:coord>
<gx:coord >2.371017 39.404892 10604</gx:coord>
<gx:coord >2.417171 39.406219 10688</gx:coord>
<gx:coord >2.459106 39.4074 10771</gx:coord>
<gx:coord >2.502196 39.408646 10855</gx:coord>
<gx:coord >2.546875 39.409914 10947</gx:coord>
<gx:coord >2.592475 39.411163 11023</gx:coord>
<gx:coord >2.63678 39.412381 11107</gx:coord>
<gx:coord >2.682216 39.413589 11191</gx:coord>
<gx:coord >2.706909 39.414244 11229</gx:coord>
<gx:coord >2.761902 39.415687 11244</gx:coord>
<gx:coord >2.817322 39.41713 11244</gx:coord>
<gx:coord >2.873535 39.418526 11244</gx:coord>
<gx:coord >2.928513 39.419907 11244</gx:coord>
<gx:coord >2.984009 39.421506 11244</gx:coord>
<gx:coord >3.039869 39.423065 11251</gx:coord>
<gx:coord >3.080688 39.424345 11282</gx:coord>
<gx:coord >3.106802 39.425949 11312</gx:coord>
<gx:coord >3.133179 39.428349 11335</gx:coord>
<gx:coord >3.159107 39.431442 11358</gx:coord>
<gx:coord >3.184542 39.43515 11381</gx:coord>
<gx:coord >3.211829 39.439819 11404</gx:coord>
<gx:coord >3.237802 39.444992 11427</gx:coord>
<gx:coord >3.255536 39.449158 11442</gx:coord>
<gx:coord >3.269714 39.453254 11465</gx:coord>
<gx:coord >3.283936 39.458096 11465</gx:coord>
<gx:coord >3.297974 39.463729 11480</gx:coord>
<gx:coord >3.310852 39.469641 11503</gx:coord>
<gx:coord >3.356204 39.490906 11549</gx:coord>
<gx:coord >3.399475 39.510048 11557</gx:coord>
<gx:coord >3.446777 39.530717 11557</gx:coord>
<gx:coord >3.493593 39.551285 11557</gx:coord>
<gx:coord >3.540283 39.572009 11550</gx:coord>
<gx:coord >3.587036 39.59285 11550</gx:coord>
<gx:coord >3.633788 39.613541 11550</gx:coord>
<gx:coord >3.681335 39.634622 11550</gx:coord>
<gx:coord >3.727905 39.655291 11550</gx:coord>
<gx:coord >3.774963 39.676193 11550</gx:coord>
<gx:coord >3.821655 39.696629 11557</gx:coord>
<gx:coord >3.869098 39.717316 11557</gx:coord>
<gx:coord >3.917163 39.738373 11557</gx:coord>
<gx:coord >3.96499 39.759613 11550</gx:coord>
<gx:coord >4.011475 39.780284 11550</gx:coord>
<gx:coord >4.058228 39.800906 11550</gx:coord>
<gx:coord >4.106618 39.822189 11542</gx:coord>
<gx:coord >4.154236 39.84299 11542</gx:coord>
<gx:coord >4.201233 39.863473 11542</gx:coord>
<gx:coord >4.248246 39.883987 11534</gx:coord>
<gx:coord >4.295893 39.90477 11527</gx:coord>
<gx:coord >4.343811 39.925598 11528</gx:coord>
<gx:coord >4.391473 39.946243 11528</gx:coord>
<gx:coord >4.410948 39.955087 11528</gx:coord>
<gx:coord >4.426331 39.962952 11528</gx:coord>
<gx:coord >4.440063 39.970871 11528</gx:coord>
<gx:coord >4.453957 39.979714 11535</gx:coord>
<gx:coord >4.494812 40.006897 11535</gx:coord>
<gx:coord >4.536621 40.033859 11535</gx:coord>
<gx:coord >4.578927 40.060714 11536</gx:coord>
<gx:coord >4.620937 40.087389 11536</gx:coord>
<gx:coord >4.66272 40.113922 11536</gx:coord>
<gx:coord >4.70502 40.140738 11529</gx:coord>
<gx:coord >4.746406 40.166993 11529</gx:coord>
<gx:coord >4.788229 40.193528 11529</gx:coord>
<gx:coord >4.829989 40.220016 11529</gx:coord>
<gx:coord >4.87175 40.246411 11521</gx:coord>
<gx:coord >4.913386 40.27262 11522</gx:coord>
<gx:coord >4.954834 40.298736 11522</gx:coord>
<gx:coord >4.996826 40.32518 11522</gx:coord>
<gx:coord >5.039856 40.352188 11522</gx:coord>
<gx:coord >5.081604 40.378372 11522</gx:coord>
<gx:coord >5.123962 40.404968 11522</gx:coord>
<gx:coord >5.165527 40.430969 11522</gx:coord>
<gx:coord >5.206958 40.456921 11522</gx:coord>
<gx:coord >5.24928 40.483316 11515</gx:coord>
<gx:coord >5.292114 40.510071 11507</gx:coord>
<gx:coord >5.334986 40.536758 11507</gx:coord>
<gx:coord >5.377075 40.562851 11515</gx:coord>
<gx:coord >5.419755 40.589408 11515</gx:coord>
<gx:coord >5.462769 40.616089 11507</gx:coord>
<gx:coord >5.505836 40.642757 11507</gx:coord>
<gx:coord >5.548584 40.669006 11507</gx:coord>
<gx:coord >5.591417 40.695454 11507</gx:coord>
<gx:coord >5.633911 40.721695 11507</gx:coord>
<gx:coord >5.67731 40.748524 11507</gx:coord>
<gx:coord >5.720032 40.774704 11507</gx:coord>
<gx:coord >5.763141 40.801174 11507</gx:coord>
<gx:coord >5.806519 40.82785 11507</gx:coord>
<gx:coord >5.849221 40.854104 11499</gx:coord>
<gx:coord >5.893104 40.880779 11499</gx:coord>
<gx:coord >5.93689 40.907272 11499</gx:coord>
<gx:coord >5.979559 40.933336 11499</gx:coord>
<gx:coord >6.022256 40.959452 11499</gx:coord>
<gx:coord >6.065577 40.985847 11492</gx:coord>
<gx:coord >6.108898 41.012149 11499</gx:coord>
<gx:coord >6.15172 41.038218 11484</gx:coord>
<gx:coord >6.195251 41.064789 11484</gx:coord>
<gx:coord >6.238736 41.091148 11484</gx:coord>
<gx:coord >6.28187 41.117171 11484</gx:coord>
<gx:coord >6.325928 41.143661 11484</gx:coord>
<gx:coord >6.370056 41.170029 11484</gx:coord>
<gx:coord >6.414143 41.196449 11484</gx:coord>
<gx:coord >6.457703 41.22258 11484</gx:coord>
<gx:coord >6.502283 41.249286 11484</gx:coord>
<gx:coord >6.546041 41.275588 11484</gx:coord>
<gx:coord >6.590271 41.302048 11484</gx:coord>
<gx:coord >6.634931 41.328658 11484</gx:coord>
<gx:coord >6.679438 41.355146 11492</gx:coord>
<gx:coord >6.724487 41.381927 11492</gx:coord>
<gx:coord >6.769111 41.408402 11499</gx:coord>
<gx:coord >6.814015 41.435076 11499</gx:coord>
<gx:coord >6.860088 41.462402 11499</gx:coord>
<gx:coord >6.906249 41.489589 11492</gx:coord>
<gx:coord >6.951349 41.51619 11484</gx:coord>
<gx:coord >6.99748 41.543381 11484</gx:coord>
<gx:coord >7.042236 41.569705 11484</gx:coord>
<gx:coord >7.087906 41.596519 11484</gx:coord>
<gx:coord >7.134279 41.623752 11476</gx:coord>
<gx:coord >7.180002 41.650543 11476</gx:coord>
<gx:coord >7.225874 41.677381 11469</gx:coord>
<gx:coord >7.271014 41.70369 11469</gx:coord>
<gx:coord >7.315958 41.729828 11469</gx:coord>
<gx:coord >7.362151 41.756836 11468</gx:coord>
<gx:coord >7.407282 41.783157 11468</gx:coord>
<gx:coord >7.451733 41.808984 11460</gx:coord>
<gx:coord >7.49767 41.835617 11460</gx:coord>
<gx:coord >7.542498 41.861541 11460</gx:coord>
<gx:coord >7.588806 41.888397 11460</gx:coord>
<gx:coord >7.633837 41.914378 11460</gx:coord>
<gx:coord >7.678549 41.940168 11453</gx:coord>
<gx:coord >7.724949 41.966904 11460</gx:coord>
<gx:coord >7.77083 41.993271 11453</gx:coord>
<gx:coord >7.816709 42.01954 11460</gx:coord>
<gx:coord >7.862278 42.045731 11460</gx:coord>
<gx:coord >7.908687 42.07233 11460</gx:coord>
<gx:coord >7.955443 42.099051 11445</gx:coord>
<gx:coord >8.001241 42.12526 11445</gx:coord>
<gx:coord >8.048635 42.152213 11445</gx:coord>
<gx:coord >8.094177 42.177957 11460</gx:coord>
<gx:coord >8.14023 42.204026 11475</gx:coord>
<gx:coord >8.186986 42.230514 11467</gx:coord>
<gx:coord >8.211833 42.245178 11467</gx:coord>
<gx:coord >8.230868 42.257328 11467</gx:coord>
<gx:coord >8.249921 42.270355 11459</gx:coord>
<gx:coord >8.269397 42.284637 11459</gx:coord>
<gx:coord >8.291165 42.301786 11459</gx:coord>
<gx:coord >8.306663 42.314758 11459</gx:coord>
<gx:coord >8.32521 42.3313 11459</gx:coord>
<gx:coord >8.343414 42.34871 11459</gx:coord>
<gx:coord >8.359127 42.364864 11452</gx:coord>
<gx:coord >8.375889 42.383286 11452</gx:coord>
<gx:coord >8.391495 42.401871 11452</gx:coord>
<gx:coord >8.406226 42.420685 11452</gx:coord>
<gx:coord >8.419551 42.439115 11452</gx:coord>
<gx:coord >8.43182 42.457626 11451</gx:coord>
<gx:coord >8.443632 42.476962 11451</gx:coord>
<gx:coord >8.45168 42.491765 11451</gx:coord>
<gx:coord >8.458287 42.5056 11451</gx:coord>
<gx:coord >8.464342 42.52034 11458</gx:coord>
<gx:coord >8.472247 42.542321 11459</gx:coord>
<gx:coord >8.4863 42.581937 11444</gx:coord>
<gx:coord >8.500608 42.622158 11444</gx:coord>
<gx:coord >8.514788 42.661914 11444</gx:coord>
<gx:coord >8.52884 42.701669 11436</gx:coord>
<gx:coord >8.543148 42.741844 11436</gx:coord>
<gx:coord >8.557775 42.782298 11429</gx:coord>
<gx:coord >8.57253 42.822098 11436</gx:coord>
<gx:coord >8.587254 42.861995 11436</gx:coord>
<gx:coord >8.601903 42.901751 11436</gx:coord>
<gx:coord >8.616858 42.941803 11430</gx:coord>
<gx:coord >8.631853 42.982286 11430</gx:coord>
<gx:coord >8.646751 43.022141 11422</gx:coord>
<gx:coord >8.662 43.062682 11422</gx:coord>
<gx:coord >8.677155 43.102249 11414</gx:coord>
<gx:coord >8.691559 43.138423 11414</gx:coord>
<gx:coord >8.697659 43.151367 11407</gx:coord>
<gx:coord >8.709284 43.173248 11414</gx:coord>
<gx:coord >8.730426 43.211929 11414</gx:coord>
<gx:coord >8.75176 43.251434 11407</gx:coord>
<gx:coord >8.772518 43.290276 11414</gx:coord>
<gx:coord >8.793406 43.329346 11399</gx:coord>
<gx:coord >8.801326 43.34285 11399</gx:coord>
<gx:coord >8.807765 43.352144 11399</gx:coord>
<gx:coord >8.81557 43.361801 11399</gx:coord>
<gx:coord >8.823722 43.370485 11399</gx:coord>
<gx:coord >8.834054 43.380168 11399</gx:coord>
<gx:coord >8.871918 43.414012 11407</gx:coord>
<gx:coord >8.900076 43.440308 11392</gx:coord>
<gx:coord >8.935462 43.474411 11392</gx:coord>
<gx:coord >8.970976 43.508743 11392</gx:coord>
<gx:coord >9.006566 43.542868 11399</gx:coord>
<gx:coord >9.042206 43.576665 11399</gx:coord>
<gx:coord >9.078892 43.611207 11392</gx:coord>
<gx:coord >9.115252 43.645516 11392</gx:coord>
<gx:coord >9.15142 43.679718 11392</gx:coord>
<gx:coord >9.187905 43.714134 11384</gx:coord>
<gx:coord >9.224811 43.748749 11392</gx:coord>
<gx:coord >9.261148 43.782985 11392</gx:coord>
<gx:coord >9.298074 43.817551 11392</gx:coord>
<gx:coord >9.334717 43.851882 11392</gx:coord>
<gx:coord >9.371338 43.886098 11392</gx:coord>
<gx:coord >9.408129 43.92041 11392</gx:coord>
<gx:coord >9.445304 43.955017 11384</gx:coord>
<gx:coord >9.482901 43.98991 11384</gx:coord>
<gx:coord >9.519462 44.023819 11384</gx:coord>
<gx:coord >9.556471 44.058155 11376</gx:coord>
<gx:coord >9.593157 44.092138 11369</gx:coord>
<gx:coord >9.629713 44.126028 11369</gx:coord>
<gx:coord >9.66738 44.160803 11361</gx:coord>
<gx:coord >9.704076 44.194553 11361</gx:coord>
<gx:coord >9.741524 44.228862 11362</gx:coord>
<gx:coord >9.778878 44.263138 11355</gx:coord>
<gx:coord >9.816016 44.297154 11355</gx:coord>
<gx:coord >9.853428 44.331299 11355</gx:coord>
<gx:coord >9.890911 44.365586 11356</gx:coord>
<gx:coord >9.928224 44.399569 11348</gx:coord>
<gx:coord >9.966169 44.434158 11349</gx:coord>
<gx:coord >10.00436 44.468903 11349</gx:coord>
<gx:coord >10.041906 44.503008 11358</gx:coord>
<gx:coord >10.079629 44.537247 11358</gx:coord>
<gx:coord >10.117623 44.571762 11358</gx:coord>
<gx:coord >10.156391 44.606773 11366</gx:coord>
<gx:coord >10.194241 44.640989 11366</gx:coord>
<gx:coord >10.231672 44.67485 11367</gx:coord>
<gx:coord >10.269939 44.709374 11352</gx:coord>
<gx:coord >10.30752 44.743264 11345</gx:coord>
<gx:coord >10.345982 44.777802 11345</gx:coord>
<gx:coord >10.384626 44.812441 11338</gx:coord>
<gx:coord >10.423413 44.847076 11330</gx:coord>
<gx:coord >10.462066 44.881525 11330</gx:coord>
<gx:coord >10.500518 44.91588 11330</gx:coord>
<gx:coord >10.538766 44.949921 11330</gx:coord>
<gx:coord >10.577489 44.984358 11330</gx:coord>
<gx:coord >10.616847 45.019318 11321</gx:coord>
<gx:coord >10.655496 45.053558 11321</gx:coord>
<gx:coord >10.694994 45.088531 11329</gx:coord>
<gx:coord >10.734297 45.123322 11328</gx:coord>
<gx:coord >10.774037 45.158371 11328</gx:coord>
<gx:coord >10.813686 45.193405 11327</gx:coord>
<gx:coord >10.853018 45.227966 11327</gx:coord>
<gx:coord >10.892814 45.262756 11326</gx:coord>
<gx:coord >10.932901 45.297821 11325</gx:coord>
<gx:coord >10.973399 45.333267 11325</gx:coord>
<gx:coord >11.013467 45.368271 11324</gx:coord>
<gx:coord >11.053117 45.40291 11332</gx:coord>
<gx:coord >11.080114 45.425953 11316</gx:coord>
<gx:coord >11.101149 45.442665 11315</gx:coord>
<gx:coord >11.125265 45.460448 11323</gx:coord>
<gx:coord >11.170872 45.49324 11323</gx:coord>
<gx:coord >11.216103 45.525761 11323</gx:coord>
<gx:coord >11.261192 45.558161 11314</gx:coord>
<gx:coord >11.306236 45.590562 11314</gx:coord>
<gx:coord >11.352159 45.623428 11307</gx:coord>
<gx:coord >11.397491 45.655642 11299</gx:coord>
<gx:coord >11.443333 45.68811 11284</gx:coord>
<gx:coord >11.489159 45.720536 11276</gx:coord>
<gx:coord >11.533859 45.752098 11276</gx:coord>
<gx:coord >11.579121 45.784149 11283</gx:coord>
<gx:coord >11.62454 45.816422 11291</gx:coord>
<gx:coord >11.669222 45.84819 11283</gx:coord>
<gx:coord >11.713301 45.879639 11283</gx:coord>
<gx:coord >11.739784 45.89897 11283</gx:coord>
<gx:coord >11.755103 45.911362 11291</gx:coord>
<gx:coord >11.768367 45.923172 11283</gx:coord>
<gx:coord >11.782502 45.936996 11291</gx:coord>
<gx:coord >11.819011 45.973022 11291</gx:coord>
<gx:coord >11.855923 46.008453 11275</gx:coord>
<gx:coord >11.893504 46.044205 11268</gx:coord>
<gx:coord >11.931219 46.080185 11275</gx:coord>
<gx:coord >11.968131 46.115433 11275</gx:coord>
<gx:coord >12.005377 46.150818 11274</gx:coord>
<gx:coord >12.042623 46.186066 11267</gx:coord>
<gx:coord >12.081143 46.222412 11267</gx:coord>
<gx:coord >12.118992 46.258163 11274</gx:coord>
<gx:coord >12.156715 46.293873 11274</gx:coord>
<gx:coord >12.194618 46.329718 11267</gx:coord>
<gx:coord >12.232205 46.365189 11274</gx:coord>
<gx:coord >12.270322 46.401077 11274</gx:coord>
<gx:coord >12.3073 46.435913 11282</gx:coord>
<gx:coord >12.345131 46.471377 11281</gx:coord>
<gx:coord >12.382396 46.506317 11281</gx:coord>
<gx:coord >12.420387 46.54195 11273</gx:coord>
<gx:coord >12.458427 46.577609 11258</gx:coord>
<gx:coord >12.49633 46.612942 11258</gx:coord>
<gx:coord >12.533793 46.6474 11258</gx:coord>
<gx:coord >12.552148 46.663147 11258</gx:coord>
<gx:coord >12.571977 46.678986 11258</gx:coord>
<gx:coord >12.594016 46.695328 11258</gx:coord>
<gx:coord >12.614296 46.709398 11259</gx:coord>
<gx:coord >12.631531 46.720338 11259</gx:coord>
<gx:coord >12.647675 46.729752 11259</gx:coord>
<gx:coord >12.672661 46.743335 11259</gx:coord>
<gx:coord >12.722511 46.770335 11251</gx:coord>
<gx:coord >12.77243 46.797847 11244</gx:coord>
<gx:coord >12.822988 46.825378 11251</gx:coord>
<gx:coord >12.873505 46.852965 11259</gx:coord>
<gx:coord >12.923654 46.880291 11244</gx:coord>
<gx:coord >12.974572 46.907804 11236</gx:coord>
<gx:coord >13.026077 46.935379 11244</gx:coord>
<gx:coord >13.077095 46.962662 11244</gx:coord>
<gx:coord >13.128733 46.990248 11236</gx:coord>
<gx:coord >13.179611 47.017548 11245</gx:coord>
<gx:coord >13.231905 47.045692 11245</gx:coord>
<gx:coord >13.283844 47.073486 11252</gx:coord>
<gx:coord >13.336557 47.101415 11268</gx:coord>
<gx:coord >13.388883 47.12902 11268</gx:coord>
<gx:coord >13.441772 47.157044 11260</gx:coord>
<gx:coord >13.49334 47.184494 11252</gx:coord>
<gx:coord >13.544945 47.211836 11245</gx:coord>
<gx:coord >13.59668 47.239105 11245</gx:coord>
<gx:coord >13.648796 47.266663 11245</gx:coord>
<gx:coord >13.701118 47.294174 11245</gx:coord>
<gx:coord >13.75351 47.321594 11245</gx:coord>
<gx:coord >13.805695 47.348923 11245</gx:coord>
<gx:coord >13.85707 47.37598 11245</gx:coord>
<gx:coord >13.909114 47.403213 11245</gx:coord>
<gx:coord >13.960327 47.42981 11245</gx:coord>
<gx:coord >14.01285 47.457074 11252</gx:coord>
<gx:coord >14.064903 47.484055 11245</gx:coord>
<gx:coord >14.117502 47.51126 11246</gx:coord>
<gx:coord >14.168912 47.537842 11238</gx:coord>
<gx:coord >14.22084 47.564575 11238</gx:coord>
<gx:coord >14.273212 47.59147 11231</gx:coord>
<gx:coord >14.325186 47.617912 11231</gx:coord>
<gx:coord >14.376737 47.644353 11223</gx:coord>
<gx:coord >14.428688 47.671188 11223</gx:coord>
<gx:coord >14.48101 47.697922 11223</gx:coord>
<gx:coord >14.533264 47.724518 11224</gx:coord>
<gx:coord >14.55111 47.733594 11239</gx:coord>
<gx:coord >14.599251 47.758072 11308</gx:coord>
<gx:coord >14.651607 47.784708 11384</gx:coord>
<gx:coord >14.704788 47.811768 11445</gx:coord>
<gx:coord >14.757597 47.83843 11514</gx:coord>
<gx:coord >14.793373 47.856445 11552</gx:coord>
<gx:coord >14.847679 47.883682 11559</gx:coord>
<gx:coord >14.901264 47.910586 11559</gx:coord>
<gx:coord >14.954857 47.937446 11559</gx:coord>
<gx:coord >15.009367 47.964726 11558</gx:coord>
<gx:coord >15.065073 47.99275 11558</gx:coord>
<gx:coord >15.120075 48.020356 11558</gx:coord>
<gx:coord >15.175359 48.047868 11558</gx:coord>
<gx:coord >15.230965 48.075485 11566</gx:coord>
<gx:coord >15.286995 48.103134 11566</gx:coord>
<gx:coord >15.344168 48.13129 11566</gx:coord>
<gx:coord >15.401047 48.159576 11566</gx:coord>
<gx:coord >15.457834 48.187592 11566</gx:coord>
<gx:coord >15.513852 48.215317 11566</gx:coord>
<gx:coord >15.570879 48.243248 11574</gx:coord>
<gx:coord >15.627207 48.270813 11567</gx:coord>
<gx:coord >15.684646 48.298785 11567</gx:coord>
<gx:coord >15.741648 48.326523 11559</gx:coord>
<gx:coord >15.798774 48.354275 11559</gx:coord>
<gx:coord >15.856018 48.382095 11552</gx:coord>
<gx:coord >15.912612 48.409579 11552</gx:coord>
<gx:coord >15.969825 48.437302 11552</gx:coord>
<gx:coord >16.02739 48.465069 11553</gx:coord>
<gx:coord >16.085502 48.493047 11560</gx:coord>
<gx:coord >16.142169 48.520187 11560</gx:coord>
<gx:coord >16.199774 48.547653 11560</gx:coord>
<gx:coord >16.257525 48.575165 11560</gx:coord>
<gx:coord >16.31519 48.602829 11553</gx:coord>
<gx:coord >16.373098 48.630562 11568</gx:coord>
<gx:coord >16.430335 48.657623 11561</gx:coord>
<gx:coord >16.487239 48.684494 11569</gx:coord>
<gx:coord >16.545692 48.712189 11569</gx:coord>
<gx:coord >16.603159 48.739471 11569</gx:coord>
<gx:coord >16.661489 48.767007 11577</gx:coord>
<gx:coord >16.71936 48.794266 11577</gx:coord>
<gx:coord >16.778219 48.822078 11577</gx:coord>
<gx:coord >16.835562 48.849106 11569</gx:coord>
<gx:coord >16.894154 48.876405 11577</gx:coord>
<gx:coord >16.952699 48.903405 11570</gx:coord>
<gx:coord >17.010884 48.930405 11570</gx:coord>
<gx:coord >17.069285 48.957545 11570</gx:coord>
<gx:coord >17.127052 48.984329 11570</gx:coord>
<gx:coord >17.1848 49.011108 11578</gx:coord>
<gx:coord >17.242479 49.037796 11578</gx:coord>
<gx:coord >17.299058 49.063778 11578</gx:coord>
<gx:coord >17.356708 49.090164 11585</gx:coord>
<gx:coord >17.414631 49.116707 11578</gx:coord>
<gx:coord >17.472417 49.143127 11578</gx:coord>
<gx:coord >17.528405 49.168808 11570</gx:coord>
<gx:coord >17.585931 49.195055 11562</gx:coord>
<gx:coord >17.64332 49.221031 11562</gx:coord>
<gx:coord >17.701017 49.247086 11562</gx:coord>
<gx:coord >17.758343 49.273041 11562</gx:coord>
<gx:coord >17.81621 49.299239 11570</gx:coord>
<gx:coord >17.87384 49.32518 11570</gx:coord>
<gx:coord >17.931278 49.350865 11562</gx:coord>
<gx:coord >17.989408 49.376907 11562</gx:coord>
<gx:coord >18.047509 49.402863 11570</gx:coord>
<gx:coord >18.106211 49.429073 11578</gx:coord>
<gx:coord >18.164929 49.455235 11593</gx:coord>
<gx:coord >18.222271 49.480911 11593</gx:coord>
<gx:coord >18.279804 49.506546 11600</gx:coord>
<gx:coord >18.339073 49.532822 11600</gx:coord>
<gx:coord >18.397349 49.558535 11600</gx:coord>
<gx:coord >18.455844 49.584092 11593</gx:coord>
<gx:coord >18.513553 49.609314 11593</gx:coord>
<gx:coord >18.540839 49.621473 11593</gx:coord>
<gx:coord >18.555611 49.628968 11593</gx:coord>
<gx:coord >18.568305 49.636184 11593</gx:coord>
<gx:coord >18.579832 49.643738 11593</gx:coord>
<gx:coord >18.592505 49.653175 11593</gx:coord>
<gx:coord >18.607587 49.66571 11593</gx:coord>
<gx:coord >18.649942 49.701965 11593</gx:coord>
<gx:coord >18.692569 49.737388 11594</gx:coord>
<gx:coord >18.73644 49.772954 11594</gx:coord>
<gx:coord >18.780839 49.808441 11594</gx:coord>
<gx:coord >18.825651 49.844055 11586</gx:coord>
<gx:coord >18.869669 49.879028 11586</gx:coord>
<gx:coord >18.913929 49.914427 11586</gx:coord>
<gx:coord >18.958765 49.950365 11586</gx:coord>
<gx:coord >19.00323 49.985931 11579</gx:coord>
<gx:coord >19.048066 50.021776 11579</gx:coord>
<gx:coord >19.09357 50.057947 11586</gx:coord>
<gx:coord >19.138258 50.093513 11594</gx:coord>
<gx:coord >19.183317 50.129126 11595</gx:coord>
<gx:coord >19.228749 50.165131 11602</gx:coord>
<gx:coord >19.274325 50.201002 11602</gx:coord>
<gx:coord >19.320398 50.237137 11602</gx:coord>
<gx:coord >19.365482 50.272879 11602</gx:coord>
<gx:coord >19.410963 50.308594 11603</gx:coord>
<gx:coord >19.457233 50.344662 11588</gx:coord>
<gx:coord >19.485812 50.366914 11535</gx:coord>
<gx:coord >19.523002 50.395823 11466</gx:coord>
<gx:coord >19.559567 50.424408 11375</gx:coord>
<gx:coord >19.599031 50.455307 11299</gx:coord>
<gx:coord >19.615272 50.467979 11292</gx:coord>
<gx:coord >19.660396 50.503052 11284</gx:coord>
<gx:coord >19.705984 50.538227 11284</gx:coord>
<gx:coord >19.723948 50.552053 11277</gx:coord>
<gx:coord >19.730703 50.55722 11261</gx:coord>
<gx:coord >19.735157 50.560665 11254</gx:coord>
<gx:coord >19.739035 50.563614 11239</gx:coord>
<gx:coord >19.744436 50.567787 11216</gx:coord>
<gx:coord >19.757426 50.577703 11155</gx:coord>
<gx:coord >19.779005 50.594238 11025</gx:coord>
<gx:coord >19.804953 50.614197 10911</gx:coord>
<gx:coord >19.830768 50.634031 10790</gx:coord>
<gx:coord >19.854536 50.652191 10660</gx:coord>
<gx:coord >19.87553 50.66834 10569</gx:coord>
<gx:coord >19.906235 50.691849 10462</gx:coord>
<gx:coord >19.922333 50.704232 10401</gx:coord>
<gx:coord >19.948196 50.724063 10295</gx:coord>
<gx:coord >19.973755 50.743569 10180</gx:coord>
<gx:coord >19.998458 50.762329 10066</gx:coord>
<gx:coord >20.02121 50.779553 9937</gx:coord>
<gx:coord >20.044927 50.797531 9816</gx:coord>
<gx:coord >20.071945 50.818052 9701</gx:coord>
<gx:coord >20.098801 50.838535 9595</gx:coord>
<gx:coord >20.122945 50.856949 9473</gx:coord>
<gx:coord >20.146625 50.874893 9351</gx:coord>
<gx:coord >20.171492 50.893799 9229</gx:coord>
<gx:coord >20.195618 50.912041 9115</gx:coord>
<gx:coord >20.218658 50.929545 8985</gx:coord>
<gx:coord >20.233105 50.941406 8917</gx:coord>
<gx:coord >20.243943 50.951385 8833</gx:coord>
<gx:coord >20.25528 50.963062 8764</gx:coord>
<gx:coord >20.264893 50.974281 8688</gx:coord>
<gx:coord >20.283737 50.997371 8581</gx:coord>
<gx:coord >20.301844 51.019409 8467</gx:coord>
<gx:coord >20.31868 51.039455 8354</gx:coord>
<gx:coord >20.328196 51.050629 8300</gx:coord>
<gx:coord >20.347443 51.073065 8194</gx:coord>
<gx:coord >20.367984 51.097137 8095</gx:coord>
<gx:coord >20.386765 51.119202 7988</gx:coord>
<gx:coord >20.404506 51.139984 7881</gx:coord>
<gx:coord >20.418982 51.156876 7797</gx:coord>
<gx:coord >20.435016 51.17569 7668</gx:coord>
<gx:coord >20.449142 51.192146 7538</gx:coord>
<gx:coord >20.460774 51.205719 7447</gx:coord>
<gx:coord >20.471725 51.218494 7386</gx:coord>
<gx:coord >20.491506 51.241516 7287</gx:coord>
<gx:coord >20.508423 51.261183 7173</gx:coord>
<gx:coord >20.526692 51.282394 7074</gx:coord>
<gx:coord >20.54718 51.306244 6975</gx:coord>
<gx:coord >20.565219 51.327347 6869</gx:coord>
<gx:coord >20.584073 51.349319 6770</gx:coord>
<gx:coord >20.593798 51.360672 6709</gx:coord>
<gx:coord >20.609665 51.379053 6594</gx:coord>
<gx:coord >20.625 51.39679 6465</gx:coord>
<gx:coord >20.637665 51.411454 6351</gx:coord>
<gx:coord >20.647583 51.422952 6267</gx:coord>
<gx:coord >20.661087 51.438454 6168</gx:coord>
<gx:coord >20.678571 51.458679 6061</gx:coord>
<gx:coord >20.694656 51.477278 5954</gx:coord>
<gx:coord >20.71049 51.495575 5833</gx:coord>
<gx:coord >20.725403 51.512751 5711</gx:coord>
<gx:coord >20.740738 51.530255 5582</gx:coord>
<gx:coord >20.75325 51.544639 5491</gx:coord>
<gx:coord >20.767055 51.56044 5430</gx:coord>
<gx:coord >20.787172 51.583511 5338</gx:coord>
<gx:coord >20.80513 51.604087 5239</gx:coord>
<gx:coord >20.821987 51.623383 5117</gx:coord>
<gx:coord >20.835724 51.639559 5033</gx:coord>
<gx:coord >20.840073 51.645704 4988</gx:coord>
<gx:coord >20.842994 51.65094 4942</gx:coord>
<gx:coord >20.845593 51.657211 4904</gx:coord>
<gx:coord >20.847015 51.662603 4873</gx:coord>
<gx:coord >20.847597 51.667648 4843</gx:coord>
<gx:coord >20.847626 51.673124 4805</gx:coord>
<gx:coord >20.846786 51.679455 4774</gx:coord>
<gx:coord >20.845566 51.684529 4751</gx:coord>
<gx:coord >20.839654 51.706696 4661</gx:coord>
<gx:coord >20.836334 51.720002 4577</gx:coord>
<gx:coord >20.832602 51.737366 4455</gx:coord>
<gx:coord >20.828965 51.756317 4341</gx:coord>
<gx:coord >20.824956 51.777328 4234</gx:coord>
<gx:coord >20.821075 51.797977 4128</gx:coord>
<gx:coord >20.817756 51.815781 4013</gx:coord>
<gx:coord >20.814192 51.833908 3891</gx:coord>
<gx:coord >20.812634 51.841736 3853</gx:coord>
<gx:coord >20.811539 51.847229 3838</gx:coord>
<gx:coord >20.807066 51.869202 3777</gx:coord>
<gx:coord >20.805507 51.876892 3739</gx:coord>
<gx:coord >20.803874 51.88504 3701</gx:coord>
<gx:coord >20.802141 51.893735 3632</gx:coord>
<gx:coord >20.800415 51.901928 3564</gx:coord>
<gx:coord >20.799159 51.908445 3503</gx:coord>
<gx:coord >20.79759 51.916126 3449</gx:coord>
<gx:coord >20.796127 51.923859 3381</gx:coord>
<gx:coord >20.794296 51.932968 3313</gx:coord>
<gx:coord >20.79277 51.940842 3260</gx:coord>
<gx:coord >20.792007 51.945099 3222</gx:coord>
<gx:coord >20.791469 51.953135 3176</gx:coord>
<gx:coord >20.791855 51.95755 3153</gx:coord>
<gx:coord >20.792725 51.961608 3130</gx:coord>
<gx:coord >20.79453 51.966589 3100</gx:coord>
<gx:coord >20.797119 51.971512 3069</gx:coord>
<gx:coord >20.799713 51.975311 3046</gx:coord>
<gx:coord >20.803604 51.979752 3024</gx:coord>
<gx:coord >20.808182 51.984009 3001</gx:coord>
<gx:coord >20.813756 51.988189 2970</gx:coord>
<gx:coord >20.818386 51.991122 2947</gx:coord>
<gx:coord >20.824738 51.994537 2925</gx:coord>
<gx:coord >20.830765 51.997192 2909</gx:coord>
<gx:coord >20.837847 51.999827 2879</gx:coord>
<gx:coord >20.844282 52.001782 2864</gx:coord>
<gx:coord >20.850246 52.003272 2841</gx:coord>
<gx:coord >20.857468 52.004654 2818</gx:coord>
<gx:coord >20.864944 52.005707 2780</gx:coord>
<gx:coord >20.872062 52.006345 2749</gx:coord>
<gx:coord >20.878754 52.006622 2711</gx:coord>
<gx:coord >20.886187 52.006624 2681</gx:coord>
<gx:coord >20.893707 52.00621 2627</gx:coord>
<gx:coord >20.901337 52.005386 2582</gx:coord>
<gx:coord >20.908395 52.00425 2544</gx:coord>
<gx:coord >20.91585 52.002667 2490</gx:coord>
<gx:coord >20.92308 52.000671 2445</gx:coord>
<gx:coord >20.929661 51.998431 2384</gx:coord>
<gx:coord >20.934527 51.996475 2345</gx:coord>
<gx:coord >20.94017 51.993896 2300</gx:coord>
<gx:coord >20.946141 51.99061 2254</gx:coord>
<gx:coord >20.951233 51.987213 2224</gx:coord>
<gx:coord >20.955887 51.983643 2178</gx:coord>
<gx:coord >20.962542 51.977808 2132</gx:coord>
<gx:coord >20.96611 51.974625 2094</gx:coord>
<gx:coord >20.969925 51.971237 2064</gx:coord>
<gx:coord >20.97345 51.968172 2033</gx:coord>
<gx:coord >20.976028 51.965881 2003</gx:coord>
<gx:coord >20.979571 51.962772 1972</gx:coord>
<gx:coord >20.98271 51.960025 1934</gx:coord>
<gx:coord >20.985535 51.957511 1911</gx:coord>
<gx:coord >20.988674 51.954625 1881</gx:coord>
<gx:coord >20.991821 51.951691 1843</gx:coord>
<gx:coord >20.995187 51.94848 1812</gx:coord>
<gx:coord >20.998917 51.944916 1782</gx:coord>
<gx:coord >21.003113 51.940892 1751</gx:coord>
<gx:coord >21.007156 51.936951 1713</gx:coord>
<gx:coord >21.010513 51.933929 1683</gx:coord>
<gx:coord >21.014404 51.930817 1660</gx:coord>
<gx:coord >21.018572 51.928137 1637</gx:coord>
<gx:coord >21.021868 51.926368 1622</gx:coord>
<gx:coord >21.02623 51.924454 1599</gx:coord>
<gx:coord >21.030884 51.922806 1568</gx:coord>
<gx:coord >21.035758 51.92148 1538</gx:coord>
<gx:coord >21.041031 51.920425 1515</gx:coord>
<gx:coord >21.046219 51.919739 1492</gx:coord>
<gx:coord >21.051767 51.919385 1469</gx:coord>
<gx:coord >21.057358 51.919327 1454</gx:coord>
<gx:coord >21.063156 51.919739 1431</gx:coord>
<gx:coord >21.068717 51.920456 1408</gx:coord>
<gx:coord >21.074295 51.921524 1393</gx:coord>
<gx:coord >21.079941 51.922943 1370</gx:coord>
<gx:coord >21.086578 51.925003 1355</gx:coord>
<gx:coord >21.091317 51.926833 1340</gx:coord>
<gx:coord >21.095886 51.929031 1324</gx:coord>
<gx:coord >21.099479 51.93107 1309</gx:coord>
<gx:coord >21.103592 51.933929 1294</gx:coord>
<gx:coord >21.107254 51.936996 1279</gx:coord>
<gx:coord >21.110306 51.940247 1256</gx:coord>
<gx:coord >21.112662 51.943592 1248</gx:coord>
<gx:coord >21.114153 51.946292 1233</gx:coord>
<gx:coord >21.115799 51.950409 1218</gx:coord>
<gx:coord >21.117172 51.95517 1202</gx:coord>
<gx:coord >21.118548 51.961375 1164</gx:coord>
<gx:coord >21.119919 51.968719 1134</gx:coord>
<gx:coord >21.121137 51.975667 1103</gx:coord>
<gx:coord >21.121373 51.979903 1088</gx:coord>
<gx:coord >21.121137 51.982417 1073</gx:coord>
<gx:coord >21.120071 51.986343 1058</gx:coord>
<gx:coord >21.118851 51.988953 1042</gx:coord>
<gx:coord >21.116867 51.99234 1027</gx:coord>
<gx:coord >21.113281 51.99733 1004</gx:coord>
<gx:coord >21.108551 52.003098 974</gx:coord>
<gx:coord >21.103873 52.008719 959</gx:coord>
<gx:coord >21.100311 52.012894 951</gx:coord>
<gx:coord >21.096802 52.017014 951</gx:coord>
<gx:coord >21.095555 52.018448 951</gx:coord>
<gx:coord >21.094221 52.020031 951</gx:coord>
<gx:coord >21.091945 52.022684 951</gx:coord>
<gx:coord >21.088943 52.026169 951</gx:coord>
<gx:coord >21.086373 52.029155 951</gx:coord>
<gx:coord >21.082999 52.032972 943</gx:coord>
<gx:coord >21.078033 52.038666 913</gx:coord>
<gx:coord >21.073975 52.043307 882</gx:coord>
<gx:coord >21.069946 52.047867 852</gx:coord>
<gx:coord >21.066206 52.052152 821</gx:coord>
<gx:coord >21.062546 52.056381 791</gx:coord>
<gx:coord >21.05828 52.061276 760</gx:coord>
<gx:coord >21.054306 52.065903 730</gx:coord>
<gx:coord >21.05072 52.069931 692</gx:coord>
<gx:coord >21.046448 52.074875 669</gx:coord>
<gx:coord >21.042099 52.079865 631</gx:coord>
<gx:coord >21.038895 52.083618 616</gx:coord>
<gx:coord >21.03569 52.08728 578</gx:coord>
<gx:coord >21.032715 52.090668 562</gx:coord>
<gx:coord >21.029402 52.094468 532</gx:coord>
<gx:coord >21.025949 52.098378 501</gx:coord>
<gx:coord >21.022339 52.102524 479</gx:coord>
<gx:coord >21.0192 52.106246 448</gx:coord>
<gx:coord >21.015119 52.110901 418</gx:coord>
<gx:coord >21.010646 52.115929 395</gx:coord>
<gx:coord >21.007193 52.119885 364</gx:coord>
<gx:coord >21.002884 52.124863 334</gx:coord>
<gx:coord >20.998993 52.129303 303</gx:coord>
<gx:coord >20.995178 52.133652 265</gx:coord>
<gx:coord >20.991058 52.138367 235</gx:coord>
<gx:coord >20.986947 52.143068 204</gx:coord>
<gx:coord >20.982788 52.14791 174</gx:coord>
<gx:coord >20.978864 52.152332 143</gx:coord>
<gx:coord >20.974579 52.157227 120</gx:coord>
<gx:coord >20.971802 52.160479 113</gx:coord>
<gx:coord >20.969291 52.163272 105</gx:coord>
<gx:coord >20.969086 52.163544 105</gx:coord>
<gx:coord >20.968246 52.164551 113</gx:coord>
<gx:coord >20.967329 52.1656 113</gx:coord>
<gx:coord >20.967102 52.165878 113</gx:coord>
<gx:coord >20.967102 52.165878 113</gx:coord>
</gx:Track>
</Placemark>
<Placemark ><name >9H-WBU</name>
<Style ><LineStyle ><color >ff1c1ae3</color>
<width >4</width>
</LineStyle>
<IconStyle ><Icon ><href >http://maps.google.com/mapfiles/kml/shapes/airports.png</href>
</Icon>
</IconStyle>
</Style>
<gx:Track ><extrude >0</extrude>
<when >2025-07-07T11:42:31.190Z</when>
<when >2025-07-07T11:42:32.000Z</when>
<when >2025-07-07T11:42:34.300Z</when>
<when >2025-07-07T11:42:34.620Z</when>
<when >2025-07-07T11:42:36.100Z</when>
<when >2025-07-07T11:42:38.550Z</when>
<when >2025-07-07T11:42:40.770Z</when>
<when >2025-07-07T11:42:41.440Z</when>
<when >2025-07-07T11:42:42.310Z</when>
<when >2025-07-07T11:42:44.590Z</when>
<when >2025-07-07T11:42:45.790Z</when>
<when >2025-07-07T11:42:46.810Z</when>
<when >2025-07-07T11:42:47.630Z</when>
<when >2025-07-07T11:42:50.890Z</when>
<when >2025-07-07T11:42:53.390Z</when>
<when >2025-07-07T11:42:56.300Z</when>
<when >2025-07-07T11:43:00.080Z</when>
<when >2025-07-07T11:43:04.750Z</when>
<when >2025-07-07T11:43:11.860Z</when>
<when >2025-07-07T11:43:15.640Z</when>
<when >2025-07-07T11:43:18.930Z</when>
<when >2025-07-07T11:43:20.480Z</when>
<when >2025-07-07T11:43:22.460Z</when>
<when >2025-07-07T11:43:24.490Z</when>
<when >2025-07-07T11:43:26.340Z</when>
<when >2025-07-07T11:43:27.590Z</when>
<when >2025-07-07T11:43:29.690Z</when>
<when >2025-07-07T11:43:32.590Z</when>
<when >2025-07-07T11:43:37.250Z</when>
<when >2025-07-07T11:43:44.270Z</when>
<when >2025-07-07T11:43:50.650Z</when>
<when >2025-07-07T11:43:52.630Z</when>
<when >2025-07-07T11:43:54.100Z</when>
<when >2025-07-07T11:43:55.930Z</when>
<when >2025-07-07T11:43:57.420Z</when>
<when >2025-07-07T11:43:59.110Z</when>
<when >2025-07-07T11:44:03.180Z</when>
<when >2025-07-07T11:44:04.230Z</when>
<when >2025-07-07T11:44:07.140Z</when>
<when >2025-07-07T11:44:10.200Z</when>
<when >2025-07-07T11:44:17.240Z</when>
<when >2025-07-07T11:44:23.900Z</when>
<when >2025-07-07T11:44:30.570Z</when>
<when >2025-07-07T11:44:36.490Z</when>
<when >2025-07-07T11:44:42.130Z</when>
<when >2025-07-07T11:44:47.800Z</when>
<when >2025-07-07T11:44:51.100Z</when>
<when >2025-07-07T11:44:57.760Z</when>
<when >2025-07-07T11:45:03.600Z</when>
<when >2025-07-07T11:45:11.000Z</when>
<when >2025-07-07T11:45:12.890Z</when>
<when >2025-07-07T11:45:14.450Z</when>
<when >2025-07-07T11:45:15.720Z</when>
<when >2025-07-07T11:45:16.770Z</when>
<when >2025-07-07T11:45:17.600Z</when>
<when >2025-07-07T11:45:18.960Z</when>
<when >2025-07-07T11:45:20.540Z</when>
<when >2025-07-07T11:45:23.570Z</when>
<when >2025-07-07T11:45:25.620Z</when>
<when >2025-07-07T11:45:26.760Z</when>
<when >2025-07-07T11:45:29.080Z</when>
<when >2025-07-07T11:45:31.520Z</when>
<when >2025-07-07T11:45:34.180Z</when>
<when >2025-07-07T11:45:39.120Z</when>
<when >2025-07-07T11:45:45.780Z</when>
<when >2025-07-07T11:45:52.720Z</when>
<when >2025-07-07T11:46:07.820Z</when>
<when >2025-07-07T11:46:07.820Z</when>
<gx:coord >20.966544 52.166484 0</gx:coord>
<gx:coord >20.966191 52.16688 0</gx:coord>
<gx:coord >20.965729 52.167435 0</gx:coord>
<gx:coord >20.96529 52.167927 0</gx:coord>
<gx:coord >20.964909 52.168373 0</gx:coord>
<gx:coord >20.964288 52.16908 0</gx:coord>
<gx:coord >20.963955 52.169449 0</gx:coord>
<gx:coord >20.963612 52.169849 0</gx:coord>
<gx:coord >20.963535 52.16993 0</gx:coord>
<gx:coord >20.963268 52.170243 0</gx:coord>
<gx:coord >20.963052 52.170511 0</gx:coord>
<gx:coord >20.962954 52.170686 0</gx:coord>
<gx:coord >20.962849 52.170856 0</gx:coord>
<gx:coord >20.96262 52.171396 0</gx:coord>
<gx:coord >20.962524 52.171772 0</gx:coord>
<gx:coord >20.962483 52.172105 0</gx:coord>
<gx:coord >20.962483 52.172478 0</gx:coord>
<gx:coord >20.962486 52.172882 0</gx:coord>
<gx:coord >20.962505 52.173317 0</gx:coord>
<gx:coord >20.962524 52.173466 0</gx:coord>
<gx:coord >20.962561 52.173653 0</gx:coord>
<gx:coord >20.962601 52.173717 0</gx:coord>
<gx:coord >20.962679 52.173805 0</gx:coord>
<gx:coord >20.962791 52.173878 0</gx:coord>
<gx:coord >20.962925 52.173958 0</gx:coord>
<gx:coord >20.963052 52.174002 0</gx:coord>
<gx:coord >20.963189 52.174061 0</gx:coord>
<gx:coord >20.963484 52.174154 0</gx:coord>
<gx:coord >20.963879 52.17429 0</gx:coord>
<gx:coord >20.964432 52.174473 0</gx:coord>
<gx:coord >20.965014 52.174666 0</gx:coord>
<gx:coord >20.96519 52.174701 0</gx:coord>
<gx:coord >20.965308 52.174712 0</gx:coord>
<gx:coord >20.965485 52.174701 0</gx:coord>
<gx:coord >20.965614 52.174679 0</gx:coord>
<gx:coord >20.96572 52.174631 0</gx:coord>
<gx:coord >20.965916 52.174491 0</gx:coord>
<gx:coord >20.965975 52.174433 0</gx:coord>
<gx:coord >20.966091 52.17429 0</gx:coord>
<gx:coord >20.966187 52.174175 0</gx:coord>
<gx:coord >20.966485 52.173828 0</gx:coord>
<gx:coord >20.966799 52.173467 0</gx:coord>
<gx:coord >20.967121 52.1731 0</gx:coord>
<gx:coord >20.967445 52.172733 0</gx:coord>
<gx:coord >20.967741 52.172396 0</gx:coord>
<gx:coord >20.968056 52.172035 0</gx:coord>
<gx:coord >20.968266 52.171818 0</gx:coord>
<gx:coord >20.968584 52.171465 0</gx:coord>
<gx:coord >20.968898 52.171081 0</gx:coord>
<gx:coord >20.969219 52.170719 0</gx:coord>
<gx:coord >20.969238 52.170639 0</gx:coord>
<gx:coord >20.969238 52.170605 0</gx:coord>
<gx:coord >20.969153 52.170546 0</gx:coord>
<gx:coord >20.969134 52.170534 0</gx:coord>
<gx:coord >20.969086 52.170502 0</gx:coord>
<gx:coord >20.969028 52.170479 0</gx:coord>
<gx:coord >20.968937 52.170464 0</gx:coord>
<gx:coord >20.968839 52.170418 0</gx:coord>
<gx:coord >20.968761 52.170399 0</gx:coord>
<gx:coord >20.968704 52.17041 0</gx:coord>
<gx:coord >20.968643 52.170406 0</gx:coord>
<gx:coord >20.968552 52.17041 0</gx:coord>
<gx:coord >20.968467 52.17043 0</gx:coord>
<gx:coord >20.968285 52.170444 0</gx:coord>
<gx:coord >20.968055 52.170453 0</gx:coord>
<gx:coord >20.967922 52.170467 0</gx:coord>
<gx:coord >20.967878 52.170476 0</gx:coord>
<gx:coord >20.967878 52.170476 0</gx:coord>
</gx:Track>
</Placemark>
</Folder>
</Folder>
</kml>
