<?xml version="1.0" encoding="UTF-8"?>
<kml xmlns="http://www.opengis.net/kml/2.2" xmlns:gx="http://www.google.com/kml/ext/2.2"><Folder ><Folder ><name >9H-WBZ track</name>
<Placemark ><name >9H-WBZ</name>
<Style ><LineStyle ><color >ff1c1ae3</color>
<width >4</width>
</LineStyle>
<IconStyle ><Icon ><href >http://maps.google.com/mapfiles/kml/shapes/airports.png</href>
</Icon>
</IconStyle>
</Style>
<gx:Track ><extrude >0</extrude>
<when >2025-09-06T20:42:11.540Z</when>
<when >2025-09-06T20:42:11.540Z</when>
<when >2025-09-06T20:43:27.150Z</when>
<when >2025-09-06T20:44:46.710Z</when>
<when >2025-09-06T20:46:01.720Z</when>
<when >2025-09-06T20:47:17.830Z</when>
<when >2025-09-06T20:48:05.880Z</when>
<when >2025-09-06T20:48:18.330Z</when>
<when >2025-09-06T20:48:20.390Z</when>
<when >2025-09-06T20:48:22.880Z</when>
<when >2025-09-06T20:48:24.960Z</when>
<when >2025-09-06T20:48:26.710Z</when>
<when >2025-09-06T20:48:29.440Z</when>
<when >2025-09-06T20:48:30.970Z</when>
<when >2025-09-06T20:48:33.950Z</when>
<when >2025-09-06T20:48:37.300Z</when>
<when >2025-09-06T20:48:44.030Z</when>
<when >2025-09-06T20:48:53.070Z</when>
<when >2025-09-06T20:49:02.960Z</when>
<when >2025-09-06T20:49:11.630Z</when>
<when >2025-09-06T20:49:19.680Z</when>
<when >2025-09-06T20:49:26.130Z</when>
<when >2025-09-06T20:49:28.710Z</when>
<when >2025-09-06T20:49:33.530Z</when>
<when >2025-09-06T20:49:39.520Z</when>
<when >2025-09-06T20:49:42.740Z</when>
<when >2025-09-06T20:49:45.580Z</when>
<when >2025-09-06T20:49:54.830Z</when>
<when >2025-09-06T20:50:03.030Z</when>
<when >2025-09-06T20:50:08.540Z</when>
<when >2025-09-06T20:50:12.140Z</when>
<when >2025-09-06T20:50:19.770Z</when>
<when >2025-09-06T20:50:28.460Z</when>
<when >2025-09-06T20:50:37.400Z</when>
<when >2025-09-06T20:50:44.210Z</when>
<when >2025-09-06T20:50:52.110Z</when>
<when >2025-09-06T20:51:01.680Z</when>
<when >2025-09-06T20:51:09.790Z</when>
<when >2025-09-06T20:51:16.930Z</when>
<when >2025-09-06T20:51:23.020Z</when>
<when >2025-09-06T20:51:28.480Z</when>
<when >2025-09-06T20:51:33.200Z</when>
<when >2025-09-06T20:51:38.190Z</when>
<when >2025-09-06T20:51:41.010Z</when>
<when >2025-09-06T20:51:45.560Z</when>
<when >2025-09-06T20:51:50.930Z</when>
<when >2025-09-06T20:51:56.780Z</when>
<when >2025-09-06T20:52:04.300Z</when>
<when >2025-09-06T20:52:09.860Z</when>
<when >2025-09-06T20:52:14.260Z</when>
<when >2025-09-06T20:52:17.590Z</when>
<when >2025-09-06T20:52:23.840Z</when>
<when >2025-09-06T20:52:29.090Z</when>
<when >2025-09-06T20:52:34.290Z</when>
<when >2025-09-06T20:52:40.880Z</when>
<when >2025-09-06T20:52:48.400Z</when>
<when >2025-09-06T20:52:53.800Z</when>
<when >2025-09-06T20:53:13.020Z</when>
<when >2025-09-06T20:54:31.350Z</when>
<when >2025-09-06T20:55:31.920Z</when>
<when >2025-09-06T20:55:39.290Z</when>
<when >2025-09-06T20:55:46.030Z</when>
<when >2025-09-06T20:55:55.980Z</when>
<when >2025-09-06T20:56:05.070Z</when>
<when >2025-09-06T20:56:07.630Z</when>
<when >2025-09-06T20:56:09.600Z</when>
<when >2025-09-06T20:56:11.290Z</when>
<when >2025-09-06T20:56:13.030Z</when>
<when >2025-09-06T20:56:14.720Z</when>
<when >2025-09-06T20:56:15.920Z</when>
<when >2025-09-06T20:56:16.990Z</when>
<when >2025-09-06T20:56:18.590Z</when>
<when >2025-09-06T20:56:19.950Z</when>
<when >2025-09-06T20:56:22.210Z</when>
<when >2025-09-06T20:56:23.980Z</when>
<when >2025-09-06T20:56:30.520Z</when>
<when >2025-09-06T20:57:06.450Z</when>
<when >2025-09-06T20:57:08.640Z</when>
<when >2025-09-06T20:57:10.650Z</when>
<when >2025-09-06T20:57:11.670Z</when>
<when >2025-09-06T20:57:12.840Z</when>
<when >2025-09-06T20:57:13.810Z</when>
<when >2025-09-06T20:57:14.380Z</when>
<when >2025-09-06T20:57:17.740Z</when>
<when >2025-09-06T20:57:18.100Z</when>
<when >2025-09-06T20:57:19.020Z</when>
<when >2025-09-06T20:57:19.450Z</when>
<when >2025-09-06T20:57:19.780Z</when>
<when >2025-09-06T20:57:20.540Z</when>
<when >2025-09-06T20:57:21.500Z</when>
<when >2025-09-06T20:57:22.540Z</when>
<when >2025-09-06T20:57:22.540Z</when>
<gx:coord >14.49327 35.847816 0</gx:coord>
<gx:coord >14.49327 35.847816 0</gx:coord>
<gx:coord >14.493275 35.847818 0</gx:coord>
<gx:coord >14.49327 35.847816 0</gx:coord>
<gx:coord >14.49327 35.847816 0</gx:coord>
<gx:coord >14.49327 35.847816 0</gx:coord>
<gx:coord >14.493198 35.847759 0</gx:coord>
<gx:coord >14.492983 35.847574 0</gx:coord>
<gx:coord >14.492912 35.847553 0</gx:coord>
<gx:coord >14.492826 35.847565 0</gx:coord>
<gx:coord >14.492755 35.847599 0</gx:coord>
<gx:coord >14.492712 35.847633 0</gx:coord>
<gx:coord >14.492632 35.847714 0</gx:coord>
<gx:coord >14.492618 35.847725 0</gx:coord>
<gx:coord >14.49253 35.847807 0</gx:coord>
<gx:coord >14.49244 35.847885 0</gx:coord>
<gx:coord >14.492223 35.848063 0</gx:coord>
<gx:coord >14.491911 35.848309 0</gx:coord>
<gx:coord >14.491551 35.848598 0</gx:coord>
<gx:coord >14.491167 35.848915 0</gx:coord>
<gx:coord >14.490809 35.84919 0</gx:coord>
<gx:coord >14.490529 35.849401 0</gx:coord>
<gx:coord >14.490339 35.849518 0</gx:coord>
<gx:coord >14.490123 35.849625 0</gx:coord>
<gx:coord >14.489765 35.849808 0</gx:coord>
<gx:coord >14.489623 35.849913 0</gx:coord>
<gx:coord >14.489491 35.85003 0</gx:coord>
<gx:coord >14.489097 35.850344 0</gx:coord>
<gx:coord >14.488778 35.850597 0</gx:coord>
<gx:coord >14.488512 35.850809 0</gx:coord>
<gx:coord >14.488381 35.850926 0</gx:coord>
<gx:coord >14.488034 35.851204 0</gx:coord>
<gx:coord >14.487648 35.851513 0</gx:coord>
<gx:coord >14.48729 35.851799 0</gx:coord>
<gx:coord >14.486976 35.852062 0</gx:coord>
<gx:coord >14.486618 35.852348 0</gx:coord>
<gx:coord >14.486217 35.852657 0</gx:coord>
<gx:coord >14.48586 35.852955 0</gx:coord>
<gx:coord >14.485474 35.853265 0</gx:coord>
<gx:coord >14.485145 35.853539 0</gx:coord>
<gx:coord >14.484772 35.853835 0</gx:coord>
<gx:coord >14.484386 35.854145 0</gx:coord>
<gx:coord >14.484 35.854454 0</gx:coord>
<gx:coord >14.483814 35.854603 0</gx:coord>
<gx:coord >14.483442 35.8549 0</gx:coord>
<gx:coord >14.483056 35.855221 0</gx:coord>
<gx:coord >14.482656 35.85553 0</gx:coord>
<gx:coord >14.482327 35.855804 0</gx:coord>
<gx:coord >14.482157 35.856081 0</gx:coord>
<gx:coord >14.482099 35.856326 0</gx:coord>
<gx:coord >14.48207 35.856524 0</gx:coord>
<gx:coord >14.481997 35.856873 0</gx:coord>
<gx:coord >14.481926 35.857201 0</gx:coord>
<gx:coord >14.481854 35.857624 0</gx:coord>
<gx:coord >14.481769 35.858025 0</gx:coord>
<gx:coord >14.481697 35.858402 0</gx:coord>
<gx:coord >14.481675 35.858514 0</gx:coord>
<gx:coord >14.481646 35.858723 0</gx:coord>
<gx:coord >14.481646 35.858723 0</gx:coord>
<gx:coord >14.481631 35.858781 0</gx:coord>
<gx:coord >14.481602 35.858898 0</gx:coord>
<gx:coord >14.481573 35.859037 0</gx:coord>
<gx:coord >14.481514 35.859328 0</gx:coord>
<gx:coord >14.481441 35.859643 0</gx:coord>
<gx:coord >14.481398 35.859713 0</gx:coord>
<gx:coord >14.481354 35.859759 0</gx:coord>
<gx:coord >14.48131 35.859794 0</gx:coord>
<gx:coord >14.481268 35.859798 0</gx:coord>
<gx:coord >14.481211 35.859798 0</gx:coord>
<gx:coord >14.481164 35.859782 0</gx:coord>
<gx:coord >14.48112 35.859759 0</gx:coord>
<gx:coord >14.481076 35.859724 0</gx:coord>
<gx:coord >14.481062 35.859713 0</gx:coord>
<gx:coord >14.481039 35.859673 0</gx:coord>
<gx:coord >14.481003 35.859643 0</gx:coord>
<gx:coord >14.480953 35.859592 0</gx:coord>
<gx:coord >14.480939 35.859581 0</gx:coord>
<gx:coord >14.48081 35.859512 0</gx:coord>
<gx:coord >14.480594 35.859387 0</gx:coord>
<gx:coord >14.480438 35.859295 0</gx:coord>
<gx:coord >14.480258 35.859189 0</gx:coord>
<gx:coord >14.480081 35.859089 0</gx:coord>
<gx:coord >14.479864 35.858968 0</gx:coord>
<gx:coord >14.479322 35.858643 0</gx:coord>
<gx:coord >14.478899 35.858397 0</gx:coord>
<gx:coord >14.478736 35.858311 0</gx:coord>
<gx:coord >14.478407 35.858116 0</gx:coord>
<gx:coord >14.478178 35.85799 0</gx:coord>
<gx:coord >14.477994 35.857874 0</gx:coord>
<gx:coord >14.477643 35.857676 0</gx:coord>
<gx:coord >14.477205 35.85742 0</gx:coord>
<gx:coord >14.477205 35.85742 0</gx:coord>
</gx:Track>
</Placemark>
<Placemark ><name >9H-WBZ</name>
<Style ><LineStyle ><color >ff1c1ae3</color>
<width >4</width>
</LineStyle>
<IconStyle ><Icon ><href >http://maps.google.com/mapfiles/kml/shapes/airports.png</href>
</Icon>
</IconStyle>
</Style>
<gx:Track ><altitudeMode >absolute</altitudeMode>
<extrude >1</extrude>
<when >2025-09-06T20:57:24.110Z</when>
<when >2025-09-06T20:57:24.530Z</when>
<when >2025-09-06T20:57:25.930Z</when>
<when >2025-09-06T20:57:26.150Z</when>
<when >2025-09-06T20:57:27.630Z</when>
<when >2025-09-06T20:57:28.320Z</when>
<when >2025-09-06T20:57:29.390Z</when>
<when >2025-09-06T20:57:31.510Z</when>
<when >2025-09-06T20:57:33.530Z</when>
<when >2025-09-06T20:57:35.100Z</when>
<when >2025-09-06T20:57:35.990Z</when>
<when >2025-09-06T20:57:38.130Z</when>
<when >2025-09-06T20:57:39.160Z</when>
<when >2025-09-06T20:57:40.040Z</when>
<when >2025-09-06T20:57:41.950Z</when>
<when >2025-09-06T20:57:43.980Z</when>
<when >2025-09-06T20:57:46.750Z</when>
<when >2025-09-06T20:57:49.070Z</when>
<when >2025-09-06T20:57:51.650Z</when>
<when >2025-09-06T20:57:54.110Z</when>
<when >2025-09-06T20:57:56.680Z</when>
<when >2025-09-06T20:57:58.460Z</when>
<when >2025-09-06T20:58:00.840Z</when>
<when >2025-09-06T20:58:02.820Z</when>
<when >2025-09-06T20:58:04.860Z</when>
<when >2025-09-06T20:58:07.310Z</when>
<when >2025-09-06T20:58:09.580Z</when>
<when >2025-09-06T20:58:12.750Z</when>
<when >2025-09-06T20:58:16.250Z</when>
<when >2025-09-06T20:58:20.290Z</when>
<when >2025-09-06T20:58:24.380Z</when>
<when >2025-09-06T20:58:28.510Z</when>
<when >2025-09-06T20:58:32.260Z</when>
<when >2025-09-06T20:58:36.170Z</when>
<when >2025-09-06T20:58:40.400Z</when>
<when >2025-09-06T20:58:43.690Z</when>
<when >2025-09-06T20:58:45.850Z</when>
<when >2025-09-06T20:58:48.740Z</when>
<when >2025-09-06T20:58:51.260Z</when>
<when >2025-09-06T20:58:52.700Z</when>
<when >2025-09-06T20:58:55.590Z</when>
<when >2025-09-06T20:58:58.410Z</when>
<when >2025-09-06T20:59:01.710Z</when>
<when >2025-09-06T20:59:05.780Z</when>
<when >2025-09-06T20:59:09.300Z</when>
<when >2025-09-06T20:59:12.770Z</when>
<when >2025-09-06T20:59:16.490Z</when>
<when >2025-09-06T20:59:19.450Z</when>
<when >2025-09-06T20:59:22.150Z</when>
<when >2025-09-06T20:59:24.330Z</when>
<when >2025-09-06T20:59:26.380Z</when>
<when >2025-09-06T20:59:28.300Z</when>
<when >2025-09-06T20:59:30.810Z</when>
<when >2025-09-06T20:59:32.960Z</when>
<when >2025-09-06T20:59:35.320Z</when>
<when >2025-09-06T20:59:38.100Z</when>
<when >2025-09-06T20:59:40.240Z</when>
<when >2025-09-06T20:59:42.600Z</when>
<when >2025-09-06T20:59:44.600Z</when>
<when >2025-09-06T20:59:46.960Z</when>
<when >2025-09-06T20:59:48.830Z</when>
<when >2025-09-06T20:59:51.350Z</when>
<when >2025-09-06T20:59:53.330Z</when>
<when >2025-09-06T20:59:55.430Z</when>
<when >2025-09-06T20:59:57.690Z</when>
<when >2025-09-06T20:59:59.870Z</when>
<when >2025-09-06T21:00:01.650Z</when>
<when >2025-09-06T21:00:04.010Z</when>
<when >2025-09-06T21:00:06.380Z</when>
<when >2025-09-06T21:00:08.460Z</when>
<when >2025-09-06T21:00:10.930Z</when>
<when >2025-09-06T21:00:13.390Z</when>
<when >2025-09-06T21:00:15.870Z</when>
<when >2025-09-06T21:00:18.170Z</when>
<when >2025-09-06T21:00:21.090Z</when>
<when >2025-09-06T21:00:23.680Z</when>
<when >2025-09-06T21:00:25.430Z</when>
<when >2025-09-06T21:00:28.130Z</when>
<when >2025-09-06T21:00:30.410Z</when>
<when >2025-09-06T21:00:32.900Z</when>
<when >2025-09-06T21:00:35.090Z</when>
<when >2025-09-06T21:00:37.140Z</when>
<when >2025-09-06T21:00:38.590Z</when>
<when >2025-09-06T21:00:40.620Z</when>
<when >2025-09-06T21:00:42.250Z</when>
<when >2025-09-06T21:00:44.450Z</when>
<when >2025-09-06T21:00:46.580Z</when>
<when >2025-09-06T21:00:48.540Z</when>
<when >2025-09-06T21:00:52.340Z</when>
<when >2025-09-06T21:00:57.660Z</when>
<when >2025-09-06T21:01:02.790Z</when>
<when >2025-09-06T21:01:06.680Z</when>
<when >2025-09-06T21:01:10.750Z</when>
<when >2025-09-06T21:01:13.790Z</when>
<when >2025-09-06T21:01:17.440Z</when>
<when >2025-09-06T21:01:21.470Z</when>
<when >2025-09-06T21:01:26.350Z</when>
<when >2025-09-06T21:01:31.190Z</when>
<when >2025-09-06T21:01:36.150Z</when>
<when >2025-09-06T21:01:41.150Z</when>
<when >2025-09-06T21:01:46.700Z</when>
<when >2025-09-06T21:01:51.900Z</when>
<when >2025-09-06T21:01:56.210Z</when>
<when >2025-09-06T21:02:00.740Z</when>
<when >2025-09-06T21:02:03.810Z</when>
<when >2025-09-06T21:02:05.120Z</when>
<when >2025-09-06T21:02:08.790Z</when>
<when >2025-09-06T21:02:17.260Z</when>
<when >2025-09-06T21:02:25.610Z</when>
<when >2025-09-06T21:02:34.350Z</when>
<when >2025-09-06T21:02:42.900Z</when>
<when >2025-09-06T21:02:49.910Z</when>
<when >2025-09-06T21:02:51.790Z</when>
<when >2025-09-06T21:02:53.870Z</when>
<when >2025-09-06T21:02:58.200Z</when>
<when >2025-09-06T21:03:02.410Z</when>
<when >2025-09-06T21:03:06.550Z</when>
<when >2025-09-06T21:03:16.270Z</when>
<when >2025-09-06T21:03:24.880Z</when>
<when >2025-09-06T21:03:36.630Z</when>
<when >2025-09-06T21:03:48.430Z</when>
<when >2025-09-06T21:03:57.510Z</when>
<when >2025-09-06T21:04:07.160Z</when>
<when >2025-09-06T21:04:14.740Z</when>
<when >2025-09-06T21:04:17.680Z</when>
<when >2025-09-06T21:04:30.180Z</when>
<when >2025-09-06T21:04:41.070Z</when>
<when >2025-09-06T21:04:48.340Z</when>
<when >2025-09-06T21:04:56.710Z</when>
<when >2025-09-06T21:05:06.260Z</when>
<when >2025-09-06T21:05:17.090Z</when>
<when >2025-09-06T21:05:28.570Z</when>
<when >2025-09-06T21:05:39.830Z</when>
<when >2025-09-06T21:05:51.050Z</when>
<when >2025-09-06T21:06:03.330Z</when>
<when >2025-09-06T21:06:15.730Z</when>
<when >2025-09-06T21:06:27.750Z</when>
<when >2025-09-06T21:06:40.610Z</when>
<when >2025-09-06T21:06:53.000Z</when>
<when >2025-09-06T21:07:04.770Z</when>
<when >2025-09-06T21:07:16.890Z</when>
<when >2025-09-06T21:07:29.600Z</when>
<when >2025-09-06T21:07:41.480Z</when>
<when >2025-09-06T21:07:53.470Z</when>
<when >2025-09-06T21:08:02.690Z</when>
<when >2025-09-06T21:08:11.180Z</when>
<when >2025-09-06T21:08:19.850Z</when>
<when >2025-09-06T21:08:27.730Z</when>
<when >2025-09-06T21:08:39.350Z</when>
<when >2025-09-06T21:08:50.210Z</when>
<when >2025-09-06T21:08:58.130Z</when>
<when >2025-09-06T21:09:12.070Z</when>
<when >2025-09-06T21:09:25.480Z</when>
<when >2025-09-06T21:09:39.290Z</when>
<when >2025-09-06T21:09:52.710Z</when>
<when >2025-09-06T21:10:06.370Z</when>
<when >2025-09-06T21:10:19.240Z</when>
<when >2025-09-06T21:10:32.770Z</when>
<when >2025-09-06T21:10:47.600Z</when>
<when >2025-09-06T21:11:02.160Z</when>
<when >2025-09-06T21:11:16.640Z</when>
<when >2025-09-06T21:11:30.850Z</when>
<when >2025-09-06T21:11:39.700Z</when>
<when >2025-09-06T21:11:45.650Z</when>
<when >2025-09-06T21:11:52.000Z</when>
<when >2025-09-06T21:11:59.090Z</when>
<when >2025-09-06T21:12:14.290Z</when>
<when >2025-09-06T21:12:27.770Z</when>
<when >2025-09-06T21:12:41.420Z</when>
<when >2025-09-06T21:12:54.860Z</when>
<when >2025-09-06T21:13:07.930Z</when>
<when >2025-09-06T21:13:23.320Z</when>
<when >2025-09-06T21:13:38.150Z</when>
<when >2025-09-06T21:13:53.300Z</when>
<when >2025-09-06T21:14:09.650Z</when>
<when >2025-09-06T21:14:26.110Z</when>
<when >2025-09-06T21:14:42.170Z</when>
<when >2025-09-06T21:14:58.410Z</when>
<when >2025-09-06T21:15:14.040Z</when>
<when >2025-09-06T21:15:30.460Z</when>
<when >2025-09-06T21:15:48.570Z</when>
<when >2025-09-06T21:16:07.960Z</when>
<when >2025-09-06T21:16:23.070Z</when>
<when >2025-09-06T21:16:39.390Z</when>
<when >2025-09-06T21:16:55.760Z</when>
<when >2025-09-06T21:17:13.180Z</when>
<when >2025-09-06T21:17:30.910Z</when>
<when >2025-09-06T21:17:47.160Z</when>
<when >2025-09-06T21:18:03.070Z</when>
<when >2025-09-06T21:18:17.860Z</when>
<when >2025-09-06T21:18:31.280Z</when>
<when >2025-09-06T21:18:50.970Z</when>
<when >2025-09-06T21:19:09.100Z</when>
<when >2025-09-06T21:19:26.590Z</when>
<when >2025-09-06T21:19:44.860Z</when>
<when >2025-09-06T21:20:04.250Z</when>
<when >2025-09-06T21:20:23.860Z</when>
<when >2025-09-06T21:20:38.440Z</when>
<when >2025-09-06T21:20:55.230Z</when>
<when >2025-09-06T21:21:13.740Z</when>
<when >2025-09-06T21:21:31.980Z</when>
<when >2025-09-06T21:21:48.570Z</when>
<when >2025-09-06T21:22:07.680Z</when>
<when >2025-09-06T21:22:27.260Z</when>
<when >2025-09-06T21:22:46.910Z</when>
<when >2025-09-06T21:23:06.690Z</when>
<when >2025-09-06T21:23:26.650Z</when>
<when >2025-09-06T21:23:46.380Z</when>
<when >2025-09-06T21:24:06.330Z</when>
<when >2025-09-06T21:24:26.300Z</when>
<when >2025-09-06T21:24:45.940Z</when>
<when >2025-09-06T21:25:05.690Z</when>
<when >2025-09-06T21:25:25.270Z</when>
<when >2025-09-06T21:25:45.170Z</when>
<when >2025-09-06T21:26:05.020Z</when>
<when >2025-09-06T21:26:24.670Z</when>
<when >2025-09-06T21:26:44.250Z</when>
<when >2025-09-06T21:27:03.880Z</when>
<when >2025-09-06T21:27:23.700Z</when>
<when >2025-09-06T21:27:43.280Z</when>
<when >2025-09-06T21:28:03.040Z</when>
<when >2025-09-06T21:28:22.440Z</when>
<when >2025-09-06T21:28:42.310Z</when>
<when >2025-09-06T21:29:01.970Z</when>
<when >2025-09-06T21:29:21.720Z</when>
<when >2025-09-06T21:29:41.050Z</when>
<when >2025-09-06T21:30:00.940Z</when>
<when >2025-09-06T21:30:20.610Z</when>
<when >2025-09-06T21:30:40.310Z</when>
<when >2025-09-06T21:30:59.800Z</when>
<when >2025-09-06T21:31:19.270Z</when>
<when >2025-09-06T21:31:39.130Z</when>
<when >2025-09-06T21:31:58.850Z</when>
<when >2025-09-06T21:32:18.400Z</when>
<when >2025-09-06T21:32:38.030Z</when>
<when >2025-09-06T21:32:57.570Z</when>
<when >2025-09-06T21:33:17.340Z</when>
<when >2025-09-06T21:33:37.340Z</when>
<when >2025-09-06T21:33:57.290Z</when>
<when >2025-09-06T21:34:17.130Z</when>
<when >2025-09-06T21:34:36.630Z</when>
<when >2025-09-06T21:34:56.620Z</when>
<when >2025-09-06T21:35:16.270Z</when>
<when >2025-09-06T21:35:35.960Z</when>
<when >2025-09-06T21:35:55.610Z</when>
<when >2025-09-06T21:36:15.550Z</when>
<when >2025-09-06T21:36:35.170Z</when>
<when >2025-09-06T21:36:54.940Z</when>
<when >2025-09-06T21:37:14.890Z</when>
<when >2025-09-06T21:37:34.670Z</when>
<when >2025-09-06T21:37:54.270Z</when>
<when >2025-09-06T21:38:14.080Z</when>
<when >2025-09-06T21:38:33.740Z</when>
<when >2025-09-06T21:38:53.350Z</when>
<when >2025-09-06T21:39:12.930Z</when>
<when >2025-09-06T21:39:32.740Z</when>
<when >2025-09-06T21:39:52.660Z</when>
<when >2025-09-06T21:40:12.500Z</when>
<when >2025-09-06T21:40:32.180Z</when>
<when >2025-09-06T21:40:52.010Z</when>
<when >2025-09-06T21:41:11.930Z</when>
<when >2025-09-06T21:41:31.590Z</when>
<when >2025-09-06T21:41:51.440Z</when>
<when >2025-09-06T21:42:11.440Z</when>
<when >2025-09-06T21:42:31.340Z</when>
<when >2025-09-06T21:42:50.940Z</when>
<when >2025-09-06T21:43:10.720Z</when>
<when >2025-09-06T21:43:30.680Z</when>
<when >2025-09-06T21:43:50.310Z</when>
<when >2025-09-06T21:44:09.850Z</when>
<when >2025-09-06T21:44:29.600Z</when>
<when >2025-09-06T21:44:49.230Z</when>
<when >2025-09-06T21:45:02.090Z</when>
<when >2025-09-06T21:45:13.470Z</when>
<when >2025-09-06T21:45:33.430Z</when>
<when >2025-09-06T21:45:53.180Z</when>
<when >2025-09-06T21:46:12.850Z</when>
<when >2025-09-06T21:46:32.620Z</when>
<when >2025-09-06T21:46:52.520Z</when>
<when >2025-09-06T21:47:12.150Z</when>
<when >2025-09-06T21:47:31.820Z</when>
<when >2025-09-06T21:47:51.650Z</when>
<when >2025-09-06T21:48:11.180Z</when>
<when >2025-09-06T21:48:31.040Z</when>
<when >2025-09-06T21:48:50.730Z</when>
<when >2025-09-06T21:49:10.470Z</when>
<when >2025-09-06T21:49:30.240Z</when>
<when >2025-09-06T21:49:50.060Z</when>
<when >2025-09-06T21:50:09.520Z</when>
<when >2025-09-06T21:50:29.250Z</when>
<when >2025-09-06T21:50:48.920Z</when>
<when >2025-09-06T21:51:08.520Z</when>
<when >2025-09-06T21:51:28.020Z</when>
<when >2025-09-06T21:51:47.740Z</when>
<when >2025-09-06T21:52:07.540Z</when>
<when >2025-09-06T21:52:26.910Z</when>
<when >2025-09-06T21:52:46.720Z</when>
<when >2025-09-06T21:53:06.690Z</when>
<when >2025-09-06T21:53:26.230Z</when>
<when >2025-09-06T21:53:45.650Z</when>
<when >2025-09-06T21:54:05.480Z</when>
<when >2025-09-06T21:54:24.970Z</when>
<when >2025-09-06T21:54:44.310Z</when>
<when >2025-09-06T21:55:04.280Z</when>
<when >2025-09-06T21:55:23.980Z</when>
<when >2025-09-06T21:55:43.840Z</when>
<when >2025-09-06T21:56:03.730Z</when>
<when >2025-09-06T21:56:23.540Z</when>
<when >2025-09-06T21:56:43.160Z</when>
<when >2025-09-06T21:57:03.050Z</when>
<when >2025-09-06T21:57:22.850Z</when>
<when >2025-09-06T21:57:42.640Z</when>
<when >2025-09-06T21:58:02.220Z</when>
<when >2025-09-06T21:58:22.040Z</when>
<when >2025-09-06T21:58:41.950Z</when>
<when >2025-09-06T21:59:01.790Z</when>
<when >2025-09-06T21:59:21.490Z</when>
<when >2025-09-06T21:59:41.350Z</when>
<when >2025-09-06T22:00:00.910Z</when>
<when >2025-09-06T22:00:20.000Z</when>
<when >2025-09-06T22:00:39.750Z</when>
<when >2025-09-06T22:00:59.030Z</when>
<when >2025-09-06T22:01:19.020Z</when>
<when >2025-09-06T22:01:38.890Z</when>
<when >2025-09-06T22:01:58.490Z</when>
<when >2025-09-06T22:02:18.460Z</when>
<when >2025-09-06T22:02:38.120Z</when>
<when >2025-09-06T22:02:58.040Z</when>
<when >2025-09-06T22:03:17.560Z</when>
<when >2025-09-06T22:03:37.050Z</when>
<when >2025-09-06T22:03:56.730Z</when>
<when >2025-09-06T22:04:16.350Z</when>
<when >2025-09-06T22:04:35.920Z</when>
<when >2025-09-06T22:04:55.790Z</when>
<when >2025-09-06T22:05:15.510Z</when>
<when >2025-09-06T22:05:35.120Z</when>
<when >2025-09-06T22:05:55.010Z</when>
<when >2025-09-06T22:06:14.790Z</when>
<when >2025-09-06T22:06:34.580Z</when>
<when >2025-09-06T22:06:54.050Z</when>
<when >2025-09-06T22:07:13.450Z</when>
<when >2025-09-06T22:07:33.060Z</when>
<when >2025-09-06T22:07:52.750Z</when>
<when >2025-09-06T22:08:12.440Z</when>
<when >2025-09-06T22:08:32.260Z</when>
<when >2025-09-06T22:08:52.070Z</when>
<when >2025-09-06T22:09:11.920Z</when>
<when >2025-09-06T22:09:31.770Z</when>
<when >2025-09-06T22:09:51.750Z</when>
<when >2025-09-06T22:10:11.430Z</when>
<when >2025-09-06T22:10:31.030Z</when>
<when >2025-09-06T22:10:50.860Z</when>
<when >2025-09-06T22:11:10.150Z</when>
<when >2025-09-06T22:11:29.630Z</when>
<when >2025-09-06T22:11:49.600Z</when>
<when >2025-09-06T22:12:09.070Z</when>
<when >2025-09-06T22:12:28.930Z</when>
<when >2025-09-06T22:12:48.320Z</when>
<when >2025-09-06T22:13:07.840Z</when>
<when >2025-09-06T22:13:27.260Z</when>
<when >2025-09-06T22:13:47.240Z</when>
<when >2025-09-06T22:14:06.850Z</when>
<when >2025-09-06T22:14:26.580Z</when>
<when >2025-09-06T22:14:46.010Z</when>
<when >2025-09-06T22:15:05.630Z</when>
<when >2025-09-06T22:15:25.470Z</when>
<when >2025-09-06T22:15:45.250Z</when>
<when >2025-09-06T22:16:04.700Z</when>
<when >2025-09-06T22:16:24.590Z</when>
<when >2025-09-06T22:16:44.580Z</when>
<when >2025-09-06T22:17:04.430Z</when>
<when >2025-09-06T22:17:24.260Z</when>
<when >2025-09-06T22:17:44.210Z</when>
<when >2025-09-06T22:18:03.430Z</when>
<when >2025-09-06T22:18:23.060Z</when>
<when >2025-09-06T22:18:42.970Z</when>
<when >2025-09-06T22:19:02.960Z</when>
<when >2025-09-06T22:19:22.740Z</when>
<when >2025-09-06T22:19:42.620Z</when>
<when >2025-09-06T22:20:02.580Z</when>
<when >2025-09-06T22:20:22.480Z</when>
<when >2025-09-06T22:20:42.140Z</when>
<when >2025-09-06T22:21:02.050Z</when>
<when >2025-09-06T22:21:21.530Z</when>
<when >2025-09-06T22:21:41.080Z</when>
<when >2025-09-06T22:22:00.890Z</when>
<when >2025-09-06T22:22:20.690Z</when>
<when >2025-09-06T22:22:40.470Z</when>
<when >2025-09-06T22:23:00.380Z</when>
<when >2025-09-06T22:23:19.770Z</when>
<when >2025-09-06T22:23:39.660Z</when>
<when >2025-09-06T22:23:48.440Z</when>
<when >2025-09-06T22:23:54.020Z</when>
<when >2025-09-06T22:23:58.460Z</when>
<when >2025-09-06T22:24:04.000Z</when>
<when >2025-09-06T22:24:11.670Z</when>
<when >2025-09-06T22:24:31.360Z</when>
<when >2025-09-06T22:24:51.080Z</when>
<when >2025-09-06T22:25:11.010Z</when>
<when >2025-09-06T22:25:30.560Z</when>
<when >2025-09-06T22:25:50.370Z</when>
<when >2025-09-06T22:26:10.330Z</when>
<when >2025-09-06T22:26:30.090Z</when>
<when >2025-09-06T22:26:49.460Z</when>
<when >2025-09-06T22:27:08.920Z</when>
<when >2025-09-06T22:27:28.790Z</when>
<when >2025-09-06T22:27:48.550Z</when>
<when >2025-09-06T22:28:08.340Z</when>
<when >2025-09-06T22:28:27.970Z</when>
<when >2025-09-06T22:28:47.850Z</when>
<when >2025-09-06T22:29:07.660Z</when>
<when >2025-09-06T22:29:27.280Z</when>
<when >2025-09-06T22:29:46.970Z</when>
<when >2025-09-06T22:30:06.730Z</when>
<when >2025-09-06T22:30:26.690Z</when>
<when >2025-09-06T22:30:46.540Z</when>
<when >2025-09-06T22:31:06.000Z</when>
<when >2025-09-06T22:31:25.700Z</when>
<when >2025-09-06T22:31:39.380Z</when>
<when >2025-09-06T22:31:46.510Z</when>
<when >2025-09-06T22:31:53.210Z</when>
<when >2025-09-06T22:32:13.190Z</when>
<when >2025-09-06T22:32:32.950Z</when>
<when >2025-09-06T22:32:52.500Z</when>
<when >2025-09-06T22:33:12.210Z</when>
<when >2025-09-06T22:33:32.050Z</when>
<when >2025-09-06T22:33:51.600Z</when>
<when >2025-09-06T22:34:11.140Z</when>
<when >2025-09-06T22:34:30.800Z</when>
<when >2025-09-06T22:34:50.740Z</when>
<when >2025-09-06T22:35:10.470Z</when>
<when >2025-09-06T22:35:30.410Z</when>
<when >2025-09-06T22:35:50.260Z</when>
<when >2025-09-06T22:36:10.200Z</when>
<when >2025-09-06T22:36:30.110Z</when>
<when >2025-09-06T22:36:49.720Z</when>
<when >2025-09-06T22:37:09.670Z</when>
<when >2025-09-06T22:37:29.520Z</when>
<when >2025-09-06T22:37:49.220Z</when>
<when >2025-09-06T22:38:08.770Z</when>
<when >2025-09-06T22:38:28.280Z</when>
<when >2025-09-06T22:38:47.960Z</when>
<when >2025-09-06T22:39:07.620Z</when>
<when >2025-09-06T22:39:27.260Z</when>
<when >2025-09-06T22:39:46.830Z</when>
<when >2025-09-06T22:40:06.410Z</when>
<when >2025-09-06T22:40:25.820Z</when>
<when >2025-09-06T22:40:45.470Z</when>
<when >2025-09-06T22:41:05.340Z</when>
<when >2025-09-06T22:41:25.230Z</when>
<when >2025-09-06T22:41:45.010Z</when>
<when >2025-09-06T22:42:04.690Z</when>
<when >2025-09-06T22:42:24.620Z</when>
<when >2025-09-06T22:42:44.190Z</when>
<when >2025-09-06T22:43:03.660Z</when>
<when >2025-09-06T22:43:23.140Z</when>
<when >2025-09-06T22:43:42.770Z</when>
<when >2025-09-06T22:44:02.480Z</when>
<when >2025-09-06T22:44:21.880Z</when>
<when >2025-09-06T22:44:41.640Z</when>
<when >2025-09-06T22:45:01.230Z</when>
<when >2025-09-06T22:45:20.790Z</when>
<when >2025-09-06T22:45:40.680Z</when>
<when >2025-09-06T22:46:00.570Z</when>
<when >2025-09-06T22:46:20.510Z</when>
<when >2025-09-06T22:46:40.130Z</when>
<when >2025-09-06T22:46:59.670Z</when>
<when >2025-09-06T22:47:19.370Z</when>
<when >2025-09-06T22:47:39.090Z</when>
<when >2025-09-06T22:47:58.980Z</when>
<when >2025-09-06T22:48:18.500Z</when>
<when >2025-09-06T22:48:38.320Z</when>
<when >2025-09-06T22:48:58.140Z</when>
<when >2025-09-06T22:49:17.630Z</when>
<when >2025-09-06T22:49:37.200Z</when>
<when >2025-09-06T22:49:57.090Z</when>
<when >2025-09-06T22:50:16.730Z</when>
<when >2025-09-06T22:50:36.420Z</when>
<when >2025-09-06T22:50:56.180Z</when>
<when >2025-09-06T22:51:15.780Z</when>
<when >2025-09-06T22:51:35.710Z</when>
<when >2025-09-06T22:51:55.560Z</when>
<when >2025-09-06T22:52:15.020Z</when>
<when >2025-09-06T22:52:34.570Z</when>
<when >2025-09-06T22:52:54.480Z</when>
<when >2025-09-06T22:53:14.350Z</when>
<when >2025-09-06T22:53:33.760Z</when>
<when >2025-09-06T22:53:53.350Z</when>
<when >2025-09-06T22:54:12.990Z</when>
<when >2025-09-06T22:54:32.850Z</when>
<when >2025-09-06T22:54:52.650Z</when>
<when >2025-09-06T22:55:12.220Z</when>
<when >2025-09-06T22:55:32.140Z</when>
<when >2025-09-06T22:55:51.600Z</when>
<when >2025-09-06T22:56:11.200Z</when>
<when >2025-09-06T22:56:31.100Z</when>
<when >2025-09-06T22:56:50.920Z</when>
<when >2025-09-06T22:57:10.400Z</when>
<when >2025-09-06T22:57:30.350Z</when>
<when >2025-09-06T22:57:49.790Z</when>
<when >2025-09-06T22:58:09.350Z</when>
<when >2025-09-06T22:58:29.230Z</when>
<when >2025-09-06T22:58:49.110Z</when>
<when >2025-09-06T22:59:08.650Z</when>
<when >2025-09-06T22:59:20.640Z</when>
<when >2025-09-06T22:59:32.510Z</when>
<when >2025-09-06T22:59:52.410Z</when>
<when >2025-09-06T23:00:11.960Z</when>
<when >2025-09-06T23:00:31.830Z</when>
<when >2025-09-06T23:00:47.070Z</when>
<when >2025-09-06T23:01:15.630Z</when>
<when >2025-09-06T23:01:24.250Z</when>
<when >2025-09-06T23:02:51.040Z</when>
<when >2025-09-06T23:02:59.900Z</when>
<when >2025-09-06T23:03:09.460Z</when>
<when >2025-09-06T23:03:17.380Z</when>
<when >2025-09-06T23:03:24.150Z</when>
<when >2025-09-06T23:20:45.860Z</when>
<when >2025-09-06T23:20:50.880Z</when>
<when >2025-09-06T23:20:55.880Z</when>
<when >2025-09-06T23:21:01.120Z</when>
<when >2025-09-06T23:21:06.200Z</when>
<when >2025-09-06T23:21:11.660Z</when>
<when >2025-09-06T23:21:16.870Z</when>
<when >2025-09-06T23:21:21.880Z</when>
<when >2025-09-06T23:21:27.080Z</when>
<when >2025-09-06T23:21:31.990Z</when>
<when >2025-09-06T23:21:36.230Z</when>
<when >2025-09-06T23:21:41.030Z</when>
<when >2025-09-06T23:21:45.260Z</when>
<when >2025-09-06T23:21:49.700Z</when>
<when >2025-09-06T23:21:53.790Z</when>
<when >2025-09-06T23:21:58.490Z</when>
<when >2025-09-06T23:22:02.820Z</when>
<when >2025-09-06T23:22:06.440Z</when>
<when >2025-09-06T23:22:10.650Z</when>
<when >2025-09-06T23:22:14.720Z</when>
<when >2025-09-06T23:22:19.170Z</when>
<when >2025-09-06T23:22:23.700Z</when>
<when >2025-09-06T23:22:28.030Z</when>
<when >2025-09-06T23:22:32.500Z</when>
<when >2025-09-06T23:22:36.950Z</when>
<when >2025-09-06T23:22:41.270Z</when>
<when >2025-09-06T23:22:45.950Z</when>
<when >2025-09-06T23:22:52.050Z</when>
<when >2025-09-06T23:22:58.010Z</when>
<when >2025-09-06T23:23:05.180Z</when>
<when >2025-09-06T23:23:11.660Z</when>
<when >2025-09-06T23:23:18.170Z</when>
<when >2025-09-06T23:23:23.850Z</when>
<when >2025-09-06T23:23:29.600Z</when>
<when >2025-09-06T23:23:36.180Z</when>
<when >2025-09-06T23:23:42.390Z</when>
<when >2025-09-06T23:23:48.920Z</when>
<when >2025-09-06T23:24:01.670Z</when>
<when >2025-09-06T23:24:20.100Z</when>
<when >2025-09-06T23:24:22.950Z</when>
<when >2025-09-06T23:24:27.680Z</when>
<when >2025-09-06T23:24:31.380Z</when>
<when >2025-09-06T23:24:35.470Z</when>
<when >2025-09-06T23:24:38.020Z</when>
<when >2025-09-06T23:24:42.390Z</when>
<when >2025-09-06T23:24:45.380Z</when>
<when >2025-09-06T23:24:47.760Z</when>
<when >2025-09-06T23:24:50.500Z</when>
<when >2025-09-06T23:24:53.060Z</when>
<when >2025-09-06T23:24:56.240Z</when>
<when >2025-09-06T23:24:58.900Z</when>
<when >2025-09-06T23:25:03.460Z</when>
<when >2025-09-06T23:25:13.210Z</when>
<when >2025-09-06T23:25:16.310Z</when>
<when >2025-09-06T23:25:18.510Z</when>
<when >2025-09-06T23:25:20.910Z</when>
<when >2025-09-06T23:25:26.270Z</when>
<when >2025-09-06T23:25:31.350Z</when>
<when >2025-09-06T23:25:36.530Z</when>
<when >2025-09-06T23:25:42.850Z</when>
<when >2025-09-06T23:25:48.350Z</when>
<when >2025-09-06T23:25:53.790Z</when>
<when >2025-09-06T23:25:59.800Z</when>
<when >2025-09-06T23:26:04.550Z</when>
<when >2025-09-06T23:26:08.740Z</when>
<when >2025-09-06T23:26:11.120Z</when>
<when >2025-09-06T23:26:14.620Z</when>
<when >2025-09-06T23:26:18.820Z</when>
<when >2025-09-06T23:26:22.590Z</when>
<when >2025-09-06T23:26:27.450Z</when>
<when >2025-09-06T23:26:36.280Z</when>
<when >2025-09-06T23:26:45.030Z</when>
<when >2025-09-06T23:26:51.840Z</when>
<when >2025-09-06T23:27:00.410Z</when>
<when >2025-09-06T23:27:06.880Z</when>
<when >2025-09-06T23:27:15.400Z</when>
<when >2025-09-06T23:27:24.170Z</when>
<when >2025-09-06T23:27:32.000Z</when>
<when >2025-09-06T23:27:40.410Z</when>
<when >2025-09-06T23:27:48.890Z</when>
<when >2025-09-06T23:27:57.340Z</when>
<when >2025-09-06T23:28:04.050Z</when>
<when >2025-09-06T23:28:12.710Z</when>
<when >2025-09-06T23:28:21.130Z</when>
<when >2025-09-06T23:28:29.880Z</when>
<when >2025-09-06T23:28:37.580Z</when>
<when >2025-09-06T23:28:40.610Z</when>
<when >2025-09-06T23:28:46.280Z</when>
<when >2025-09-06T23:28:48.370Z</when>
<when >2025-09-06T23:28:49.870Z</when>
<when >2025-09-06T23:28:52.280Z</when>
<when >2025-09-06T23:28:52.280Z</when>
<gx:coord >14.476766 35.85714 84</gx:coord>
<gx:coord >14.47624 35.856861 84</gx:coord>
<gx:coord >14.475715 35.856582 84</gx:coord>
<gx:coord >14.47546 35.8564 84</gx:coord>
<gx:coord >14.474663 35.855977 84</gx:coord>
<gx:coord >14.47437 35.85579 91</gx:coord>
<gx:coord >14.473743 35.855438 91</gx:coord>
<gx:coord >14.4725 35.854673 91</gx:coord>
<gx:coord >14.471512 35.854111 91</gx:coord>
<gx:coord >14.469967 35.853241 92</gx:coord>
<gx:coord >14.469223 35.852783 93</gx:coord>
<gx:coord >14.467793 35.852005 88</gx:coord>
<gx:coord >14.466991 35.851501 96</gx:coord>
<gx:coord >14.46619 35.851044 103</gx:coord>
<gx:coord >14.464989 35.850357 108</gx:coord>
<gx:coord >14.462917 35.849227 135</gx:coord>
<gx:coord >14.460697 35.847977 167</gx:coord>
<gx:coord >14.458826 35.846899 199</gx:coord>
<gx:coord >14.456806 35.845734 228</gx:coord>
<gx:coord >14.454861 35.844635 261</gx:coord>
<gx:coord >14.452744 35.843491 295</gx:coord>
<gx:coord >14.451084 35.842575 325</gx:coord>
<gx:coord >14.449196 35.841568 357</gx:coord>
<gx:coord >14.447547 35.840614 391</gx:coord>
<gx:coord >14.445736 35.839637 423</gx:coord>
<gx:coord >14.443632 35.83852 453</gx:coord>
<gx:coord >14.441821 35.837495 485</gx:coord>
<gx:coord >14.439011 35.835938 519</gx:coord>
<gx:coord >14.43586 35.83419 554</gx:coord>
<gx:coord >14.43212 35.832049 586</gx:coord>
<gx:coord >14.428482 35.829987 618</gx:coord>
<gx:coord >14.424591 35.827744 649</gx:coord>
<gx:coord >14.420815 35.825546 673</gx:coord>
<gx:coord >14.417267 35.823486 699</gx:coord>
<gx:coord >14.413069 35.821063 728</gx:coord>
<gx:coord >14.409913 35.8192 747</gx:coord>
<gx:coord >14.407284 35.817664 755</gx:coord>
<gx:coord >14.404362 35.815942 779</gx:coord>
<gx:coord >14.401674 35.814359 796</gx:coord>
<gx:coord >14.400096 35.813428 804</gx:coord>
<gx:coord >14.396765 35.811473 829</gx:coord>
<gx:coord >14.393843 35.80975 851</gx:coord>
<gx:coord >14.389915 35.807465 877</gx:coord>
<gx:coord >14.385338 35.804764 909</gx:coord>
<gx:coord >14.38122 35.802395 933</gx:coord>
<gx:coord >14.376838 35.800114 967</gx:coord>
<gx:coord >14.37212 35.79808 996</gx:coord>
<gx:coord >14.367897 35.796716 1021</gx:coord>
<gx:coord >14.364681 35.795929 1053</gx:coord>
<gx:coord >14.360884 35.795226 1082</gx:coord>
<gx:coord >14.357962 35.794854 1115</gx:coord>
<gx:coord >14.354897 35.794601 1146</gx:coord>
<gx:coord >14.351242 35.794435 1178</gx:coord>
<gx:coord >14.348203 35.794388 1211</gx:coord>
<gx:coord >14.344425 35.79451 1242</gx:coord>
<gx:coord >14.340534 35.79483 1277</gx:coord>
<gx:coord >14.337275 35.795226 1308</gx:coord>
<gx:coord >14.333827 35.795831 1340</gx:coord>
<gx:coord >14.33073 35.796529 1373</gx:coord>
<gx:coord >14.327374 35.797485 1407</gx:coord>
<gx:coord >14.324684 35.798355 1437</gx:coord>
<gx:coord >14.321308 35.799728 1470</gx:coord>
<gx:coord >14.318733 35.800873 1503</gx:coord>
<gx:coord >14.316062 35.802302 1536</gx:coord>
<gx:coord >14.313374 35.803978 1568</gx:coord>
<gx:coord >14.311123 35.805542 1600</gx:coord>
<gx:coord >14.309006 35.807236 1630</gx:coord>
<gx:coord >14.306537 35.809471 1663</gx:coord>
<gx:coord >14.304608 35.811473 1697</gx:coord>
<gx:coord >14.302738 35.813707 1727</gx:coord>
<gx:coord >14.300938 35.816254 1759</gx:coord>
<gx:coord >14.299221 35.819138 1792</gx:coord>
<gx:coord >14.297905 35.82193 1825</gx:coord>
<gx:coord >14.296818 35.824814 1858</gx:coord>
<gx:coord >14.295959 35.827906 1891</gx:coord>
<gx:coord >14.295434 35.831118 1921</gx:coord>
<gx:coord >14.295216 35.83374 1955</gx:coord>
<gx:coord >14.295273 35.836716 1986</gx:coord>
<gx:coord >14.295616 35.839966 2019</gx:coord>
<gx:coord >14.296246 35.843033 2051</gx:coord>
<gx:coord >14.297011 35.845689 2082</gx:coord>
<gx:coord >14.298005 35.848342 2115</gx:coord>
<gx:coord >14.298823 35.850204 2137</gx:coord>
<gx:coord >14.29985 35.852509 2168</gx:coord>
<gx:coord >14.300751 35.854394 2200</gx:coord>
<gx:coord >14.301862 35.856722 2230</gx:coord>
<gx:coord >14.303089 35.859328 2262</gx:coord>
<gx:coord >14.304258 35.861703 2294</gx:coord>
<gx:coord >14.30642 35.866404 2356</gx:coord>
<gx:coord >14.309177 35.872421 2424</gx:coord>
<gx:coord >14.311695 35.878281 2487</gx:coord>
<gx:coord >14.313927 35.883636 2553</gx:coord>
<gx:coord >14.315872 35.888306 2610</gx:coord>
<gx:coord >14.317465 35.892241 2662</gx:coord>
<gx:coord >14.319218 35.896663 2724</gx:coord>
<gx:coord >14.321088 35.901458 2790</gx:coord>
<gx:coord >14.323368 35.907257 2857</gx:coord>
<gx:coord >14.325704 35.913329 2920</gx:coord>
<gx:coord >14.328117 35.919434 2986</gx:coord>
<gx:coord >14.330578 35.925842 3046</gx:coord>
<gx:coord >14.333184 35.932369 3125</gx:coord>
<gx:coord >14.335697 35.938653 3186</gx:coord>
<gx:coord >14.337902 35.94429 3247</gx:coord>
<gx:coord >14.340191 35.950012 3307</gx:coord>
<gx:coord >14.341716 35.953736 3341</gx:coord>
<gx:coord >14.342301 35.95518 3357</gx:coord>
<gx:coord >14.344254 35.960083 3390</gx:coord>
<gx:coord >14.348717 35.971024 3438</gx:coord>
<gx:coord >14.353053 35.981714 3491</gx:coord>
<gx:coord >14.358021 35.993771 3544</gx:coord>
<gx:coord >14.362793 36.005402 3598</gx:coord>
<gx:coord >14.367085 36.015381 3648</gx:coord>
<gx:coord >14.368286 36.018127 3672</gx:coord>
<gx:coord >14.369533 36.020958 3707</gx:coord>
<gx:coord >14.372292 36.0271 3770</gx:coord>
<gx:coord >14.374866 36.032822 3831</gx:coord>
<gx:coord >14.377613 36.038727 3899</gx:coord>
<gx:coord >14.383792 36.052101 4024</gx:coord>
<gx:coord >14.389519 36.064345 4131</gx:coord>
<gx:coord >14.396954 36.080566 4245</gx:coord>
<gx:coord >14.404621 36.097458 4366</gx:coord>
<gx:coord >14.410629 36.110687 4458</gx:coord>
<gx:coord >14.416752 36.124237 4595</gx:coord>
<gx:coord >14.421893 36.135663 4686</gx:coord>
<gx:coord >14.423646 36.139526 4717</gx:coord>
<gx:coord >14.431973 36.157883 4824</gx:coord>
<gx:coord >14.439366 36.174254 4931</gx:coord>
<gx:coord >14.44416 36.184891 5029</gx:coord>
<gx:coord >14.449885 36.19753 5159</gx:coord>
<gx:coord >14.456372 36.211822 5273</gx:coord>
<gx:coord >14.463501 36.227737 5395</gx:coord>
<gx:coord >14.471156 36.244781 5517</gx:coord>
<gx:coord >14.478753 36.261679 5631</gx:coord>
<gx:coord >14.486526 36.27895 5761</gx:coord>
<gx:coord >14.494765 36.297245 5867</gx:coord>
<gx:coord >14.503356 36.316471 5973</gx:coord>
<gx:coord >14.511829 36.335232 6087</gx:coord>
<gx:coord >14.520829 36.355249 6194</gx:coord>
<gx:coord >14.529886 36.375174 6301</gx:coord>
<gx:coord >14.538403 36.393906 6415</gx:coord>
<gx:coord >14.547215 36.413269 6522</gx:coord>
<gx:coord >14.556534 36.43383 6644</gx:coord>
<gx:coord >14.565239 36.453003 6743</gx:coord>
<gx:coord >14.573994 36.472458 6865</gx:coord>
<gx:coord >14.580494 36.487784 6956</gx:coord>
<gx:coord >14.585381 36.501068 7016</gx:coord>
<gx:coord >14.590019 36.515948 7070</gx:coord>
<gx:coord >14.593584 36.529494 7138</gx:coord>
<gx:coord >14.597912 36.549408 7260</gx:coord>
<gx:coord >14.60186 36.567764 7374</gx:coord>
<gx:coord >14.604921 36.581261 7443</gx:coord>
<gx:coord >14.610386 36.604843 7534</gx:coord>
<gx:coord >14.615765 36.628006 7626</gx:coord>
<gx:coord >14.621372 36.651901 7725</gx:coord>
<gx:coord >14.626751 36.67511 7816</gx:coord>
<gx:coord >14.632359 36.699005 7908</gx:coord>
<gx:coord >14.637508 36.721527 8007</gx:coord>
<gx:coord >14.643022 36.745497 8112</gx:coord>
<gx:coord >14.6491 36.771706 8204</gx:coord>
<gx:coord >14.655002 36.797309 8303</gx:coord>
<gx:coord >14.660969 36.823105 8394</gx:coord>
<gx:coord >14.666806 36.848377 8478</gx:coord>
<gx:coord >14.670897 36.864395 8540</gx:coord>
<gx:coord >14.674403 36.875015 8576</gx:coord>
<gx:coord >14.67869 36.885852 8607</gx:coord>
<gx:coord >14.684661 36.898561 8631</gx:coord>
<gx:coord >14.697558 36.92477 8722</gx:coord>
<gx:coord >14.709022 36.948558 8813</gx:coord>
<gx:coord >14.720628 36.973022 8904</gx:coord>
<gx:coord >14.731731 36.996597 9003</gx:coord>
<gx:coord >14.742776 37.019943 9102</gx:coord>
<gx:coord >14.755515 37.046906 9186</gx:coord>
<gx:coord >14.768073 37.073457 9270</gx:coord>
<gx:coord >14.780791 37.100271 9369</gx:coord>
<gx:coord >14.794786 37.129761 9445</gx:coord>
<gx:coord >14.808927 37.15947 9521</gx:coord>
<gx:coord >14.822836 37.188675 9605</gx:coord>
<gx:coord >14.837095 37.218475 9681</gx:coord>
<gx:coord >14.85053 37.246632 9780</gx:coord>
<gx:coord >14.864911 37.276611 9856</gx:coord>
<gx:coord >14.880806 37.309845 9925</gx:coord>
<gx:coord >14.897928 37.345917 9986</gx:coord>
<gx:coord >14.911492 37.374604 10070</gx:coord>
<gx:coord >14.926037 37.404968 10146</gx:coord>
<gx:coord >14.940822 37.435684 10237</gx:coord>
<gx:coord >14.956483 37.468277 10314</gx:coord>
<gx:coord >14.972813 37.50211 10382</gx:coord>
<gx:coord >14.987631 37.532776 10466</gx:coord>
<gx:coord >15.002065 37.562714 10550</gx:coord>
<gx:coord >15.015743 37.591025 10641</gx:coord>
<gx:coord >15.027953 37.616226 10717</gx:coord>
<gx:coord >15.045955 37.653498 10771</gx:coord>
<gx:coord >15.062495 37.6879 10839</gx:coord>
<gx:coord >15.07856 37.721283 10917</gx:coord>
<gx:coord >15.095215 37.755936 10985</gx:coord>
<gx:coord >15.113506 37.793747 11038</gx:coord>
<gx:coord >15.131756 37.831374 11099</gx:coord>
<gx:coord >15.145413 37.859573 11191</gx:coord>
<gx:coord >15.160957 37.891708 11267</gx:coord>
<gx:coord >15.178209 37.927365 11335</gx:coord>
<gx:coord >15.195047 37.962 11403</gx:coord>
<gx:coord >15.21063 37.993881 11464</gx:coord>
<gx:coord >15.228512 38.030502 11472</gx:coord>
<gx:coord >15.246686 38.06781 11472</gx:coord>
<gx:coord >15.264966 38.105288 11464</gx:coord>
<gx:coord >15.283443 38.143021 11464</gx:coord>
<gx:coord >15.302085 38.180969 11464</gx:coord>
<gx:coord >15.320494 38.218456 11456</gx:coord>
<gx:coord >15.339183 38.256629 11456</gx:coord>
<gx:coord >15.357718 38.294449 11456</gx:coord>
<gx:coord >15.375951 38.331665 11456</gx:coord>
<gx:coord >15.394534 38.369247 11463</gx:coord>
<gx:coord >15.412923 38.406388 11456</gx:coord>
<gx:coord >15.431335 38.443722 11455</gx:coord>
<gx:coord >15.449829 38.481104 11447</gx:coord>
<gx:coord >15.468093 38.518158 11439</gx:coord>
<gx:coord >15.486245 38.554871 11439</gx:coord>
<gx:coord >15.504515 38.591675 11432</gx:coord>
<gx:coord >15.522888 38.628721 11432</gx:coord>
<gx:coord >15.54126 38.66587 11432</gx:coord>
<gx:coord >15.559692 38.702972 11439</gx:coord>
<gx:coord >15.577897 38.739304 11439</gx:coord>
<gx:coord >15.596406 38.776428 11447</gx:coord>
<gx:coord >15.614737 38.813004 11439</gx:coord>
<gx:coord >15.633301 38.85017 11447</gx:coord>
<gx:coord >15.651159 38.8862 11439</gx:coord>
<gx:coord >15.669495 38.923117 11432</gx:coord>
<gx:coord >15.68776 38.959579 11432</gx:coord>
<gx:coord >15.706238 38.996484 11424</gx:coord>
<gx:coord >15.724481 39.032684 11424</gx:coord>
<gx:coord >15.742798 39.069059 11424</gx:coord>
<gx:coord >15.761201 39.105652 11424</gx:coord>
<gx:coord >15.779724 39.142332 11424</gx:coord>
<gx:coord >15.798041 39.178574 11415</gx:coord>
<gx:coord >15.816528 39.21514 11415</gx:coord>
<gx:coord >15.834941 39.251541 11408</gx:coord>
<gx:coord >15.85363 39.288437 11415</gx:coord>
<gx:coord >15.872378 39.32547 11423</gx:coord>
<gx:coord >15.891541 39.363036 11431</gx:coord>
<gx:coord >15.910173 39.399673 11423</gx:coord>
<gx:coord >15.928467 39.435797 11423</gx:coord>
<gx:coord >15.947449 39.473132 11415</gx:coord>
<gx:coord >15.966125 39.509862 11408</gx:coord>
<gx:coord >15.984741 39.546219 11408</gx:coord>
<gx:coord >16.003557 39.583099 11408</gx:coord>
<gx:coord >16.0224 39.620098 11400</gx:coord>
<gx:coord >16.040994 39.656662 11408</gx:coord>
<gx:coord >16.059743 39.693283 11400</gx:coord>
<gx:coord >16.078857 39.730473 11401</gx:coord>
<gx:coord >16.097777 39.766983 11401</gx:coord>
<gx:coord >16.116699 39.803746 11409</gx:coord>
<gx:coord >16.135681 39.840662 11409</gx:coord>
<gx:coord >16.154358 39.876973 11409</gx:coord>
<gx:coord >16.172974 39.912958 11409</gx:coord>
<gx:coord >16.191725 39.949268 11409</gx:coord>
<gx:coord >16.210632 39.985703 11402</gx:coord>
<gx:coord >16.229616 40.022588 11402</gx:coord>
<gx:coord >16.24853 40.059039 11395</gx:coord>
<gx:coord >16.26709 40.094559 11395</gx:coord>
<gx:coord >16.286045 40.131008 11395</gx:coord>
<gx:coord >16.304749 40.167252 11387</gx:coord>
<gx:coord >16.323374 40.203351 11386</gx:coord>
<gx:coord >16.341919 40.238846 11378</gx:coord>
<gx:coord >16.361077 40.275413 11371</gx:coord>
<gx:coord >16.380188 40.311813 11371</gx:coord>
<gx:coord >16.398743 40.347198 11371</gx:coord>
<gx:coord >16.417542 40.383499 11363</gx:coord>
<gx:coord >16.436279 40.419388 11371</gx:coord>
<gx:coord >16.455147 40.455338 11370</gx:coord>
<gx:coord >16.473999 40.490707 11377</gx:coord>
<gx:coord >16.493103 40.526917 11377</gx:coord>
<gx:coord >16.51178 40.562622 11377</gx:coord>
<gx:coord >16.524414 40.585831 11377</gx:coord>
<gx:coord >16.536682 40.606567 11384</gx:coord>
<gx:coord >16.558777 40.642181 11384</gx:coord>
<gx:coord >16.580566 40.677383 11384</gx:coord>
<gx:coord >16.602234 40.713043 11384</gx:coord>
<gx:coord >16.623474 40.74852 11384</gx:coord>
<gx:coord >16.645081 40.784637 11376</gx:coord>
<gx:coord >16.666199 40.819794 11384</gx:coord>
<gx:coord >16.687546 40.855454 11376</gx:coord>
<gx:coord >16.708957 40.891113 11369</gx:coord>
<gx:coord >16.730055 40.926074 11369</gx:coord>
<gx:coord >16.751778 40.961873 11361</gx:coord>
<gx:coord >16.773252 40.997345 11361</gx:coord>
<gx:coord >16.794912 41.033005 11361</gx:coord>
<gx:coord >16.816711 41.068634 11361</gx:coord>
<gx:coord >16.838608 41.104509 11369</gx:coord>
<gx:coord >16.860143 41.139888 11369</gx:coord>
<gx:coord >16.881836 41.175751 11376</gx:coord>
<gx:coord >16.903714 41.211858 11376</gx:coord>
<gx:coord >16.925312 41.247517 11369</gx:coord>
<gx:coord >16.946848 41.283316 11370</gx:coord>
<gx:coord >16.968758 41.319487 11370</gx:coord>
<gx:coord >16.990845 41.35556 11370</gx:coord>
<gx:coord >17.012393 41.390572 11370</gx:coord>
<gx:coord >17.035301 41.427475 11362</gx:coord>
<gx:coord >17.057807 41.463939 11363</gx:coord>
<gx:coord >17.079496 41.49971 11363</gx:coord>
<gx:coord >17.101433 41.535536 11363</gx:coord>
<gx:coord >17.123628 41.571533 11356</gx:coord>
<gx:coord >17.145726 41.607285 11356</gx:coord>
<gx:coord >17.167511 41.642395 11357</gx:coord>
<gx:coord >17.190358 41.679108 11349</gx:coord>
<gx:coord >17.21258 41.714859 11341</gx:coord>
<gx:coord >17.23499 41.751205 11341</gx:coord>
<gx:coord >17.257337 41.787552 11341</gx:coord>
<gx:coord >17.279871 41.824036 11342</gx:coord>
<gx:coord >17.302156 41.860153 11342</gx:coord>
<gx:coord >17.324815 41.896729 11342</gx:coord>
<gx:coord >17.347537 41.933075 11342</gx:coord>
<gx:coord >17.370534 41.969636 11350</gx:coord>
<gx:coord >17.39323 42.005814 11350</gx:coord>
<gx:coord >17.416389 42.042526 11351</gx:coord>
<gx:coord >17.43986 42.079742 11351</gx:coord>
<gx:coord >17.463081 42.11673 11351</gx:coord>
<gx:coord >17.485865 42.153168 11351</gx:coord>
<gx:coord >17.509077 42.190014 11351</gx:coord>
<gx:coord >17.532327 42.22665 11343</gx:coord>
<gx:coord >17.554904 42.262344 11343</gx:coord>
<gx:coord >17.578317 42.299272 11351</gx:coord>
<gx:coord >17.601247 42.335443 11351</gx:coord>
<gx:coord >17.624754 42.372757 11343</gx:coord>
<gx:coord >17.648288 42.410065 11343</gx:coord>
<gx:coord >17.671445 42.446749 11351</gx:coord>
<gx:coord >17.695167 42.483948 11351</gx:coord>
<gx:coord >17.718584 42.520628 11351</gx:coord>
<gx:coord >17.742281 42.558009 11351</gx:coord>
<gx:coord >17.765467 42.594786 11343</gx:coord>
<gx:coord >17.788738 42.631073 11336</gx:coord>
<gx:coord >17.812209 42.667236 11335</gx:coord>
<gx:coord >17.835282 42.703113 11335</gx:coord>
<gx:coord >17.859043 42.740308 11335</gx:coord>
<gx:coord >17.882804 42.777317 11335</gx:coord>
<gx:coord >17.906373 42.813904 11335</gx:coord>
<gx:coord >17.929884 42.850404 11327</gx:coord>
<gx:coord >17.953576 42.887054 11327</gx:coord>
<gx:coord >17.977401 42.923996 11326</gx:coord>
<gx:coord >18.000706 42.960221 11326</gx:coord>
<gx:coord >18.024379 42.99695 11326</gx:coord>
<gx:coord >18.04766 43.032702 11326</gx:coord>
<gx:coord >18.07166 43.069432 11334</gx:coord>
<gx:coord >18.095463 43.106069 11334</gx:coord>
<gx:coord >18.119398 43.142752 11333</gx:coord>
<gx:coord >18.143529 43.179714 11333</gx:coord>
<gx:coord >18.167746 43.216644 11333</gx:coord>
<gx:coord >18.192117 43.253779 11333</gx:coord>
<gx:coord >18.216354 43.290985 11332</gx:coord>
<gx:coord >18.240754 43.328384 11332</gx:coord>
<gx:coord >18.26464 43.365132 11332</gx:coord>
<gx:coord >18.28877 43.402048 11324</gx:coord>
<gx:coord >18.312932 43.438797 11332</gx:coord>
<gx:coord >18.33682 43.475006 11338</gx:coord>
<gx:coord >18.361156 43.511765 11338</gx:coord>
<gx:coord >18.385816 43.549106 11338</gx:coord>
<gx:coord >18.409816 43.585371 11331</gx:coord>
<gx:coord >18.434666 43.622752 11331</gx:coord>
<gx:coord >18.459189 43.659528 11331</gx:coord>
<gx:coord >18.48332 43.695839 11331</gx:coord>
<gx:coord >18.507492 43.73204 11330</gx:coord>
<gx:coord >18.532497 43.769531 11330</gx:coord>
<gx:coord >18.557151 43.80654 11330</gx:coord>
<gx:coord >18.581841 43.843552 11322</gx:coord>
<gx:coord >18.606433 43.880081 11330</gx:coord>
<gx:coord >18.631216 43.91684 11322</gx:coord>
<gx:coord >18.656063 43.953964 11322</gx:coord>
<gx:coord >18.68059 43.990677 11322</gx:coord>
<gx:coord >18.705309 44.027435 11322</gx:coord>
<gx:coord >18.730093 44.064377 11322</gx:coord>
<gx:coord >18.755362 44.101868 11322</gx:coord>
<gx:coord >18.780409 44.138737 11322</gx:coord>
<gx:coord >18.805336 44.175476 11323</gx:coord>
<gx:coord >18.830767 44.213034 11323</gx:coord>
<gx:coord >18.855085 44.248926 11323</gx:coord>
<gx:coord >18.879804 44.285237 11323</gx:coord>
<gx:coord >18.904992 44.322246 11323</gx:coord>
<gx:coord >18.930555 44.359589 11323</gx:coord>
<gx:coord >18.955636 44.396124 11323</gx:coord>
<gx:coord >18.980974 44.432877 11323</gx:coord>
<gx:coord >19.006147 44.469304 11323</gx:coord>
<gx:coord >19.031871 44.506546 11316</gx:coord>
<gx:coord >19.057356 44.543289 11324</gx:coord>
<gx:coord >19.082794 44.580048 11324</gx:coord>
<gx:coord >19.107644 44.616165 11324</gx:coord>
<gx:coord >19.132824 44.65272 11324</gx:coord>
<gx:coord >19.157802 44.689133 11324</gx:coord>
<gx:coord >19.183067 44.725994 11324</gx:coord>
<gx:coord >19.208287 44.762741 11324</gx:coord>
<gx:coord >19.233529 44.799408 11324</gx:coord>
<gx:coord >19.258772 44.835892 11324</gx:coord>
<gx:coord >19.28469 44.873052 11324</gx:coord>
<gx:coord >19.29561 44.889485 11324</gx:coord>
<gx:coord >19.301409 44.89975 11324</gx:coord>
<gx:coord >19.305658 44.908711 11324</gx:coord>
<gx:coord >19.309878 44.91979 11324</gx:coord>
<gx:coord >19.314488 44.93541 11324</gx:coord>
<gx:coord >19.325688 44.975607 11324</gx:coord>
<gx:coord >19.337899 45.015152 11324</gx:coord>
<gx:coord >19.350913 45.055939 11316</gx:coord>
<gx:coord >19.363534 45.095398 11316</gx:coord>
<gx:coord >19.376198 45.135467 11316</gx:coord>
<gx:coord >19.388777 45.176193 11324</gx:coord>
<gx:coord >19.400985 45.215956 11324</gx:coord>
<gx:coord >19.413365 45.255936 11332</gx:coord>
<gx:coord >19.425436 45.294815 11332</gx:coord>
<gx:coord >19.438499 45.336014 11332</gx:coord>
<gx:coord >19.451361 45.376002 11332</gx:coord>
<gx:coord >19.464242 45.41684 11332</gx:coord>
<gx:coord >19.476667 45.45639 11332</gx:coord>
<gx:coord >19.489612 45.497318 11324</gx:coord>
<gx:coord >19.502106 45.537506 11324</gx:coord>
<gx:coord >19.514671 45.577899 11316</gx:coord>
<gx:coord >19.52726 45.618118 11316</gx:coord>
<gx:coord >19.539988 45.65863 11317</gx:coord>
<gx:coord >19.552917 45.698935 11317</gx:coord>
<gx:coord >19.566101 45.739808 11317</gx:coord>
<gx:coord >19.578977 45.779709 11317</gx:coord>
<gx:coord >19.591973 45.819946 11317</gx:coord>
<gx:coord >19.600777 45.847996 11317</gx:coord>
<gx:coord >19.604416 45.862799 11317</gx:coord>
<gx:coord >19.606819 45.876858 11317</gx:coord>
<gx:coord >19.612724 45.918476 11325</gx:coord>
<gx:coord >19.619103 45.95961 11317</gx:coord>
<gx:coord >19.625601 45.999985 11317</gx:coord>
<gx:coord >19.632088 46.041048 11317</gx:coord>
<gx:coord >19.638463 46.082108 11317</gx:coord>
<gx:coord >19.644694 46.122849 11317</gx:coord>
<gx:coord >19.65097 46.163434 11310</gx:coord>
<gx:coord >19.657494 46.204353 11310</gx:coord>
<gx:coord >19.664085 46.245831 11302</gx:coord>
<gx:coord >19.670485 46.286591 11302</gx:coord>
<gx:coord >19.676916 46.328293 11310</gx:coord>
<gx:coord >19.68328 46.369629 11310</gx:coord>
<gx:coord >19.689835 46.411231 11302</gx:coord>
<gx:coord >19.696611 46.452988 11302</gx:coord>
<gx:coord >19.703087 46.494141 11302</gx:coord>
<gx:coord >19.709747 46.535851 11310</gx:coord>
<gx:coord >19.716202 46.57705 11317</gx:coord>
<gx:coord >19.722862 46.618901 11317</gx:coord>
<gx:coord >19.729317 46.659867 11318</gx:coord>
<gx:coord >19.735909 46.700553 11318</gx:coord>
<gx:coord >19.7425 46.741845 11318</gx:coord>
<gx:coord >19.749229 46.783277 11318</gx:coord>
<gx:coord >19.75589 46.824568 11318</gx:coord>
<gx:coord >19.76255 46.865674 11318</gx:coord>
<gx:coord >19.769211 46.90686 11318</gx:coord>
<gx:coord >19.775803 46.947556 11311</gx:coord>
<gx:coord >19.782574 46.988991 11311</gx:coord>
<gx:coord >19.789261 47.030685 11311</gx:coord>
<gx:coord >19.795955 47.07218 11311</gx:coord>
<gx:coord >19.802719 47.11377 11311</gx:coord>
<gx:coord >19.80938 47.154877 11303</gx:coord>
<gx:coord >19.816246 47.196854 11311</gx:coord>
<gx:coord >19.822928 47.237813 11311</gx:coord>
<gx:coord >19.829567 47.278656 11303</gx:coord>
<gx:coord >19.836227 47.319626 11303</gx:coord>
<gx:coord >19.842928 47.360804 11303</gx:coord>
<gx:coord >19.849619 47.402095 11303</gx:coord>
<gx:coord >19.856346 47.442947 11303</gx:coord>
<gx:coord >19.863211 47.484679 11303</gx:coord>
<gx:coord >19.87001 47.525848 11303</gx:coord>
<gx:coord >19.876803 47.56717 11303</gx:coord>
<gx:coord >19.883675 47.609024 11296</gx:coord>
<gx:coord >19.890677 47.650917 11303</gx:coord>
<gx:coord >19.897649 47.69314 11303</gx:coord>
<gx:coord >19.904617 47.734772 11303</gx:coord>
<gx:coord >19.911415 47.776062 11303</gx:coord>
<gx:coord >19.918354 47.817621 11303</gx:coord>
<gx:coord >19.925354 47.859604 11303</gx:coord>
<gx:coord >19.932495 47.901901 11311</gx:coord>
<gx:coord >19.939499 47.943283 11311</gx:coord>
<gx:coord >19.946524 47.985348 11311</gx:coord>
<gx:coord >19.953496 48.027339 11311</gx:coord>
<gx:coord >19.960373 48.06871 11311</gx:coord>
<gx:coord >19.967445 48.110184 11303</gx:coord>
<gx:coord >19.974586 48.152069 11303</gx:coord>
<gx:coord >19.981673 48.193996 11303</gx:coord>
<gx:coord >19.988612 48.235334 11303</gx:coord>
<gx:coord >19.995751 48.277267 11296</gx:coord>
<gx:coord >20.002779 48.318802 11303</gx:coord>
<gx:coord >20.009977 48.361038 11303</gx:coord>
<gx:coord >20.017162 48.403015 11303</gx:coord>
<gx:coord >20.024132 48.444214 11296</gx:coord>
<gx:coord >20.031175 48.485596 11296</gx:coord>
<gx:coord >20.03834 48.527682 11296</gx:coord>
<gx:coord >20.045682 48.56987 11296</gx:coord>
<gx:coord >20.052795 48.61116 11303</gx:coord>
<gx:coord >20.059951 48.652814 11303</gx:coord>
<gx:coord >20.067092 48.694519 11303</gx:coord>
<gx:coord >20.074334 48.736748 11311</gx:coord>
<gx:coord >20.08167 48.77861 11296</gx:coord>
<gx:coord >20.089064 48.820358 11296</gx:coord>
<gx:coord >20.096459 48.86261 11296</gx:coord>
<gx:coord >20.103679 48.903871 11296</gx:coord>
<gx:coord >20.11098 48.945721 11288</gx:coord>
<gx:coord >20.11828 48.987944 11296</gx:coord>
<gx:coord >20.12558 49.030632 11296</gx:coord>
<gx:coord >20.132735 49.072343 11297</gx:coord>
<gx:coord >20.140252 49.115125 11297</gx:coord>
<gx:coord >20.147697 49.156975 11289</gx:coord>
<gx:coord >20.155142 49.199012 11304</gx:coord>
<gx:coord >20.162659 49.241547 11304</gx:coord>
<gx:coord >20.170103 49.284668 11312</gx:coord>
<gx:coord >20.177448 49.326599 11319</gx:coord>
<gx:coord >20.182589 49.352234 11313</gx:coord>
<gx:coord >20.188927 49.377502 11313</gx:coord>
<gx:coord >20.200688 49.419846 11305</gx:coord>
<gx:coord >20.212097 49.46138 11290</gx:coord>
<gx:coord >20.223232 49.503603 11282</gx:coord>
<gx:coord >20.23154 49.535889 11282</gx:coord>
<gx:coord >20.247225 49.59668 11276</gx:coord>
<gx:coord >20.252034 49.615003 11283</gx:coord>
<gx:coord >20.292881 49.796966 11299</gx:coord>
<gx:coord >20.303981 49.81798 11299</gx:coord>
<gx:coord >20.30918 49.837268 11299</gx:coord>
<gx:coord >20.314567 49.854974 11300</gx:coord>
<gx:coord >20.317109 49.868693 11300</gx:coord>
<gx:coord >20.984879 51.71544 2062</gx:coord>
<gx:coord >20.987396 51.72205 2032</gx:coord>
<gx:coord >20.989838 51.728521 2002</gx:coord>
<gx:coord >20.992508 51.735411 1971</gx:coord>
<gx:coord >20.995096 51.741989 1941</gx:coord>
<gx:coord >20.997842 51.749084 1910</gx:coord>
<gx:coord >21.000515 51.755814 1879</gx:coord>
<gx:coord >21.003113 51.762318 1849</gx:coord>
<gx:coord >21.005785 51.769089 1817</gx:coord>
<gx:coord >21.008235 51.775314 1782</gx:coord>
<gx:coord >21.010361 51.780706 1750</gx:coord>
<gx:coord >21.012726 51.786711 1719</gx:coord>
<gx:coord >21.014786 51.792204 1688</gx:coord>
<gx:coord >21.016998 51.797837 1653</gx:coord>
<gx:coord >21.018906 51.802958 1621</gx:coord>
<gx:coord >21.021194 51.809103 1590</gx:coord>
<gx:coord >21.023178 51.814549 1560</gx:coord>
<gx:coord >21.024863 51.819168 1529</gx:coord>
<gx:coord >21.026764 51.824418 1499</gx:coord>
<gx:coord >21.028671 51.829539 1468</gx:coord>
<gx:coord >21.030731 51.835219 1438</gx:coord>
<gx:coord >21.032954 51.841049 1410</gx:coord>
<gx:coord >21.035004 51.846577 1373</gx:coord>
<gx:coord >21.03714 51.852257 1345</gx:coord>
<gx:coord >21.03919 51.857849 1311</gx:coord>
<gx:coord >21.04126 51.863383 1283</gx:coord>
<gx:coord >21.043472 51.869202 1248</gx:coord>
<gx:coord >21.046316 51.876892 1217</gx:coord>
<gx:coord >21.049137 51.884262 1187</gx:coord>
<gx:coord >21.052477 51.892914 1156</gx:coord>
<gx:coord >21.055533 51.900764 1120</gx:coord>
<gx:coord >21.058578 51.908615 1095</gx:coord>
<gx:coord >21.061183 51.915195 1064</gx:coord>
<gx:coord >21.06393 51.922225 1029</gx:coord>
<gx:coord >21.06699 51.929999 1003</gx:coord>
<gx:coord >21.069972 51.937354 967</gx:coord>
<gx:coord >21.073074 51.944962 951</gx:coord>
<gx:coord >21.078997 51.959653 936</gx:coord>
<gx:coord >21.087472 51.98102 928</gx:coord>
<gx:coord >21.088728 51.984325 928</gx:coord>
<gx:coord >21.090846 51.989493 928</gx:coord>
<gx:coord >21.092453 51.99353 928</gx:coord>
<gx:coord >21.094208 51.997879 928</gx:coord>
<gx:coord >21.095352 52.000671 928</gx:coord>
<gx:coord >21.096967 52.005227 928</gx:coord>
<gx:coord >21.097641 52.008224 928</gx:coord>
<gx:coord >21.097752 52.01072 928</gx:coord>
<gx:coord >21.09726 52.013397 928</gx:coord>
<gx:coord >21.09642 52.015915 928</gx:coord>
<gx:coord >21.094894 52.018845 936</gx:coord>
<gx:coord >21.093358 52.021055 936</gx:coord>
<gx:coord >21.090219 52.024965 936</gx:coord>
<gx:coord >21.083156 52.032972 928</gx:coord>
<gx:coord >21.080933 52.035461 929</gx:coord>
<gx:coord >21.079407 52.037155 929</gx:coord>
<gx:coord >21.077881 52.038849 921</gx:coord>
<gx:coord >21.074142 52.043152 895</gx:coord>
<gx:coord >21.070757 52.047031 860</gx:coord>
<gx:coord >21.067276 52.05098 829</gx:coord>
<gx:coord >21.063145 52.05569 792</gx:coord>
<gx:coord >21.059692 52.05974 768</gx:coord>
<gx:coord >21.05629 52.06366 738</gx:coord>
<gx:coord >21.05263 52.067794 707</gx:coord>
<gx:coord >21.049805 52.071006 692</gx:coord>
<gx:coord >21.04745 52.073706 677</gx:coord>
<gx:coord >21.046143 52.075241 669</gx:coord>
<gx:coord >21.044312 52.077347 654</gx:coord>
<gx:coord >21.042036 52.079944 631</gx:coord>
<gx:coord >21.040152 52.082132 616</gx:coord>
<gx:coord >21.03772 52.084878 593</gx:coord>
<gx:coord >21.033554 52.089706 562</gx:coord>
<gx:coord >21.029434 52.094421 540</gx:coord>
<gx:coord >21.026263 52.098006 509</gx:coord>
<gx:coord >21.02226 52.102661 486</gx:coord>
<gx:coord >21.019211 52.10614 456</gx:coord>
<gx:coord >21.015119 52.110808 418</gx:coord>
<gx:coord >21.010971 52.115524 387</gx:coord>
<gx:coord >21.00735 52.119839 357</gx:coord>
<gx:coord >21.003342 52.124313 326</gx:coord>
<gx:coord >20.999346 52.128917 296</gx:coord>
<gx:coord >20.995407 52.133469 273</gx:coord>
<gx:coord >20.992203 52.137085 242</gx:coord>
<gx:coord >20.988159 52.141754 212</gx:coord>
<gx:coord >20.984192 52.146286 181</gx:coord>
<gx:coord >20.980148 52.150864 151</gx:coord>
<gx:coord >20.976486 52.154984 122</gx:coord>
<gx:coord >20.975176 52.156522 117</gx:coord>
<gx:coord >20.972595 52.159378 113</gx:coord>
<gx:coord >20.971603 52.160568 105</gx:coord>
<gx:coord >20.971017 52.161224 105</gx:coord>
<gx:coord >20.970154 52.162341 105</gx:coord>
<gx:coord >20.970154 52.162341 105</gx:coord>
</gx:Track>
</Placemark>
<Placemark ><name >9H-WBZ</name>
<Style ><LineStyle ><color >ff1c1ae3</color>
<width >4</width>
</LineStyle>
<IconStyle ><Icon ><href >http://maps.google.com/mapfiles/kml/shapes/airports.png</href>
</Icon>
</IconStyle>
</Style>
<gx:Track ><extrude >0</extrude>
<when >2025-09-06T23:28:53.490Z</when>
<when >2025-09-06T23:28:54.560Z</when>
<when >2025-09-06T23:28:55.560Z</when>
<when >2025-09-06T23:28:56.600Z</when>
<when >2025-09-06T23:28:58.710Z</when>
<when >2025-09-06T23:28:59.700Z</when>
<when >2025-09-06T23:29:01.110Z</when>
<when >2025-09-06T23:29:03.550Z</when>
<when >2025-09-06T23:29:06.510Z</when>
<when >2025-09-06T23:29:07.950Z</when>
<when >2025-09-06T23:29:09.480Z</when>
<when >2025-09-06T23:29:10.990Z</when>
<when >2025-09-06T23:29:12.590Z</when>
<when >2025-09-06T23:29:14.150Z</when>
<when >2025-09-06T23:29:17.710Z</when>
<when >2025-09-06T23:29:19.110Z</when>
<when >2025-09-06T23:29:21.150Z</when>
<when >2025-09-06T23:29:23.760Z</when>
<when >2025-09-06T23:29:26.370Z</when>
<when >2025-09-06T23:29:28.930Z</when>
<when >2025-09-06T23:29:30.750Z</when>
<when >2025-09-06T23:29:32.040Z</when>
<when >2025-09-06T23:29:33.590Z</when>
<when >2025-09-06T23:29:34.920Z</when>
<when >2025-09-06T23:29:36.990Z</when>
<when >2025-09-06T23:29:38.910Z</when>
<when >2025-09-06T23:29:41.130Z</when>
<when >2025-09-06T23:29:43.400Z</when>
<when >2025-09-06T23:29:47.320Z</when>
<when >2025-09-06T23:29:50.990Z</when>
<when >2025-09-06T23:29:58.300Z</when>
<when >2025-09-06T23:30:00.820Z</when>
<when >2025-09-06T23:30:03.210Z</when>
<when >2025-09-06T23:30:05.010Z</when>
<when >2025-09-06T23:30:06.810Z</when>
<when >2025-09-06T23:30:08.840Z</when>
<when >2025-09-06T23:30:11.080Z</when>
<when >2025-09-06T23:30:13.760Z</when>
<when >2025-09-06T23:30:17.280Z</when>
<when >2025-09-06T23:30:22.110Z</when>
<when >2025-09-06T23:30:30.100Z</when>
<when >2025-09-06T23:30:34.090Z</when>
<when >2025-09-06T23:30:40.280Z</when>
<when >2025-09-06T23:30:43.970Z</when>
<when >2025-09-06T23:30:46.100Z</when>
<when >2025-09-06T23:30:49.630Z</when>
<when >2025-09-06T23:30:51.870Z</when>
<when >2025-09-06T23:30:53.210Z</when>
<when >2025-09-06T23:30:54.770Z</when>
<when >2025-09-06T23:30:56.570Z</when>
<when >2025-09-06T23:30:58.470Z</when>
<when >2025-09-06T23:31:02.130Z</when>
<when >2025-09-06T23:31:08.580Z</when>
<when >2025-09-06T23:31:16.230Z</when>
<when >2025-09-06T23:31:25.570Z</when>
<when >2025-09-06T23:31:34.170Z</when>
<when >2025-09-06T23:31:36.260Z</when>
<when >2025-09-06T23:31:40.680Z</when>
<when >2025-09-06T23:31:45.060Z</when>
<when >2025-09-06T23:31:47.170Z</when>
<when >2025-09-06T23:31:54.590Z</when>
<when >2025-09-06T23:31:57.610Z</when>
<when >2025-09-06T23:32:01.880Z</when>
<when >2025-09-06T23:32:04.830Z</when>
<when >2025-09-06T23:32:24.230Z</when>
<when >2025-09-06T23:33:00.200Z</when>
<when >2025-09-06T23:33:15.640Z</when>
<when >2025-09-06T23:33:20.710Z</when>
<when >2025-09-06T23:33:20.710Z</when>
<gx:coord >20.969781 52.162748 0</gx:coord>
<gx:coord >20.969391 52.163177 0</gx:coord>
<gx:coord >20.969086 52.163544 0</gx:coord>
<gx:coord >20.968761 52.163901 0</gx:coord>
<gx:coord >20.96817 52.164574 0</gx:coord>
<gx:coord >20.967922 52.16486 0</gx:coord>
<gx:coord >20.96756 52.165272 0</gx:coord>
<gx:coord >20.967045 52.165855 0</gx:coord>
<gx:coord >20.966415 52.166588 0</gx:coord>
<gx:coord >20.96611 52.166931 0</gx:coord>
<gx:coord >20.965818 52.167264 0</gx:coord>
<gx:coord >20.965563 52.167578 0</gx:coord>
<gx:coord >20.965252 52.167904 0</gx:coord>
<gx:coord >20.964966 52.168236 0</gx:coord>
<gx:coord >20.964445 52.168835 0</gx:coord>
<gx:coord >20.964184 52.169128 0</gx:coord>
<gx:coord >20.963915 52.16944 0</gx:coord>
<gx:coord >20.963582 52.169813 0</gx:coord>
<gx:coord >20.963287 52.17017 0</gx:coord>
<gx:coord >20.963013 52.170511 0</gx:coord>
<gx:coord >20.962887 52.170719 0</gx:coord>
<gx:coord >20.962777 52.170918 0</gx:coord>
<gx:coord >20.962696 52.171131 0</gx:coord>
<gx:coord >20.962601 52.171349 0</gx:coord>
<gx:coord >20.962522 52.171605 0</gx:coord>
<gx:coord >20.962467 52.171864 0</gx:coord>
<gx:coord >20.962448 52.172115 0</gx:coord>
<gx:coord >20.962444 52.172361 0</gx:coord>
<gx:coord >20.962444 52.172722 0</gx:coord>
<gx:coord >20.962463 52.173048 0</gx:coord>
<gx:coord >20.962483 52.17349 0</gx:coord>
<gx:coord >20.962503 52.173607 0</gx:coord>
<gx:coord >20.962561 52.173711 0</gx:coord>
<gx:coord >20.96262 52.173781 0</gx:coord>
<gx:coord >20.962677 52.173855 0</gx:coord>
<gx:coord >20.962777 52.173921 0</gx:coord>
<gx:coord >20.962915 52.173991 0</gx:coord>
<gx:coord >20.963116 52.174061 0</gx:coord>
<gx:coord >20.963366 52.174142 0</gx:coord>
<gx:coord >20.963719 52.174258 0</gx:coord>
<gx:coord >20.964317 52.17445 0</gx:coord>
<gx:coord >20.964622 52.174553 0</gx:coord>
<gx:coord >20.965131 52.174724 0</gx:coord>
<gx:coord >20.965366 52.174805 0</gx:coord>
<gx:coord >20.9655 52.174885 0</gx:coord>
<gx:coord >20.965633 52.175045 0</gx:coord>
<gx:coord >20.965661 52.175143 0</gx:coord>
<gx:coord >20.965672 52.175217 0</gx:coord>
<gx:coord >20.965642 52.175283 0</gx:coord>
<gx:coord >20.965595 52.175365 0</gx:coord>
<gx:coord >20.965524 52.175457 0</gx:coord>
<gx:coord >20.965385 52.175606 0</gx:coord>
<gx:coord >20.965131 52.175911 0</gx:coord>
<gx:coord >20.964798 52.176295 0</gx:coord>
<gx:coord >20.964451 52.176682 0</gx:coord>
<gx:coord >20.964241 52.176933 0</gx:coord>
<gx:coord >20.96419 52.17697 0</gx:coord>
<gx:coord >20.964013 52.176959 0</gx:coord>
<gx:coord >20.963876 52.1769 0</gx:coord>
<gx:coord >20.963821 52.176865 0</gx:coord>
<gx:coord >20.963621 52.176784 0</gx:coord>
<gx:coord >20.963523 52.176761 0</gx:coord>
<gx:coord >20.963385 52.176714 0</gx:coord>
<gx:coord >20.963307 52.176679 0</gx:coord>
<gx:coord >20.962758 52.176505 0</gx:coord>
<gx:coord >20.962777 52.176505 0</gx:coord>
<gx:coord >20.962772 52.176498 0</gx:coord>
<gx:coord >20.962772 52.176498 0</gx:coord>
<gx:coord >20.962772 52.176498 0</gx:coord>
</gx:Track>
</Placemark>
</Folder>
</Folder>
</kml>
