<?xml version="1.0" encoding="UTF-8"?>
<kml xmlns="http://www.opengis.net/kml/2.2" xmlns:gx="http://www.google.com/kml/ext/2.2"><Folder ><Folder ><name >HA-LGM track</name>
<Placemark ><name >HA-LGM</name>
<Style ><LineStyle ><color >ff1c1ae3</color>
<width >4</width>
</LineStyle>
<IconStyle ><Icon ><href >http://maps.google.com/mapfiles/kml/shapes/airports.png</href>
</Icon>
</IconStyle>
</Style>
<gx:Track ><extrude >0</extrude>
<when >2025-08-09T10:30:43.990Z</when>
<when >2025-08-09T10:30:43.990Z</when>
<when >2025-08-09T10:31:28.420Z</when>
<when >2025-08-09T10:31:44.460Z</when>
<when >2025-08-09T10:32:04.520Z</when>
<when >2025-08-09T10:32:13.790Z</when>
<when >2025-08-09T10:32:38.610Z</when>
<when >2025-08-09T10:32:53.290Z</when>
<when >2025-08-09T10:33:12.710Z</when>
<when >2025-08-09T10:33:14.750Z</when>
<when >2025-08-09T10:33:33.420Z</when>
<when >2025-08-09T10:33:48.260Z</when>
<when >2025-08-09T10:34:03.980Z</when>
<when >2025-08-09T10:34:14.100Z</when>
<when >2025-08-09T10:34:38.830Z</when>
<when >2025-08-09T10:35:47.670Z</when>
<when >2025-08-09T10:35:53.660Z</when>
<when >2025-08-09T10:35:57.180Z</when>
<when >2025-08-09T10:36:00.050Z</when>
<when >2025-08-09T10:36:03.000Z</when>
<when >2025-08-09T10:36:07.310Z</when>
<when >2025-08-09T10:36:09.790Z</when>
<when >2025-08-09T10:36:12.350Z</when>
<when >2025-08-09T10:36:16.480Z</when>
<when >2025-08-09T10:36:18.290Z</when>
<when >2025-08-09T10:36:20.460Z</when>
<when >2025-08-09T10:36:21.720Z</when>
<when >2025-08-09T10:36:24.680Z</when>
<when >2025-08-09T10:36:26.430Z</when>
<when >2025-08-09T10:36:30.440Z</when>
<when >2025-08-09T10:36:39.750Z</when>
<when >2025-08-09T10:36:48.740Z</when>
<when >2025-08-09T10:36:56.320Z</when>
<when >2025-08-09T10:37:01.190Z</when>
<when >2025-08-09T10:37:06.510Z</when>
<when >2025-08-09T10:37:15.510Z</when>
<when >2025-08-09T10:37:21.500Z</when>
<when >2025-08-09T10:37:27.150Z</when>
<when >2025-08-09T10:37:31.110Z</when>
<when >2025-08-09T10:37:38.220Z</when>
<when >2025-08-09T10:37:41.150Z</when>
<when >2025-08-09T10:37:47.920Z</when>
<when >2025-08-09T10:37:54.000Z</when>
<when >2025-08-09T10:37:58.260Z</when>
<when >2025-08-09T10:38:05.870Z</when>
<when >2025-08-09T10:38:14.510Z</when>
<when >2025-08-09T10:38:23.730Z</when>
<when >2025-08-09T10:38:31.440Z</when>
<when >2025-08-09T10:38:38.100Z</when>
<when >2025-08-09T10:38:44.950Z</when>
<when >2025-08-09T10:39:00.420Z</when>
<when >2025-08-09T10:39:08.270Z</when>
<when >2025-08-09T10:39:12.630Z</when>
<when >2025-08-09T10:39:15.430Z</when>
<when >2025-08-09T10:39:18.200Z</when>
<when >2025-08-09T10:39:20.800Z</when>
<when >2025-08-09T10:39:24.300Z</when>
<when >2025-08-09T10:39:27.740Z</when>
<when >2025-08-09T10:39:32.320Z</when>
<when >2025-08-09T10:39:37.540Z</when>
<when >2025-08-09T10:39:45.270Z</when>
<when >2025-08-09T10:39:47.930Z</when>
<when >2025-08-09T10:39:49.520Z</when>
<when >2025-08-09T10:39:51.840Z</when>
<when >2025-08-09T10:39:53.080Z</when>
<when >2025-08-09T10:39:55.610Z</when>
<when >2025-08-09T10:40:00.280Z</when>
<when >2025-08-09T10:40:06.180Z</when>
<when >2025-08-09T10:40:12.590Z</when>
<when >2025-08-09T10:40:16.820Z</when>
<when >2025-08-09T10:40:20.820Z</when>
<when >2025-08-09T10:40:22.170Z</when>
<when >2025-08-09T10:40:27.320Z</when>
<when >2025-08-09T10:40:28.020Z</when>
<when >2025-08-09T10:40:28.440Z</when>
<when >2025-08-09T10:40:32.970Z</when>
<when >2025-08-09T10:40:34.530Z</when>
<when >2025-08-09T10:40:35.430Z</when>
<when >2025-08-09T10:40:36.270Z</when>
<when >2025-08-09T10:40:37.310Z</when>
<when >2025-08-09T10:40:38.170Z</when>
<when >2025-08-09T10:40:38.170Z</when>
<gx:coord >20.967884 52.170456 0</gx:coord>
<gx:coord >20.967884 52.170456 0</gx:coord>
<gx:coord >20.967878 52.170452 0</gx:coord>
<gx:coord >20.967878 52.170452 0</gx:coord>
<gx:coord >20.967884 52.170456 0</gx:coord>
<gx:coord >20.967878 52.170453 0</gx:coord>
<gx:coord >20.967884 52.170456 0</gx:coord>
<gx:coord >20.967878 52.170453 0</gx:coord>
<gx:coord >20.967884 52.170456 0</gx:coord>
<gx:coord >20.967878 52.170453 0</gx:coord>
<gx:coord >20.967878 52.170453 0</gx:coord>
<gx:coord >20.967878 52.170453 0</gx:coord>
<gx:coord >20.967878 52.170453 0</gx:coord>
<gx:coord >20.967884 52.170456 0</gx:coord>
<gx:coord >20.967884 52.170456 0</gx:coord>
<gx:coord >20.967741 52.170464 0</gx:coord>
<gx:coord >20.967643 52.170464 0</gx:coord>
<gx:coord >20.967598 52.170467 0</gx:coord>
<gx:coord >20.967545 52.170453 0</gx:coord>
<gx:coord >20.967486 52.17043 0</gx:coord>
<gx:coord >20.967407 52.170395 0</gx:coord>
<gx:coord >20.96735 52.170376 0</gx:coord>
<gx:coord >20.967312 52.170341 0</gx:coord>
<gx:coord >20.967255 52.170261 0</gx:coord>
<gx:coord >20.967231 52.17022 0</gx:coord>
<gx:coord >20.96725 52.17015 0</gx:coord>
<gx:coord >20.96727 52.170104 0</gx:coord>
<gx:coord >20.96735 52.170033 0</gx:coord>
<gx:coord >20.967407 52.169987 0</gx:coord>
<gx:coord >20.967522 52.169872 0</gx:coord>
<gx:coord >20.9678 52.169557 0</gx:coord>
<gx:coord >20.968113 52.169197 0</gx:coord>
<gx:coord >20.968427 52.168824 0</gx:coord>
<gx:coord >20.968702 52.168521 0</gx:coord>
<gx:coord >20.968952 52.168247 0</gx:coord>
<gx:coord >20.969467 52.167652 0</gx:coord>
<gx:coord >20.969781 52.167299 0</gx:coord>
<gx:coord >20.970095 52.166926 0</gx:coord>
<gx:coord >20.970249 52.166771 0</gx:coord>
<gx:coord >20.970726 52.166588 0</gx:coord>
<gx:coord >20.970898 52.166542 0</gx:coord>
<gx:coord >20.971375 52.166405 0</gx:coord>
<gx:coord >20.97188 52.166263 0</gx:coord>
<gx:coord >20.972194 52.166182 0</gx:coord>
<gx:coord >20.972824 52.166004 0</gx:coord>
<gx:coord >20.973489 52.165821 0</gx:coord>
<gx:coord >20.974274 52.165592 0</gx:coord>
<gx:coord >20.974922 52.165409 0</gx:coord>
<gx:coord >20.975571 52.165226 0</gx:coord>
<gx:coord >20.976118 52.165076 0</gx:coord>
<gx:coord >20.978178 52.164494 0</gx:coord>
<gx:coord >20.979316 52.16418 0</gx:coord>
<gx:coord >20.979904 52.164005 0</gx:coord>
<gx:coord >20.980339 52.163887 0</gx:coord>
<gx:coord >20.980944 52.163726 0</gx:coord>
<gx:coord >20.98135 52.163601 0</gx:coord>
<gx:coord >20.981944 52.163435 0</gx:coord>
<gx:coord >20.982513 52.16328 0</gx:coord>
<gx:coord >20.983162 52.163097 0</gx:coord>
<gx:coord >20.98373 52.162935 0</gx:coord>
<gx:coord >20.984377 52.162748 0</gx:coord>
<gx:coord >20.984573 52.162617 0</gx:coord>
<gx:coord >20.984669 52.162514 0</gx:coord>
<gx:coord >20.984707 52.162365 0</gx:coord>
<gx:coord >20.984707 52.162273 0</gx:coord>
<gx:coord >20.984592 52.16209 0</gx:coord>
<gx:coord >20.984416 52.161852 0</gx:coord>
<gx:coord >20.984135 52.161461 0</gx:coord>
<gx:coord >20.983514 52.161235 0</gx:coord>
<gx:coord >20.983009 52.161289 0</gx:coord>
<gx:coord >20.982571 52.161392 0</gx:coord>
<gx:coord >20.982304 52.161461 0</gx:coord>
<gx:coord >20.981503 52.161701 0</gx:coord>
<gx:coord >20.981255 52.16177 0</gx:coord>
<gx:coord >20.981101 52.161817 0</gx:coord>
<gx:coord >20.979433 52.162295 0</gx:coord>
<gx:coord >20.978786 52.162469 0</gx:coord>
<gx:coord >20.978203 52.16264 0</gx:coord>
<gx:coord >20.977631 52.1628 0</gx:coord>
<gx:coord >20.977039 52.16296 0</gx:coord>
<gx:coord >20.976412 52.163144 0</gx:coord>
<gx:coord >20.976412 52.163144 0</gx:coord>
</gx:Track>
</Placemark>
<Placemark ><name >HA-LGM</name>
<Style ><LineStyle ><color >ff1c1ae3</color>
<width >4</width>
</LineStyle>
<IconStyle ><Icon ><href >http://maps.google.com/mapfiles/kml/shapes/airports.png</href>
</Icon>
</IconStyle>
</Style>
<gx:Track ><altitudeMode >absolute</altitudeMode>
<extrude >1</extrude>
<when >2025-08-09T10:40:39.040Z</when>
<when >2025-08-09T10:40:39.850Z</when>
<when >2025-08-09T10:40:42.700Z</when>
<when >2025-08-09T10:40:44.290Z</when>
<when >2025-08-09T10:40:46.690Z</when>
<when >2025-08-09T10:40:47.650Z</when>
<when >2025-08-09T10:40:48.440Z</when>
<when >2025-08-09T10:40:49.710Z</when>
<when >2025-08-09T10:40:50.000Z</when>
<when >2025-08-09T10:40:51.820Z</when>
<when >2025-08-09T10:40:53.140Z</when>
<when >2025-08-09T10:40:53.440Z</when>
<when >2025-08-09T10:40:55.290Z</when>
<when >2025-08-09T10:40:57.220Z</when>
<when >2025-08-09T10:40:58.810Z</when>
<when >2025-08-09T10:41:00.210Z</when>
<when >2025-08-09T10:41:02.090Z</when>
<when >2025-08-09T10:41:04.090Z</when>
<when >2025-08-09T10:41:06.180Z</when>
<when >2025-08-09T10:41:08.220Z</when>
<when >2025-08-09T10:41:09.650Z</when>
<when >2025-08-09T10:41:11.180Z</when>
<when >2025-08-09T10:41:12.740Z</when>
<when >2025-08-09T10:41:14.750Z</when>
<when >2025-08-09T10:41:15.930Z</when>
<when >2025-08-09T10:41:17.810Z</when>
<when >2025-08-09T10:41:18.860Z</when>
<when >2025-08-09T10:41:20.500Z</when>
<when >2025-08-09T10:41:21.440Z</when>
<when >2025-08-09T10:41:23.590Z</when>
<when >2025-08-09T10:41:25.470Z</when>
<when >2025-08-09T10:41:27.300Z</when>
<when >2025-08-09T10:41:28.940Z</when>
<when >2025-08-09T10:41:30.990Z</when>
<when >2025-08-09T10:41:32.570Z</when>
<when >2025-08-09T10:41:33.930Z</when>
<when >2025-08-09T10:41:35.550Z</when>
<when >2025-08-09T10:41:37.670Z</when>
<when >2025-08-09T10:41:39.230Z</when>
<when >2025-08-09T10:41:41.240Z</when>
<when >2025-08-09T10:41:43.060Z</when>
<when >2025-08-09T10:41:45.410Z</when>
<when >2025-08-09T10:41:46.970Z</when>
<when >2025-08-09T10:41:48.420Z</when>
<when >2025-08-09T10:41:50.460Z</when>
<when >2025-08-09T10:41:52.580Z</when>
<when >2025-08-09T10:41:54.220Z</when>
<when >2025-08-09T10:41:56.800Z</when>
<when >2025-08-09T10:41:59.350Z</when>
<when >2025-08-09T10:42:01.690Z</when>
<when >2025-08-09T10:42:05.060Z</when>
<when >2025-08-09T10:42:08.480Z</when>
<when >2025-08-09T10:42:11.630Z</when>
<when >2025-08-09T10:42:15.400Z</when>
<when >2025-08-09T10:42:17.470Z</when>
<when >2025-08-09T10:42:20.930Z</when>
<when >2025-08-09T10:42:24.060Z</when>
<when >2025-08-09T10:42:27.090Z</when>
<when >2025-08-09T10:42:30.500Z</when>
<when >2025-08-09T10:42:32.100Z</when>
<when >2025-08-09T10:42:34.570Z</when>
<when >2025-08-09T10:42:36.120Z</when>
<when >2025-08-09T10:42:38.340Z</when>
<when >2025-08-09T10:42:40.380Z</when>
<when >2025-08-09T10:42:42.420Z</when>
<when >2025-08-09T10:42:44.580Z</when>
<when >2025-08-09T10:42:45.960Z</when>
<when >2025-08-09T10:42:47.040Z</when>
<when >2025-08-09T10:42:48.950Z</when>
<when >2025-08-09T10:42:50.650Z</when>
<when >2025-08-09T10:42:53.210Z</when>
<when >2025-08-09T10:42:59.800Z</when>
<when >2025-08-09T10:43:06.510Z</when>
<when >2025-08-09T10:43:13.100Z</when>
<when >2025-08-09T10:43:17.970Z</when>
<when >2025-08-09T10:43:23.960Z</when>
<when >2025-08-09T10:43:28.140Z</when>
<when >2025-08-09T10:43:31.490Z</when>
<when >2025-08-09T10:43:34.520Z</when>
<when >2025-08-09T10:43:37.340Z</when>
<when >2025-08-09T10:43:40.280Z</when>
<when >2025-08-09T10:43:43.330Z</when>
<when >2025-08-09T10:43:46.960Z</when>
<when >2025-08-09T10:43:50.920Z</when>
<when >2025-08-09T10:43:53.930Z</when>
<when >2025-08-09T10:43:55.240Z</when>
<when >2025-08-09T10:43:57.270Z</when>
<when >2025-08-09T10:43:59.220Z</when>
<when >2025-08-09T10:44:01.040Z</when>
<when >2025-08-09T10:44:03.260Z</when>
<when >2025-08-09T10:44:05.190Z</when>
<when >2025-08-09T10:44:07.420Z</when>
<when >2025-08-09T10:44:09.310Z</when>
<when >2025-08-09T10:44:11.320Z</when>
<when >2025-08-09T10:44:13.380Z</when>
<when >2025-08-09T10:44:15.310Z</when>
<when >2025-08-09T10:44:17.030Z</when>
<when >2025-08-09T10:44:18.790Z</when>
<when >2025-08-09T10:44:21.370Z</when>
<when >2025-08-09T10:44:24.320Z</when>
<when >2025-08-09T10:44:26.530Z</when>
<when >2025-08-09T10:44:28.050Z</when>
<when >2025-08-09T10:44:29.900Z</when>
<when >2025-08-09T10:44:33.550Z</when>
<when >2025-08-09T10:44:36.560Z</when>
<when >2025-08-09T10:44:40.180Z</when>
<when >2025-08-09T10:44:43.530Z</when>
<when >2025-08-09T10:44:47.630Z</when>
<when >2025-08-09T10:44:51.390Z</when>
<when >2025-08-09T10:44:55.460Z</when>
<when >2025-08-09T10:44:59.330Z</when>
<when >2025-08-09T10:45:03.490Z</when>
<when >2025-08-09T10:45:06.270Z</when>
<when >2025-08-09T10:45:08.990Z</when>
<when >2025-08-09T10:45:12.240Z</when>
<when >2025-08-09T10:45:15.290Z</when>
<when >2025-08-09T10:45:19.470Z</when>
<when >2025-08-09T10:45:22.950Z</when>
<when >2025-08-09T10:45:27.000Z</when>
<when >2025-08-09T10:45:30.590Z</when>
<when >2025-08-09T10:45:31.730Z</when>
<when >2025-08-09T10:45:33.570Z</when>
<when >2025-08-09T10:45:35.970Z</when>
<when >2025-08-09T10:45:41.560Z</when>
<when >2025-08-09T10:45:47.940Z</when>
<when >2025-08-09T10:45:54.800Z</when>
<when >2025-08-09T10:45:58.530Z</when>
<when >2025-08-09T10:45:59.960Z</when>
<when >2025-08-09T10:46:02.340Z</when>
<when >2025-08-09T10:46:07.150Z</when>
<when >2025-08-09T10:46:11.250Z</when>
<when >2025-08-09T10:46:15.570Z</when>
<when >2025-08-09T10:46:20.000Z</when>
<when >2025-08-09T10:46:24.470Z</when>
<when >2025-08-09T10:46:33.880Z</when>
<when >2025-08-09T10:46:43.630Z</when>
<when >2025-08-09T10:46:53.160Z</when>
<when >2025-08-09T10:47:01.560Z</when>
<when >2025-08-09T10:47:11.480Z</when>
<when >2025-08-09T10:47:22.120Z</when>
<when >2025-08-09T10:47:32.140Z</when>
<when >2025-08-09T10:47:40.670Z</when>
<when >2025-08-09T10:47:51.010Z</when>
<when >2025-08-09T10:48:00.800Z</when>
<when >2025-08-09T10:48:10.400Z</when>
<when >2025-08-09T10:48:20.330Z</when>
<when >2025-08-09T10:48:31.200Z</when>
<when >2025-08-09T10:48:42.250Z</when>
<when >2025-08-09T10:48:53.580Z</when>
<when >2025-08-09T10:49:05.040Z</when>
<when >2025-08-09T10:49:16.250Z</when>
<when >2025-08-09T10:49:27.210Z</when>
<when >2025-08-09T10:49:38.150Z</when>
<when >2025-08-09T10:49:48.950Z</when>
<when >2025-08-09T10:50:01.170Z</when>
<when >2025-08-09T10:50:13.460Z</when>
<when >2025-08-09T10:50:24.580Z</when>
<when >2025-08-09T10:50:35.820Z</when>
<when >2025-08-09T10:50:48.560Z</when>
<when >2025-08-09T10:51:02.260Z</when>
<when >2025-08-09T10:51:15.950Z</when>
<when >2025-08-09T10:51:24.500Z</when>
<when >2025-08-09T10:51:35.420Z</when>
<when >2025-08-09T10:51:47.030Z</when>
<when >2025-08-09T10:52:00.290Z</when>
<when >2025-08-09T10:52:14.040Z</when>
<when >2025-08-09T10:52:26.820Z</when>
<when >2025-08-09T10:52:41.400Z</when>
<when >2025-08-09T10:52:55.900Z</when>
<when >2025-08-09T10:53:10.470Z</when>
<when >2025-08-09T10:53:22.930Z</when>
<when >2025-08-09T10:53:36.580Z</when>
<when >2025-08-09T10:53:49.180Z</when>
<when >2025-08-09T10:54:02.260Z</when>
<when >2025-08-09T10:54:18.720Z</when>
<when >2025-08-09T10:54:33.590Z</when>
<when >2025-08-09T10:54:48.180Z</when>
<when >2025-08-09T10:55:02.060Z</when>
<when >2025-08-09T10:55:14.840Z</when>
<when >2025-08-09T10:55:27.220Z</when>
<when >2025-08-09T10:55:43.240Z</when>
<when >2025-08-09T10:55:58.450Z</when>
<when >2025-08-09T10:56:13.310Z</when>
<when >2025-08-09T10:56:28.120Z</when>
<when >2025-08-09T10:56:44.320Z</when>
<when >2025-08-09T10:56:57.840Z</when>
<when >2025-08-09T10:57:11.720Z</when>
<when >2025-08-09T10:57:25.190Z</when>
<when >2025-08-09T10:57:38.570Z</when>
<when >2025-08-09T10:57:57.800Z</when>
<when >2025-08-09T10:58:14.580Z</when>
<when >2025-08-09T10:58:29.430Z</when>
<when >2025-08-09T10:58:44.480Z</when>
<when >2025-08-09T10:58:59.070Z</when>
<when >2025-08-09T10:59:12.400Z</when>
<when >2025-08-09T10:59:30.320Z</when>
<when >2025-08-09T10:59:48.530Z</when>
<when >2025-08-09T11:00:02.860Z</when>
<when >2025-08-09T11:00:16.360Z</when>
<when >2025-08-09T11:00:30.220Z</when>
<when >2025-08-09T11:00:43.630Z</when>
<when >2025-08-09T11:00:59.630Z</when>
<when >2025-08-09T11:01:15.920Z</when>
<when >2025-08-09T11:01:35.710Z</when>
<when >2025-08-09T11:01:55.690Z</when>
<when >2025-08-09T11:02:15.210Z</when>
<when >2025-08-09T11:02:34.970Z</when>
<when >2025-08-09T11:02:54.620Z</when>
<when >2025-08-09T11:03:14.300Z</when>
<when >2025-08-09T11:03:33.890Z</when>
<when >2025-08-09T11:03:53.750Z</when>
<when >2025-08-09T11:04:13.630Z</when>
<when >2025-08-09T11:04:33.570Z</when>
<when >2025-08-09T11:04:49.370Z</when>
<when >2025-08-09T11:05:08.930Z</when>
<when >2025-08-09T11:05:28.600Z</when>
<when >2025-08-09T11:05:48.420Z</when>
<when >2025-08-09T11:06:08.300Z</when>
<when >2025-08-09T11:06:27.900Z</when>
<when >2025-08-09T11:06:47.610Z</when>
<when >2025-08-09T11:07:02.150Z</when>
<when >2025-08-09T11:07:20.940Z</when>
<when >2025-08-09T11:07:40.480Z</when>
<when >2025-08-09T11:08:00.450Z</when>
<when >2025-08-09T11:08:20.250Z</when>
<when >2025-08-09T11:08:40.250Z</when>
<when >2025-08-09T11:08:59.930Z</when>
<when >2025-08-09T11:09:19.680Z</when>
<when >2025-08-09T11:09:39.310Z</when>
<when >2025-08-09T11:09:59.040Z</when>
<when >2025-08-09T11:10:18.490Z</when>
<when >2025-08-09T11:10:37.810Z</when>
<when >2025-08-09T11:10:57.780Z</when>
<when >2025-08-09T11:11:17.220Z</when>
<when >2025-08-09T11:11:36.740Z</when>
<when >2025-08-09T11:11:56.470Z</when>
<when >2025-08-09T11:12:16.280Z</when>
<when >2025-08-09T11:12:36.220Z</when>
<when >2025-08-09T11:12:55.980Z</when>
<when >2025-08-09T11:13:15.960Z</when>
<when >2025-08-09T11:13:35.910Z</when>
<when >2025-08-09T11:13:55.750Z</when>
<when >2025-08-09T11:14:15.440Z</when>
<when >2025-08-09T11:14:35.210Z</when>
<when >2025-08-09T11:14:54.720Z</when>
<when >2025-08-09T11:15:14.570Z</when>
<when >2025-08-09T11:15:34.420Z</when>
<when >2025-08-09T11:15:54.030Z</when>
<when >2025-08-09T11:16:13.780Z</when>
<when >2025-08-09T11:16:33.680Z</when>
<when >2025-08-09T11:16:53.400Z</when>
<when >2025-08-09T11:17:13.110Z</when>
<when >2025-08-09T11:17:32.990Z</when>
<when >2025-08-09T11:17:52.980Z</when>
<when >2025-08-09T11:18:12.410Z</when>
<when >2025-08-09T11:18:32.160Z</when>
<when >2025-08-09T11:18:52.150Z</when>
<when >2025-08-09T11:19:11.780Z</when>
<when >2025-08-09T11:19:31.560Z</when>
<when >2025-08-09T11:19:51.360Z</when>
<when >2025-08-09T11:20:11.100Z</when>
<when >2025-08-09T11:20:31.000Z</when>
<when >2025-08-09T11:20:50.950Z</when>
<when >2025-08-09T11:21:10.710Z</when>
<when >2025-08-09T11:21:30.300Z</when>
<when >2025-08-09T11:21:50.010Z</when>
<when >2025-08-09T11:22:09.940Z</when>
<when >2025-08-09T11:22:29.920Z</when>
<when >2025-08-09T11:22:49.840Z</when>
<when >2025-08-09T11:23:09.610Z</when>
<when >2025-08-09T11:23:29.290Z</when>
<when >2025-08-09T11:23:49.000Z</when>
<when >2025-08-09T11:24:08.560Z</when>
<when >2025-08-09T11:24:28.100Z</when>
<when >2025-08-09T11:24:47.970Z</when>
<when >2025-08-09T11:25:07.890Z</when>
<when >2025-08-09T11:25:27.740Z</when>
<when >2025-08-09T11:25:47.450Z</when>
<when >2025-08-09T11:26:06.780Z</when>
<when >2025-08-09T11:26:26.420Z</when>
<when >2025-08-09T11:26:45.590Z</when>
<when >2025-08-09T11:27:05.420Z</when>
<when >2025-08-09T11:27:24.860Z</when>
<when >2025-08-09T11:27:44.450Z</when>
<when >2025-08-09T11:28:04.040Z</when>
<when >2025-08-09T11:28:23.660Z</when>
<when >2025-08-09T11:28:43.030Z</when>
<when >2025-08-09T11:29:02.620Z</when>
<when >2025-08-09T11:29:22.450Z</when>
<when >2025-08-09T11:29:41.650Z</when>
<when >2025-08-09T11:30:01.540Z</when>
<when >2025-08-09T11:30:21.110Z</when>
<when >2025-08-09T11:30:40.730Z</when>
<when >2025-08-09T11:31:00.620Z</when>
<when >2025-08-09T11:31:20.300Z</when>
<when >2025-08-09T11:31:39.760Z</when>
<when >2025-08-09T11:31:59.180Z</when>
<when >2025-08-09T11:32:18.460Z</when>
<when >2025-08-09T11:32:38.190Z</when>
<when >2025-08-09T11:32:57.690Z</when>
<when >2025-08-09T11:33:17.540Z</when>
<when >2025-08-09T11:33:37.420Z</when>
<when >2025-08-09T11:33:57.340Z</when>
<when >2025-08-09T11:34:13.980Z</when>
<when >2025-08-09T11:34:23.600Z</when>
<when >2025-08-09T11:34:31.990Z</when>
<when >2025-08-09T11:34:41.180Z</when>
<when >2025-08-09T11:34:52.080Z</when>
<when >2025-08-09T11:35:08.680Z</when>
<when >2025-08-09T11:35:27.990Z</when>
<when >2025-08-09T11:35:47.900Z</when>
<when >2025-08-09T11:36:07.890Z</when>
<when >2025-08-09T11:36:27.890Z</when>
<when >2025-08-09T11:36:47.290Z</when>
<when >2025-08-09T11:37:07.050Z</when>
<when >2025-08-09T11:37:26.310Z</when>
<when >2025-08-09T11:37:45.980Z</when>
<when >2025-08-09T11:37:59.610Z</when>
<when >2025-08-09T11:38:09.470Z</when>
<when >2025-08-09T11:38:22.250Z</when>
<when >2025-08-09T11:38:41.460Z</when>
<when >2025-08-09T11:39:01.430Z</when>
<when >2025-08-09T11:39:20.560Z</when>
<when >2025-08-09T11:39:39.760Z</when>
<when >2025-08-09T11:39:58.810Z</when>
<when >2025-08-09T11:40:18.560Z</when>
<when >2025-08-09T11:40:38.240Z</when>
<when >2025-08-09T11:40:57.790Z</when>
<when >2025-08-09T11:41:17.620Z</when>
<when >2025-08-09T11:41:36.960Z</when>
<when >2025-08-09T11:41:56.240Z</when>
<when >2025-08-09T11:42:15.810Z</when>
<when >2025-08-09T11:42:35.770Z</when>
<when >2025-08-09T11:42:55.030Z</when>
<when >2025-08-09T11:43:14.890Z</when>
<when >2025-08-09T11:43:34.780Z</when>
<when >2025-08-09T11:43:54.400Z</when>
<when >2025-08-09T11:44:14.030Z</when>
<when >2025-08-09T11:44:33.180Z</when>
<when >2025-08-09T11:44:52.690Z</when>
<when >2025-08-09T11:45:12.240Z</when>
<when >2025-08-09T11:45:31.850Z</when>
<when >2025-08-09T11:45:50.930Z</when>
<when >2025-08-09T11:46:10.550Z</when>
<when >2025-08-09T11:46:29.070Z</when>
<when >2025-08-09T11:46:48.540Z</when>
<when >2025-08-09T11:47:08.240Z</when>
<when >2025-08-09T11:47:27.840Z</when>
<when >2025-08-09T11:47:47.510Z</when>
<when >2025-08-09T11:48:06.970Z</when>
<when >2025-08-09T11:48:26.670Z</when>
<when >2025-08-09T11:48:45.820Z</when>
<when >2025-08-09T11:49:05.670Z</when>
<when >2025-08-09T11:49:25.240Z</when>
<when >2025-08-09T11:49:44.000Z</when>
<when >2025-08-09T11:50:02.750Z</when>
<when >2025-08-09T11:50:22.630Z</when>
<when >2025-08-09T11:50:41.240Z</when>
<when >2025-08-09T11:51:00.680Z</when>
<when >2025-08-09T11:51:20.100Z</when>
<when >2025-08-09T11:51:39.430Z</when>
<when >2025-08-09T11:51:59.390Z</when>
<when >2025-08-09T11:52:19.350Z</when>
<when >2025-08-09T11:52:38.700Z</when>
<when >2025-08-09T11:52:58.500Z</when>
<when >2025-08-09T11:53:17.930Z</when>
<when >2025-08-09T11:53:37.820Z</when>
<when >2025-08-09T11:53:57.770Z</when>
<when >2025-08-09T11:54:17.310Z</when>
<when >2025-08-09T11:54:37.100Z</when>
<when >2025-08-09T11:54:56.860Z</when>
<when >2025-08-09T11:55:16.090Z</when>
<when >2025-08-09T11:55:36.020Z</when>
<when >2025-08-09T11:55:55.650Z</when>
<when >2025-08-09T11:56:14.370Z</when>
<when >2025-08-09T11:56:33.880Z</when>
<when >2025-08-09T11:56:53.020Z</when>
<when >2025-08-09T11:57:10.930Z</when>
<when >2025-08-09T11:57:30.700Z</when>
<when >2025-08-09T11:57:50.510Z</when>
<when >2025-08-09T11:58:09.830Z</when>
<when >2025-08-09T11:58:28.960Z</when>
<when >2025-08-09T11:58:48.860Z</when>
<when >2025-08-09T11:59:08.020Z</when>
<when >2025-08-09T11:59:28.000Z</when>
<when >2025-08-09T11:59:47.540Z</when>
<when >2025-08-09T12:00:07.240Z</when>
<when >2025-08-09T12:00:27.020Z</when>
<when >2025-08-09T12:00:46.780Z</when>
<when >2025-08-09T12:01:06.680Z</when>
<when >2025-08-09T12:01:25.820Z</when>
<when >2025-08-09T12:01:44.160Z</when>
<when >2025-08-09T12:02:04.030Z</when>
<when >2025-08-09T12:02:23.150Z</when>
<when >2025-08-09T12:02:42.150Z</when>
<when >2025-08-09T12:03:02.050Z</when>
<when >2025-08-09T12:03:21.880Z</when>
<when >2025-08-09T12:03:41.450Z</when>
<when >2025-08-09T12:04:01.450Z</when>
<when >2025-08-09T12:04:20.680Z</when>
<when >2025-08-09T12:04:40.020Z</when>
<when >2025-08-09T12:04:59.830Z</when>
<when >2025-08-09T12:05:19.330Z</when>
<when >2025-08-09T12:05:38.390Z</when>
<when >2025-08-09T12:05:57.830Z</when>
<when >2025-08-09T12:06:17.640Z</when>
<when >2025-08-09T12:06:37.560Z</when>
<when >2025-08-09T12:06:57.210Z</when>
<when >2025-08-09T12:07:16.480Z</when>
<when >2025-08-09T12:07:35.890Z</when>
<when >2025-08-09T12:07:55.660Z</when>
<when >2025-08-09T12:08:15.410Z</when>
<when >2025-08-09T12:08:35.060Z</when>
<when >2025-08-09T12:08:54.450Z</when>
<when >2025-08-09T12:09:13.750Z</when>
<when >2025-08-09T12:09:32.650Z</when>
<when >2025-08-09T12:09:52.320Z</when>
<when >2025-08-09T12:10:11.660Z</when>
<when >2025-08-09T12:10:31.060Z</when>
<when >2025-08-09T12:10:50.460Z</when>
<when >2025-08-09T12:11:09.650Z</when>
<when >2025-08-09T12:11:29.610Z</when>
<when >2025-08-09T12:11:48.100Z</when>
<when >2025-08-09T12:12:07.360Z</when>
<when >2025-08-09T12:12:27.280Z</when>
<when >2025-08-09T12:12:46.820Z</when>
<when >2025-08-09T12:12:53.670Z</when>
<when >2025-08-09T12:12:58.130Z</when>
<when >2025-08-09T12:13:05.290Z</when>
<when >2025-08-09T12:13:17.850Z</when>
<when >2025-08-09T12:13:25.290Z</when>
<when >2025-08-09T12:13:29.430Z</when>
<when >2025-08-09T12:13:37.600Z</when>
<when >2025-08-09T12:13:47.960Z</when>
<when >2025-08-09T12:13:54.710Z</when>
<when >2025-08-09T12:14:01.370Z</when>
<when >2025-08-09T12:14:06.510Z</when>
<when >2025-08-09T12:14:09.850Z</when>
<when >2025-08-09T12:14:15.040Z</when>
<when >2025-08-09T12:14:31.420Z</when>
<when >2025-08-09T12:14:34.160Z</when>
<when >2025-08-09T12:14:41.280Z</when>
<when >2025-08-09T12:15:00.860Z</when>
<when >2025-08-09T12:15:20.420Z</when>
<when >2025-08-09T12:15:39.110Z</when>
<when >2025-08-09T12:15:57.480Z</when>
<when >2025-08-09T12:16:17.430Z</when>
<when >2025-08-09T12:16:36.790Z</when>
<when >2025-08-09T12:16:56.710Z</when>
<when >2025-08-09T12:17:15.950Z</when>
<when >2025-08-09T12:17:23.420Z</when>
<when >2025-08-09T12:17:32.170Z</when>
<when >2025-08-09T12:17:40.870Z</when>
<when >2025-08-09T12:17:49.070Z</when>
<when >2025-08-09T12:17:57.770Z</when>
<when >2025-08-09T12:18:06.780Z</when>
<when >2025-08-09T12:18:17.300Z</when>
<when >2025-08-09T12:18:25.220Z</when>
<when >2025-08-09T12:18:35.290Z</when>
<when >2025-08-09T12:18:45.520Z</when>
<when >2025-08-09T12:18:53.230Z</when>
<when >2025-08-09T12:19:00.870Z</when>
<when >2025-08-09T12:19:10.280Z</when>
<when >2025-08-09T12:19:19.620Z</when>
<when >2025-08-09T12:19:27.360Z</when>
<when >2025-08-09T12:19:44.720Z</when>
<when >2025-08-09T12:20:03.170Z</when>
<when >2025-08-09T12:20:22.480Z</when>
<when >2025-08-09T12:20:41.980Z</when>
<when >2025-08-09T12:21:01.900Z</when>
<when >2025-08-09T12:21:21.760Z</when>
<when >2025-08-09T12:21:40.690Z</when>
<when >2025-08-09T12:21:59.860Z</when>
<when >2025-08-09T12:22:18.910Z</when>
<when >2025-08-09T12:22:38.180Z</when>
<when >2025-08-09T12:22:57.320Z</when>
<when >2025-08-09T12:23:17.270Z</when>
<when >2025-08-09T12:23:37.000Z</when>
<when >2025-08-09T12:23:47.160Z</when>
<when >2025-08-09T12:24:03.000Z</when>
<when >2025-08-09T12:24:19.440Z</when>
<when >2025-08-09T12:24:36.180Z</when>
<when >2025-08-09T12:24:43.010Z</when>
<when >2025-08-09T12:25:02.800Z</when>
<when >2025-08-09T12:25:21.900Z</when>
<when >2025-08-09T12:25:41.130Z</when>
<when >2025-08-09T12:25:53.020Z</when>
<when >2025-08-09T12:26:04.410Z</when>
<when >2025-08-09T12:26:21.690Z</when>
<when >2025-08-09T12:26:41.100Z</when>
<when >2025-08-09T12:27:00.740Z</when>
<when >2025-08-09T12:27:20.090Z</when>
<when >2025-08-09T12:27:39.810Z</when>
<when >2025-08-09T12:27:59.780Z</when>
<when >2025-08-09T12:28:19.100Z</when>
<when >2025-08-09T12:28:37.730Z</when>
<when >2025-08-09T12:28:57.400Z</when>
<when >2025-08-09T12:29:17.370Z</when>
<when >2025-08-09T12:29:37.210Z</when>
<when >2025-08-09T12:29:55.740Z</when>
<when >2025-08-09T12:30:14.420Z</when>
<when >2025-08-09T12:30:24.120Z</when>
<when >2025-08-09T12:30:27.970Z</when>
<when >2025-08-09T12:30:29.860Z</when>
<when >2025-08-09T12:30:34.740Z</when>
<when >2025-08-09T12:30:38.640Z</when>
<when >2025-08-09T12:30:43.000Z</when>
<when >2025-08-09T12:30:50.440Z</when>
<when >2025-08-09T12:30:55.860Z</when>
<when >2025-08-09T12:30:59.420Z</when>
<when >2025-08-09T12:31:03.890Z</when>
<when >2025-08-09T12:31:09.470Z</when>
<when >2025-08-09T12:31:24.760Z</when>
<when >2025-08-09T12:31:39.490Z</when>
<when >2025-08-09T12:31:54.070Z</when>
<when >2025-08-09T12:32:10.960Z</when>
<when >2025-08-09T12:32:27.580Z</when>
<when >2025-08-09T12:32:44.490Z</when>
<when >2025-08-09T12:32:59.600Z</when>
<when >2025-08-09T12:33:15.510Z</when>
<when >2025-08-09T12:33:30.780Z</when>
<when >2025-08-09T12:33:46.090Z</when>
<when >2025-08-09T12:34:03.170Z</when>
<when >2025-08-09T12:34:18.050Z</when>
<when >2025-08-09T12:34:34.370Z</when>
<when >2025-08-09T12:34:50.490Z</when>
<when >2025-08-09T12:35:07.290Z</when>
<when >2025-08-09T12:35:23.850Z</when>
<when >2025-08-09T12:35:40.840Z</when>
<when >2025-08-09T12:35:55.930Z</when>
<when >2025-08-09T12:36:13.300Z</when>
<when >2025-08-09T12:36:29.520Z</when>
<when >2025-08-09T12:36:45.960Z</when>
<when >2025-08-09T12:37:00.830Z</when>
<when >2025-08-09T12:37:17.370Z</when>
<when >2025-08-09T12:37:33.960Z</when>
<when >2025-08-09T12:37:49.250Z</when>
<when >2025-08-09T12:38:04.790Z</when>
<when >2025-08-09T12:38:20.820Z</when>
<when >2025-08-09T12:38:36.010Z</when>
<when >2025-08-09T12:38:52.100Z</when>
<when >2025-08-09T12:39:07.660Z</when>
<when >2025-08-09T12:39:24.120Z</when>
<when >2025-08-09T12:39:40.810Z</when>
<when >2025-08-09T12:39:55.930Z</when>
<when >2025-08-09T12:40:11.810Z</when>
<when >2025-08-09T12:40:28.060Z</when>
<when >2025-08-09T12:40:36.860Z</when>
<when >2025-08-09T12:40:38.150Z</when>
<when >2025-08-09T12:40:38.720Z</when>
<when >2025-08-09T12:40:44.220Z</when>
<when >2025-08-09T12:40:48.790Z</when>
<when >2025-08-09T12:40:52.040Z</when>
<when >2025-08-09T12:40:55.560Z</when>
<when >2025-08-09T12:41:01.600Z</when>
<when >2025-08-09T12:41:12.950Z</when>
<when >2025-08-09T12:41:19.860Z</when>
<when >2025-08-09T12:41:27.260Z</when>
<when >2025-08-09T12:41:34.070Z</when>
<when >2025-08-09T12:41:40.700Z</when>
<when >2025-08-09T12:41:46.020Z</when>
<when >2025-08-09T12:41:54.060Z</when>
<when >2025-08-09T12:42:02.730Z</when>
<when >2025-08-09T12:42:11.320Z</when>
<when >2025-08-09T12:42:20.200Z</when>
<when >2025-08-09T12:42:29.170Z</when>
<when >2025-08-09T12:42:38.100Z</when>
<when >2025-08-09T12:42:46.640Z</when>
<when >2025-08-09T12:42:54.230Z</when>
<when >2025-08-09T12:43:03.420Z</when>
<when >2025-08-09T12:43:13.720Z</when>
<when >2025-08-09T12:43:21.780Z</when>
<when >2025-08-09T12:43:29.790Z</when>
<when >2025-08-09T12:43:38.790Z</when>
<when >2025-08-09T12:43:48.160Z</when>
<when >2025-08-09T12:43:55.670Z</when>
<when >2025-08-09T12:44:05.490Z</when>
<when >2025-08-09T12:44:13.760Z</when>
<when >2025-08-09T12:44:22.880Z</when>
<when >2025-08-09T12:44:31.040Z</when>
<when >2025-08-09T12:44:43.290Z</when>
<when >2025-08-09T12:44:51.150Z</when>
<when >2025-08-09T12:44:58.310Z</when>
<when >2025-08-09T12:45:09.300Z</when>
<when >2025-08-09T12:45:18.490Z</when>
<when >2025-08-09T12:45:24.050Z</when>
<when >2025-08-09T12:45:33.570Z</when>
<when >2025-08-09T12:45:42.110Z</when>
<when >2025-08-09T12:45:51.190Z</when>
<when >2025-08-09T12:45:58.260Z</when>
<when >2025-08-09T12:46:08.120Z</when>
<when >2025-08-09T12:46:17.620Z</when>
<when >2025-08-09T12:46:26.130Z</when>
<when >2025-08-09T12:46:35.110Z</when>
<when >2025-08-09T12:46:44.810Z</when>
<when >2025-08-09T12:46:54.910Z</when>
<when >2025-08-09T12:47:03.170Z</when>
<when >2025-08-09T12:47:13.810Z</when>
<when >2025-08-09T12:47:21.100Z</when>
<when >2025-08-09T12:47:29.960Z</when>
<when >2025-08-09T12:47:39.380Z</when>
<when >2025-08-09T12:47:49.030Z</when>
<when >2025-08-09T12:47:57.850Z</when>
<when >2025-08-09T12:48:06.210Z</when>
<when >2025-08-09T12:48:16.880Z</when>
<when >2025-08-09T12:48:21.760Z</when>
<when >2025-08-09T12:48:25.900Z</when>
<when >2025-08-09T12:48:29.470Z</when>
<when >2025-08-09T12:48:32.890Z</when>
<when >2025-08-09T12:48:36.200Z</when>
<when >2025-08-09T12:48:39.620Z</when>
<when >2025-08-09T12:48:41.920Z</when>
<when >2025-08-09T12:48:45.120Z</when>
<when >2025-08-09T12:48:50.400Z</when>
<when >2025-08-09T12:48:58.960Z</when>
<when >2025-08-09T12:49:07.290Z</when>
<when >2025-08-09T12:49:15.090Z</when>
<when >2025-08-09T12:49:21.820Z</when>
<when >2025-08-09T12:49:29.640Z</when>
<when >2025-08-09T12:49:37.140Z</when>
<when >2025-08-09T12:49:45.680Z</when>
<when >2025-08-09T12:49:53.710Z</when>
<when >2025-08-09T12:50:03.320Z</when>
<when >2025-08-09T12:50:16.200Z</when>
<when >2025-08-09T12:50:18.100Z</when>
<when >2025-08-09T12:50:20.430Z</when>
<when >2025-08-09T12:50:28.330Z</when>
<when >2025-08-09T12:50:38.560Z</when>
<when >2025-08-09T12:50:49.540Z</when>
<when >2025-08-09T12:50:52.030Z</when>
<when >2025-08-09T12:50:56.880Z</when>
<when >2025-08-09T12:51:03.110Z</when>
<when >2025-08-09T12:51:08.570Z</when>
<when >2025-08-09T12:51:15.010Z</when>
<when >2025-08-09T12:51:22.800Z</when>
<when >2025-08-09T12:51:29.720Z</when>
<when >2025-08-09T12:51:38.280Z</when>
<when >2025-08-09T12:51:42.700Z</when>
<when >2025-08-09T12:51:45.870Z</when>
<when >2025-08-09T12:51:49.000Z</when>
<when >2025-08-09T12:51:53.000Z</when>
<when >2025-08-09T12:51:55.200Z</when>
<when >2025-08-09T12:51:58.010Z</when>
<when >2025-08-09T12:52:00.850Z</when>
<when >2025-08-09T12:52:05.320Z</when>
<when >2025-08-09T12:52:10.490Z</when>
<when >2025-08-09T12:52:12.980Z</when>
<when >2025-08-09T12:52:18.690Z</when>
<when >2025-08-09T12:52:22.360Z</when>
<when >2025-08-09T12:52:26.190Z</when>
<when >2025-08-09T12:52:30.650Z</when>
<when >2025-08-09T12:52:34.900Z</when>
<when >2025-08-09T12:52:39.140Z</when>
<when >2025-08-09T12:52:45.040Z</when>
<when >2025-08-09T12:52:47.330Z</when>
<when >2025-08-09T12:52:51.870Z</when>
<when >2025-08-09T12:52:55.050Z</when>
<when >2025-08-09T12:52:59.370Z</when>
<when >2025-08-09T12:53:04.860Z</when>
<when >2025-08-09T12:53:08.100Z</when>
<when >2025-08-09T12:53:12.110Z</when>
<when >2025-08-09T12:53:15.170Z</when>
<when >2025-08-09T12:53:20.460Z</when>
<when >2025-08-09T12:53:27.420Z</when>
<when >2025-08-09T12:53:35.070Z</when>
<when >2025-08-09T12:53:38.740Z</when>
<when >2025-08-09T12:53:44.670Z</when>
<when >2025-08-09T12:53:47.170Z</when>
<when >2025-08-09T12:53:51.770Z</when>
<when >2025-08-09T12:53:54.940Z</when>
<when >2025-08-09T12:53:58.280Z</when>
<when >2025-08-09T12:54:04.770Z</when>
<when >2025-08-09T12:54:09.440Z</when>
<when >2025-08-09T12:54:14.810Z</when>
<when >2025-08-09T12:54:19.490Z</when>
<when >2025-08-09T12:54:25.400Z</when>
<when >2025-08-09T12:54:30.280Z</when>
<when >2025-08-09T12:54:35.570Z</when>
<when >2025-08-09T12:54:37.310Z</when>
<when >2025-08-09T12:54:45.410Z</when>
<when >2025-08-09T12:54:49.250Z</when>
<when >2025-08-09T12:54:53.430Z</when>
<when >2025-08-09T12:54:56.590Z</when>
<when >2025-08-09T12:55:03.780Z</when>
<when >2025-08-09T12:55:10.500Z</when>
<when >2025-08-09T12:55:15.970Z</when>
<when >2025-08-09T12:55:28.090Z</when>
<when >2025-08-09T12:55:29.530Z</when>
<when >2025-08-09T12:55:33.180Z</when>
<when >2025-08-09T12:56:27.340Z</when>
<when >2025-08-09T12:56:43.540Z</when>
<when >2025-08-09T12:56:57.250Z</when>
<when >2025-08-09T12:56:57.250Z</when>
<when >2025-08-09T12:57:00.700Z</when>
<when >2025-08-09T12:57:07.570Z</when>
<when >2025-08-09T12:57:11.570Z</when>
<when >2025-08-09T12:57:17.710Z</when>
<when >2025-08-09T12:57:31.690Z</when>
<when >2025-08-09T12:57:38.290Z</when>
<when >2025-08-09T12:57:43.960Z</when>
<when >2025-08-09T12:58:01.650Z</when>
<when >2025-08-09T12:58:12.030Z</when>
<when >2025-08-09T12:58:17.680Z</when>
<when >2025-08-09T12:58:31.910Z</when>
<when >2025-08-09T12:58:40.250Z</when>
<when >2025-08-09T12:58:46.290Z</when>
<when >2025-08-09T12:58:49.910Z</when>
<when >2025-08-09T12:58:59.780Z</when>
<when >2025-08-09T12:59:02.760Z</when>
<when >2025-08-09T12:59:14.880Z</when>
<when >2025-08-09T12:59:27.060Z</when>
<when >2025-08-09T12:59:37.810Z</when>
<when >2025-08-09T12:59:42.650Z</when>
<when >2025-08-09T12:59:58.130Z</when>
<when >2025-08-09T13:00:08.700Z</when>
<when >2025-08-09T13:00:22.130Z</when>
<when >2025-08-09T13:00:30.830Z</when>
<when >2025-08-09T13:00:41.190Z</when>
<when >2025-08-09T13:00:47.400Z</when>
<when >2025-08-09T13:01:02.250Z</when>
<when >2025-08-09T13:01:06.470Z</when>
<when >2025-08-09T13:01:10.680Z</when>
<when >2025-08-09T13:01:16.360Z</when>
<when >2025-08-09T13:01:28.950Z</when>
<when >2025-08-09T13:01:31.530Z</when>
<when >2025-08-09T13:01:31.530Z</when>
<gx:coord >20.975804 52.163319 106</gx:coord>
<gx:coord >20.975333 52.163458 106</gx:coord>
<gx:coord >20.97374 52.163864 114</gx:coord>
<gx:coord >20.972443 52.16423 115</gx:coord>
<gx:coord >20.969467 52.1651 116</gx:coord>
<gx:coord >20.968584 52.16532 116</gx:coord>
<gx:coord >20.967721 52.1656 109</gx:coord>
<gx:coord >20.966466 52.165926 110</gx:coord>
<gx:coord >20.966034 52.166061 102</gx:coord>
<gx:coord >20.963484 52.166764 110</gx:coord>
<gx:coord >20.962296 52.167068 118</gx:coord>
<gx:coord >20.961761 52.167252 118</gx:coord>
<gx:coord >20.959778 52.167801 134</gx:coord>
<gx:coord >20.957676 52.168393 149</gx:coord>
<gx:coord >20.954971 52.169128 180</gx:coord>
<gx:coord >20.953282 52.169603 196</gx:coord>
<gx:coord >20.951006 52.170255 226</gx:coord>
<gx:coord >20.948417 52.171 260</gx:coord>
<gx:coord >20.945905 52.171698 290</gx:coord>
<gx:coord >20.943375 52.172424 321</gx:coord>
<gx:coord >20.941511 52.172955 353</gx:coord>
<gx:coord >20.939471 52.17356 383</gx:coord>
<gx:coord >20.937424 52.174118 414</gx:coord>
<gx:coord >20.93539 52.174724 448</gx:coord>
<gx:coord >20.93335 52.175283 477</gx:coord>
<gx:coord >20.930786 52.175995 511</gx:coord>
<gx:coord >20.929347 52.1764 534</gx:coord>
<gx:coord >20.927353 52.176956 566</gx:coord>
<gx:coord >20.925895 52.177331 591</gx:coord>
<gx:coord >20.923233 52.178055 620</gx:coord>
<gx:coord >20.920715 52.178727 650</gx:coord>
<gx:coord >20.918121 52.179428 682</gx:coord>
<gx:coord >20.916061 52.179977 711</gx:coord>
<gx:coord >20.913496 52.180683 743</gx:coord>
<gx:coord >20.911377 52.181241 773</gx:coord>
<gx:coord >20.909653 52.181717 797</gx:coord>
<gx:coord >20.907532 52.182265 827</gx:coord>
<gx:coord >20.904942 52.182871 858</gx:coord>
<gx:coord >20.90298 52.18329 891</gx:coord>
<gx:coord >20.900234 52.183755 921</gx:coord>
<gx:coord >20.897522 52.184097 952</gx:coord>
<gx:coord >20.894699 52.18428 984</gx:coord>
<gx:coord >20.892543 52.184314 1015</gx:coord>
<gx:coord >20.890503 52.184267 1039</gx:coord>
<gx:coord >20.88768 52.184052 1071</gx:coord>
<gx:coord >20.885086 52.183685 1101</gx:coord>
<gx:coord >20.883048 52.183336 1132</gx:coord>
<gx:coord >20.879909 52.182731 1167</gx:coord>
<gx:coord >20.876694 52.182037 1199</gx:coord>
<gx:coord >20.87371 52.181428 1223</gx:coord>
<gx:coord >20.869629 52.18059 1255</gx:coord>
<gx:coord >20.865156 52.179705 1271</gx:coord>
<gx:coord >20.860748 52.178879 1295</gx:coord>
<gx:coord >20.855661 52.177983 1312</gx:coord>
<gx:coord >20.852814 52.177505 1321</gx:coord>
<gx:coord >20.847626 52.176636 1346</gx:coord>
<gx:coord >20.843124 52.175949 1361</gx:coord>
<gx:coord >20.83847 52.175217 1377</gx:coord>
<gx:coord >20.83313 52.174438 1393</gx:coord>
<gx:coord >20.830536 52.174072 1408</gx:coord>
<gx:coord >20.826311 52.173514 1416</gx:coord>
<gx:coord >20.823822 52.173157 1423</gx:coord>
<gx:coord >20.820112 52.172629 1439</gx:coord>
<gx:coord >20.816727 52.172195 1446</gx:coord>
<gx:coord >20.813141 52.171738 1454</gx:coord>
<gx:coord >20.809126 52.171233 1461</gx:coord>
<gx:coord >20.806458 52.170907 1469</gx:coord>
<gx:coord >20.80452 52.170685 1477</gx:coord>
<gx:coord >20.800964 52.170255 1484</gx:coord>
<gx:coord >20.797577 52.169861 1492</gx:coord>
<gx:coord >20.792618 52.16922 1507</gx:coord>
<gx:coord >20.779855 52.167602 1538</gx:coord>
<gx:coord >20.766985 52.165879 1575</gx:coord>
<gx:coord >20.754116 52.164064 1601</gx:coord>
<gx:coord >20.744777 52.162667 1636</gx:coord>
<gx:coord >20.732803 52.160797 1667</gx:coord>
<gx:coord >20.724564 52.159195 1682</gx:coord>
<gx:coord >20.718384 52.157684 1698</gx:coord>
<gx:coord >20.712917 52.155917 1705</gx:coord>
<gx:coord >20.707816 52.153869 1713</gx:coord>
<gx:coord >20.70343 52.151688 1728</gx:coord>
<gx:coord >20.699812 52.149586 1736</gx:coord>
<gx:coord >20.694162 52.145489 1758</gx:coord>
<gx:coord >20.689453 52.141625 1788</gx:coord>
<gx:coord >20.685959 52.138596 1810</gx:coord>
<gx:coord >20.684352 52.137203 1825</gx:coord>
<gx:coord >20.682068 52.135162 1847</gx:coord>
<gx:coord >20.679779 52.133194 1879</gx:coord>
<gx:coord >20.677643 52.131363 1909</gx:coord>
<gx:coord >20.675171 52.129196 1940</gx:coord>
<gx:coord >20.67276 52.127151 1970</gx:coord>
<gx:coord >20.670242 52.125 1998</gx:coord>
<gx:coord >20.667877 52.123032 2031</gx:coord>
<gx:coord >20.665359 52.120972 2061</gx:coord>
<gx:coord >20.663071 52.119095 2092</gx:coord>
<gx:coord >20.660732 52.117185 2125</gx:coord>
<gx:coord >20.658378 52.115277 2156</gx:coord>
<gx:coord >20.656337 52.113601 2174</gx:coord>
<gx:coord >20.653076 52.111038 2206</gx:coord>
<gx:coord >20.649432 52.108061 2237</gx:coord>
<gx:coord >20.646685 52.105873 2262</gx:coord>
<gx:coord >20.644723 52.104337 2284</gx:coord>
<gx:coord >20.642212 52.102335 2313</gx:coord>
<gx:coord >20.637589 52.098724 2379</gx:coord>
<gx:coord >20.633621 52.095566 2438</gx:coord>
<gx:coord >20.629196 52.092041 2498</gx:coord>
<gx:coord >20.624869 52.088695 2572</gx:coord>
<gx:coord >20.619965 52.084808 2626</gx:coord>
<gx:coord >20.614929 52.080872 2689</gx:coord>
<gx:coord >20.609645 52.076732 2752</gx:coord>
<gx:coord >20.604623 52.072542 2817</gx:coord>
<gx:coord >20.600357 52.068329 2864</gx:coord>
<gx:coord >20.597534 52.064804 2896</gx:coord>
<gx:coord >20.595363 52.061509 2929</gx:coord>
<gx:coord >20.593323 52.057412 2976</gx:coord>
<gx:coord >20.591812 52.053406 3022</gx:coord>
<gx:coord >20.590057 52.048187 3081</gx:coord>
<gx:coord >20.588608 52.04361 3146</gx:coord>
<gx:coord >20.586929 52.038162 3212</gx:coord>
<gx:coord >20.585475 52.033578 3257</gx:coord>
<gx:coord >20.585005 52.032041 3273</gx:coord>
<gx:coord >20.584298 52.029621 3289</gx:coord>
<gx:coord >20.583357 52.026455 3305</gx:coord>
<gx:coord >20.581709 52.018821 3350</gx:coord>
<gx:coord >20.580453 52.009743 3381</gx:coord>
<gx:coord >20.579529 52.000031 3419</gx:coord>
<gx:coord >20.578995 51.994125 3441</gx:coord>
<gx:coord >20.578766 51.991974 3456</gx:coord>
<gx:coord >20.578461 51.988403 3485</gx:coord>
<gx:coord >20.57785 51.981308 3541</gx:coord>
<gx:coord >20.577393 51.975201 3600</gx:coord>
<gx:coord >20.576859 51.968765 3668</gx:coord>
<gx:coord >20.576248 51.961899 3729</gx:coord>
<gx:coord >20.575714 51.955078 3786</gx:coord>
<gx:coord >20.574489 51.940613 3922</gx:coord>
<gx:coord >20.573196 51.925827 4051</gx:coord>
<gx:coord >20.571976 51.911224 4181</gx:coord>
<gx:coord >20.570755 51.898178 4295</gx:coord>
<gx:coord >20.569301 51.882523 4417</gx:coord>
<gx:coord >20.567703 51.86599 4554</gx:coord>
<gx:coord >20.566109 51.849884 4684</gx:coord>
<gx:coord >20.564847 51.836609 4790</gx:coord>
<gx:coord >20.563214 51.819809 4920</gx:coord>
<gx:coord >20.561752 51.804354 5042</gx:coord>
<gx:coord >20.560319 51.788956 5171</gx:coord>
<gx:coord >20.558835 51.772797 5286</gx:coord>
<gx:coord >20.557276 51.755035 5415</gx:coord>
<gx:coord >20.555643 51.736908 5537</gx:coord>
<gx:coord >20.553935 51.718231 5651</gx:coord>
<gx:coord >20.552228 51.699234 5772</gx:coord>
<gx:coord >20.550446 51.680328 5894</gx:coord>
<gx:coord >20.548782 51.661998 6009</gx:coord>
<gx:coord >20.547028 51.643191 6115</gx:coord>
<gx:coord >20.545324 51.625122 6253</gx:coord>
<gx:coord >20.543394 51.604019 6359</gx:coord>
<gx:coord >20.541534 51.583185 6466</gx:coord>
<gx:coord >20.539831 51.563828 6595</gx:coord>
<gx:coord >20.53805 51.544189 6710</gx:coord>
<gx:coord >20.536118 51.522108 6824</gx:coord>
<gx:coord >20.533893 51.497818 6914</gx:coord>
<gx:coord >20.531693 51.473554 7006</gx:coord>
<gx:coord >20.530255 51.457947 7090</gx:coord>
<gx:coord >20.528399 51.438171 7204</gx:coord>
<gx:coord >20.526581 51.417878 7318</gx:coord>
<gx:coord >20.524368 51.393484 7425</gx:coord>
<gx:coord >20.522079 51.368625 7524</gx:coord>
<gx:coord >20.519943 51.345023 7623</gx:coord>
<gx:coord >20.517502 51.318163 7707</gx:coord>
<gx:coord >20.514964 51.291092 7806</gx:coord>
<gx:coord >20.51244 51.26413 7889</gx:coord>
<gx:coord >20.510178 51.240327 7995</gx:coord>
<gx:coord >20.507812 51.214305 8095</gx:coord>
<gx:coord >20.50561 51.19043 8194</gx:coord>
<gx:coord >20.503383 51.165298 8285</gx:coord>
<gx:coord >20.500563 51.134079 8376</gx:coord>
<gx:coord >20.497964 51.105148 8460</gx:coord>
<gx:coord >20.495377 51.076557 8552</gx:coord>
<gx:coord >20.492935 51.049463 8643</gx:coord>
<gx:coord >20.490764 51.024399 8757</gx:coord>
<gx:coord >20.488611 50.999725 8857</gx:coord>
<gx:coord >20.48579 50.968185 8947</gx:coord>
<gx:coord >20.483044 50.938156 9038</gx:coord>
<gx:coord >20.48027 50.908224 9122</gx:coord>
<gx:coord >20.477524 50.878151 9214</gx:coord>
<gx:coord >20.474548 50.845332 9290</gx:coord>
<gx:coord >20.472132 50.81781 9397</gx:coord>
<gx:coord >20.469608 50.789474 9496</gx:coord>
<gx:coord >20.467224 50.762236 9587</gx:coord>
<gx:coord >20.464706 50.734444 9663</gx:coord>
<gx:coord >20.461121 50.694828 9739</gx:coord>
<gx:coord >20.458028 50.659868 9816</gx:coord>
<gx:coord >20.455207 50.628491 9914</gx:coord>
<gx:coord >20.452534 50.597208 10013</gx:coord>
<gx:coord >20.449893 50.566864 10104</gx:coord>
<gx:coord >20.447508 50.539032 10203</gx:coord>
<gx:coord >20.444146 50.501124 10287</gx:coord>
<gx:coord >20.440714 50.462723 10356</gx:coord>
<gx:coord >20.437967 50.431961 10440</gx:coord>
<gx:coord >20.43551 50.403397 10531</gx:coord>
<gx:coord >20.432937 50.373851 10630</gx:coord>
<gx:coord >20.43045 50.345352 10721</gx:coord>
<gx:coord >20.427593 50.312122 10813</gx:coord>
<gx:coord >20.424623 50.277534 10889</gx:coord>
<gx:coord >20.420982 50.236176 10965</gx:coord>
<gx:coord >20.4172 50.193926 11011</gx:coord>
<gx:coord >20.413563 50.152402 11056</gx:coord>
<gx:coord >20.41 50.110225 11117</gx:coord>
<gx:coord >20.406436 50.068561 11170</gx:coord>
<gx:coord >20.402873 50.027409 11208</gx:coord>
<gx:coord >20.399384 49.985931 11277</gx:coord>
<gx:coord >20.395829 49.944717 11330</gx:coord>
<gx:coord >20.392215 49.90361 11376</gx:coord>
<gx:coord >20.388621 49.86145 11429</gx:coord>
<gx:coord >20.385782 49.828354 11467</gx:coord>
<gx:coord >20.382241 49.78775 11475</gx:coord>
<gx:coord >20.378627 49.746414 11474</gx:coord>
<gx:coord >20.375157 49.704803 11481</gx:coord>
<gx:coord >20.371616 49.662964 11481</gx:coord>
<gx:coord >20.368146 49.621811 11481</gx:coord>
<gx:coord >20.364532 49.57988 11489</gx:coord>
<gx:coord >20.361971 49.549038 11489</gx:coord>
<gx:coord >20.358967 49.510162 11489</gx:coord>
<gx:coord >20.355588 49.469992 11496</gx:coord>
<gx:coord >20.352024 49.428747 11496</gx:coord>
<gx:coord >20.34844 49.387939 11496</gx:coord>
<gx:coord >20.344919 49.346375 11496</gx:coord>
<gx:coord >20.34162 49.305942 11503</gx:coord>
<gx:coord >20.338229 49.26503 11503</gx:coord>
<gx:coord >20.335043 49.225267 11495</gx:coord>
<gx:coord >20.331718 49.184907 11502</gx:coord>
<gx:coord >20.328369 49.145325 11495</gx:coord>
<gx:coord >20.325068 49.10628 11495</gx:coord>
<gx:coord >20.321679 49.065903 11495</gx:coord>
<gx:coord >20.318274 49.02635 11518</gx:coord>
<gx:coord >20.314918 48.986664 11518</gx:coord>
<gx:coord >20.311408 48.945023 11518</gx:coord>
<gx:coord >20.308087 48.903946 11517</gx:coord>
<gx:coord >20.304706 48.862473 11524</gx:coord>
<gx:coord >20.301361 48.821427 11524</gx:coord>
<gx:coord >20.297964 48.779949 11524</gx:coord>
<gx:coord >20.294635 48.738647 11524</gx:coord>
<gx:coord >20.291242 48.697644 11517</gx:coord>
<gx:coord >20.287917 48.65719 11509</gx:coord>
<gx:coord >20.284665 48.616271 11517</gx:coord>
<gx:coord >20.281412 48.576189 11509</gx:coord>
<gx:coord >20.278156 48.535675 11517</gx:coord>
<gx:coord >20.274907 48.495002 11524</gx:coord>
<gx:coord >20.271655 48.454595 11517</gx:coord>
<gx:coord >20.268437 48.414413 11532</gx:coord>
<gx:coord >20.265077 48.373687 11532</gx:coord>
<gx:coord >20.261752 48.332675 11532</gx:coord>
<gx:coord >20.258507 48.292145 11539</gx:coord>
<gx:coord >20.255197 48.250626 11532</gx:coord>
<gx:coord >20.25185 48.209451 11547</gx:coord>
<gx:coord >20.248526 48.168764 11547</gx:coord>
<gx:coord >20.245193 48.128128 11562</gx:coord>
<gx:coord >20.241817 48.085855 11562</gx:coord>
<gx:coord >20.238718 48.044982 11563</gx:coord>
<gx:coord >20.235549 48.003597 11571</gx:coord>
<gx:coord >20.23238 47.962398 11556</gx:coord>
<gx:coord >20.229057 47.920898 11502</gx:coord>
<gx:coord >20.22576 47.880094 11457</gx:coord>
<gx:coord >20.22245 47.838802 11418</gx:coord>
<gx:coord >20.218999 47.796905 11365</gx:coord>
<gx:coord >20.215736 47.756378 11319</gx:coord>
<gx:coord >20.212578 47.715408 11266</gx:coord>
<gx:coord >20.209351 47.673752 11251</gx:coord>
<gx:coord >20.206261 47.632462 11258</gx:coord>
<gx:coord >20.203012 47.591284 11258</gx:coord>
<gx:coord >20.199806 47.55011 11258</gx:coord>
<gx:coord >20.196744 47.509073 11258</gx:coord>
<gx:coord >20.193505 47.468293 11266</gx:coord>
<gx:coord >20.190262 47.427567 11266</gx:coord>
<gx:coord >20.187167 47.38785 11266</gx:coord>
<gx:coord >20.183945 47.34668 11266</gx:coord>
<gx:coord >20.180786 47.305389 11266</gx:coord>
<gx:coord >20.177559 47.264282 11266</gx:coord>
<gx:coord >20.174349 47.223847 11280</gx:coord>
<gx:coord >20.171251 47.183952 11280</gx:coord>
<gx:coord >20.168222 47.143731 11273</gx:coord>
<gx:coord >20.165264 47.104906 11273</gx:coord>
<gx:coord >20.162109 47.064423 11273</gx:coord>
<gx:coord >20.159019 47.024597 11265</gx:coord>
<gx:coord >20.155968 46.984568 11273</gx:coord>
<gx:coord >20.15294 46.944394 11273</gx:coord>
<gx:coord >20.149912 46.904638 11273</gx:coord>
<gx:coord >20.147003 46.865395 11273</gx:coord>
<gx:coord >20.143969 46.825287 11273</gx:coord>
<gx:coord >20.140961 46.784952 11280</gx:coord>
<gx:coord >20.13814 46.74559 11280</gx:coord>
<gx:coord >20.135056 46.704976 11288</gx:coord>
<gx:coord >20.132044 46.665253 11288</gx:coord>
<gx:coord >20.129013 46.62458 11296</gx:coord>
<gx:coord >20.125881 46.584183 11296</gx:coord>
<gx:coord >20.122833 46.544464 11303</gx:coord>
<gx:coord >20.119743 46.504568 11311</gx:coord>
<gx:coord >20.116791 46.465139 11311</gx:coord>
<gx:coord >20.113823 46.426117 11303</gx:coord>
<gx:coord >20.110876 46.386932 11303</gx:coord>
<gx:coord >20.107864 46.346896 11296</gx:coord>
<gx:coord >20.105049 46.309561 11288</gx:coord>
<gx:coord >20.101891 46.267245 11288</gx:coord>
<gx:coord >20.098869 46.226745 11296</gx:coord>
<gx:coord >20.096674 46.194122 11296</gx:coord>
<gx:coord >20.096339 46.173386 11296</gx:coord>
<gx:coord >20.096947 46.157428 11296</gx:coord>
<gx:coord >20.098663 46.137876 11296</gx:coord>
<gx:coord >20.101616 46.115717 11296</gx:coord>
<gx:coord >20.107459 46.081787 11296</gx:coord>
<gx:coord >20.114761 46.042007 11296</gx:coord>
<gx:coord >20.122009 46.001013 11302</gx:coord>
<gx:coord >20.129013 45.959767 11310</gx:coord>
<gx:coord >20.135662 45.919098 11310</gx:coord>
<gx:coord >20.142128 45.879465 11310</gx:coord>
<gx:coord >20.148658 45.839127 11310</gx:coord>
<gx:coord >20.15538 45.798185 11310</gx:coord>
<gx:coord >20.161989 45.757599 11317</gx:coord>
<gx:coord >20.166812 45.729767 11317</gx:coord>
<gx:coord >20.171367 45.709579 11317</gx:coord>
<gx:coord >20.178383 45.68362 11317</gx:coord>
<gx:coord >20.190193 45.643026 11317</gx:coord>
<gx:coord >20.201866 45.601827 11325</gx:coord>
<gx:coord >20.212231 45.563461 11333</gx:coord>
<gx:coord >20.22295 45.522782 11325</gx:coord>
<gx:coord >20.233024 45.48381 11325</gx:coord>
<gx:coord >20.243421 45.443436 11325</gx:coord>
<gx:coord >20.253492 45.404526 11325</gx:coord>
<gx:coord >20.264148 45.362875 11325</gx:coord>
<gx:coord >20.274398 45.322793 11317</gx:coord>
<gx:coord >20.284293 45.283951 11317</gx:coord>
<gx:coord >20.294625 45.243851 11317</gx:coord>
<gx:coord >20.304631 45.204895 11317</gx:coord>
<gx:coord >20.315194 45.163678 11325</gx:coord>
<gx:coord >20.324841 45.125831 11325</gx:coord>
<gx:coord >20.335157 45.085191 11317</gx:coord>
<gx:coord >20.345503 45.04454 11317</gx:coord>
<gx:coord >20.355388 45.005819 11317</gx:coord>
<gx:coord >20.365839 44.964667 11317</gx:coord>
<gx:coord >20.375911 44.925201 11325</gx:coord>
<gx:coord >20.38559 44.887115 11325</gx:coord>
<gx:coord >20.39585 44.84675 11325</gx:coord>
<gx:coord >20.405899 44.806994 11333</gx:coord>
<gx:coord >20.41588 44.767565 11333</gx:coord>
<gx:coord >20.425661 44.728694 11333</gx:coord>
<gx:coord >20.43542 44.690094 11333</gx:coord>
<gx:coord >20.444954 44.651882 11333</gx:coord>
<gx:coord >20.45517 44.610947 11340</gx:coord>
<gx:coord >20.465306 44.570435 11348</gx:coord>
<gx:coord >20.475434 44.530288 11348</gx:coord>
<gx:coord >20.485121 44.491287 11348</gx:coord>
<gx:coord >20.495196 44.451056 11348</gx:coord>
<gx:coord >20.504843 44.412511 11348</gx:coord>
<gx:coord >20.515071 44.371536 11348</gx:coord>
<gx:coord >20.52475 44.33226 11348</gx:coord>
<gx:coord >20.534251 44.293756 11340</gx:coord>
<gx:coord >20.543518 44.255676 11340</gx:coord>
<gx:coord >20.553276 44.216014 11340</gx:coord>
<gx:coord >20.562548 44.178353 11333</gx:coord>
<gx:coord >20.572096 44.139994 11340</gx:coord>
<gx:coord >20.581928 44.10022 11340</gx:coord>
<gx:coord >20.591445 44.061493 11340</gx:coord>
<gx:coord >20.601065 44.02245 11340</gx:coord>
<gx:coord >20.610875 43.982089 11348</gx:coord>
<gx:coord >20.620508 43.942886 11348</gx:coord>
<gx:coord >20.63028 43.902878 11347</gx:coord>
<gx:coord >20.639648 43.864637 11347</gx:coord>
<gx:coord >20.649261 43.825301 11347</gx:coord>
<gx:coord >20.659201 43.784428 11355</gx:coord>
<gx:coord >20.668749 43.746069 11355</gx:coord>
<gx:coord >20.678755 43.705522 11355</gx:coord>
<gx:coord >20.688469 43.665894 11355</gx:coord>
<gx:coord >20.697795 43.627487 11355</gx:coord>
<gx:coord >20.707201 43.588257 11355</gx:coord>
<gx:coord >20.716684 43.548874 11355</gx:coord>
<gx:coord >20.725708 43.511353 11355</gx:coord>
<gx:coord >20.735256 43.471504 11354</gx:coord>
<gx:coord >20.744149 43.434122 11354</gx:coord>
<gx:coord >20.752847 43.398137 11354</gx:coord>
<gx:coord >20.762308 43.35878 11361</gx:coord>
<gx:coord >20.771825 43.319183 11361</gx:coord>
<gx:coord >20.781228 43.280034 11354</gx:coord>
<gx:coord >20.790412 43.24173 11361</gx:coord>
<gx:coord >20.799738 43.20314 11362</gx:coord>
<gx:coord >20.808872 43.164642 11370</gx:coord>
<gx:coord >20.818261 43.124817 11370</gx:coord>
<gx:coord >20.827523 43.085953 11362</gx:coord>
<gx:coord >20.836683 43.047506 11362</gx:coord>
<gx:coord >20.845855 43.00882 11362</gx:coord>
<gx:coord >20.855053 42.969955 11362</gx:coord>
<gx:coord >20.86457 42.929764 11355</gx:coord>
<gx:coord >20.873385 42.892593 11356</gx:coord>
<gx:coord >20.881944 42.856567 11356</gx:coord>
<gx:coord >20.891026 42.818143 11356</gx:coord>
<gx:coord >20.900303 42.779205 11356</gx:coord>
<gx:coord >20.908605 42.744141 11356</gx:coord>
<gx:coord >20.918352 42.70288 11356</gx:coord>
<gx:coord >20.927395 42.663849 11356</gx:coord>
<gx:coord >20.936446 42.625031 11363</gx:coord>
<gx:coord >20.945371 42.586825 11371</gx:coord>
<gx:coord >20.954361 42.547943 11371</gx:coord>
<gx:coord >20.96335 42.509216 11371</gx:coord>
<gx:coord >20.972389 42.470305 11378</gx:coord>
<gx:coord >20.981577 42.431396 11378</gx:coord>
<gx:coord >20.990338 42.394052 11378</gx:coord>
<gx:coord >20.99928 42.355321 11371</gx:coord>
<gx:coord >21.008419 42.316086 11371</gx:coord>
<gx:coord >21.01774 42.276322 11371</gx:coord>
<gx:coord >21.026771 42.237488 11371</gx:coord>
<gx:coord >21.035625 42.199557 11371</gx:coord>
<gx:coord >21.045206 42.160593 11371</gx:coord>
<gx:coord >21.055234 42.121023 11371</gx:coord>
<gx:coord >21.064304 42.085271 11371</gx:coord>
<gx:coord >21.074907 42.042443 11371</gx:coord>
<gx:coord >21.084424 42.003945 11371</gx:coord>
<gx:coord >21.094005 41.965073 11378</gx:coord>
<gx:coord >21.103363 41.926941 11370</gx:coord>
<gx:coord >21.112912 41.888169 11377</gx:coord>
<gx:coord >21.121791 41.852138 11385</gx:coord>
<gx:coord >21.131952 41.810669 11377</gx:coord>
<gx:coord >21.141592 41.771463 11377</gx:coord>
<gx:coord >21.151054 41.732986 11377</gx:coord>
<gx:coord >21.160754 41.693534 11370</gx:coord>
<gx:coord >21.169905 41.655991 11370</gx:coord>
<gx:coord >21.179331 41.617447 11377</gx:coord>
<gx:coord >21.189006 41.577347 11385</gx:coord>
<gx:coord >21.198495 41.538437 11385</gx:coord>
<gx:coord >21.201825 41.524736 11377</gx:coord>
<gx:coord >21.203925 41.516144 11362</gx:coord>
<gx:coord >21.207573 41.50118 11324</gx:coord>
<gx:coord >21.213476 41.476959 11225</gx:coord>
<gx:coord >21.217282 41.461239 11149</gx:coord>
<gx:coord >21.219262 41.453092 11095</gx:coord>
<gx:coord >21.223159 41.437031 10981</gx:coord>
<gx:coord >21.227374 41.419248 10844</gx:coord>
<gx:coord >21.231271 41.403095 10738</gx:coord>
<gx:coord >21.234273 41.390898 10670</gx:coord>
<gx:coord >21.236572 41.381401 10616</gx:coord>
<gx:coord >21.237946 41.375676 10594</gx:coord>
<gx:coord >21.240318 41.365806 10563</gx:coord>
<gx:coord >21.248807 41.330799 10466</gx:coord>
<gx:coord >21.250061 41.325806 10453</gx:coord>
<gx:coord >21.253239 41.312551 10434</gx:coord>
<gx:coord >21.263306 41.271286 10426</gx:coord>
<gx:coord >21.2724 41.233704 10426</gx:coord>
<gx:coord >21.28186 41.194382 10426</gx:coord>
<gx:coord >21.29071 41.157806 10426</gx:coord>
<gx:coord >21.300243 41.118102 10426</gx:coord>
<gx:coord >21.309448 41.079529 10426</gx:coord>
<gx:coord >21.31897 41.039894 10426</gx:coord>
<gx:coord >21.32782 41.002213 10427</gx:coord>
<gx:coord >21.330994 40.986237 10427</gx:coord>
<gx:coord >21.333639 40.968669 10427</gx:coord>
<gx:coord >21.335387 40.951538 10427</gx:coord>
<gx:coord >21.336261 40.935478 10427</gx:coord>
<gx:coord >21.336548 40.917526 10427</gx:coord>
<gx:coord >21.335949 40.899074 10419</gx:coord>
<gx:coord >21.334513 40.880313 10419</gx:coord>
<gx:coord >21.332391 40.86253 10419</gx:coord>
<gx:coord >21.329082 40.842466 10419</gx:coord>
<gx:coord >21.324837 40.823007 10419</gx:coord>
<gx:coord >21.320923 40.808075 10427</gx:coord>
<gx:coord >21.316036 40.791864 10428</gx:coord>
<gx:coord >21.310043 40.77464 10428</gx:coord>
<gx:coord >21.302979 40.756805 10428</gx:coord>
<gx:coord >21.296373 40.74196 10428</gx:coord>
<gx:coord >21.281017 40.709047 10436</gx:coord>
<gx:coord >21.264912 40.674087 10428</gx:coord>
<gx:coord >21.248433 40.638195 10429</gx:coord>
<gx:coord >21.231891 40.602164 10429</gx:coord>
<gx:coord >21.214412 40.564317 10421</gx:coord>
<gx:coord >21.197683 40.528145 10421</gx:coord>
<gx:coord >21.181266 40.49258 10422</gx:coord>
<gx:coord >21.164185 40.455322 10422</gx:coord>
<gx:coord >21.147766 40.419617 10430</gx:coord>
<gx:coord >21.131165 40.383408 10431</gx:coord>
<gx:coord >21.114974 40.348128 10431</gx:coord>
<gx:coord >21.097839 40.310623 10431</gx:coord>
<gx:coord >21.080627 40.272949 10424</gx:coord>
<gx:coord >21.073088 40.256606 10386</gx:coord>
<gx:coord >21.058731 40.225184 10302</gx:coord>
<gx:coord >21.045105 40.195267 10219</gx:coord>
<gx:coord >21.030212 40.162399 10136</gx:coord>
<gx:coord >21.024274 40.149164 10120</gx:coord>
<gx:coord >21.007732 40.112574 10113</gx:coord>
<gx:coord >20.99094 40.075378 10113</gx:coord>
<gx:coord >20.974426 40.038895 10114</gx:coord>
<gx:coord >20.963912 40.016536 10114</gx:coord>
<gx:coord >20.9533 39.99596 10114</gx:coord>
<gx:coord >20.936321 39.96477 10114</gx:coord>
<gx:coord >20.916687 39.929169 10107</gx:coord>
<gx:coord >20.897278 39.893313 10115</gx:coord>
<gx:coord >20.878113 39.857328 10115</gx:coord>
<gx:coord >20.859156 39.821365 10116</gx:coord>
<gx:coord >20.839034 39.783188 10108</gx:coord>
<gx:coord >20.820346 39.747757 10116</gx:coord>
<gx:coord >20.802124 39.712783 10117</gx:coord>
<gx:coord >20.783325 39.676519 10117</gx:coord>
<gx:coord >20.765115 39.641785 10124</gx:coord>
<gx:coord >20.744568 39.602827 10125</gx:coord>
<gx:coord >20.726318 39.568006 10118</gx:coord>
<gx:coord >20.709045 39.534814 10118</gx:coord>
<gx:coord >20.699436 39.516174 10113</gx:coord>
<gx:coord >20.695794 39.508987 10099</gx:coord>
<gx:coord >20.693466 39.504456 10085</gx:coord>
<gx:coord >20.689392 39.496548 10056</gx:coord>
<gx:coord >20.685486 39.488867 10015</gx:coord>
<gx:coord >20.682419 39.483032 9981</gx:coord>
<gx:coord >20.675075 39.468796 9860</gx:coord>
<gx:coord >20.669373 39.45791 9782</gx:coord>
<gx:coord >20.665582 39.450577 9740</gx:coord>
<gx:coord >20.661581 39.442932 9701</gx:coord>
<gx:coord >20.656028 39.432312 9662</gx:coord>
<gx:coord >20.641101 39.40329 9571</gx:coord>
<gx:coord >20.627189 39.37619 9480</gx:coord>
<gx:coord >20.612979 39.348404 9396</gx:coord>
<gx:coord >20.59668 39.316763 9305</gx:coord>
<gx:coord >20.580566 39.28562 9214</gx:coord>
<gx:coord >20.565033 39.255112 9138</gx:coord>
<gx:coord >20.550464 39.226227 9039</gx:coord>
<gx:coord >20.536682 39.198986 8947</gx:coord>
<gx:coord >20.521804 39.169281 8857</gx:coord>
<gx:coord >20.507996 39.141447 8788</gx:coord>
<gx:coord >20.492126 39.109792 8682</gx:coord>
<gx:coord >20.478149 39.082885 8605</gx:coord>
<gx:coord >20.46283 39.053743 8507</gx:coord>
<gx:coord >20.448005 39.025406 8424</gx:coord>
<gx:coord >20.433228 38.996949 8332</gx:coord>
<gx:coord >20.417419 38.966364 8248</gx:coord>
<gx:coord >20.401552 38.935593 8150</gx:coord>
<gx:coord >20.387699 38.908539 8066</gx:coord>
<gx:coord >20.37262 38.879312 7990</gx:coord>
<gx:coord >20.357666 38.850496 7906</gx:coord>
<gx:coord >20.343993 38.823944 7815</gx:coord>
<gx:coord >20.328918 38.794726 7732</gx:coord>
<gx:coord >20.314557 38.766769 7641</gx:coord>
<gx:coord >20.299011 38.736303 7549</gx:coord>
<gx:coord >20.2854 38.709769 7465</gx:coord>
<gx:coord >20.271567 38.682724 7382</gx:coord>
<gx:coord >20.257416 38.655212 7290</gx:coord>
<gx:coord >20.243922 38.628937 7206</gx:coord>
<gx:coord >20.229771 38.601425 7116</gx:coord>
<gx:coord >20.216336 38.575287 7025</gx:coord>
<gx:coord >20.202209 38.547674 6941</gx:coord>
<gx:coord >20.188214 38.520218 6857</gx:coord>
<gx:coord >20.17472 38.493576 6765</gx:coord>
<gx:coord >20.161194 38.466952 6682</gx:coord>
<gx:coord >20.147135 38.439377 6583</gx:coord>
<gx:coord >20.13979 38.425095 6745</gx:coord>
<gx:coord >20.139282 38.424264 7032</gx:coord>
<gx:coord >20.138 38.421936 6759</gx:coord>
<gx:coord >20.132446 38.41337 6570</gx:coord>
<gx:coord >20.12707 38.406464 6498</gx:coord>
<gx:coord >20.122629 38.401566 6469</gx:coord>
<gx:coord >20.1174 38.396519 6435</gx:coord>
<gx:coord >20.107902 38.388107 6395</gx:coord>
<gx:coord >20.091189 38.373001 6346</gx:coord>
<gx:coord >20.081993 38.363839 6316</gx:coord>
<gx:coord >20.074593 38.35611 6278</gx:coord>
<gx:coord >20.063782 38.343635 6233</gx:coord>
<gx:coord >20.056068 38.334137 6201</gx:coord>
<gx:coord >20.049093 38.324875 6158</gx:coord>
<gx:coord >20.040137 38.312212 6111</gx:coord>
<gx:coord >20.0313 38.298573 6058</gx:coord>
<gx:coord >20.022941 38.284281 6012</gx:coord>
<gx:coord >20.01557 38.270508 5974</gx:coord>
<gx:coord >20.008193 38.255139 5921</gx:coord>
<gx:coord >20.002342 38.241453 5875</gx:coord>
<gx:coord >19.996908 38.227255 5837</gx:coord>
<gx:coord >19.992371 38.213562 5784</gx:coord>
<gx:coord >19.987892 38.197787 5722</gx:coord>
<gx:coord >19.984191 38.182099 5677</gx:coord>
<gx:coord >19.981504 38.1679 5631</gx:coord>
<gx:coord >19.979533 38.154214 5593</gx:coord>
<gx:coord >19.978053 38.139221 5547</gx:coord>
<gx:coord >19.977294 38.125809 5502</gx:coord>
<gx:coord >19.977118 38.109879 5456</gx:coord>
<gx:coord >19.977682 38.093277 5402</gx:coord>
<gx:coord >19.978871 38.078659 5349</gx:coord>
<gx:coord >19.980787 38.063437 5281</gx:coord>
<gx:coord >19.983079 38.049957 5242</gx:coord>
<gx:coord >19.98641 38.03476 5189</gx:coord>
<gx:coord >19.990579 38.019399 5136</gx:coord>
<gx:coord >19.995234 38.00473 5090</gx:coord>
<gx:coord >20.000252 37.991049 5037</gx:coord>
<gx:coord >20.005506 37.978293 4997</gx:coord>
<gx:coord >20.012181 37.963898 4946</gx:coord>
<gx:coord >20.01918 37.950269 4892</gx:coord>
<gx:coord >20.026822 37.936722 4845</gx:coord>
<gx:coord >20.034154 37.92485 4807</gx:coord>
<gx:coord >20.042101 37.912949 4762</gx:coord>
<gx:coord >20.05151 37.899994 4716</gx:coord>
<gx:coord >20.060677 37.888261 4662</gx:coord>
<gx:coord >20.072664 37.87413 4601</gx:coord>
<gx:coord >20.083008 37.86289 4548</gx:coord>
<gx:coord >20.093755 37.852044 4518</gx:coord>
<gx:coord >20.107429 37.839195 4457</gx:coord>
<gx:coord >20.119532 37.828583 4411</gx:coord>
<gx:coord >20.130576 37.819473 4365</gx:coord>
<gx:coord >20.142895 37.810007 4320</gx:coord>
<gx:coord >20.158451 37.798782 4251</gx:coord>
<gx:coord >20.1706 37.790595 4213</gx:coord>
<gx:coord >20.186661 37.780493 4159</gx:coord>
<gx:coord >20.201695 37.771729 4105</gx:coord>
<gx:coord >20.215662 37.764175 4059</gx:coord>
<gx:coord >20.229103 37.757401 4007</gx:coord>
<gx:coord >20.24213 37.751398 3973</gx:coord>
<gx:coord >20.24903 37.748795 3949</gx:coord>
<gx:coord >20.254908 37.746929 3931</gx:coord>
<gx:coord >20.260819 37.745532 3906</gx:coord>
<gx:coord >20.267555 37.744354 3882</gx:coord>
<gx:coord >20.27223 37.743851 3863</gx:coord>
<gx:coord >20.276379 37.743622 3847</gx:coord>
<gx:coord >20.279418 37.74353 3838</gx:coord>
<gx:coord >20.29093 37.743668 3810</gx:coord>
<gx:coord >20.312377 37.744308 3762</gx:coord>
<gx:coord >20.327931 37.744694 3716</gx:coord>
<gx:coord >20.339433 37.744904 3656</gx:coord>
<gx:coord >20.354621 37.745066 3594</gx:coord>
<gx:coord >20.369237 37.745178 3526</gx:coord>
<gx:coord >20.383554 37.745178 3473</gx:coord>
<gx:coord >20.398029 37.745206 3404</gx:coord>
<gx:coord >20.412657 37.745206 3351</gx:coord>
<gx:coord >20.430271 37.745206 3297</gx:coord>
<gx:coord >20.450407 37.745178 3257</gx:coord>
<gx:coord >20.45479 37.745224 3249</gx:coord>
<gx:coord >20.457069 37.745224 3239</gx:coord>
<gx:coord >20.471948 37.745253 3206</gx:coord>
<gx:coord >20.488606 37.745253 3160</gx:coord>
<gx:coord >20.501563 37.745299 3115</gx:coord>
<gx:coord >20.507559 37.745316 3085</gx:coord>
<gx:coord >20.518429 37.745407 3029</gx:coord>
<gx:coord >20.529089 37.745485 2968</gx:coord>
<gx:coord >20.537596 37.745544 2924</gx:coord>
<gx:coord >20.549449 37.745625 2856</gx:coord>
<gx:coord >20.561381 37.745682 2793</gx:coord>
<gx:coord >20.573989 37.745718 2719</gx:coord>
<gx:coord >20.586626 37.745544 2652</gx:coord>
<gx:coord >20.591301 37.745087 2635</gx:coord>
<gx:coord >20.594456 37.744629 2616</gx:coord>
<gx:coord >20.60253 37.742785 2560</gx:coord>
<gx:coord >20.610232 37.739806 2519</gx:coord>
<gx:coord >20.612501 37.738735 2502</gx:coord>
<gx:coord >20.617158 37.736035 2470</gx:coord>
<gx:coord >20.620812 37.733459 2456</gx:coord>
<gx:coord >20.624144 37.730589 2430</gx:coord>
<gx:coord >20.62987 37.724213 2391</gx:coord>
<gx:coord >20.631974 37.721191 2374</gx:coord>
<gx:coord >20.635071 37.715366 2352</gx:coord>
<gx:coord >20.636922 37.70992 2303</gx:coord>
<gx:coord >20.638235 37.704892 2275</gx:coord>
<gx:coord >20.639746 37.69899 2238</gx:coord>
<gx:coord >20.641324 37.693405 2213</gx:coord>
<gx:coord >20.642415 37.689809 2187</gx:coord>
<gx:coord >20.643788 37.685852 2152</gx:coord>
<gx:coord >20.646232 37.679672 2112</gx:coord>
<gx:coord >20.648804 37.673748 2072</gx:coord>
<gx:coord >20.651909 37.66751 2033</gx:coord>
<gx:coord >20.654357 37.662995 2002</gx:coord>
<gx:coord >20.657103 37.65834 1972</gx:coord>
<gx:coord >20.659848 37.6539 1942</gx:coord>
<gx:coord >20.662716 37.649634 1912</gx:coord>
<gx:coord >20.665225 37.646164 1891</gx:coord>
<gx:coord >20.669164 37.640929 1846</gx:coord>
<gx:coord >20.677165 37.631339 1819</gx:coord>
<gx:coord >20.682181 37.625986 1739</gx:coord>
<gx:coord >20.68562 37.622452 1712</gx:coord>
<gx:coord >20.689584 37.618631 1684</gx:coord>
<gx:coord >20.695018 37.613603 1641</gx:coord>
<gx:coord >20.699615 37.609646 1599</gx:coord>
<gx:coord >20.70467 37.605469 1567</gx:coord>
<gx:coord >20.70887 37.602198 1540</gx:coord>
<gx:coord >20.715715 37.597092 1502</gx:coord>
<gx:coord >20.721588 37.593027 1479</gx:coord>
<gx:coord >20.726292 37.589905 1449</gx:coord>
<gx:coord >20.732395 37.586091 1420</gx:coord>
<gx:coord >20.742546 37.580225 1385</gx:coord>
<gx:coord >20.748099 37.577339 1330</gx:coord>
<gx:coord >20.753115 37.574799 1292</gx:coord>
<gx:coord >20.758375 37.572327 1265</gx:coord>
<gx:coord >20.764638 37.569565 1232</gx:coord>
<gx:coord >20.769712 37.567429 1204</gx:coord>
<gx:coord >20.779505 37.563699 1175</gx:coord>
<gx:coord >20.783446 37.562256 1166</gx:coord>
<gx:coord >20.794431 37.55864 1140</gx:coord>
<gx:coord >20.801502 37.55658 1119</gx:coord>
<gx:coord >20.805299 37.555552 1111</gx:coord>
<gx:coord >20.828559 37.5504 1051</gx:coord>
<gx:coord >20.829844 37.550125 1044</gx:coord>
<gx:coord >20.835213 37.549221 1035</gx:coord>
<gx:coord >20.835213 37.549221 1095</gx:coord>
<gx:coord >20.919897 37.547516 966</gx:coord>
<gx:coord >20.932052 37.549164 967</gx:coord>
<gx:coord >20.933791 37.549454 967</gx:coord>
<gx:coord >20.935442 37.549713 967</gx:coord>
<gx:coord >20.941613 37.551456 967</gx:coord>
<gx:coord >20.944002 37.552759 967</gx:coord>
<gx:coord >20.946569 37.554808 967</gx:coord>
<gx:coord >20.949642 37.566147 966</gx:coord>
<gx:coord >20.948123 37.570999 966</gx:coord>
<gx:coord >20.947286 37.573242 966</gx:coord>
<gx:coord >20.941912 37.58786 966</gx:coord>
<gx:coord >20.939583 37.594237 959</gx:coord>
<gx:coord >20.938867 37.596286 949</gx:coord>
<gx:coord >20.934098 37.609268 943</gx:coord>
<gx:coord >20.932836 37.612765 851</gx:coord>
<gx:coord >20.930825 37.618149 819</gx:coord>
<gx:coord >20.929552 37.62161 800</gx:coord>
<gx:coord >20.927728 37.626801 770</gx:coord>
<gx:coord >20.926806 37.629338 757</gx:coord>
<gx:coord >20.925253 37.63362 722</gx:coord>
<gx:coord >20.921767 37.642914 714</gx:coord>
<gx:coord >20.919956 37.648132 626</gx:coord>
<gx:coord >20.918924 37.650984 612</gx:coord>
<gx:coord >20.915865 37.659256 554</gx:coord>
<gx:coord >20.913937 37.664886 516</gx:coord>
<gx:coord >20.911015 37.672943 516</gx:coord>
<gx:coord >20.909028 37.678253 440</gx:coord>
<gx:coord >20.90752 37.682593 408</gx:coord>
<gx:coord >20.906749 37.684708 395</gx:coord>
<gx:coord >20.903593 37.69368 341</gx:coord>
<gx:coord >20.902803 37.69614 326</gx:coord>
<gx:coord >20.902249 37.698166 318</gx:coord>
<gx:coord >20.901197 37.702789 295</gx:coord>
<gx:coord >20.899269 37.709793 247</gx:coord>
<gx:coord >20.898684 37.711487 237</gx:coord>
<gx:coord >20.898684 37.711487 237</gx:coord>
</gx:Track>
</Placemark>
</Folder>
</Folder>
</kml>
