<?xml version="1.0" encoding="UTF-8"?>
<kml xmlns="http://www.opengis.net/kml/2.2">
    <Document>
        <name>Edited Path</name>
        <description>Path edited with KML Path Editor</description>
        <Style id="pathStyle">
            <LineStyle>
                <color>ff0000ff</color>
                <width>3</width>
            </LineStyle>
        </Style>
        <Placemark>
            <name>Edited Path</name>
            <description>Total points: 622</description>
            <styleUrl>#pathStyle</styleUrl>
            <LineString>
                <tessellate>1</tessellate>
                <coordinates>20.96302,52.179474,0 20.96302,52.179474,0 20.963013,52.179472,0 20.963078,52.179428,0 20.963091,52.179402,0 20.96315,52.179368,0 20.963173,52.179337,0 20.963189,52.179251,0 20.963209,52.179205,0 20.963209,52.179181,0 20.963209,52.179123,0 20.963228,52.179042,0 20.963248,52.178984,0 20.963268,52.17896,0 20.963287,52.178925,0 20.963307,52.178902,0 20.963345,52.17889,0 20.963364,52.178867,0 20.963402,52.178844,0 20.96344,52.178822,0 20.963459,52.178799,0 20.963497,52.178787,0 20.963535,52.178787,0 20.963573,52.178776,0 20.963601,52.178774,0 20.96366,52.178774,0 20.963719,52.178786,0 20.963758,52.178797,0 20.963758,52.178797,0 20.963764,52.178799,0 20.96364,52.178762,0 20.963582,52.178739,0 20.963307,52.178658,0 20.962973,52.178541,0 20.962503,52.17839,0 20.962029,52.178226,0 20.961571,52.178078,0 20.96111,52.177936,0 20.960922,52.17786,0 20.960874,52.177808,0 20.960835,52.17775,0 20.960808,52.177689,0 20.960815,52.177634,0 20.960827,52.177574,0 20.960835,52.177529,0 20.960884,52.177471,0 20.960941,52.177402,0 20.961012,52.177319,0 20.961169,52.177168,0 20.961463,52.17683,0 20.961698,52.176563,0 20.962012,52.17619,0 20.962315,52.175846,0 20.96262,52.175504,0 20.962868,52.175205,0 20.963189,52.174852,0 20.963516,52.174484,0 20.963837,52.174107,0 20.964151,52.173746,0 20.9647,52.17313,0 20.965033,52.172746,0 20.965366,52.172356,0 20.965672,52.172012,0 20.965939,52.171692,0 20.966263,52.171337,0 20.966625,52.170902,0 20.967808,52.169563,0 20.968094,52.169231,0 20.968427,52.168847,0 20.968838,52.168373,0 20.969173,52.167986,0 20.969624,52.167473,0 20.969977,52.167078,0 20.970287,52.166759,0 20.970605,52.166612,0 20.971135,52.166484,0 20.971311,52.166426,0 20.972195,52.166187,0 20.973091,52.165936,0 20.973666,52.165774,0 20.974293,52.165592,0 20.97496,52.165409,0 20.975529,52.165251,0 20.976137,52.165076,0 20.976726,52.164913,0 20.977135,52.164791,0 20.977609,52.164657,0 20.97806,52.164529,0 20.978737,52.164345,0 20.979374,52.164157,0 20.979983,52.163994,0 20.980571,52.163831,0 20.981197,52.163647,0 20.98175,52.163486,0 20.982258,52.163354,0 20.982631,52.163249,0 20.982914,52.163166,0 20.983377,52.163039,0 20.983963,52.162868,0 20.984402,52.162754,0 20.984573,52.16269,0 20.984669,52.162628,0 20.984711,52.162586,0 20.98477,52.162504,0 20.984789,52.162446,0 20.984783,52.162376,0 20.984726,52.162273,0 20.984669,52.162205,0 20.984652,52.162178,0 20.984593,52.162132,0 20.984592,52.162125,0 20.984497,52.161976,0 20.984344,52.16177,0 20.984161,52.161515,0 20.984058,52.161381,0 20.983887,52.161212,0 20.983553,52.161142,0 20.983494,52.161154,0 20.983396,52.161177,0 20.983315,52.161209,0 20.98318,52.161247,0 20.982984,52.161294,0 20.982666,52.161381,0 20.982399,52.161461,0 20.982151,52.16153,0 20.981903,52.161598,0 20.981636,52.161678,0 20.981464,52.161724,0 20.981062,52.161841,0 20.980854,52.161896,0 20.980434,52.16201,0 20.979355,52.162318,0 20.978845,52.162457,0 20.978276,52.16262,0 20.977974,52.162697,0 20.977668,52.162783,0 20.976373,52.163156,0 20.976373,52.163156,0 20.975882,52.163272,0 20.974426,52.163681,0 20.972273,52.164296,0 20.969696,52.165009,0 20.969134,52.165181,0 20.964504,52.166484,0 20.964033,52.166624,0 20.961443,52.167369,0 20.959324,52.167974,0 20.957598,52.168486,0 20.953517,52.169603,0 20.950165,52.170547,0 20.947189,52.171371,0 20.943756,52.172333,0 20.940962,52.173141,0 20.938568,52.173843,0 20.935704,52.174631,0 20.932693,52.175491,0 20.929897,52.17626,0 20.927429,52.176956,0 20.92453,52.17778,0 20.921631,52.178604,0 20.918597,52.179426,0 20.915771,52.180217,0 20.912319,52.181241,0 20.910187,52.181854,0 20.907135,52.18277,0 20.904785,52.183522,0 20.902405,52.184464,0 20.89992,52.185617,0 20.897751,52.18689,0 20.895309,52.188675,0 20.893936,52.190002,0 20.892487,52.191971,0 20.891724,52.193115,0 20.890808,52.194717,0 20.890032,52.196185,0 20.889012,52.19786,0 20.887985,52.199753,0 20.887375,52.200989,0 20.886688,52.202179,0 20.885795,52.203912,0 20.884857,52.205658,0 20.883789,52.207581,0 20.882645,52.209869,0 20.881271,52.212616,0 20.879593,52.215637,0 20.877838,52.218246,0 20.875436,52.22095,0 20.872925,52.223138,0 20.869707,52.225559,0 20.866013,52.228043,0 20.862645,52.230261,0 20.858307,52.232895,0 20.855026,52.234863,0 20.850372,52.237656,0 20.845871,52.240219,0 20.841692,52.242597,0 20.838082,52.244645,0 20.835022,52.246368,0 20.830706,52.248696,0 20.82741,52.250464,0 20.824114,52.25228,0 20.81972,52.254701,0 20.816422,52.256424,0 20.814462,52.25754,0 20.810224,52.259868,0 20.807478,52.261451,0 20.80222,52.264523,0 20.799408,52.26622,0 20.795707,52.268527,0 20.791626,52.271227,0 20.786819,52.274414,0 20.783151,52.276906,0 20.779698,52.279327,0 20.77703,52.281142,0 20.774841,52.2827,0 20.771484,52.28508,0 20.76889,52.286911,0 20.76675,52.288451,0 20.764465,52.29007,0 20.762329,52.29158,0 20.760001,52.293246,0 20.757098,52.295341,0 20.754471,52.297211,0 20.751761,52.299158,0 20.74913,52.301056,0 20.743679,52.304931,0 20.738578,52.308608,0 20.73349,52.312271,0 20.728378,52.315933,0 20.724139,52.318943,0 20.719833,52.321976,0 20.715349,52.325134,0 20.710641,52.328393,0 20.7061,52.331589,0 20.701224,52.33505,0 20.696106,52.338638,0 20.690002,52.342896,0 20.683823,52.347153,0 20.677109,52.351822,0 20.669207,52.357255,0 20.661438,52.362655,0 20.656204,52.366241,0 20.651236,52.369685,0 20.64025,52.377226,0 20.627223,52.386257,0 20.61404,52.395382,0 20.605722,52.401108,0 20.603603,52.402597,0 20.599442,52.405472,0 20.591049,52.41124,0 20.582809,52.416962,0 20.57394,52.423127,0 20.565778,52.42876,0 20.557785,52.434357,0 20.542158,52.445192,0 20.52681,52.455826,0 20.511475,52.466467,0 20.503693,52.471848,0 20.487213,52.4832,0 20.472336,52.4935,0 20.45578,52.504898,0 20.437088,52.51767,0 20.420759,52.528847,0 20.403824,52.540558,0 20.387094,52.552076,0 20.379089,52.55757,0 20.358734,52.571548,0 20.340271,52.584183,0 20.322824,52.596161,0 20.304068,52.608917,0 20.284528,52.622231,0 20.265459,52.635265,0 20.245135,52.649091,0 20.224915,52.662872,0 20.20195,52.678528,0 20.179374,52.693968,0 20.158386,52.708237,0 20.14267,52.718948,0 20.117798,52.735886,0 20.0947,52.751553,0 20.071943,52.767008,0 20.046125,52.784465,0 20.022812,52.800247,0 19.999008,52.816406,0 19.97338,52.833717,0 19.94873,52.850372,0 19.92504,52.866304,0 19.899458,52.883435,0 19.872306,52.901591,0 19.843977,52.920584,0 19.818394,52.937715,0 19.793701,52.954285,0 19.769427,52.970488,0 19.763541,52.974445,0 19.633082,53.061345,0 19.622974,53.068335,0 18.646929,53.788779,0 18.656134,53.781947,0 18.592272,53.813364,0 18.549151,53.864615,0 18.532014,53.874288,0 18.510992,53.886684,0 18.510003,53.889501,0 18.493581,53.902779,0 18.481973,53.911112,0 18.473015,53.918192,0 18.450658,53.932956,0 18.433766,53.943939,0 18.419205,53.955343,0 18.403492,53.966216,0 18.388694,53.97674,0 18.369501,53.991927,0 18.355043,54.001214,0 17.136316,54.853907,0 17.109251,54.873495,0 17.104705,54.875046,0 17.077923,54.893947,0 17.059715,54.908012,0 17.043876,54.919912,0 17.027729,54.929456,0 17.01329,54.938833,0 17.000909,54.949172,0 16.987863,54.957369,0 16.962044,54.976285,0 16.93217,54.997948,0 16.928328,55.000331,0 15.908619,55.690847,0 15.887271,55.705783,0 15.874433,55.713794,0 15.856044,55.72452,0 15.832304,55.741132,0 15.818208,55.750792,0 15.803937,55.759851,0 15.791235,55.769093,0 15.770955,55.782406,0 15.761167,55.787591,0 15.748769,55.795647,0 15.729099,55.808806,0 15.717891,55.815025,0 15.71097,55.823374,0 15.469565,55.978269,0 15.313583,56.077216,0 15.255878,56.116047,0 15.246767,56.123028,0 15.233121,56.13156,0 15.213871,56.142778,0 15.195276,56.155203,0 15.192702,56.156835,0 15.174646,56.168677,0 15.151346,56.182984,0 15.112279,56.209895,0 15.089092,56.222806,0 15.0684,56.236291,0 15.047994,56.248652,0 15.032189,56.25927,0 15.013998,56.271452,0 14.995461,56.282579,0 14.97872,56.293183,0 14.956285,56.307502,0 14.940593,56.318296,0 14.918922,56.331084,0 14.896344,56.345555,0 14.87755,56.356639,0 14.466533,56.614787,0 14.267947,56.739825,0 14.240555,56.754444,0 14.226125,56.762651,0 14.216669,56.768701,0 14.19588,56.782396,0 14.17229,56.795861,0 14.163705,56.801684,0 14.14909,56.810902,0 14.128541,56.822914,0 14.11062,56.834362,0 14.091569,56.845661,0 14.071937,56.856999,0 14.019585,56.88945,0 13.974094,56.916916,0 13.928347,56.944244,0 13.882771,56.971481,0 13.837795,56.998535,0 13.791876,57.026184,0 13.746471,57.053284,0 13.699265,57.081207,0 13.6518,57.109497,0 13.606396,57.136642,0 13.559017,57.164932,0 13.513012,57.19249,0 13.466049,57.220428,0 13.418684,57.248703,0 13.371336,57.276477,0 13.324699,57.304138,0 13.278041,57.331362,0 13.230551,57.359061,0 13.182392,57.387131,0 13.135218,57.414504,0 13.087552,57.442156,0 13.038645,57.470553,0 12.991776,57.498019,0 12.943525,57.526108,0 12.896318,57.553391,0 12.848334,57.580975,0 12.800875,57.608231,0 12.753239,57.635468,0 12.705002,57.663071,0 12.657225,57.69028,0 12.609204,57.717559,0 12.560385,57.745193,0 12.512421,57.772491,0 12.463989,57.799942,0 12.414734,57.827748,0 12.36653,57.854828,0 12.317534,57.882248,0 12.267883,57.90996,0 12.219635,57.936913,0 12.170471,57.964379,0 12.12149,57.991752,0 12.071582,58.01944,0 12.022247,58.047056,0 11.971819,58.075195,0 11.958087,58.08284,0 11.946716,58.089139,0 11.937709,58.094101,0 11.919617,58.104083,0 11.911395,58.108612,0 11.90475,58.112228,0 11.901383,58.114059,0 11.895905,58.117024,0 11.879242,58.126102,0 11.862396,58.135273,0 11.845459,58.14449,0 11.82843,58.153754,0 11.81131,58.163064,0 11.795064,58.171967,0 11.775146,58.182942,0 11.765717,58.188202,0 11.735962,58.204635,0 11.709412,58.219299,0 11.684601,58.232939,0 11.656769,58.248115,0 11.632661,58.261139,0 11.608296,58.274323,0 11.584534,58.287219,0 11.559744,58.30069,0 11.531982,58.315802,0 11.502863,58.331497,0 11.476549,58.345734,0 11.451141,58.359468,0 11.424452,58.373886,0 11.400696,58.386655,0 11.3759,58.40007,0 11.350383,58.413757,0 11.324867,58.427536,0 11.299622,58.441028,0 11.273254,58.455133,0 11.246887,58.469145,0 11.22171,58.482599,0 11.194182,58.497299,0 11.165588,58.512718,0 11.137665,58.527568,0 11.111519,58.541428,0 11.084747,58.555546,0 11.060131,58.568573,0 11.034485,58.582127,0 11.008301,58.596222,0 10.997498,58.602797,0 10.990669,58.607712,0 10.983948,58.613317,0 10.977997,58.619276,0 10.972507,58.626068,0 10.968785,58.631744,0 10.964444,58.639023,0 10.953724,58.657471,0 10.942914,58.675186,0 10.932312,58.691758,0 10.921296,58.70874,0 10.909424,58.726626,0 10.896423,58.745945,0 10.883881,58.764752,0 10.87262,58.781464,0 10.864838,58.793195,0 10.85777,58.803909,0 10.8414,58.828808,0 10.825416,58.853294,0 10.809723,58.877289,0 10.79331,58.902314,0 10.779956,58.922704,0 10.767426,58.941833,0 10.755981,58.959137,0 10.743398,58.978054,0 10.735631,58.989692,0 10.72957,58.99877,0 10.723938,59.007248,0 10.717346,59.017136,0 10.710938,59.026749,0 10.703714,59.037548,0 10.696516,59.048441,0 10.68733,59.062593,0 10.677429,59.077789,0 10.667156,59.093597,0 10.657875,59.107982,0 10.648499,59.122273,0 10.640167,59.134918,0 10.634399,59.143753,0 10.627533,59.154053,0 10.620483,59.164581,0 10.613708,59.174744,0 10.607395,59.184327,0 10.600342,59.194794,0 10.593567,59.204681,0 10.586937,59.2144,0 10.580402,59.223943,0 10.573975,59.233429,0 10.567108,59.243591,0 10.560703,59.253038,0 10.553925,59.263138,0 10.547424,59.272888,0 10.54034,59.28339,0 10.533805,59.29312,0 10.527649,59.302414,0 10.52417,59.307541,0 10.520874,59.312439,0 10.516754,59.318619,0 10.513733,59.323151,0 10.510222,59.32836,0 10.5065,59.333771,0 10.50293,59.339081,0 10.499804,59.343722,0 10.496521,59.348602,0 10.493175,59.353638,0 10.489197,59.359596,0 10.486359,59.363846,0 10.482567,59.369465,0 10.479442,59.374121,0 10.475274,59.380126,0 10.471161,59.384903,0 10.468455,59.387528,0 10.46283,59.391815,0 10.459553,59.393812,0 10.456238,59.395581,0 10.450928,59.398041,0 10.44516,59.400192,0 10.437286,59.402481,0 10.430511,59.404037,0 10.421997,59.405457,0 10.42099,59.405594,0 10.413618,59.406335,0 10.406799,59.406784,0 10.398938,59.406893,0 10.387665,59.406601,0 10.369957,59.406009,0 10.356508,59.405637,0 10.341339,59.405457,0 10.328064,59.405411,0 10.318909,59.405404,0 10.307465,59.405502,0 10.292485,59.40545,0 10.288033,59.405124,0 10.283487,59.404519,0 10.28112,59.404007,0 10.277805,59.403123,0 10.274597,59.401978,0 10.271851,59.400833,0 10.269287,59.399414,0 10.26644,59.397583,0 10.263882,59.395488,0 10.261515,59.392881,0 10.259715,59.390321,0 10.258294,59.387854,0 10.257253,59.385293,0 10.256306,59.381709,0 10.255737,59.37822,0 10.255358,59.373702,0 10.255188,59.369293,0 10.255096,59.36412,0 10.255005,59.359772,0 10.254913,59.355103,0 10.254913,59.350525,0 10.25498,59.345445,0 10.255074,59.340184,0 10.255074,59.33525,0 10.255169,59.32985,0 10.25528,59.324341,0 10.255463,59.318207,0 10.255548,59.31323,0 10.255737,59.307312,0 10.255927,59.30271,0 10.256116,59.297496,0 10.256211,59.291304,0 10.256195,59.286667,0 10.2564,59.280318,0 10.256378,59.275543,0 10.25659,59.271752,0 10.256653,59.267166,0 10.256684,59.26463,0 10.256779,59.260347,0 10.256927,59.256546,0 10.257063,59.254109,0 10.257111,59.249359,0 10.257202,59.24437,0 10.257294,59.239197,0 10.257477,59.234985,0 10.257537,59.23074,0 10.25766,59.225189,0 10.257821,59.220312,0 10.257935,59.21553,0 10.258026,59.211136,0 10.258209,59.205917,0 10.258389,59.201412,0 10.258392,59.198959,0 10.258578,59.191635,0 10.258736,59.182697,0 10.258598,59.182583,0 10.256968,59.181755,0 10.255761,59.181187,0 10.25544,59.180946,0 10.25425,59.180649,0 10.253746,59.18066,0 10.253746,59.18066,0 10.253426,59.18066,0 10.252075,59.180649,0 10.252075,59.180649,0</coordinates>
            </LineString>
        </Placemark>
    </Document>
</kml>