<?xml version="1.0" encoding="UTF-8"?>
<kml xmlns="http://www.opengis.net/kml/2.2">
    <Document>
        <name>Edited Path</name>
        <description>Path edited with KML Path Editor</description>
        <Style id="pathStyle">
            <LineStyle>
                <color>ff0000ff</color>
                <width>3</width>
            </LineStyle>
        </Style>
        <Placemark>
            <name>Edited Path</name>
            <description>Total points: 342</description>
            <styleUrl>#pathStyle</styleUrl>
            <LineString>
                <tessellate>1</tessellate>
                <coordinates>20.962483,52.17683,0 20.962483,52.17683,0 20.962483,52.17683,0 20.962483,52.17683,0 20.962483,52.17683,0 20.962483,52.17683,0 20.962486,52.17683,0 20.962483,52.17683,0 20.962365,52.176796,0 20.962067,52.176704,0 20.961757,52.176598,0 20.961704,52.176533,0 20.961698,52.176505,0 20.961704,52.176476,0 20.961718,52.176423,0 20.961836,52.176342,0 20.961934,52.17626,0 20.962105,52.176075,0 20.962276,52.17588,0 20.962543,52.175583,0 20.962718,52.175376,0 20.963039,52.175011,0 20.963326,52.17469,0 20.963612,52.17437,0 20.963935,52.173991,0 20.964241,52.173637,0 20.964484,52.173362,0 20.964798,52.173002,0 20.965131,52.172606,0 20.965465,52.172245,0 20.965779,52.171884,0 20.966014,52.171593,0 20.966367,52.171209,0 20.966681,52.170837,0 20.96693,52.170547,0 20.967274,52.170158,0 20.967584,52.169813,0 20.967878,52.169475,0 20.968227,52.169083,0 20.968545,52.168695,0 20.968895,52.168316,0 20.969291,52.167869,0 20.969524,52.167583,0 20.969781,52.167299,0 20.970075,52.166973,0 20.970325,52.166748,0 20.971394,52.166416,0 20.971743,52.16631,0 20.972271,52.166164,0 20.972626,52.166065,0 20.973759,52.165741,0 20.974426,52.165558,0 20.975078,52.165379,0 20.975704,52.165203,0 20.976181,52.165066,0 20.976824,52.164878,0 20.977364,52.164734,0 20.977993,52.164551,0 20.978649,52.164366,0 20.979316,52.16418,0 20.979939,52.164001,0 20.980532,52.163842,0 20.981178,52.163658,0 20.981709,52.163517,0 20.982239,52.163354,0 20.98269,52.163226,0 20.983181,52.163097,0 20.984259,52.162795,0 20.984554,52.162702,0 20.98465,52.16264,0 20.984707,52.162571,0 20.98475,52.162481,0 20.98477,52.162364,0 20.984726,52.162296,0 20.984688,52.162216,0 20.984613,52.162132,0 20.984475,52.161969,0 20.984259,52.161678,0 20.983985,52.161294,0 20.983808,52.161142,0 20.983632,52.161096,0 20.983514,52.161096,0 20.983429,52.161118,0 20.983357,52.161154,0 20.983295,52.161186,0 20.983219,52.161221,0 20.983143,52.161255,0 20.983063,52.161282,0 20.982984,52.161317,0 20.982925,52.161329,0 20.982761,52.161381,0 20.982494,52.161457,0 20.98217,52.161541,0 20.982018,52.161575,0 20.981236,52.161793,0 20.981022,52.161852,0 20.980591,52.16198,0 20.980148,52.162102,0 20.977192,52.162937,0 20.977192,52.162937,0 20.975804,52.163319,0 20.975019,52.163551,0 20.973587,52.163956,0 20.972061,52.164368,0 20.97168,52.164459,0 20.97086,52.164715,0 20.969467,52.1651,0 20.968035,52.165507,0 20.966544,52.165926,0 20.965958,52.166061,0 20.964425,52.166531,0 20.963562,52.166764,0 20.961443,52.167369,0 20.960312,52.167664,0 20.959167,52.16802,0 20.956813,52.168672,0 20.953522,52.169586,0 20.949631,52.170639,0 20.946298,52.171605,0 20.943237,52.172443,0 20.939941,52.173374,0 20.937195,52.174165,0 20.934291,52.175003,0 20.930939,52.175949,0 20.928013,52.176726,0 20.924988,52.177597,0 20.921892,52.178495,0 20.919067,52.179286,0 20.916164,52.180078,0 20.913239,52.180939,0 20.910906,52.181567,0 20.908003,52.182452,0 20.905256,52.183476,0 20.903294,52.18436,0 20.901108,52.185562,0 20.8989,52.186921,0 20.897487,52.188131,0 20.895996,52.189528,0 20.894699,52.191101,0 20.893563,52.19274,0 20.89241,52.194626,0 20.891495,52.196182,0 20.890427,52.198013,0 20.889511,52.199615,0 20.888463,52.201445,0 20.887364,52.203354,0 20.886422,52.20489,0 20.88501,52.206938,0 20.883484,52.208771,0 20.8814,52.210802,0 20.879288,52.212662,0 20.876541,52.215042,0 20.873795,52.217422,0 20.871277,52.219554,0 20.868609,52.221835,0 20.865631,52.224335,0 20.862174,52.227142,0 20.859113,52.229656,0 20.855637,52.232437,0 20.852208,52.235195,0 20.849304,52.237518,0 20.846405,52.239853,0 20.843124,52.242508,0 20.841599,52.243744,0 20.838013,52.246628,0 20.835571,52.248596,0 20.831833,52.251617,0 20.829163,52.253723,0 20.8255,52.256699,0 20.822074,52.259449,0 20.818863,52.261963,0 20.815353,52.264801,0 20.812265,52.26727,0 20.808655,52.270156,0 20.80452,52.273499,0 20.801468,52.27597,0 20.798569,52.278259,0 20.795898,52.280411,0 20.793274,52.282539,0 20.790787,52.284531,0 20.788345,52.286545,0 20.785897,52.288544,0 20.783543,52.290453,0 20.781097,52.292404,0 20.778809,52.294281,0 20.773697,52.298401,0 20.76879,52.30237,0 20.764396,52.305908,0 20.76004,52.309479,0 20.755997,52.312775,0 20.752075,52.315963,0 20.747681,52.319548,0 20.743757,52.322714,0 20.739519,52.326205,0 20.73591,52.329138,0 20.731583,52.332642,0 20.727748,52.335748,0 20.723495,52.339233,0 20.719299,52.342667,0 20.714565,52.346502,0 20.710068,52.350174,0 20.705383,52.35395,0 20.703735,52.355301,0 20.701218,52.357315,0 20.695653,52.361864,0 20.685372,52.37015,0 20.674857,52.37853,0 20.664891,52.386583,0 20.656662,52.393158,0 20.653983,52.395335,0 20.651779,52.397049,0 20.648117,52.40007,0 20.643154,52.403994,0 20.638657,52.407623,0 20.628357,52.415955,0 20.616226,52.425751,0 20.603027,52.436371,0 20.590262,52.446682,0 20.57802,52.456505,0 20.565414,52.466675,0 20.553284,52.476471,0 20.539093,52.487869,0 20.524139,52.499954,0 20.511161,52.510366,0 20.497035,52.521724,0 20.481105,52.534526,0 20.465646,52.546816,0 20.449677,52.559555,0 20.436297,52.570232,0 20.43151,52.574049,0 20.426407,52.578094,0 20.415573,52.586746,0 20.41153,52.589996,0 20.405121,52.595169,0 20.389056,52.607986,0 20.382538,52.613525,0 20.381699,52.61412,0 20.380894,52.614782,0 20.37854,52.616644,0 20.2703,52.727501,0 17.473750825178794,56.80388597584254,0 17.410589766982202,56.93298739609707,0 17.37487940519066,57.009337167088546,0 17.366479,57.051375,0 17.366956,57.062211,0 17.368113,57.069549,0 17.367333,57.077356,0 17.366345,57.083091,0 17.369203,57.094841,0 17.369693,57.111611,0 17.370136,57.127889,0 17.368764,57.138416,0 17.37054,57.144237,0 17.370755,57.158913,0 17.371057,57.16769,0 17.373598,57.174364,0 17.371803,57.183394,0 17.373301,57.190958,0 17.372895,57.201429,0 17.375135,57.212525,0 17.375347,57.219589,0 17.377325,57.229206,0 17.37463,57.828044,0 17.371825,57.865642,0 17.371877,57.876779,0 17.371455,57.888892,0 17.370258,57.901975,0 17.370151,57.911671,0 17.369356,57.924632,0 17.368072,57.932918,0 17.366701,57.942374,0 17.368854,57.955171,0 17.365395,57.972116,0 17.365332,57.975821,0 17.363803,57.989583,0 17.362535,58.004245,0 17.362498,58.018174,0 17.361791,58.026929,0 17.360896,58.039561,0 17.359748,58.054626,0 17.358577,58.067595,0 17.359165,58.082113,0 17.356241,58.097504,0 17.355856,58.103294,0 17.355926,58.11264,0 17.353887,58.145274,0 17.352464,58.152277,0 17.3517,58.167215,0 17.349961,58.179708,0 17.349967,58.190364,0 17.348395,58.201202,0 17.348491,58.205965,0 17.348326,58.213859,0 17.347455,58.223285,0 17.348393,58.232773,0 17.353005,58.240199,0 17.346384,58.255773,0 17.344866,58.268147,0 17.344052,58.279436,0 17.344004,58.287238,0 17.342585,58.299002,0 17.342954,58.305766,0 17.34067,58.336931,0 17.340555,58.345968,0 17.338913,58.354824,0 17.338105,58.362966,0 17.338988,58.366046,0 17.337923,58.390349,0 17.338367,58.399946,0 17.334762,58.411232,0 17.336181,58.416594,0 17.335722,58.425098,0 17.335062,58.436785,0 17.335658,58.444516,0 17.333189,58.455547,0 17.334588,58.463755,0 17.333587,58.471659,0 17.333029,58.477738,0 17.331382,58.48954,0 17.331931,58.495768,0 17.333132,58.502583,0 17.333819,58.538817,0 17.330007,58.54328,0 17.327863,58.549821,0 17.32835,58.554683,0 17.326707,58.562091,0 17.326631,58.572162,0 17.327965,58.575497,0 17.327713,58.580496,0 17.326616,58.58654,0 17.326455,58.591307,0 17.326944,58.594873,0 17.325641,58.601072,0 17.326142,58.604407,0 17.3246,58.612855,0 17.325021,58.618877,0 17.3062107967757,58.6447963259092,0 17.269125299589607,58.67836548972933,0 17.18946556766436,58.730440812979516,0 17.10018984762342,58.78101476153992,0 16.988944606776702,58.790978406215565,0 16.9120491629207,58.78848776311016,0</coordinates>
            </LineString>
        </Placemark>
    </Document>
</kml>