<?xml version="1.0" encoding="UTF-8"?>
<kml xmlns="http://www.opengis.net/kml/2.2">
    <Document>
        <name>Edited Path</name>
        <description>Path edited with KML Path Editor</description>
        <Style id="pathStyle">
            <LineStyle>
                <color>ff0000ff</color>
                <width>3</width>
            </LineStyle>
        </Style>
        <Placemark>
            <name>Edited Path</name>
            <description>Total points: 331</description>
            <styleUrl>#pathStyle</styleUrl>
            <LineString>
                <tessellate>1</tessellate>
                <coordinates>20.9688,52.16938,0 20.9688,52.16938,0 20.9688,52.169382,0 20.9688,52.169382,0 20.9688,52.169382,0 20.9688,52.16938,0 20.9688,52.16938,0 20.9688,52.16938,0 20.9688,52.169382,0 20.9688,52.169382,0 20.9688,52.169382,0 20.9688,52.16938,0 20.968663,52.169382,0 20.968513,52.16938,0 20.968475,52.16938,0 20.968388,52.169359,0 20.968285,52.169323,0 20.968251,52.169301,0 20.968192,52.169242,0 20.968153,52.169173,0 20.968151,52.169106,0 20.968246,52.168991,0 20.968467,52.168777,0 20.968722,52.168498,0 20.969009,52.168167,0 20.9692,52.16795,0 20.969486,52.167606,0 20.969703,52.167369,0 20.969997,52.167043,0 20.97023,52.166771,0 20.97044,52.166656,0 20.970726,52.166588,0 20.971292,52.166426,0 20.971684,52.166321,0 20.972273,52.166158,0 20.972919,52.16597,0 20.973511,52.16581,0 20.974293,52.165581,0 20.974646,52.165483,0 20.975117,52.165355,0 20.975647,52.165204,0 20.976162,52.165066,0 20.976726,52.164901,0 20.977287,52.164745,0 20.977936,52.164562,0 20.978527,52.164391,0 20.979309,52.164173,0 20.979806,52.164029,0 20.980377,52.163876,0 20.981007,52.163692,0 20.981579,52.163532,0 20.982285,52.163338,0 20.982895,52.163166,0 20.983658,52.162949,0 20.984103,52.16283,0 20.98444,52.16272,0 20.984535,52.162663,0 20.984671,52.162562,0 20.984726,52.162468,0 20.98473,52.162388,0 20.98473,52.162353,0 20.984691,52.162248,0 20.984516,52.162033,0 20.984306,52.161724,0 20.984097,52.161449,0 20.983946,52.161259,0 20.983494,52.161096,0 20.983334,52.161129,0 20.983181,52.161198,0 20.982819,52.161335,0 20.982494,52.161438,0 20.982258,52.161503,0 20.982113,52.161552,0 20.981886,52.161608,0 20.981388,52.161747,0 20.98093,52.161873,0 20.979519,52.162273,0 20.979099,52.162388,0 20.976963,52.162983,0 20.976086,52.163235,0 20.976086,52.163235,0 20.973293,52.164017,0 20.9729,52.164139,0 20.971645,52.164483,0 20.970383,52.164825,0 20.969162,52.165192,0 20.966073,52.166019,0 20.9655,52.166199,0 20.965042,52.166336,0 20.961227,52.167389,0 20.959324,52.167927,0 20.956573,52.168671,0 20.952682,52.169769,0 20.949515,52.170627,0 20.946732,52.171371,0 20.943787,52.172164,0 20.941354,52.172815,0 20.938568,52.173569,0 20.936279,52.174164,0 20.93335,52.174957,0 20.930862,52.175629,0 20.928013,52.176353,0 20.925267,52.177098,0 20.922913,52.17775,0 20.919952,52.178558,0 20.917027,52.179379,0 20.91423,52.180115,0 20.91156,52.180847,0 20.908737,52.181625,0 20.905762,52.182541,0 20.90298,52.183522,0 20.900234,52.184733,0 20.897723,52.186036,0 20.895615,52.187393,0 20.893707,52.188995,0 20.89241,52.190414,0 20.890961,52.192245,0 20.889816,52.194031,0 20.888901,52.195541,0 20.887756,52.197395,0 20.886893,52.198931,0 20.885873,52.200793,0 20.884774,52.202842,0 20.883754,52.20475,0 20.882734,52.206566,0 20.881557,52.208893,0 20.880432,52.211105,0 20.879135,52.213486,0 20.877762,52.215958,0 20.876064,52.218623,0 20.874252,52.220856,0 20.872116,52.223145,0 20.869751,52.225525,0 20.867233,52.227951,0 20.864334,52.230606,0 20.860761,52.233752,0 20.858015,52.236033,0 20.854492,52.238892,0 20.851031,52.241666,0 20.846786,52.244888,0 20.843811,52.247159,0 20.841064,52.249191,0 20.839024,52.250697,0 20.835179,52.253583,0 20.832672,52.255463,0 20.831412,52.256377,0 20.82756,52.259308,0 20.823329,52.262475,0 20.81972,52.265222,0 20.814619,52.269085,0 20.812029,52.271087,0 20.808182,52.274048,0 20.804367,52.277023,0 20.801278,52.27942,0 20.798111,52.281967,0 20.795079,52.284308,0 20.792332,52.286496,0 20.789743,52.288544,0 20.787467,52.29036,0 20.784912,52.292404,0 20.782288,52.294503,0 20.779698,52.296551,0 20.777893,52.298035,0 20.772557,52.30251,0 20.76777,52.306932,0 20.763218,52.311401,0 20.759373,52.315358,0 20.755463,52.319458,0 20.752468,52.32262,0 20.748858,52.326345,0 20.74517,52.330208,0 20.741246,52.334305,0 20.737152,52.338547,0 20.732956,52.342804,0 20.729218,52.346649,0 20.724869,52.351044,0 20.721,52.355021,0 20.716705,52.359375,0 20.712446,52.36368,0 20.707779,52.368393,0 20.706639,52.369545,0 20.70549,52.370728,0 20.702637,52.373595,0 20.693283,52.38295,0 20.683175,52.393054,0 20.673994,52.402225,0 20.669756,52.406461,0 20.663714,52.412513,0 20.657436,52.418844,0 20.650766,52.425501,0 20.64488,52.431413,0 20.638733,52.437607,0 20.626596,52.449941,0 17.900277,55.165228,0 17.824013,55.265112,0 17.21961,57.385574,0 17.21961,57.386307,0 17.331081,58.24525,0 17.329729,58.260087,0 17.329455,58.272691,0 17.329908,58.277525,0 17.329906,58.28518,0 17.329719,58.292875,0 17.32926,58.304144,0 17.328077,58.315677,0 17.328892,58.328161,0 17.327477,58.348206,0 17.327179,58.356908,0 17.326721,58.373434,0 17.326237,58.39064,0 17.325989,58.409232,0 17.325989,58.420265,0 17.325897,58.429483,0 17.325806,58.434417,0 17.325794,58.440811,0 17.325714,58.446521,0 17.325714,58.452433,0 17.325531,58.459136,0 17.325439,58.466073,0 17.325256,58.474499,0 17.324996,58.484116,0 17.324707,58.493539,0 17.324465,58.498764,0 17.324376,58.502335,0 17.324288,58.504807,0 17.323975,58.511135,0 17.323792,58.516954,0 17.32349,58.523666,0 17.323151,58.530734,0 17.322781,58.539963,0 17.322418,58.549634,0 17.322052,58.559736,0 17.32163,58.571228,0 17.321275,58.581482,0 17.321136,58.587388,0 17.321009,58.592422,0 17.32077,58.599957,0 17.320566,58.607025,0 17.320301,58.614532,0 17.320038,58.619323,0 17.319946,58.624071,0 17.319769,58.629272,0 17.319592,58.633942,0 17.319503,58.638702,0 17.319415,58.64296,0 17.319397,58.646835,0 17.319305,58.649908,0 17.319214,58.654423,0 17.319149,58.65976,0 17.31906,58.665802,0 17.319214,58.671508,0 17.319946,58.677292,0 17.321541,58.683746,0 17.323792,58.689663,0 17.328186,58.698761,0 17.331641,58.705765,0 17.333954,58.710332,0 17.335806,58.714096,0 17.337891,58.718572,0 17.340363,58.723832,0 17.342008,58.727417,0 17.345123,58.734167,0 17.347321,58.739148,0 17.350159,58.745819,0 17.351665,58.751175,0 17.35199,58.754091,0 17.351931,58.755936,0 17.351222,58.760193,0 17.350159,58.76275,0 17.347767,58.76683,0 17.34564,58.769394,0 17.34256,58.77234,0 17.339813,58.774435,0 17.337135,58.776169,0 17.33235,58.778778,0 17.326996,58.781092,0 17.323151,58.782535,0 17.318848,58.783838,0 17.313354,58.785235,0 17.30722,58.786631,0 17.302138,58.78775,0 17.297088,58.788849,0 17.293488,58.789657,0 17.290265,58.790359,0 17.287903,58.790868,0 17.283798,58.791779,0 17.279938,58.792683,0 17.276178,58.793472,0 17.271881,58.794452,0 17.268559,58.795212,0 17.264648,58.796082,0 17.260673,58.796951,0 17.257749,58.797592,0 17.255535,58.798096,0 17.254669,58.798269,0 17.249542,58.799387,0 17.242067,58.801071,0 17.23407,58.802878,0 17.227448,58.804138,0 17.221619,58.804926,0 17.216374,58.80542,0 17.210541,58.805718,0 17.204315,58.805811,0 17.196442,58.805718,0 17.187103,58.805392,0 17.175659,58.80488,0 17.165131,58.804275,0 17.154974,58.80368,0 17.145583,58.803131,0 17.137848,58.802692,0 17.131407,58.802307,0 17.117319,58.801437,0 17.113037,58.801156,0 17.103699,58.800597,0 17.093752,58.799973,0 17.083466,58.79934,0 17.07364,58.798737,0 17.065577,58.798233,0 17.057373,58.797711,0 17.046971,58.797089,0 17.036682,58.796454,0 17.027037,58.795853,0 17.018555,58.795337,0 17.009317,58.794754,0 16.999329,58.794126,0 16.989441,58.793475,0 16.981497,58.792969,0 16.977997,58.792776,0 16.966187,58.792031,0 16.966187,58.79203,0 16.966187,58.79203,0</coordinates>
            </LineString>
        </Placemark>
    </Document>
</kml>