<?xml version="1.0" encoding="UTF-8"?>
<kml xmlns="http://www.opengis.net/kml/2.2" xmlns:gx="http://www.google.com/kml/ext/2.2"><Folder ><Folder ><name >HA-LGM track</name>
<Placemark ><name >HA-LGM</name>
<Style ><LineStyle ><color >ff1c1ae3</color>
<width >4</width>
</LineStyle>
<IconStyle ><Icon ><href >http://maps.google.com/mapfiles/kml/shapes/airports.png</href>
</Icon>
</IconStyle>
</Style>
<gx:Track ><extrude >0</extrude>
<when >2025-08-07T16:28:15.630Z</when>
<when >2025-08-07T16:28:15.630Z</when>
<when >2025-08-07T16:28:36.240Z</when>
<when >2025-08-07T16:28:43.580Z</when>
<when >2025-08-07T16:29:00.710Z</when>
<when >2025-08-07T16:29:13.030Z</when>
<when >2025-08-07T16:29:37.050Z</when>
<when >2025-08-07T16:30:17.450Z</when>
<when >2025-08-07T16:30:35.530Z</when>
<when >2025-08-07T16:31:01.690Z</when>
<when >2025-08-07T16:31:21.980Z</when>
<when >2025-08-07T16:31:31.950Z</when>
<when >2025-08-07T16:31:52.010Z</when>
<when >2025-08-07T16:32:16.930Z</when>
<when >2025-08-07T16:32:36.290Z</when>
<when >2025-08-07T16:33:33.800Z</when>
<when >2025-08-07T16:33:42.170Z</when>
<when >2025-08-07T16:33:46.160Z</when>
<when >2025-08-07T16:33:48.370Z</when>
<when >2025-08-07T16:33:54.570Z</when>
<when >2025-08-07T16:33:57.190Z</when>
<when >2025-08-07T16:33:59.080Z</when>
<when >2025-08-07T16:34:00.510Z</when>
<when >2025-08-07T16:34:03.070Z</when>
<when >2025-08-07T16:34:04.780Z</when>
<when >2025-08-07T16:34:07.130Z</when>
<when >2025-08-07T16:34:10.360Z</when>
<when >2025-08-07T16:34:17.510Z</when>
<when >2025-08-07T16:34:27.160Z</when>
<when >2025-08-07T16:34:34.140Z</when>
<when >2025-08-07T16:34:39.420Z</when>
<when >2025-08-07T16:34:45.590Z</when>
<when >2025-08-07T16:34:48.860Z</when>
<when >2025-08-07T16:34:51.580Z</when>
<when >2025-08-07T16:34:54.690Z</when>
<when >2025-08-07T16:35:01.970Z</when>
<when >2025-08-07T16:35:08.950Z</when>
<when >2025-08-07T16:35:17.980Z</when>
<when >2025-08-07T16:35:25.750Z</when>
<when >2025-08-07T16:35:32.590Z</when>
<when >2025-08-07T16:35:39.320Z</when>
<when >2025-08-07T16:35:48.370Z</when>
<when >2025-08-07T16:35:56.330Z</when>
<when >2025-08-07T16:36:05.440Z</when>
<when >2025-08-07T16:36:12.610Z</when>
<when >2025-08-07T16:36:21.980Z</when>
<when >2025-08-07T16:36:29.550Z</when>
<when >2025-08-07T16:36:36.520Z</when>
<when >2025-08-07T16:36:40.760Z</when>
<when >2025-08-07T16:36:43.670Z</when>
<when >2025-08-07T16:36:46.760Z</when>
<when >2025-08-07T16:36:49.380Z</when>
<when >2025-08-07T16:36:51.940Z</when>
<when >2025-08-07T16:36:54.480Z</when>
<when >2025-08-07T16:36:56.870Z</when>
<when >2025-08-07T16:36:58.840Z</when>
<when >2025-08-07T16:37:16.580Z</when>
<when >2025-08-07T16:37:19.450Z</when>
<when >2025-08-07T16:37:22.200Z</when>
<when >2025-08-07T16:37:34.330Z</when>
<when >2025-08-07T16:37:36.400Z</when>
<when >2025-08-07T16:37:40.410Z</when>
<when >2025-08-07T16:37:43.120Z</when>
<when >2025-08-07T16:37:46.670Z</when>
<when >2025-08-07T16:37:46.670Z</when>
<when >2025-08-07T16:37:52.160Z</when>
<when >2025-08-07T16:37:52.160Z</when>
<gx:coord >20.969181 52.168968 0</gx:coord>
<gx:coord >20.969181 52.168968 0</gx:coord>
<gx:coord >20.969173 52.168963 0</gx:coord>
<gx:coord >20.969181 52.168968 0</gx:coord>
<gx:coord >20.969173 52.168963 0</gx:coord>
<gx:coord >20.969181 52.168968 0</gx:coord>
<gx:coord >20.969173 52.168963 0</gx:coord>
<gx:coord >20.969181 52.168968 0</gx:coord>
<gx:coord >20.969181 52.168968 0</gx:coord>
<gx:coord >20.969181 52.168968 0</gx:coord>
<gx:coord >20.969181 52.168968 0</gx:coord>
<gx:coord >20.969173 52.168963 0</gx:coord>
<gx:coord >20.969173 52.168963 0</gx:coord>
<gx:coord >20.969181 52.168968 0</gx:coord>
<gx:coord >20.969181 52.168968 0</gx:coord>
<gx:coord >20.969114 52.168975 0</gx:coord>
<gx:coord >20.968971 52.16898 0</gx:coord>
<gx:coord >20.968879 52.168975 0</gx:coord>
<gx:coord >20.968838 52.168968 0</gx:coord>
<gx:coord >20.968609 52.168877 0</gx:coord>
<gx:coord >20.968533 52.168808 0</gx:coord>
<gx:coord >20.968506 52.168777 0</gx:coord>
<gx:coord >20.968506 52.168719 0</gx:coord>
<gx:coord >20.968533 52.168636 0</gx:coord>
<gx:coord >20.968624 52.168556 0</gx:coord>
<gx:coord >20.968643 52.168533 0</gx:coord>
<gx:coord >20.96882 52.168405 0</gx:coord>
<gx:coord >20.968957 52.168242 0</gx:coord>
<gx:coord >20.969271 52.167892 0</gx:coord>
<gx:coord >20.969546 52.167567 0</gx:coord>
<gx:coord >20.969801 52.167276 0</gx:coord>
<gx:coord >20.970016 52.16702 0</gx:coord>
<gx:coord >20.970192 52.166828 0</gx:coord>
<gx:coord >20.970487 52.166682 0</gx:coord>
<gx:coord >20.970669 52.166622 0</gx:coord>
<gx:coord >20.971409 52.166403 0</gx:coord>
<gx:coord >20.971861 52.166275 0</gx:coord>
<gx:coord >20.972508 52.1661 0</gx:coord>
<gx:coord >20.973053 52.165936 0</gx:coord>
<gx:coord >20.973473 52.165821 0</gx:coord>
<gx:coord >20.973892 52.165707 0</gx:coord>
<gx:coord >20.974352 52.165565 0</gx:coord>
<gx:coord >20.974941 52.165409 0</gx:coord>
<gx:coord >20.975372 52.165286 0</gx:coord>
<gx:coord >20.975723 52.16518 0</gx:coord>
<gx:coord >20.976391 52.164997 0</gx:coord>
<gx:coord >20.976981 52.164832 0</gx:coord>
<gx:coord >20.977432 52.164704 0</gx:coord>
<gx:coord >20.977746 52.164622 0</gx:coord>
<gx:coord >20.978031 52.164482 0</gx:coord>
<gx:coord >20.97806 52.164459 0</gx:coord>
<gx:coord >20.978119 52.164285 0</gx:coord>
<gx:coord >20.978099 52.164192 0</gx:coord>
<gx:coord >20.978031 52.16407 0</gx:coord>
<gx:coord >20.977942 52.16397 0</gx:coord>
<gx:coord >20.97784 52.163841 0</gx:coord>
<gx:coord >20.977452 52.163295 0</gx:coord>
<gx:coord >20.977287 52.16312 0</gx:coord>
<gx:coord >20.977192 52.163074 0</gx:coord>
<gx:coord >20.97653 52.163121 0</gx:coord>
<gx:coord >20.976373 52.163179 0</gx:coord>
<gx:coord >20.975933 52.163292 0</gx:coord>
<gx:coord >20.975725 52.163354 0</gx:coord>
<gx:coord >20.974655 52.163647 0</gx:coord>
<gx:coord >20.974058 52.163819 0</gx:coord>
<gx:coord >20.971684 52.164483 0</gx:coord>
<gx:coord >20.971684 52.164483 0</gx:coord>
</gx:Track>
</Placemark>
<Placemark ><name >HA-LGM</name>
<Style ><LineStyle ><color >ff1c1ae3</color>
<width >4</width>
</LineStyle>
<IconStyle ><Icon ><href >http://maps.google.com/mapfiles/kml/shapes/airports.png</href>
</Icon>
</IconStyle>
</Style>
<gx:Track ><altitudeMode >absolute</altitudeMode>
<extrude >1</extrude>
<when >2025-08-07T16:37:54.260Z</when>
<when >2025-08-07T16:37:54.260Z</when>
<gx:coord >20.970306 52.164871 106</gx:coord>
<gx:coord >20.970306 52.164871 106</gx:coord>
</gx:Track>
</Placemark>
<Placemark ><name >HA-LGM</name>
<Style ><LineStyle ><color >ff1c1ae3</color>
<width >4</width>
</LineStyle>
<IconStyle ><Icon ><href >http://maps.google.com/mapfiles/kml/shapes/airports.png</href>
</Icon>
</IconStyle>
</Style>
<gx:Track ><extrude >0</extrude>
<when >2025-08-07T16:37:54.830Z</when>
<when >2025-08-07T16:37:54.830Z</when>
<gx:coord >20.970478 52.164814 0</gx:coord>
<gx:coord >20.970478 52.164814 0</gx:coord>
</gx:Track>
</Placemark>
<Placemark ><name >HA-LGM</name>
<Style ><LineStyle ><color >ff1c1ae3</color>
<width >4</width>
</LineStyle>
<IconStyle ><Icon ><href >http://maps.google.com/mapfiles/kml/shapes/airports.png</href>
</Icon>
</IconStyle>
</Style>
<gx:Track ><altitudeMode >absolute</altitudeMode>
<extrude >1</extrude>
<when >2025-08-07T16:37:54.830Z</when>
<when >2025-08-07T16:37:57.180Z</when>
<when >2025-08-07T16:37:59.330Z</when>
<when >2025-08-07T16:38:00.920Z</when>
<when >2025-08-07T16:38:03.780Z</when>
<when >2025-08-07T16:38:05.360Z</when>
<when >2025-08-07T16:38:09.130Z</when>
<when >2025-08-07T16:38:11.280Z</when>
<when >2025-08-07T16:38:11.280Z</when>
<when >2025-08-07T16:38:14.870Z</when>
<when >2025-08-07T16:38:15.430Z</when>
<when >2025-08-07T16:38:17.360Z</when>
<when >2025-08-07T16:38:19.460Z</when>
<when >2025-08-07T16:38:21.940Z</when>
<when >2025-08-07T16:38:23.820Z</when>
<when >2025-08-07T16:38:25.870Z</when>
<when >2025-08-07T16:38:28.310Z</when>
<when >2025-08-07T16:38:30.690Z</when>
<when >2025-08-07T16:38:32.680Z</when>
<when >2025-08-07T16:38:34.240Z</when>
<when >2025-08-07T16:38:36.150Z</when>
<when >2025-08-07T16:38:38.740Z</when>
<when >2025-08-07T16:38:40.530Z</when>
<when >2025-08-07T16:38:42.010Z</when>
<when >2025-08-07T16:38:44.170Z</when>
<when >2025-08-07T16:38:45.810Z</when>
<when >2025-08-07T16:38:47.790Z</when>
<when >2025-08-07T16:38:50.060Z</when>
<when >2025-08-07T16:38:52.380Z</when>
<when >2025-08-07T16:38:54.730Z</when>
<when >2025-08-07T16:38:56.960Z</when>
<when >2025-08-07T16:38:58.700Z</when>
<when >2025-08-07T16:39:00.970Z</when>
<when >2025-08-07T16:39:04.650Z</when>
<when >2025-08-07T16:39:07.320Z</when>
<when >2025-08-07T16:39:09.190Z</when>
<when >2025-08-07T16:39:11.740Z</when>
<when >2025-08-07T16:39:13.640Z</when>
<when >2025-08-07T16:39:15.780Z</when>
<when >2025-08-07T16:39:17.760Z</when>
<when >2025-08-07T16:39:20.280Z</when>
<when >2025-08-07T16:39:22.270Z</when>
<when >2025-08-07T16:39:25.340Z</when>
<when >2025-08-07T16:39:28.680Z</when>
<when >2025-08-07T16:39:31.740Z</when>
<when >2025-08-07T16:39:35.320Z</when>
<when >2025-08-07T16:39:38.840Z</when>
<when >2025-08-07T16:39:42.820Z</when>
<when >2025-08-07T16:39:46.060Z</when>
<when >2025-08-07T16:39:48.040Z</when>
<when >2025-08-07T16:39:51.590Z</when>
<when >2025-08-07T16:39:55.420Z</when>
<when >2025-08-07T16:39:58.940Z</when>
<when >2025-08-07T16:40:02.170Z</when>
<when >2025-08-07T16:40:05.270Z</when>
<when >2025-08-07T16:40:07.570Z</when>
<when >2025-08-07T16:40:10.230Z</when>
<when >2025-08-07T16:40:13.970Z</when>
<when >2025-08-07T16:40:14.900Z</when>
<when >2025-08-07T16:40:18.260Z</when>
<when >2025-08-07T16:40:20.210Z</when>
<when >2025-08-07T16:40:21.300Z</when>
<when >2025-08-07T16:40:24.350Z</when>
<when >2025-08-07T16:40:27.150Z</when>
<when >2025-08-07T16:40:29.520Z</when>
<when >2025-08-07T16:40:32.050Z</when>
<when >2025-08-07T16:40:34.530Z</when>
<when >2025-08-07T16:40:36.350Z</when>
<when >2025-08-07T16:40:38.490Z</when>
<when >2025-08-07T16:40:40.370Z</when>
<when >2025-08-07T16:40:42.090Z</when>
<when >2025-08-07T16:40:43.410Z</when>
<when >2025-08-07T16:40:45.590Z</when>
<when >2025-08-07T16:40:47.170Z</when>
<when >2025-08-07T16:40:48.780Z</when>
<when >2025-08-07T16:40:50.960Z</when>
<when >2025-08-07T16:40:52.800Z</when>
<when >2025-08-07T16:40:54.670Z</when>
<when >2025-08-07T16:40:56.970Z</when>
<when >2025-08-07T16:40:58.110Z</when>
<when >2025-08-07T16:41:01.510Z</when>
<when >2025-08-07T16:41:04.820Z</when>
<when >2025-08-07T16:41:06.410Z</when>
<when >2025-08-07T16:41:09.390Z</when>
<when >2025-08-07T16:41:13.810Z</when>
<when >2025-08-07T16:41:17.070Z</when>
<when >2025-08-07T16:41:20.380Z</when>
<when >2025-08-07T16:41:24.860Z</when>
<when >2025-08-07T16:41:28.290Z</when>
<when >2025-08-07T16:41:32.590Z</when>
<when >2025-08-07T16:41:36.710Z</when>
<when >2025-08-07T16:41:41.430Z</when>
<when >2025-08-07T16:41:46.440Z</when>
<when >2025-08-07T16:41:50.370Z</when>
<when >2025-08-07T16:41:54.080Z</when>
<when >2025-08-07T16:41:58.440Z</when>
<when >2025-08-07T16:42:02.680Z</when>
<when >2025-08-07T16:42:06.460Z</when>
<when >2025-08-07T16:42:10.560Z</when>
<when >2025-08-07T16:42:14.520Z</when>
<when >2025-08-07T16:42:17.950Z</when>
<when >2025-08-07T16:42:21.310Z</when>
<when >2025-08-07T16:42:21.650Z</when>
<when >2025-08-07T16:42:25.390Z</when>
<when >2025-08-07T16:42:32.340Z</when>
<when >2025-08-07T16:42:40.440Z</when>
<when >2025-08-07T16:42:44.630Z</when>
<when >2025-08-07T16:42:49.580Z</when>
<when >2025-08-07T16:42:52.880Z</when>
<when >2025-08-07T16:42:56.020Z</when>
<when >2025-08-07T16:42:57.470Z</when>
<when >2025-08-07T16:43:01.730Z</when>
<when >2025-08-07T16:43:05.830Z</when>
<when >2025-08-07T16:43:10.850Z</when>
<when >2025-08-07T16:43:19.020Z</when>
<when >2025-08-07T16:43:28.020Z</when>
<when >2025-08-07T16:43:36.480Z</when>
<when >2025-08-07T16:43:45.120Z</when>
<when >2025-08-07T16:43:53.010Z</when>
<when >2025-08-07T16:44:01.790Z</when>
<when >2025-08-07T16:44:05.300Z</when>
<when >2025-08-07T16:44:06.700Z</when>
<when >2025-08-07T16:44:12.890Z</when>
<when >2025-08-07T16:44:19.720Z</when>
<when >2025-08-07T16:44:25.660Z</when>
<when >2025-08-07T16:44:28.950Z</when>
<when >2025-08-07T16:44:32.390Z</when>
<when >2025-08-07T16:44:42.870Z</when>
<when >2025-08-07T16:44:52.570Z</when>
<when >2025-08-07T16:45:03.370Z</when>
<when >2025-08-07T16:45:13.340Z</when>
<when >2025-08-07T16:45:23.750Z</when>
<when >2025-08-07T16:45:33.740Z</when>
<when >2025-08-07T16:45:41.800Z</when>
<when >2025-08-07T16:45:51.150Z</when>
<when >2025-08-07T16:45:57.410Z</when>
<when >2025-08-07T16:46:09.130Z</when>
<when >2025-08-07T16:46:20.960Z</when>
<when >2025-08-07T16:46:32.760Z</when>
<when >2025-08-07T16:46:45.290Z</when>
<when >2025-08-07T16:46:57.520Z</when>
<when >2025-08-07T16:47:09.870Z</when>
<when >2025-08-07T16:47:21.550Z</when>
<when >2025-08-07T16:47:33.370Z</when>
<when >2025-08-07T16:47:42.240Z</when>
<when >2025-08-07T16:47:49.410Z</when>
<when >2025-08-07T16:48:05.110Z</when>
<when >2025-08-07T16:48:08.750Z</when>
<when >2025-08-07T16:48:19.850Z</when>
<when >2025-08-07T16:48:27.290Z</when>
<when >2025-08-07T16:48:37.590Z</when>
<when >2025-08-07T16:48:46.450Z</when>
<when >2025-08-07T16:48:54.610Z</when>
<when >2025-08-07T16:49:02.860Z</when>
<when >2025-08-07T16:49:11.960Z</when>
<when >2025-08-07T16:49:21.290Z</when>
<when >2025-08-07T16:49:29.930Z</when>
<when >2025-08-07T16:49:39.030Z</when>
<when >2025-08-07T16:49:48.040Z</when>
<when >2025-08-07T16:49:56.520Z</when>
<when >2025-08-07T16:50:05.060Z</when>
<when >2025-08-07T16:50:13.950Z</when>
<when >2025-08-07T16:50:22.300Z</when>
<when >2025-08-07T16:50:34.440Z</when>
<when >2025-08-07T16:50:47.150Z</when>
<when >2025-08-07T16:51:00.100Z</when>
<when >2025-08-07T16:51:06.710Z</when>
<when >2025-08-07T16:51:12.270Z</when>
<when >2025-08-07T16:51:16.930Z</when>
<when >2025-08-07T16:51:20.400Z</when>
<when >2025-08-07T16:51:24.700Z</when>
<when >2025-08-07T16:51:36.550Z</when>
<when >2025-08-07T16:51:49.110Z</when>
<when >2025-08-07T16:52:02.040Z</when>
<when >2025-08-07T16:52:15.610Z</when>
<when >2025-08-07T16:52:29.320Z</when>
<when >2025-08-07T16:52:44.030Z</when>
<when >2025-08-07T16:52:59.610Z</when>
<when >2025-08-07T16:53:14.370Z</when>
<when >2025-08-07T16:53:29.170Z</when>
<when >2025-08-07T16:53:43.640Z</when>
<when >2025-08-07T16:53:57.320Z</when>
<when >2025-08-07T16:54:12.370Z</when>
<when >2025-08-07T16:54:28.540Z</when>
<when >2025-08-07T16:54:45.470Z</when>
<when >2025-08-07T16:55:01.540Z</when>
<when >2025-08-07T16:55:18.160Z</when>
<when >2025-08-07T16:55:32.960Z</when>
<when >2025-08-07T16:55:46.530Z</when>
<when >2025-08-07T16:56:01.140Z</when>
<when >2025-08-07T16:56:11.130Z</when>
<when >2025-08-07T16:56:27.320Z</when>
<when >2025-08-07T16:56:41.250Z</when>
<when >2025-08-07T16:56:54.220Z</when>
<when >2025-08-07T16:57:08.920Z</when>
<when >2025-08-07T16:57:25.250Z</when>
<when >2025-08-07T16:57:41.890Z</when>
<when >2025-08-07T16:57:58.290Z</when>
<when >2025-08-07T16:58:14.380Z</when>
<when >2025-08-07T16:58:21.380Z</when>
<when >2025-08-07T16:58:27.840Z</when>
<when >2025-08-07T16:58:47.550Z</when>
<when >2025-08-07T16:59:07.120Z</when>
<when >2025-08-07T16:59:26.790Z</when>
<when >2025-08-07T16:59:46.650Z</when>
<when >2025-08-07T17:00:06.390Z</when>
<when >2025-08-07T17:00:25.940Z</when>
<when >2025-08-07T17:00:45.480Z</when>
<when >2025-08-07T17:01:05.430Z</when>
<when >2025-08-07T17:01:25.020Z</when>
<when >2025-08-07T17:01:44.910Z</when>
<when >2025-08-07T17:02:04.860Z</when>
<when >2025-08-07T17:02:24.690Z</when>
<when >2025-08-07T17:02:44.610Z</when>
<when >2025-08-07T17:03:04.200Z</when>
<when >2025-08-07T17:03:24.020Z</when>
<when >2025-08-07T17:03:43.860Z</when>
<when >2025-08-07T17:04:03.580Z</when>
<when >2025-08-07T17:04:23.050Z</when>
<when >2025-08-07T17:04:42.590Z</when>
<when >2025-08-07T17:05:02.500Z</when>
<when >2025-08-07T17:05:22.400Z</when>
<when >2025-08-07T17:05:42.060Z</when>
<when >2025-08-07T17:06:01.950Z</when>
<when >2025-08-07T17:06:21.770Z</when>
<when >2025-08-07T17:06:41.270Z</when>
<when >2025-08-07T17:07:00.720Z</when>
<when >2025-08-07T17:07:20.260Z</when>
<when >2025-08-07T17:07:40.100Z</when>
<when >2025-08-07T17:07:59.690Z</when>
<when >2025-08-07T17:08:19.600Z</when>
<when >2025-08-07T17:08:39.300Z</when>
<when >2025-08-07T17:08:58.950Z</when>
<when >2025-08-07T17:09:18.650Z</when>
<when >2025-08-07T17:09:38.310Z</when>
<when >2025-08-07T17:09:58.270Z</when>
<when >2025-08-07T17:10:17.940Z</when>
<when >2025-08-07T17:10:37.450Z</when>
<when >2025-08-07T17:10:57.020Z</when>
<when >2025-08-07T17:11:16.890Z</when>
<when >2025-08-07T17:11:36.600Z</when>
<when >2025-08-07T17:11:55.930Z</when>
<when >2025-08-07T17:12:15.810Z</when>
<when >2025-08-07T17:12:35.550Z</when>
<when >2025-08-07T17:12:55.240Z</when>
<when >2025-08-07T17:13:15.240Z</when>
<when >2025-08-07T17:13:34.870Z</when>
<when >2025-08-07T17:13:54.840Z</when>
<when >2025-08-07T17:14:14.480Z</when>
<when >2025-08-07T17:14:34.240Z</when>
<when >2025-08-07T17:14:53.930Z</when>
<when >2025-08-07T17:15:13.900Z</when>
<when >2025-08-07T17:15:33.740Z</when>
<when >2025-08-07T17:15:53.430Z</when>
<when >2025-08-07T17:16:13.290Z</when>
<when >2025-08-07T17:16:33.040Z</when>
<when >2025-08-07T17:16:53.010Z</when>
<when >2025-08-07T17:17:12.970Z</when>
<when >2025-08-07T17:17:32.950Z</when>
<when >2025-08-07T17:17:52.720Z</when>
<when >2025-08-07T17:18:12.500Z</when>
<when >2025-08-07T17:18:32.350Z</when>
<when >2025-08-07T17:18:51.800Z</when>
<when >2025-08-07T17:19:11.460Z</when>
<when >2025-08-07T17:19:31.070Z</when>
<when >2025-08-07T17:19:50.160Z</when>
<when >2025-08-07T17:20:09.880Z</when>
<when >2025-08-07T17:20:29.880Z</when>
<when >2025-08-07T17:20:49.600Z</when>
<when >2025-08-07T17:21:09.430Z</when>
<when >2025-08-07T17:21:29.430Z</when>
<when >2025-08-07T17:21:49.360Z</when>
<when >2025-08-07T17:22:09.300Z</when>
<when >2025-08-07T17:22:28.840Z</when>
<when >2025-08-07T17:22:48.690Z</when>
<when >2025-08-07T17:23:08.410Z</when>
<when >2025-08-07T17:23:28.290Z</when>
<when >2025-08-07T17:23:47.570Z</when>
<when >2025-08-07T17:24:07.290Z</when>
<when >2025-08-07T17:24:27.070Z</when>
<when >2025-08-07T17:24:46.950Z</when>
<when >2025-08-07T17:25:06.850Z</when>
<when >2025-08-07T17:25:26.490Z</when>
<when >2025-08-07T17:25:46.300Z</when>
<when >2025-08-07T17:26:06.190Z</when>
<when >2025-08-07T17:26:26.050Z</when>
<when >2025-08-07T17:26:45.740Z</when>
<when >2025-08-07T17:27:05.670Z</when>
<when >2025-08-07T17:27:25.670Z</when>
<when >2025-08-07T17:27:45.080Z</when>
<when >2025-08-07T17:28:04.850Z</when>
<when >2025-08-07T17:28:24.360Z</when>
<when >2025-08-07T17:28:44.050Z</when>
<when >2025-08-07T17:29:03.670Z</when>
<when >2025-08-07T17:29:23.420Z</when>
<when >2025-08-07T17:29:43.170Z</when>
<when >2025-08-07T17:30:02.850Z</when>
<when >2025-08-07T17:30:22.590Z</when>
<when >2025-08-07T17:30:42.430Z</when>
<when >2025-08-07T17:31:02.190Z</when>
<when >2025-08-07T17:31:21.970Z</when>
<when >2025-08-07T17:31:41.270Z</when>
<when >2025-08-07T17:32:00.780Z</when>
<when >2025-08-07T17:32:20.650Z</when>
<when >2025-08-07T17:32:40.310Z</when>
<when >2025-08-07T17:32:59.600Z</when>
<when >2025-08-07T17:33:19.420Z</when>
<when >2025-08-07T17:33:38.900Z</when>
<when >2025-08-07T17:33:58.630Z</when>
<when >2025-08-07T17:34:18.010Z</when>
<when >2025-08-07T17:34:37.960Z</when>
<when >2025-08-07T17:34:57.630Z</when>
<when >2025-08-07T17:35:17.140Z</when>
<when >2025-08-07T17:35:37.090Z</when>
<when >2025-08-07T17:35:57.040Z</when>
<when >2025-08-07T17:36:16.830Z</when>
<when >2025-08-07T17:36:36.730Z</when>
<when >2025-08-07T17:36:56.590Z</when>
<when >2025-08-07T17:37:16.020Z</when>
<when >2025-08-07T17:37:36.010Z</when>
<when >2025-08-07T17:37:55.460Z</when>
<when >2025-08-07T17:38:15.450Z</when>
<when >2025-08-07T17:38:35.110Z</when>
<when >2025-08-07T17:38:55.020Z</when>
<when >2025-08-07T17:39:14.320Z</when>
<when >2025-08-07T17:39:34.240Z</when>
<when >2025-08-07T17:39:54.070Z</when>
<when >2025-08-07T17:40:13.670Z</when>
<when >2025-08-07T17:40:33.300Z</when>
<when >2025-08-07T17:40:52.460Z</when>
<when >2025-08-07T17:41:12.220Z</when>
<when >2025-08-07T17:41:31.710Z</when>
<when >2025-08-07T17:41:51.260Z</when>
<when >2025-08-07T17:42:11.040Z</when>
<when >2025-08-07T17:42:30.490Z</when>
<when >2025-08-07T17:42:46.060Z</when>
<when >2025-08-07T17:42:52.660Z</when>
<when >2025-08-07T17:43:08.500Z</when>
<when >2025-08-07T17:43:24.910Z</when>
<when >2025-08-07T17:43:41.390Z</when>
<when >2025-08-07T17:43:57.510Z</when>
<when >2025-08-07T17:44:13.830Z</when>
<when >2025-08-07T17:44:30.350Z</when>
<when >2025-08-07T17:44:45.570Z</when>
<when >2025-08-07T17:45:01.460Z</when>
<when >2025-08-07T17:45:17.750Z</when>
<when >2025-08-07T17:45:33.700Z</when>
<when >2025-08-07T17:45:48.790Z</when>
<when >2025-08-07T17:45:54.790Z</when>
<when >2025-08-07T17:45:58.990Z</when>
<when >2025-08-07T17:46:03.740Z</when>
<when >2025-08-07T17:46:08.630Z</when>
<when >2025-08-07T17:46:14.120Z</when>
<when >2025-08-07T17:46:24.310Z</when>
<when >2025-08-07T17:46:42.870Z</when>
<when >2025-08-07T17:47:01.310Z</when>
<when >2025-08-07T17:47:21.250Z</when>
<when >2025-08-07T17:47:32.590Z</when>
<when >2025-08-07T17:47:43.270Z</when>
<when >2025-08-07T17:47:58.660Z</when>
<when >2025-08-07T17:48:15.480Z</when>
<when >2025-08-07T17:48:32.170Z</when>
<when >2025-08-07T17:48:47.480Z</when>
<when >2025-08-07T17:49:02.530Z</when>
<when >2025-08-07T17:49:18.960Z</when>
<when >2025-08-07T17:49:35.430Z</when>
<when >2025-08-07T17:49:51.710Z</when>
<when >2025-08-07T17:50:07.790Z</when>
<when >2025-08-07T17:50:24.650Z</when>
<when >2025-08-07T17:50:40.650Z</when>
<when >2025-08-07T17:50:55.390Z</when>
<when >2025-08-07T17:51:10.540Z</when>
<when >2025-08-07T17:51:26.120Z</when>
<when >2025-08-07T17:51:42.320Z</when>
<when >2025-08-07T17:51:57.200Z</when>
<when >2025-08-07T17:52:13.280Z</when>
<when >2025-08-07T17:52:29.660Z</when>
<when >2025-08-07T17:52:45.280Z</when>
<when >2025-08-07T17:53:00.430Z</when>
<when >2025-08-07T17:53:16.590Z</when>
<when >2025-08-07T17:53:31.150Z</when>
<when >2025-08-07T17:53:46.770Z</when>
<when >2025-08-07T17:54:02.680Z</when>
<when >2025-08-07T17:54:20.430Z</when>
<when >2025-08-07T17:54:37.040Z</when>
<when >2025-08-07T17:54:51.870Z</when>
<when >2025-08-07T17:55:08.010Z</when>
<when >2025-08-07T17:55:22.880Z</when>
<when >2025-08-07T17:55:39.220Z</when>
<when >2025-08-07T17:55:54.100Z</when>
<when >2025-08-07T17:56:09.260Z</when>
<when >2025-08-07T17:56:25.480Z</when>
<when >2025-08-07T17:56:39.840Z</when>
<when >2025-08-07T17:56:52.150Z</when>
<when >2025-08-07T17:57:04.740Z</when>
<when >2025-08-07T17:57:17.250Z</when>
<when >2025-08-07T17:57:30.170Z</when>
<when >2025-08-07T17:57:43.460Z</when>
<when >2025-08-07T17:57:56.450Z</when>
<when >2025-08-07T17:58:08.790Z</when>
<when >2025-08-07T17:58:21.890Z</when>
<when >2025-08-07T17:58:34.780Z</when>
<when >2025-08-07T17:58:48.680Z</when>
<when >2025-08-07T17:59:01.690Z</when>
<when >2025-08-07T17:59:15.060Z</when>
<when >2025-08-07T17:59:27.140Z</when>
<when >2025-08-07T17:59:40.470Z</when>
<when >2025-08-07T17:59:54.450Z</when>
<when >2025-08-07T18:00:07.000Z</when>
<when >2025-08-07T18:00:20.060Z</when>
<when >2025-08-07T18:00:32.860Z</when>
<when >2025-08-07T18:00:48.030Z</when>
<when >2025-08-07T18:00:59.670Z</when>
<when >2025-08-07T18:01:13.010Z</when>
<when >2025-08-07T18:01:19.450Z</when>
<when >2025-08-07T18:01:22.790Z</when>
<when >2025-08-07T18:01:26.000Z</when>
<when >2025-08-07T18:01:29.460Z</when>
<when >2025-08-07T18:01:32.860Z</when>
<when >2025-08-07T18:01:37.730Z</when>
<when >2025-08-07T18:01:52.540Z</when>
<when >2025-08-07T18:02:05.780Z</when>
<when >2025-08-07T18:02:18.530Z</when>
<when >2025-08-07T18:02:31.470Z</when>
<when >2025-08-07T18:02:45.360Z</when>
<when >2025-08-07T18:02:58.380Z</when>
<when >2025-08-07T18:03:11.420Z</when>
<when >2025-08-07T18:03:24.680Z</when>
<when >2025-08-07T18:03:38.300Z</when>
<when >2025-08-07T18:03:51.400Z</when>
<when >2025-08-07T18:04:03.510Z</when>
<when >2025-08-07T18:04:16.990Z</when>
<when >2025-08-07T18:04:31.760Z</when>
<when >2025-08-07T18:04:40.960Z</when>
<when >2025-08-07T18:04:50.120Z</when>
<when >2025-08-07T18:04:59.420Z</when>
<when >2025-08-07T18:05:08.700Z</when>
<when >2025-08-07T18:05:17.830Z</when>
<when >2025-08-07T18:05:27.650Z</when>
<when >2025-08-07T18:05:36.670Z</when>
<when >2025-08-07T18:05:45.840Z</when>
<when >2025-08-07T18:05:54.930Z</when>
<when >2025-08-07T18:06:03.800Z</when>
<when >2025-08-07T18:06:12.950Z</when>
<when >2025-08-07T18:06:21.460Z</when>
<when >2025-08-07T18:06:26.490Z</when>
<when >2025-08-07T18:06:29.310Z</when>
<when >2025-08-07T18:06:33.100Z</when>
<when >2025-08-07T18:06:35.720Z</when>
<when >2025-08-07T18:06:38.570Z</when>
<when >2025-08-07T18:06:43.240Z</when>
<when >2025-08-07T18:06:44.910Z</when>
<when >2025-08-07T18:06:47.860Z</when>
<when >2025-08-07T18:06:51.200Z</when>
<when >2025-08-07T18:06:53.920Z</when>
<when >2025-08-07T18:06:57.470Z</when>
<when >2025-08-07T18:07:01.040Z</when>
<when >2025-08-07T18:07:05.110Z</when>
<when >2025-08-07T18:07:13.230Z</when>
<when >2025-08-07T18:07:18.650Z</when>
<when >2025-08-07T18:07:25.640Z</when>
<when >2025-08-07T18:07:33.910Z</when>
<when >2025-08-07T18:07:43.040Z</when>
<when >2025-08-07T18:07:51.510Z</when>
<when >2025-08-07T18:07:59.430Z</when>
<when >2025-08-07T18:08:04.750Z</when>
<when >2025-08-07T18:08:14.680Z</when>
<when >2025-08-07T18:08:20.390Z</when>
<when >2025-08-07T18:08:27.650Z</when>
<when >2025-08-07T18:08:31.980Z</when>
<when >2025-08-07T18:08:36.390Z</when>
<when >2025-08-07T18:08:40.930Z</when>
<when >2025-08-07T18:08:50.490Z</when>
<when >2025-08-07T18:08:59.000Z</when>
<when >2025-08-07T18:09:07.670Z</when>
<when >2025-08-07T18:09:16.040Z</when>
<when >2025-08-07T18:09:19.570Z</when>
<when >2025-08-07T18:09:23.330Z</when>
<when >2025-08-07T18:09:26.380Z</when>
<when >2025-08-07T18:09:29.300Z</when>
<when >2025-08-07T18:09:32.660Z</when>
<when >2025-08-07T18:09:36.010Z</when>
<when >2025-08-07T18:09:39.950Z</when>
<when >2025-08-07T18:09:41.950Z</when>
<when >2025-08-07T18:09:45.540Z</when>
<when >2025-08-07T18:09:48.820Z</when>
<when >2025-08-07T18:09:52.610Z</when>
<when >2025-08-07T18:09:55.810Z</when>
<when >2025-08-07T18:09:58.480Z</when>
<when >2025-08-07T18:10:01.770Z</when>
<when >2025-08-07T18:10:05.530Z</when>
<when >2025-08-07T18:10:08.620Z</when>
<when >2025-08-07T18:10:11.690Z</when>
<when >2025-08-07T18:10:14.860Z</when>
<when >2025-08-07T18:10:17.780Z</when>
<when >2025-08-07T18:10:20.300Z</when>
<when >2025-08-07T18:10:22.310Z</when>
<when >2025-08-07T18:10:24.620Z</when>
<when >2025-08-07T18:10:28.330Z</when>
<when >2025-08-07T18:10:31.540Z</when>
<when >2025-08-07T18:10:34.080Z</when>
<when >2025-08-07T18:10:37.700Z</when>
<when >2025-08-07T18:10:39.460Z</when>
<when >2025-08-07T18:10:42.650Z</when>
<when >2025-08-07T18:10:45.850Z</when>
<when >2025-08-07T18:10:50.200Z</when>
<when >2025-08-07T18:10:59.920Z</when>
<when >2025-08-07T18:11:09.100Z</when>
<when >2025-08-07T18:11:12.290Z</when>
<when >2025-08-07T18:11:17.470Z</when>
<when >2025-08-07T18:11:24.090Z</when>
<when >2025-08-07T18:11:27.500Z</when>
<when >2025-08-07T18:11:31.360Z</when>
<when >2025-08-07T18:11:33.250Z</when>
<when >2025-08-07T18:11:35.820Z</when>
<when >2025-08-07T18:11:37.780Z</when>
<when >2025-08-07T18:11:42.220Z</when>
<when >2025-08-07T18:11:48.990Z</when>
<when >2025-08-07T18:11:57.480Z</when>
<when >2025-08-07T18:12:01.830Z</when>
<when >2025-08-07T18:12:07.710Z</when>
<when >2025-08-07T18:12:12.730Z</when>
<when >2025-08-07T18:12:13.860Z</when>
<when >2025-08-07T18:12:17.780Z</when>
<when >2025-08-07T18:12:21.590Z</when>
<when >2025-08-07T18:12:24.650Z</when>
<when >2025-08-07T18:12:26.500Z</when>
<when >2025-08-07T18:12:30.120Z</when>
<when >2025-08-07T18:12:37.570Z</when>
<when >2025-08-07T18:12:44.270Z</when>
<when >2025-08-07T18:12:50.330Z</when>
<when >2025-08-07T18:12:55.550Z</when>
<when >2025-08-07T18:13:00.470Z</when>
<when >2025-08-07T18:13:06.380Z</when>
<when >2025-08-07T18:13:10.930Z</when>
<when >2025-08-07T18:13:15.990Z</when>
<when >2025-08-07T18:13:19.050Z</when>
<when >2025-08-07T18:13:21.340Z</when>
<when >2025-08-07T18:13:23.510Z</when>
<when >2025-08-07T18:13:25.000Z</when>
<when >2025-08-07T18:13:26.960Z</when>
<when >2025-08-07T18:13:28.950Z</when>
<when >2025-08-07T18:13:30.940Z</when>
<when >2025-08-07T18:13:32.870Z</when>
<when >2025-08-07T18:13:35.060Z</when>
<when >2025-08-07T18:13:37.360Z</when>
<when >2025-08-07T18:13:40.880Z</when>
<when >2025-08-07T18:13:43.440Z</when>
<when >2025-08-07T18:13:47.960Z</when>
<when >2025-08-07T18:13:52.390Z</when>
<when >2025-08-07T18:13:57.410Z</when>
<when >2025-08-07T18:14:04.740Z</when>
<when >2025-08-07T18:14:09.820Z</when>
<when >2025-08-07T18:14:17.490Z</when>
<when >2025-08-07T18:14:23.220Z</when>
<when >2025-08-07T18:14:28.490Z</when>
<when >2025-08-07T18:14:34.770Z</when>
<when >2025-08-07T18:14:42.260Z</when>
<when >2025-08-07T18:14:49.320Z</when>
<when >2025-08-07T18:14:52.450Z</when>
<when >2025-08-07T18:14:57.840Z</when>
<when >2025-08-07T18:15:02.190Z</when>
<when >2025-08-07T18:15:07.540Z</when>
<when >2025-08-07T18:15:15.800Z</when>
<when >2025-08-07T18:15:16.270Z</when>
<when >2025-08-07T18:15:20.760Z</when>
<when >2025-08-07T18:15:25.770Z</when>
<when >2025-08-07T18:15:33.960Z</when>
<when >2025-08-07T18:15:43.430Z</when>
<when >2025-08-07T18:15:51.500Z</when>
<when >2025-08-07T18:15:57.960Z</when>
<when >2025-08-07T18:16:06.770Z</when>
<when >2025-08-07T18:16:16.750Z</when>
<when >2025-08-07T18:16:22.380Z</when>
<when >2025-08-07T18:16:29.980Z</when>
<when >2025-08-07T18:16:39.530Z</when>
<when >2025-08-07T18:16:49.300Z</when>
<when >2025-08-07T18:16:54.930Z</when>
<when >2025-08-07T18:17:18.740Z</when>
<when >2025-08-07T18:17:18.740Z</when>
<gx:coord >20.969604 52.165041 113</gx:coord>
<gx:coord >20.967878 52.165553 114</gx:coord>
<gx:coord >20.966415 52.16597 114</gx:coord>
<gx:coord >20.965042 52.166336 114</gx:coord>
<gx:coord >20.963211 52.166885 115</gx:coord>
<gx:coord >20.961286 52.167415 109</gx:coord>
<gx:coord >20.957127 52.168579 109</gx:coord>
<gx:coord >20.955124 52.169128 116</gx:coord>
<gx:coord >20.953674 52.169557 124</gx:coord>
<gx:coord >20.952576 52.169883 139</gx:coord>
<gx:coord >20.949326 52.170822 169</gx:coord>
<gx:coord >20.947161 52.171465 200</gx:coord>
<gx:coord >20.944414 52.172257 231</gx:coord>
<gx:coord >20.941668 52.173048 264</gx:coord>
<gx:coord >20.939549 52.173653 295</gx:coord>
<gx:coord >20.937273 52.174305 329</gx:coord>
<gx:coord >20.934448 52.175096 350</gx:coord>
<gx:coord >20.932094 52.175748 380</gx:coord>
<gx:coord >20.92974 52.1764 413</gx:coord>
<gx:coord >20.927582 52.177002 445</gx:coord>
<gx:coord >20.925217 52.177643 475</gx:coord>
<gx:coord >20.922318 52.178421 510</gx:coord>
<gx:coord >20.920558 52.178914 533</gx:coord>
<gx:coord >20.918283 52.179519 563</gx:coord>
<gx:coord >20.915985 52.180161 594</gx:coord>
<gx:coord >20.913849 52.180756 625</gx:coord>
<gx:coord >20.911455 52.181428 656</gx:coord>
<gx:coord >20.909119 52.182083 689</gx:coord>
<gx:coord >20.906512 52.182778 720</gx:coord>
<gx:coord >20.903451 52.183429 750</gx:coord>
<gx:coord >20.900879 52.183868 782</gx:coord>
<gx:coord >20.898438 52.184143 813</gx:coord>
<gx:coord >20.895462 52.18428 844</gx:coord>
<gx:coord >20.890808 52.184143 893</gx:coord>
<gx:coord >20.887678 52.183895 922</gx:coord>
<gx:coord >20.885324 52.183615 953</gx:coord>
<gx:coord >20.882111 52.183273 985</gx:coord>
<gx:coord >20.879674 52.182964 1015</gx:coord>
<gx:coord >20.877151 52.182587 1045</gx:coord>
<gx:coord >20.874573 52.182219 1075</gx:coord>
<gx:coord >20.871735 52.181808 1116</gx:coord>
<gx:coord >20.86908 52.181428 1137</gx:coord>
<gx:coord >20.865326 52.180801 1167</gx:coord>
<gx:coord >20.861075 52.180124 1198</gx:coord>
<gx:coord >20.857073 52.179472 1230</gx:coord>
<gx:coord >20.852208 52.178634 1259</gx:coord>
<gx:coord >20.847702 52.177872 1292</gx:coord>
<gx:coord >20.84259 52.177048 1324</gx:coord>
<gx:coord >20.837847 52.17626 1355</gx:coord>
<gx:coord >20.834808 52.175812 1370</gx:coord>
<gx:coord >20.829468 52.174942 1401</gx:coord>
<gx:coord >20.823879 52.174119 1431</gx:coord>
<gx:coord >20.818481 52.173294 1462</gx:coord>
<gx:coord >20.813128 52.172489 1487</gx:coord>
<gx:coord >20.808182 52.171783 1508</gx:coord>
<gx:coord >20.804367 52.171234 1531</gx:coord>
<gx:coord >20.799789 52.170547 1561</gx:coord>
<gx:coord >20.793823 52.169696 1591</gx:coord>
<gx:coord >20.792236 52.169449 1599</gx:coord>
<gx:coord >20.786054 52.168579 1628</gx:coord>
<gx:coord >20.782776 52.168121 1645</gx:coord>
<gx:coord >20.780797 52.167834 1653</gx:coord>
<gx:coord >20.775528 52.167068 1683</gx:coord>
<gx:coord >20.770124 52.166298 1706</gx:coord>
<gx:coord >20.76561 52.165649 1736</gx:coord>
<gx:coord >20.760786 52.164948 1767</gx:coord>
<gx:coord >20.75592 52.16425 1799</gx:coord>
<gx:coord >20.752335 52.163727 1829</gx:coord>
<gx:coord >20.748544 52.163179 1860</gx:coord>
<gx:coord >20.744781 52.162674 1889</gx:coord>
<gx:coord >20.741952 52.162248 1913</gx:coord>
<gx:coord >20.73897 52.161829 1943</gx:coord>
<gx:coord >20.735016 52.161255 1971</gx:coord>
<gx:coord >20.73204 52.160797 2005</gx:coord>
<gx:coord >20.728989 52.160294 2035</gx:coord>
<gx:coord >20.724945 52.159561 2067</gx:coord>
<gx:coord >20.721359 52.158783 2099</gx:coord>
<gx:coord >20.717625 52.157826 2131</gx:coord>
<gx:coord >20.714172 52.156848 2145</gx:coord>
<gx:coord >20.71174 52.15601 2161</gx:coord>
<gx:coord >20.706247 52.153822 2193</gx:coord>
<gx:coord >20.700912 52.151093 2216</gx:coord>
<gx:coord >20.699005 52.149902 2233</gx:coord>
<gx:coord >20.694962 52.147018 2252</gx:coord>
<gx:coord >20.689545 52.14267 2297</gx:coord>
<gx:coord >20.686079 52.139717 2329</gx:coord>
<gx:coord >20.68239 52.136551 2375</gx:coord>
<gx:coord >20.677109 52.132004 2433</gx:coord>
<gx:coord >20.672684 52.128204 2497</gx:coord>
<gx:coord >20.667725 52.124039 2560</gx:coord>
<gx:coord >20.662772 52.119885 2625</gx:coord>
<gx:coord >20.656965 52.115137 2687</gx:coord>
<gx:coord >20.650711 52.110031 2749</gx:coord>
<gx:coord >20.645523 52.105865 2802</gx:coord>
<gx:coord >20.640793 52.102066 2860</gx:coord>
<gx:coord >20.635385 52.097727 2925</gx:coord>
<gx:coord >20.629813 52.093351 2989</gx:coord>
<gx:coord >20.624791 52.089394 3061</gx:coord>
<gx:coord >20.619611 52.085344 3119</gx:coord>
<gx:coord >20.614471 52.081329 3183</gx:coord>
<gx:coord >20.609741 52.077576 3244</gx:coord>
<gx:coord >20.6058 52.074497 3282</gx:coord>
<gx:coord >20.605011 52.073868 3282</gx:coord>
<gx:coord >20.599836 52.069842 3321</gx:coord>
<gx:coord >20.590286 52.062332 3366</gx:coord>
<gx:coord >20.578962 52.053316 3413</gx:coord>
<gx:coord >20.57339 52.048242 3444</gx:coord>
<gx:coord >20.568085 52.042145 3479</gx:coord>
<gx:coord >20.564994 52.037535 3502</gx:coord>
<gx:coord >20.562592 52.032623 3538</gx:coord>
<gx:coord >20.561829 52.030609 3554</gx:coord>
<gx:coord >20.55954 52.023926 3612</gx:coord>
<gx:coord >20.557709 52.017746 3673</gx:coord>
<gx:coord >20.555649 52.010605 3739</gx:coord>
<gx:coord >20.55191 51.997604 3869</gx:coord>
<gx:coord >20.547791 51.983917 3991</gx:coord>
<gx:coord >20.543727 51.970732 4113</gx:coord>
<gx:coord >20.539647 51.957744 4234</gx:coord>
<gx:coord >20.535566 51.945035 4371</gx:coord>
<gx:coord >20.531082 51.931137 4494</gx:coord>
<gx:coord >20.529404 51.925919 4557</gx:coord>
<gx:coord >20.528739 51.923714 4580</gx:coord>
<gx:coord >20.525678 51.914264 4707</gx:coord>
<gx:coord >20.522385 51.9039 4843</gx:coord>
<gx:coord >20.519333 51.894241 4936</gx:coord>
<gx:coord >20.517731 51.889359 4974</gx:coord>
<gx:coord >20.516077 51.884079 5012</gx:coord>
<gx:coord >20.510955 51.868103 5141</gx:coord>
<gx:coord >20.505981 51.852585 5263</gx:coord>
<gx:coord >20.500565 51.835544 5385</gx:coord>
<gx:coord >20.495529 51.819717 5507</gx:coord>
<gx:coord >20.490244 51.803009 5636</gx:coord>
<gx:coord >20.485229 51.787084 5758</gx:coord>
<gx:coord >20.48111 51.774189 5888</gx:coord>
<gx:coord >20.476532 51.759571 6010</gx:coord>
<gx:coord >20.473251 51.749097 6086</gx:coord>
<gx:coord >20.4673 51.729917 6208</gx:coord>
<gx:coord >20.46122 51.710724 6321</gx:coord>
<gx:coord >20.455093 51.691279 6443</gx:coord>
<gx:coord >20.448608 51.670796 6542</gx:coord>
<gx:coord >20.441895 51.649708 6664</gx:coord>
<gx:coord >20.435313 51.62915 6763</gx:coord>
<gx:coord >20.429001 51.608928 6870</gx:coord>
<gx:coord >20.422545 51.588226 6976</gx:coord>
<gx:coord >20.417794 51.572845 7053</gx:coord>
<gx:coord >20.413895 51.560234 7106</gx:coord>
<gx:coord >20.405026 51.532104 7190</gx:coord>
<gx:coord >20.402985 51.5256 7220</gx:coord>
<gx:coord >20.396729 51.505582 7349</gx:coord>
<gx:coord >20.392456 51.491989 7417</gx:coord>
<gx:coord >20.3862 51.473554 7501</gx:coord>
<gx:coord >20.379861 51.457855 7570</gx:coord>
<gx:coord >20.372849 51.443016 7638</gx:coord>
<gx:coord >20.365295 51.428678 7707</gx:coord>
<gx:coord >20.355959 51.413132 7776</gx:coord>
<gx:coord >20.345492 51.397339 7844</gx:coord>
<gx:coord >20.334549 51.382451 7928</gx:coord>
<gx:coord >20.322629 51.367584 8004</gx:coord>
<gx:coord >20.309935 51.352982 8088</gx:coord>
<gx:coord >20.297315 51.339615 8157</gx:coord>
<gx:coord >20.283813 51.326356 8225</gx:coord>
<gx:coord >20.269012 51.312763 8301</gx:coord>
<gx:coord >20.254261 51.300201 8347</gx:coord>
<gx:coord >20.232468 51.282318 8445</gx:coord>
<gx:coord >20.21019 51.263929 8552</gx:coord>
<gx:coord >20.186996 51.244564 8659</gx:coord>
<gx:coord >20.174561 51.234788 8711</gx:coord>
<gx:coord >20.163498 51.227246 8751</gx:coord>
<gx:coord >20.153009 51.221054 8782</gx:coord>
<gx:coord >20.145363 51.217117 8809</gx:coord>
<gx:coord >20.13549 51.212448 8848</gx:coord>
<gx:coord >20.10704 51.199548 8948</gx:coord>
<gx:coord >20.077737 51.185852 9055</gx:coord>
<gx:coord >20.047684 51.171384 9161</gx:coord>
<gx:coord >20.016937 51.15644 9253</gx:coord>
<gx:coord >19.984207 51.140473 9359</gx:coord>
<gx:coord >19.949539 51.12355 9451</gx:coord>
<gx:coord >19.912645 51.10556 9535</gx:coord>
<gx:coord >19.877608 51.088486 9619</gx:coord>
<gx:coord >19.842051 51.071182 9701</gx:coord>
<gx:coord >19.806824 51.054025 9808</gx:coord>
<gx:coord >19.773832 51.037903 9899</gx:coord>
<gx:coord >19.738572 51.020645 9991</gx:coord>
<gx:coord >19.698561 51.001099 10075</gx:coord>
<gx:coord >19.656916 50.980682 10151</gx:coord>
<gx:coord >19.617462 50.96134 10227</gx:coord>
<gx:coord >19.576078 50.94104 10303</gx:coord>
<gx:coord >19.539333 50.922958 10395</gx:coord>
<gx:coord >19.505844 50.906408 10500</gx:coord>
<gx:coord >19.469223 50.888346 10584</gx:coord>
<gx:coord >19.444168 50.875992 10638</gx:coord>
<gx:coord >19.403839 50.856039 10714</gx:coord>
<gx:coord >19.368973 50.838768 10805</gx:coord>
<gx:coord >19.33668 50.822754 10912</gx:coord>
<gx:coord >19.300003 50.804599 10996</gx:coord>
<gx:coord >19.259491 50.784488 11079</gx:coord>
<gx:coord >19.218292 50.764052 11155</gx:coord>
<gx:coord >19.17717 50.743522 11231</gx:coord>
<gx:coord >19.137573 50.723691 11315</gx:coord>
<gx:coord >19.119923 50.714813 11338</gx:coord>
<gx:coord >19.103888 50.706802 11345</gx:coord>
<gx:coord >19.054337 50.682073 11361</gx:coord>
<gx:coord >19.005263 50.657364 11360</gx:coord>
<gx:coord >18.955499 50.632169 11360</gx:coord>
<gx:coord >18.905736 50.607056 11360</gx:coord>
<gx:coord >18.856102 50.581939 11360</gx:coord>
<gx:coord >18.806859 50.557022 11360</gx:coord>
<gx:coord >18.758413 50.532361 11360</gx:coord>
<gx:coord >18.707119 50.506199 11359</gx:coord>
<gx:coord >18.658126 50.481293 11359</gx:coord>
<gx:coord >18.608093 50.455948 11359</gx:coord>
<gx:coord >18.558077 50.430496 11359</gx:coord>
<gx:coord >18.507732 50.404761 11359</gx:coord>
<gx:coord >18.457254 50.378832 11374</gx:coord>
<gx:coord >18.407882 50.353455 11374</gx:coord>
<gx:coord >18.357576 50.327454 11381</gx:coord>
<gx:coord >18.30827 50.302021 11389</gx:coord>
<gx:coord >18.257543 50.275772 11396</gx:coord>
<gx:coord >18.209188 50.250687 11396</gx:coord>
<gx:coord >18.159881 50.225023 11396</gx:coord>
<gx:coord >18.109477 50.198768 11388</gx:coord>
<gx:coord >18.06041 50.173211 11396</gx:coord>
<gx:coord >18.011218 50.147552 11388</gx:coord>
<gx:coord >17.961459 50.121631 11388</gx:coord>
<gx:coord >17.912052 50.095779 11380</gx:coord>
<gx:coord >17.86325 50.070237 11379</gx:coord>
<gx:coord >17.815271 50.045059 11387</gx:coord>
<gx:coord >17.766674 50.019448 11387</gx:coord>
<gx:coord >17.717978 49.993659 11387</gx:coord>
<gx:coord >17.669356 49.967915 11387</gx:coord>
<gx:coord >17.620215 49.941939 11387</gx:coord>
<gx:coord >17.57189 49.916382 11402</gx:coord>
<gx:coord >17.523045 49.890406 11401</gx:coord>
<gx:coord >17.476279 49.865454 11401</gx:coord>
<gx:coord >17.42634 49.838791 11401</gx:coord>
<gx:coord >17.377408 49.812561 11409</gx:coord>
<gx:coord >17.328928 49.786548 11409</gx:coord>
<gx:coord >17.280975 49.760758 11409</gx:coord>
<gx:coord >17.233095 49.734968 11409</gx:coord>
<gx:coord >17.184641 49.708878 11409</gx:coord>
<gx:coord >17.136576 49.682922 11416</gx:coord>
<gx:coord >17.089017 49.657242 11416</gx:coord>
<gx:coord >17.040908 49.631203 11424</gx:coord>
<gx:coord >16.992886 49.605148 11416</gx:coord>
<gx:coord >16.945001 49.579111 11416</gx:coord>
<gx:coord >16.896539 49.55278 11424</gx:coord>
<gx:coord >16.84887 49.526786 11424</gx:coord>
<gx:coord >16.800768 49.500438 11424</gx:coord>
<gx:coord >16.753066 49.474319 11423</gx:coord>
<gx:coord >16.705603 49.448299 11423</gx:coord>
<gx:coord >16.658302 49.422272 11431</gx:coord>
<gx:coord >16.610316 49.395881 11431</gx:coord>
<gx:coord >16.563016 49.36972 11431</gx:coord>
<gx:coord >16.51562 49.343491 11431</gx:coord>
<gx:coord >16.468289 49.317301 11423</gx:coord>
<gx:coord >16.421236 49.291185 11438</gx:coord>
<gx:coord >16.373714 49.264755 11438</gx:coord>
<gx:coord >16.326529 49.23848 11437</gx:coord>
<gx:coord >16.278703 49.211907 11437</gx:coord>
<gx:coord >16.231432 49.185605 11437</gx:coord>
<gx:coord >16.184451 49.159256 11445</gx:coord>
<gx:coord >16.137648 49.132965 11445</gx:coord>
<gx:coord >16.091212 49.106885 11445</gx:coord>
<gx:coord >16.044593 49.08063 11445</gx:coord>
<gx:coord >15.998334 49.054607 11453</gx:coord>
<gx:coord >15.953088 49.02905 11453</gx:coord>
<gx:coord >15.906161 49.002502 11453</gx:coord>
<gx:coord >15.859415 48.97598 11453</gx:coord>
<gx:coord >15.812217 48.949213 11460</gx:coord>
<gx:coord >15.765525 48.922724 11460</gx:coord>
<gx:coord >15.718407 48.895889 11468</gx:coord>
<gx:coord >15.671645 48.86911 11460</gx:coord>
<gx:coord >15.624582 48.842189 11459</gx:coord>
<gx:coord >15.579047 48.81612 11459</gx:coord>
<gx:coord >15.532414 48.789322 11459</gx:coord>
<gx:coord >15.486286 48.762817 11459</gx:coord>
<gx:coord >15.439524 48.735901 11467</gx:coord>
<gx:coord >15.394665 48.710074 11467</gx:coord>
<gx:coord >15.348675 48.683487 11459</gx:coord>
<gx:coord >15.302194 48.656616 11459</gx:coord>
<gx:coord >15.256613 48.630144 11459</gx:coord>
<gx:coord >15.21036 48.603287 11467</gx:coord>
<gx:coord >15.164584 48.576691 11467</gx:coord>
<gx:coord >15.118561 48.549934 11467</gx:coord>
<gx:coord >15.072115 48.522812 11474</gx:coord>
<gx:coord >15.026198 48.495941 11474</gx:coord>
<gx:coord >14.980774 48.469299 11482</gx:coord>
<gx:coord >14.934505 48.442062 11483</gx:coord>
<gx:coord >14.888306 48.414871 11491</gx:coord>
<gx:coord >14.843035 48.388118 11491</gx:coord>
<gx:coord >14.797066 48.360932 11498</gx:coord>
<gx:coord >14.752109 48.334397 11498</gx:coord>
<gx:coord >14.706357 48.30735 11498</gx:coord>
<gx:coord >14.661114 48.280518 11498</gx:coord>
<gx:coord >14.615056 48.253235 11498</gx:coord>
<gx:coord >14.569678 48.22621 11506</gx:coord>
<gx:coord >14.524137 48.199081 11491</gx:coord>
<gx:coord >14.478824 48.17193 11498</gx:coord>
<gx:coord >14.433359 48.144697 11491</gx:coord>
<gx:coord >14.387512 48.117324 11492</gx:coord>
<gx:coord >14.342018 48.090091 11492</gx:coord>
<gx:coord >14.297791 48.063556 11499</gx:coord>
<gx:coord >14.25293 48.036509 11507</gx:coord>
<gx:coord >14.207382 48.009018 11515</gx:coord>
<gx:coord >14.162363 47.981717 11515</gx:coord>
<gx:coord >14.117784 47.954717 11515</gx:coord>
<gx:coord >14.0728 47.927353 11515</gx:coord>
<gx:coord >14.028062 47.900204 11514</gx:coord>
<gx:coord >13.983131 47.872832 11514</gx:coord>
<gx:coord >13.938763 47.845831 11514</gx:coord>
<gx:coord >13.893585 47.818222 11514</gx:coord>
<gx:coord >13.84861 47.79071 11514</gx:coord>
<gx:coord >13.805096 47.764039 11514</gx:coord>
<gx:coord >13.759415 47.735962 11514</gx:coord>
<gx:coord >13.714714 47.708542 11514</gx:coord>
<gx:coord >13.670232 47.68113 11514</gx:coord>
<gx:coord >13.624901 47.653107 11514</gx:coord>
<gx:coord >13.580681 47.625824 11514</gx:coord>
<gx:coord >13.536494 47.598546 11513</gx:coord>
<gx:coord >13.490648 47.570149 11513</gx:coord>
<gx:coord >13.446561 47.542823 11520</gx:coord>
<gx:coord >13.401604 47.514816 11520</gx:coord>
<gx:coord >13.356628 47.486867 11528</gx:coord>
<gx:coord >13.312065 47.459061 11528</gx:coord>
<gx:coord >13.267776 47.431366 11535</gx:coord>
<gx:coord >13.222733 47.403122 11543</gx:coord>
<gx:coord >13.178101 47.375095 11543</gx:coord>
<gx:coord >13.133169 47.346838 11543</gx:coord>
<gx:coord >13.088801 47.318907 11543</gx:coord>
<gx:coord >13.045983 47.291906 11550</gx:coord>
<gx:coord >13.001122 47.263556 11557</gx:coord>
<gx:coord >12.957275 47.235809 11557</gx:coord>
<gx:coord >12.913161 47.207833 11550</gx:coord>
<gx:coord >12.869075 47.179902 11550</gx:coord>
<gx:coord >12.825552 47.15225 11542</gx:coord>
<gx:coord >12.790901 47.130249 11535</gx:coord>
<gx:coord >12.775902 47.120687 11511</gx:coord>
<gx:coord >12.740845 47.098343 11419</gx:coord>
<gx:coord >12.705345 47.075684 11343</gx:coord>
<gx:coord >12.66806 47.051834 11267</gx:coord>
<gx:coord >12.63146 47.028467 11183</gx:coord>
<gx:coord >12.595051 47.005191 11107</gx:coord>
<gx:coord >12.557443 46.98103 11023</gx:coord>
<gx:coord >12.523499 46.959151 10939</gx:coord>
<gx:coord >12.487816 46.936111 10854</gx:coord>
<gx:coord >12.452299 46.913157 10778</gx:coord>
<gx:coord >12.416954 46.890244 10694</gx:coord>
<gx:coord >12.383 46.868328 10626</gx:coord>
<gx:coord >12.369644 46.860321 10618</gx:coord>
<gx:coord >12.359962 46.8552 10610</gx:coord>
<gx:coord >12.348083 46.84966 10610</gx:coord>
<gx:coord >12.335449 46.844586 10610</gx:coord>
<gx:coord >12.322306 46.840027 10610</gx:coord>
<gx:coord >12.294907 46.831192 10618</gx:coord>
<gx:coord >12.245803 46.814987 10618</gx:coord>
<gx:coord >12.197845 46.798406 10618</gx:coord>
<gx:coord >12.146257 46.780106 10618</gx:coord>
<gx:coord >12.116821 46.769637 10610</gx:coord>
<gx:coord >12.090042 46.76014 10565</gx:coord>
<gx:coord >12.049925 46.746048 10481</gx:coord>
<gx:coord >12.007655 46.731216 10397</gx:coord>
<gx:coord >11.963837 46.715869 10321</gx:coord>
<gx:coord >11.924453 46.702057 10237</gx:coord>
<gx:coord >11.88652 46.688636 10146</gx:coord>
<gx:coord >11.84708 46.674683 10069</gx:coord>
<gx:coord >11.804123 46.659448 9993</gx:coord>
<gx:coord >11.762512 46.644737 9917</gx:coord>
<gx:coord >11.721139 46.630142 9826</gx:coord>
<gx:coord >11.678534 46.61499 9749</gx:coord>
<gx:coord >11.637402 46.600296 9666</gx:coord>
<gx:coord >11.600189 46.587012 9582</gx:coord>
<gx:coord >11.561436 46.573196 9498</gx:coord>
<gx:coord >11.521225 46.558848 9406</gx:coord>
<gx:coord >11.480981 46.544403 9323</gx:coord>
<gx:coord >11.44281 46.530684 9239</gx:coord>
<gx:coord >11.403397 46.516486 9155</gx:coord>
<gx:coord >11.361855 46.501542 9079</gx:coord>
<gx:coord >11.322751 46.487411 8995</gx:coord>
<gx:coord >11.285036 46.47377 8896</gx:coord>
<gx:coord >11.245743 46.459552 8820</gx:coord>
<gx:coord >11.207703 46.445866 8728</gx:coord>
<gx:coord >11.169478 46.432159 8644</gx:coord>
<gx:coord >11.128748 46.417419 8553</gx:coord>
<gx:coord >11.085274 46.401548 8469</gx:coord>
<gx:coord >11.045036 46.386838 8393</gx:coord>
<gx:coord >11.007889 46.373244 8302</gx:coord>
<gx:coord >10.969231 46.359093 8225</gx:coord>
<gx:coord >10.932495 46.345639 8134</gx:coord>
<gx:coord >10.893815 46.331543 8058</gx:coord>
<gx:coord >10.856971 46.318085 7966</gx:coord>
<gx:coord >10.821265 46.305038 7875</gx:coord>
<gx:coord >10.78221 46.290756 7791</gx:coord>
<gx:coord >10.74765 46.278092 7700</gx:coord>
<gx:coord >10.718399 46.267292 7593</gx:coord>
<gx:coord >10.689094 46.256378 7486</gx:coord>
<gx:coord >10.658867 46.245179 7395</gx:coord>
<gx:coord >10.628448 46.23396 7273</gx:coord>
<gx:coord >10.598167 46.222788 7174</gx:coord>
<gx:coord >10.5672 46.211382 7067</gx:coord>
<gx:coord >10.538166 46.200623 6960</gx:coord>
<gx:coord >10.509041 46.189829 6854</gx:coord>
<gx:coord >10.47924 46.178749 6755</gx:coord>
<gx:coord >10.450276 46.167938 6656</gx:coord>
<gx:coord >10.420052 46.156637 6549</gx:coord>
<gx:coord >10.391258 46.145828 6450</gx:coord>
<gx:coord >10.362305 46.134944 6343</gx:coord>
<gx:coord >10.334584 46.124496 6229</gx:coord>
<gx:coord >10.30263 46.112503 6130</gx:coord>
<gx:coord >10.275581 46.102404 6023</gx:coord>
<gx:coord >10.248301 46.09227 5909</gx:coord>
<gx:coord >10.220769 46.082016 5802</gx:coord>
<gx:coord >10.194489 46.072145 5711</gx:coord>
<gx:coord >10.166336 46.061531 5590</gx:coord>
<gx:coord >10.140793 46.051941 5491</gx:coord>
<gx:coord >10.126648 46.046262 5437</gx:coord>
<gx:coord >10.120949 46.043515 5403</gx:coord>
<gx:coord >10.115936 46.040722 5378</gx:coord>
<gx:coord >10.109767 46.036652 5344</gx:coord>
<gx:coord >10.104126 46.032296 5315</gx:coord>
<gx:coord >10.097507 46.026398 5285</gx:coord>
<gx:coord >10.077812 46.007858 5186</gx:coord>
<gx:coord >10.060529 45.991608 5079</gx:coord>
<gx:coord >10.043447 45.975906 4973</gx:coord>
<gx:coord >10.025917 45.959861 4858</gx:coord>
<gx:coord >10.008143 45.943726 4760</gx:coord>
<gx:coord >9.991447 45.928438 4654</gx:coord>
<gx:coord >9.974112 45.912689 4547</gx:coord>
<gx:coord >9.957321 45.897387 4455</gx:coord>
<gx:coord >9.939612 45.881195 4334</gx:coord>
<gx:coord >9.923264 45.866197 4235</gx:coord>
<gx:coord >9.908127 45.852264 4129</gx:coord>
<gx:coord >9.891916 45.837524 4022</gx:coord>
<gx:coord >9.872087 45.819397 3931</gx:coord>
<gx:coord >9.861033 45.809235 3877</gx:coord>
<gx:coord >9.849312 45.798417 3832</gx:coord>
<gx:coord >9.837989 45.787949 3786</gx:coord>
<gx:coord >9.826172 45.77719 3741</gx:coord>
<gx:coord >9.814877 45.766846 3703</gx:coord>
<gx:coord >9.803556 45.756409 3642</gx:coord>
<gx:coord >9.792732 45.746419 3589</gx:coord>
<gx:coord >9.780716 45.735432 3543</gx:coord>
<gx:coord >9.769994 45.72551 3497</gx:coord>
<gx:coord >9.758949 45.715322 3445</gx:coord>
<gx:coord >9.74762 45.704865 3407</gx:coord>
<gx:coord >9.737437 45.695526 3353</gx:coord>
<gx:coord >9.731209 45.689346 3323</gx:coord>
<gx:coord >9.728662 45.686417 3307</gx:coord>
<gx:coord >9.725098 45.681618 3284</gx:coord>
<gx:coord >9.722832 45.677614 3266</gx:coord>
<gx:coord >9.721321 45.674123 3245</gx:coord>
<gx:coord >9.719685 45.668564 3213</gx:coord>
<gx:coord >9.719261 45.665837 3198</gx:coord>
<gx:coord >9.718987 45.660902 3171</gx:coord>
<gx:coord >9.71935 45.657074 3139</gx:coord>
<gx:coord >9.720288 45.652679 3113</gx:coord>
<gx:coord >9.72223 45.647369 3081</gx:coord>
<gx:coord >9.724274 45.643352 3057</gx:coord>
<gx:coord >9.727992 45.63739 3020</gx:coord>
<gx:coord >9.734356 45.62796 2958</gx:coord>
<gx:coord >9.739586 45.620215 2905</gx:coord>
<gx:coord >9.74556 45.611277 2851</gx:coord>
<gx:coord >9.75251 45.60054 2783</gx:coord>
<gx:coord >9.759544 45.589554 2737</gx:coord>
<gx:coord >9.766578 45.57843 2684</gx:coord>
<gx:coord >9.772473 45.568863 2653</gx:coord>
<gx:coord >9.776626 45.562042 2638</gx:coord>
<gx:coord >9.783459 45.55069 2614</gx:coord>
<gx:coord >9.787814 45.543404 2587</gx:coord>
<gx:coord >9.792677 45.534897 2556</gx:coord>
<gx:coord >9.795162 45.529587 2533</gx:coord>
<gx:coord >9.796993 45.524414 2510</gx:coord>
<gx:coord >9.798431 45.518692 2487</gx:coord>
<gx:coord >9.800944 45.507047 2434</gx:coord>
<gx:coord >9.80314 45.496857 2388</gx:coord>
<gx:coord >9.805432 45.486704 2342</gx:coord>
<gx:coord >9.807442 45.477719 2295</gx:coord>
<gx:coord >9.808764 45.472549 2264</gx:coord>
<gx:coord >9.810399 45.468063 2237</gx:coord>
<gx:coord >9.812164 45.464584 2206</gx:coord>
<gx:coord >9.814192 45.461426 2182</gx:coord>
<gx:coord >9.817069 45.457993 2159</gx:coord>
<gx:coord >9.820535 45.454605 2144</gx:coord>
<gx:coord >9.824926 45.451045 2135</gx:coord>
<gx:coord >9.826747 45.449707 2125</gx:coord>
<gx:coord >9.831521 45.44664 2116</gx:coord>
<gx:coord >9.836426 45.443893 2108</gx:coord>
<gx:coord >9.842544 45.441036 2100</gx:coord>
<gx:coord >9.847347 45.439178 2092</gx:coord>
<gx:coord >9.851856 45.437777 2084</gx:coord>
<gx:coord >9.857014 45.436427 2076</gx:coord>
<gx:coord >9.863244 45.435357 2069</gx:coord>
<gx:coord >9.869273 45.434705 2054</gx:coord>
<gx:coord >9.873493 45.434565 2046</gx:coord>
<gx:coord >9.878786 45.434658 2038</gx:coord>
<gx:coord >9.885753 45.43531 2031</gx:coord>
<gx:coord >9.889396 45.435928 2023</gx:coord>
<gx:coord >9.892992 45.436707 2015</gx:coord>
<gx:coord >9.896589 45.437668 2015</gx:coord>
<gx:coord >9.903036 45.439965 2000</gx:coord>
<gx:coord >9.907641 45.442017 1999</gx:coord>
<gx:coord >9.911172 45.443939 1991</gx:coord>
<gx:coord >9.915764 45.446948 1980</gx:coord>
<gx:coord >9.917646 45.448425 1973</gx:coord>
<gx:coord >9.921525 45.451883 1963</gx:coord>
<gx:coord >9.924513 45.455063 1962</gx:coord>
<gx:coord >9.927286 45.458214 1954</gx:coord>
<gx:coord >9.937068 45.470032 1931</gx:coord>
<gx:coord >9.944523 45.478867 1915</gx:coord>
<gx:coord >9.947517 45.482235 1915</gx:coord>
<gx:coord >9.952502 45.487976 1915</gx:coord>
<gx:coord >9.957733 45.49411 1915</gx:coord>
<gx:coord >9.960349 45.49791 1915</gx:coord>
<gx:coord >9.962311 45.501938 1908</gx:coord>
<gx:coord >9.962925 45.503928 1908</gx:coord>
<gx:coord >9.963553 45.50679 1908</gx:coord>
<gx:coord >9.963796 45.509095 1908</gx:coord>
<gx:coord >9.96393 45.513657 1908</gx:coord>
<gx:coord >9.963729 45.521245 1900</gx:coord>
<gx:coord >9.963161 45.53009 1882</gx:coord>
<gx:coord >9.962791 45.534932 1855</gx:coord>
<gx:coord >9.962245 45.541031 1832</gx:coord>
<gx:coord >9.961853 45.545837 1803</gx:coord>
<gx:coord >9.961652 45.54744 1796</gx:coord>
<gx:coord >9.961372 45.551085 1766</gx:coord>
<gx:coord >9.96096 45.554949 1733</gx:coord>
<gx:coord >9.960754 45.557929 1702</gx:coord>
<gx:coord >9.96058 45.560165 1694</gx:coord>
<gx:coord >9.960245 45.563782 1671</gx:coord>
<gx:coord >9.959776 45.57074 1633</gx:coord>
<gx:coord >9.959374 45.577423 1608</gx:coord>
<gx:coord >9.959106 45.583393 1573</gx:coord>
<gx:coord >9.958905 45.588638 1542</gx:coord>
<gx:coord >9.958694 45.592982 1515</gx:coord>
<gx:coord >9.958504 45.598251 1475</gx:coord>
<gx:coord >9.95837 45.60228 1447</gx:coord>
<gx:coord >9.958145 45.606296 1415</gx:coord>
<gx:coord >9.957458 45.6103 1381</gx:coord>
<gx:coord >9.956772 45.612022 1365</gx:coord>
<gx:coord >9.955536 45.61421 1341</gx:coord>
<gx:coord >9.954712 45.615327 1325</gx:coord>
<gx:coord >9.953278 45.616928 1308</gx:coord>
<gx:coord >9.951805 45.61821 1286</gx:coord>
<gx:coord >9.949699 45.61975 1262</gx:coord>
<gx:coord >9.947785 45.620819 1245</gx:coord>
<gx:coord >9.945575 45.621872 1228</gx:coord>
<gx:coord >9.942627 45.622971 1205</gx:coord>
<gx:coord >9.94091 45.623521 1193</gx:coord>
<gx:coord >9.935459 45.624939 1170</gx:coord>
<gx:coord >9.931306 45.625809 1150</gx:coord>
<gx:coord >9.924843 45.627012 1119</gx:coord>
<gx:coord >9.918114 45.628316 1084</gx:coord>
<gx:coord >9.911209 45.629654 1052</gx:coord>
<gx:coord >9.903145 45.631202 1022</gx:coord>
<gx:coord >9.895248 45.632691 984</gx:coord>
<gx:coord >9.888519 45.633948 954</gx:coord>
<gx:coord >9.880966 45.635391 924</gx:coord>
<gx:coord >9.874096 45.636658 899</gx:coord>
<gx:coord >9.865187 45.638351 855</gx:coord>
<gx:coord >9.857552 45.639767 824</gx:coord>
<gx:coord >9.854256 45.640419 816</gx:coord>
<gx:coord >9.849645 45.641281 793</gx:coord>
<gx:coord >9.843683 45.64238 761</gx:coord>
<gx:coord >9.838531 45.643352 741</gx:coord>
<gx:coord >9.831826 45.644623 717</gx:coord>
<gx:coord >9.830955 45.64476 709</gx:coord>
<gx:coord >9.825663 45.645767 687</gx:coord>
<gx:coord >9.821365 45.646564 664</gx:coord>
<gx:coord >9.813812 45.647961 633</gx:coord>
<gx:coord >9.808178 45.648972 610</gx:coord>
<gx:coord >9.799135 45.650665 572</gx:coord>
<gx:coord >9.79287 45.651824 542</gx:coord>
<gx:coord >9.786005 45.653137 519</gx:coord>
<gx:coord >9.778368 45.654556 487</gx:coord>
<gx:coord >9.77227 45.655688 452</gx:coord>
<gx:coord >9.76506 45.657038 427</gx:coord>
<gx:coord >9.757027 45.658528 405</gx:coord>
<gx:coord >9.748424 45.660141 358</gx:coord>
<gx:coord >9.744118 45.660949 330</gx:coord>
<gx:coord >9.732719 45.663044 359</gx:coord>
<gx:coord >9.732719 45.663044 359</gx:coord>
</gx:Track>
</Placemark>
</Folder>
</Folder>
</kml>
