<?xml version="1.0" encoding="UTF-8"?>
<kml xmlns="http://www.opengis.net/kml/2.2">
    <Document>
        <name>Edited Path</name>
        <description>Path edited with KML Path Editor</description>
        <Style id="pathStyle">
            <LineStyle>
                <color>ff0000ff</color>
                <width>3</width>
            </LineStyle>
        </Style>
        <Placemark>
            <name>Edited Path</name>
            <description>Total points: 538</description>
            <styleUrl>#pathStyle</styleUrl>
            <LineString>
                <tessellate>1</tessellate>
                <coordinates>20.926764,52.266821,0 20.926764,52.266821,0 20.930902,52.267059,0 20.93421,52.265247,0 20.935338,52.264998,0 20.93748,52.264096,0 20.94059,52.263518,0 20.942717,52.262564,0 20.946547,52.261507,0 20.948686,52.261147,0 20.951058,52.261893,0 20.953519,52.263587,0 20.957458,52.267713,0 20.960067,52.269415,0 20.961128,52.27063,0 20.966887,52.274567,0 20.970028,52.278637,0 20.975377,52.28045,0 20.976076,52.280976,0 20.976747,52.282722,0 20.977266,52.284418,0 20.97521,52.289394,0 20.970584,52.292637,0 20.965665,52.295161,0 20.962893,52.296672,0 20.961141,52.297847,0 20.955243,52.301877,0 20.94904,52.30445,0 20.942719,52.308159,0 20.941009,52.309108,0 20.937994,52.31105,0 20.931642,52.315555,0 20.928388,52.319896,0 20.925062,52.325606,0 20.922057,52.330393,0 20.920346,52.335881,0 20.916648,52.341455,0 20.913843,52.345409,0 20.913296,52.347441,0 20.912431,52.352835,0 20.911491,52.358358,0 20.911715,52.358547,0 20.911596,52.361718,0 20.9112,52.364386,0 20.911863,52.367606,0 20.911009,52.372216,0 20.911081,52.374132,0 20.911044,52.37645,0 20.911866,52.378529,0 20.911438,52.381747,0 20.909391,52.384419,0 20.906396,52.387332,0 20.902693,52.38925,0 20.899335,52.390841,0 20.895089,52.392771,0 20.890208,52.394728,0 20.882878,52.397996,0 20.878437,52.399564,0 20.874912,52.401281,0 20.867331,52.404599,0 20.862308,52.406635,0 20.858692,52.408443,0 20.853032,52.411013,0 20.848169,52.413256,0 20.843511,52.415286,0 20.833572,52.418628,0 20.829064,52.419875,0 20.825794,52.420594,0 20.820668,52.420186,0 20.815519,52.421397,0 20.810264,52.421739,0 20.80707,52.421184,0 20.800149,52.421456,0 20.794392,52.422101,0 20.78943,52.422501,0 20.782805,52.422233,0 20.776013,52.421944,0 20.76983,52.421328,0 20.762702,52.421545,0 20.755051,52.420782,0 20.74783,52.420985,0 20.746532,52.420245,0 20.741128,52.42068,0 20.733254,52.420192,0 20.723356,52.419641,0 20.714781,52.419377,0 20.706452,52.419297,0 20.698511,52.419787,0 20.687902,52.41945,0 20.677995,52.41858,0 20.669551,52.418827,0 20.659118,52.418792,0 20.65207,52.419014,0 20.648285,52.418606,0 20.642774,52.418556,0 20.616894,52.414037,0 20.610818,52.413219,0 20.601622,52.412412,0 20.592705,52.411193,0 20.5825,52.410606,0 20.575082,52.408564,0 20.567029,52.406659,0 20.56023,52.406066,0 20.549346,52.40518,0 20.538869,52.404662,0 20.532907,52.40238,0 20.525145,52.401099,0 20.515688,52.399243,0 20.507623,52.398999,0 20.497832,52.398021,0 20.489866,52.396335,0 20.480954,52.396426,0 20.475544,52.394272,0 20.465579,52.393203,0 20.457796,52.392526,0 20.451913,52.391394,0 20.441746,52.39023,0 20.435485,52.388543,0 20.428373,52.388012,0 20.420488,52.386757,0 20.41387,52.385829,0 20.405862,52.384535,0 20.394656,52.383942,0 20.387886,52.382766,0 20.38443,52.38146,0 20.377914,52.3803,0 20.368354,52.38008,0 20.358135,52.379615,0 20.351487,52.380923,0 20.347552,52.382157,0 20.346028,52.383463,0 20.341215,52.387253,0 20.33242,52.397297,0 20.324318,52.409656,0 20.325354,52.415117,0 20.328224,52.417996,0 20.351219,52.42565,0 20.358467,52.425411,0 20.367853,52.425957,0 20.374668,52.4264,0 20.380912,52.427285,0 20.386774,52.427758,0 20.397541,52.428098,0 20.40758,52.428328,0 20.418848,52.429331,0 20.42969,52.430036,0 20.436083,52.430866,0 20.452504,52.432506,0 20.469665,52.43287,0 20.47682,52.434042,0 20.483876,52.434776,0 20.50246,52.43639,0 20.509575,52.437347,0 20.52895,52.439091,0 20.539331,52.439561,0 20.552026,52.439637,0 20.561467,52.439624,0 20.564495,52.440642,0 20.570822,52.442776,0 20.599171,52.445008,0 20.609156,52.446467,0 20.615716,52.446792,0 20.673545,52.452842,0 20.678027,52.454574,0 20.681865,52.454758,0 20.685087,52.455656,0 20.689644,52.456708,0 20.695305,52.458393,0 20.699151,52.459777,0 20.703052,52.458762,0 20.710197,52.459629,0 20.713175,52.45976,0 20.716087,52.459911,0 20.718274,52.460988,0 20.720765,52.461647,0 20.721685,52.461728,0 20.723341,52.461787,0 20.725857,52.461617,0 20.731047,52.464487,0 20.731965,52.466374,0 20.734364,52.468901,0 20.73494,52.47041,0 20.733491,52.47459,0 20.734483,52.476143,0 20.73301,52.479371,0 20.73329,52.481527,0 20.7317,52.485064,0 20.731842,52.487089,0 20.731708,52.488546,0 20.731089,52.49094,0 20.729347,52.493767,0 20.728235,52.496219,0 20.728921,52.497659,0 20.726641,52.500683,0 20.727471,52.503168,0 20.727077,52.505378,0 20.7255,52.507867,0 20.725724,52.511627,0 20.723581,52.512868,0 20.722525,52.514587,0 20.717007,52.518724,0 20.712525,52.520312,0 20.708624,52.521609,0 20.703353,52.521417,0 20.694497,52.521164,0 20.685739,52.520918,0 20.67661,52.520782,0 20.667715,52.520957,0 20.659966,52.520824,0 20.649996,52.521258,0 20.641366,52.521821,0 20.630697,52.521977,0 20.622638,52.521979,0 20.610912,52.521908,0 20.607763,52.521659,0 20.600625,52.521186,0 20.592571,52.520422,0 20.583654,52.519584,0 20.574057,52.52017,0 20.567373,52.518383,0 20.559409,52.51847,0 20.553049,52.518746,0 20.544513,52.517373,0 20.53543,52.517517,0 20.525739,52.517341,0 20.51699,52.517138,0 20.508649,52.516407,0 20.498009,52.517013,0 20.487165,52.517486,0 20.481299,52.51615,0 20.469116,52.516309,0 20.460234,52.516052,0 20.452301,52.517008,0 20.443504,52.517608,0 20.431676,52.518426,0 20.424951,52.517288,0 20.416178,52.516045,0 20.402566,52.514149,0 20.37505,52.514026,0 20.357647,52.512656,0 20.347091,52.512896,0 20.337573,52.512485,0 20.328508,52.512484,0 20.321517,52.51241,0 20.313008,52.514842,0 20.308942,52.518597,0 20.304253,52.529386,0 20.326584,52.542487,0 20.343985,52.541981,0 20.355185,52.541807,0 20.38633,52.538688,0 20.396257,52.537961,0 20.411107,52.535701,0 20.416444,52.533929,0 20.423714,52.531112,0 20.426255,52.525577,0 20.420353,52.5181,0 20.410856,52.515244,0 20.403436,52.514558,0 20.394515,52.514184,0 20.367405,52.51382,0 20.350636,52.513419,0 20.336325,52.514598,0 20.322779,52.516884,0 20.315757,52.519738,0 20.314133,52.520714,0 20.31088,52.524251,0 20.307588,52.528306,0 20.305028,52.536394,0 20.325212,52.548396,0 20.346729,52.548604,0 20.356574,52.547989,0 20.384653,52.544073,0 20.404852,52.540716,0 20.414015,52.538419,0 20.419538,52.535563,0 20.417414,52.528479,0 20.410926,52.524737,0 20.402899,52.521111,0 20.396617,52.51838,0 20.378673,52.515647,0 20.364554,52.516048,0 20.328134,52.513691,0 20.315011,52.514374,0 20.302552,52.514592,0 20.294531,52.51329,0 20.285059,52.512144,0 20.249996,52.500377,0 20.247652,52.496736,0 20.239184,52.490201,0 20.229035,52.483655,0 20.224556,52.47975,0 20.22456,52.473931,0 20.223355,52.471325,0 20.222002,52.467108,0 20.224482,52.461233,0 20.228163,52.456819,0 20.229005,52.45416,0 20.228341,52.453123,0 20.23782,52.443638,0 20.244015,52.440393,0 20.244391,52.436875,0 20.247074,52.435233,0 20.252971,52.433655,0 20.255974,52.434013,0 20.269879,52.431221,0 20.277,52.430786,0 20.282162,52.430062,0 20.289,52.428647,0 20.297607,52.427468,0 20.303316,52.426291,0 20.305504,52.425989,0 20.311955,52.425262,0 20.316895,52.424415,0 20.321925,52.423378,0 20.323424,52.422594,0 20.325483,52.422476,0 20.338292,52.420856,0 20.342593,52.421003,0 20.348179,52.422642,0 20.35736,52.422024,0 20.372839,52.423063,0 20.387849,52.424549,0 20.392742,52.424422,0 20.403923,52.426351,0 20.411509,52.426792,0 20.414329,52.427032,0 20.429632,52.429274,0 20.437175,52.429908,0 20.45458,52.431843,0 20.471961,52.43304,0 20.481093,52.434255,0 20.499796,52.436106,0 20.509515,52.437024,0 20.518575,52.438225,0 20.530601,52.439114,0 20.545025,52.440163,0 20.550329,52.440608,0 20.560801,52.442293,0 20.574866,52.446524,0 20.690962,52.454108,0 20.697532,52.454307,0 20.700458,52.455299,0 20.704709,52.456474,0 20.707411,52.457509,0 20.708515,52.45939,0 20.708865,52.459959,0 20.710536,52.465041,0 20.708874,52.471011,0 20.706897,52.475984,0 20.703193,52.479858,0 20.686722,52.485822,0 20.678809,52.48581,0 20.671993,52.486605,0 20.661506,52.488024,0 20.65155,52.490189,0 20.641387,52.491759,0 20.621649,52.493182,0 20.611396,52.496262,0 20.599091,52.497762,0 20.588959,52.498541,0 20.582123,52.501303,0 20.574045,52.504164,0 20.569557,52.50635,0 20.559617,52.508355,0 20.549042,52.509587,0 20.527942,52.522258,0 20.522812,52.528426,0 20.518018,52.533833,0 20.514589,52.537857,0 20.508031,52.54467,0 20.480978,52.569848,0 20.475402,52.576583,0 20.463595,52.582062,0 20.408988,52.600145,0 20.380995,52.606492,0 20.350406,52.609636,0 20.32633,52.615683,0 20.316971,52.618749,0 20.320065,52.623564,0 20.323935,52.622687,0 20.332357,52.618358,0 20.316974,52.615872,0 20.300833,52.611525,0 20.304607,52.609824,0 20.30849,52.610863,0 20.316863,52.613871,0 20.314061,52.619671,0 20.309477,52.623606,0 20.29463,52.630149,0 20.304516,52.63224,0 20.299264,52.634677,0 20.290878,52.633129,0 20.28629,52.635149,0 20.277409,52.637582,0 20.266564,52.640685,0 20.250793,52.644008,0 20.250877,52.641384,0 20.22651,52.64752,0 20.220992,52.649235,0 20.200928,52.65205,0 20.179531,52.651089,0 20.192095,52.647069,0 20.201976,52.647642,0 20.208907,52.647896,0 20.211484,52.646963,0 20.235795,52.639625,0 20.236437,52.638012,0 20.239526,52.629413,0 20.237419,52.620721,0 20.353473,52.593739,0 20.389446,52.598136,0 20.532335,52.544576,0 20.544699,52.542423,0 20.548089,52.538061,0 20.556469,52.533905,0 20.561133,52.530369,0 20.569087,52.523987,0 20.573513,52.520252,0 20.575923,52.521178,0 20.578704,52.520167,0 20.581166,52.518626,0 20.584171,52.518521,0 20.594539,52.512326,0 20.601038,52.512402,0 20.609164,52.512477,0 20.615701,52.513791,0 20.627141,52.512198,0 20.628936,52.511923,0 20.630548,52.512687,0 20.637423,52.510471,0 20.642864,52.509313,0 20.651435,52.507237,0 20.654401,52.507439,0 20.661325,52.504772,0 20.662499,52.503677,0 20.672051,52.499279,0 20.675611,52.49723,0 20.680371,52.49415,0 20.688241,52.49104,0 20.693121,52.488845,0 20.695311,52.487948,0 20.700201,52.48473,0 20.706597,52.481484,0 20.712078,52.478332,0 20.715423,52.476857,0 20.720633,52.473455,0 20.725806,52.469782,0 20.728891,52.469042,0 20.736978,52.464311,0 20.738722,52.464344,0 20.739641,52.463484,0 20.74519,52.460468,0 20.749257,52.458207,0 20.753694,52.456071,0 20.755009,52.45544,0 20.758149,52.455159,0 20.764539,52.451911,0 20.76701,52.452223,0 20.769302,52.450841,0 20.773249,52.449578,0 20.777502,52.447922,0 20.782461,52.446116,0 20.786074,52.444095,0 20.78992,52.443458,0 20.79519,52.441274,0 20.798262,52.439239,0 20.802149,52.436993,0 20.806124,52.435408,0 20.808104,52.433141,0 20.813368,52.428415,0 20.819431,52.424812,0 20.823404,52.422183,0 20.828206,52.418672,0 20.834551,52.415062,0 20.841979,52.411432,0 20.844782,52.40963,0 20.850278,52.406317,0 20.855652,52.403505,0 20.858793,52.402047,0 20.860989,52.400256,0 20.86654,52.397345,0 20.869931,52.395146,0 20.872614,52.393448,0 20.876614,52.391163,0 20.879032,52.389462,0 20.880223,52.388601,0 20.886146,52.385556,0 20.887851,52.383259,0 20.890528,52.381658,0 20.891486,52.3806,0 20.893992,52.378936,0 20.897929,52.375903,0 20.899934,52.373296,0 20.902516,52.369759,0 20.904749,52.367035,0 20.908157,52.364187,0 20.908602,52.36226,0 20.910781,52.358119,0 20.913889,52.354166,0 20.91588,52.351425,0 20.920411,52.346433,0 20.922276,52.343956,0 20.924846,52.338576,0 20.924342,52.337217,0 20.925723,52.334592,0 20.926275,52.332191,0 20.926439,52.326541,0 20.926169,52.322457,0 20.925036,52.321121,0 20.920901,52.317178,0 20.915219,52.312853,0 20.91199,52.309792,0 20.90894,52.308595,0 20.90738,52.307346,0 20.903607,52.305808,0 20.899687,52.302448,0 20.895154,52.300339,0 20.889647,52.298451,0 20.882969,52.296192,0 20.879156,52.294673,0 20.874063,52.292691,0 20.869462,52.290509,0 20.867396,52.288002,0 20.86484,52.285128,0 20.863112,52.281986,0 20.862541,52.279084,0 20.862741,52.277986,0 20.864122,52.274714,0 20.867943,52.274681,0 20.870824,52.274271,0 20.872216,52.273936,0 20.876015,52.273452,0 20.88068,52.273088,0 20.882644,52.272368,0 20.88304,52.272607,0 20.886388,52.272816,0 20.886388,52.272816,0</coordinates>
            </LineString>
        </Placemark>
    </Document>
</kml>