<?xml version="1.0" encoding="UTF-8"?>
<kml xmlns="http://www.opengis.net/kml/2.2" xmlns:gx="http://www.google.com/kml/ext/2.2"><Folder ><Folder ><name >HA-LXJ track</name>
<Placemark ><name >HA-LXJ</name>
<Style ><LineStyle ><color >ff1c1ae3</color>
<width >4</width>
</LineStyle>
<IconStyle ><Icon ><href >http://maps.google.com/mapfiles/kml/shapes/airports.png</href>
</Icon>
</IconStyle>
</Style>
<gx:Track ><extrude >0</extrude>
<when >2025-08-04T14:13:40.950Z</when>
<when >2025-08-04T14:13:40.950Z</when>
<when >2025-08-04T14:14:01.710Z</when>
<when >2025-08-04T14:14:06.310Z</when>
<when >2025-08-04T14:15:25.710Z</when>
<when >2025-08-04T14:16:41.480Z</when>
<when >2025-08-04T14:17:59.700Z</when>
<when >2025-08-04T14:19:16.620Z</when>
<when >2025-08-04T14:20:15.810Z</when>
<when >2025-08-04T14:20:19.190Z</when>
<when >2025-08-04T14:20:23.390Z</when>
<when >2025-08-04T14:20:26.800Z</when>
<when >2025-08-04T14:20:30.740Z</when>
<when >2025-08-04T14:20:33.080Z</when>
<when >2025-08-04T14:20:36.450Z</when>
<when >2025-08-04T14:20:38.500Z</when>
<when >2025-08-04T14:20:40.410Z</when>
<when >2025-08-04T14:20:43.810Z</when>
<when >2025-08-04T14:20:46.810Z</when>
<when >2025-08-04T14:20:53.650Z</when>
<when >2025-08-04T14:21:02.490Z</when>
<when >2025-08-04T14:21:09.310Z</when>
<when >2025-08-04T14:21:15.800Z</when>
<when >2025-08-04T14:21:19.390Z</when>
<when >2025-08-04T14:21:25.470Z</when>
<when >2025-08-04T14:21:27.790Z</when>
<when >2025-08-04T14:21:30.890Z</when>
<when >2025-08-04T14:21:33.880Z</when>
<when >2025-08-04T14:21:37.540Z</when>
<when >2025-08-04T14:21:45.960Z</when>
<when >2025-08-04T14:21:49.520Z</when>
<when >2025-08-04T14:21:56.130Z</when>
<when >2025-08-04T14:22:02.960Z</when>
<when >2025-08-04T14:22:06.410Z</when>
<when >2025-08-04T14:22:14.370Z</when>
<when >2025-08-04T14:22:18.800Z</when>
<when >2025-08-04T14:22:22.490Z</when>
<when >2025-08-04T14:22:27.050Z</when>
<when >2025-08-04T14:22:31.940Z</when>
<when >2025-08-04T14:22:34.980Z</when>
<when >2025-08-04T14:22:38.420Z</when>
<when >2025-08-04T14:22:42.260Z</when>
<when >2025-08-04T14:22:44.770Z</when>
<when >2025-08-04T14:22:47.370Z</when>
<when >2025-08-04T14:22:51.530Z</when>
<when >2025-08-04T14:22:54.360Z</when>
<when >2025-08-04T14:22:59.310Z</when>
<when >2025-08-04T14:23:06.220Z</when>
<when >2025-08-04T14:23:14.340Z</when>
<when >2025-08-04T14:23:21.390Z</when>
<when >2025-08-04T14:23:28.800Z</when>
<when >2025-08-04T14:23:36.550Z</when>
<when >2025-08-04T14:23:45.760Z</when>
<when >2025-08-04T14:23:48.040Z</when>
<when >2025-08-04T14:23:52.890Z</when>
<when >2025-08-04T14:23:54.960Z</when>
<when >2025-08-04T14:23:57.220Z</when>
<when >2025-08-04T14:24:00.830Z</when>
<when >2025-08-04T14:24:03.470Z</when>
<when >2025-08-04T14:24:07.830Z</when>
<when >2025-08-04T14:24:13.580Z</when>
<when >2025-08-04T14:24:18.170Z</when>
<when >2025-08-04T14:24:24.860Z</when>
<when >2025-08-04T14:24:30.920Z</when>
<when >2025-08-04T14:24:36.560Z</when>
<when >2025-08-04T14:24:40.280Z</when>
<when >2025-08-04T14:24:44.300Z</when>
<when >2025-08-04T14:24:48.870Z</when>
<when >2025-08-04T14:25:19.830Z</when>
<when >2025-08-04T14:25:23.220Z</when>
<when >2025-08-04T14:25:27.210Z</when>
<when >2025-08-04T14:25:31.860Z</when>
<when >2025-08-04T14:25:33.180Z</when>
<when >2025-08-04T14:25:34.780Z</when>
<when >2025-08-04T14:25:36.620Z</when>
<when >2025-08-04T14:25:36.620Z</when>
<gx:coord >20.96882 52.16937 0</gx:coord>
<gx:coord >20.96882 52.16937 0</gx:coord>
<gx:coord >20.968819 52.169369 0</gx:coord>
<gx:coord >20.96882 52.16937 0</gx:coord>
<gx:coord >20.968819 52.169369 0</gx:coord>
<gx:coord >20.9688 52.169382 0</gx:coord>
<gx:coord >20.9688 52.16938 0</gx:coord>
<gx:coord >20.9688 52.169394 0</gx:coord>
<gx:coord >20.968704 52.16938 0</gx:coord>
<gx:coord >20.968604 52.16937 0</gx:coord>
<gx:coord >20.968486 52.169347 0</gx:coord>
<gx:coord >20.968361 52.169312 0</gx:coord>
<gx:coord >20.968208 52.16922 0</gx:coord>
<gx:coord >20.96817 52.16914 0</gx:coord>
<gx:coord >20.968172 52.16908 0</gx:coord>
<gx:coord >20.968231 52.16901 0</gx:coord>
<gx:coord >20.968266 52.16898 0</gx:coord>
<gx:coord >20.968349 52.168917 0</gx:coord>
<gx:coord >20.968447 52.168824 0</gx:coord>
<gx:coord >20.968722 52.168498 0</gx:coord>
<gx:coord >20.969016 52.16816 0</gx:coord>
<gx:coord >20.969349 52.167788 0</gx:coord>
<gx:coord >20.96962 52.167469 0</gx:coord>
<gx:coord >20.969879 52.167171 0</gx:coord>
<gx:coord >20.970173 52.166851 0</gx:coord>
<gx:coord >20.970287 52.166748 0</gx:coord>
<gx:coord >20.970497 52.166645 0</gx:coord>
<gx:coord >20.970723 52.166589 0</gx:coord>
<gx:coord >20.970919 52.166542 0</gx:coord>
<gx:coord >20.971586 52.166356 0</gx:coord>
<gx:coord >20.972118 52.166199 0</gx:coord>
<gx:coord >20.972763 52.166019 0</gx:coord>
<gx:coord >20.973415 52.165833 0</gx:coord>
<gx:coord >20.973721 52.165741 0</gx:coord>
<gx:coord >20.974369 52.165558 0</gx:coord>
<gx:coord >20.975037 52.165375 0</gx:coord>
<gx:coord >20.975628 52.165215 0</gx:coord>
<gx:coord >20.976196 52.165053 0</gx:coord>
<gx:coord >20.976844 52.164867 0</gx:coord>
<gx:coord >20.977268 52.164745 0</gx:coord>
<gx:coord >20.97784 52.164585 0</gx:coord>
<gx:coord >20.977974 52.164539 0</gx:coord>
<gx:coord >20.978609 52.164366 0</gx:coord>
<gx:coord >20.979257 52.164192 0</gx:coord>
<gx:coord >20.979862 52.164024 0</gx:coord>
<gx:coord >20.980244 52.16391 0</gx:coord>
<gx:coord >20.980905 52.163726 0</gx:coord>
<gx:coord >20.98156 52.163544 0</gx:coord>
<gx:coord >20.982018 52.163406 0</gx:coord>
<gx:coord >20.982651 52.163226 0</gx:coord>
<gx:coord >20.98322 52.163063 0</gx:coord>
<gx:coord >20.983828 52.1629 0</gx:coord>
<gx:coord >20.984402 52.162731 0</gx:coord>
<gx:coord >20.984593 52.162644 0</gx:coord>
<gx:coord >20.98473 52.162457 0</gx:coord>
<gx:coord >20.984726 52.162388 0</gx:coord>
<gx:coord >20.984711 52.162306 0</gx:coord>
<gx:coord >20.98465 52.162193 0</gx:coord>
<gx:coord >20.984554 52.162062 0</gx:coord>
<gx:coord >20.984478 52.161964 0</gx:coord>
<gx:coord >20.984325 52.161758 0</gx:coord>
<gx:coord >20.984154 52.161507 0</gx:coord>
<gx:coord >20.983906 52.161175 0</gx:coord>
<gx:coord >20.983691 52.161049 0</gx:coord>
<gx:coord >20.983435 52.161131 0</gx:coord>
<gx:coord >20.983357 52.161177 0</gx:coord>
<gx:coord >20.983295 52.161209 0</gx:coord>
<gx:coord >20.983259 52.161224 0</gx:coord>
<gx:coord >20.983141 52.161259 0</gx:coord>
<gx:coord >20.982906 52.161317 0</gx:coord>
<gx:coord >20.982376 52.161468 0</gx:coord>
<gx:coord >20.98065 52.161945 0</gx:coord>
<gx:coord >20.980473 52.161999 0</gx:coord>
<gx:coord >20.979571 52.162248 0</gx:coord>
<gx:coord >20.978336 52.162594 0</gx:coord>
<gx:coord >20.978336 52.162594 0</gx:coord>
</gx:Track>
</Placemark>
<Placemark ><name >HA-LXJ</name>
<Style ><LineStyle ><color >ff1c1ae3</color>
<width >4</width>
</LineStyle>
<IconStyle ><Icon ><href >http://maps.google.com/mapfiles/kml/shapes/airports.png</href>
</Icon>
</IconStyle>
</Style>
<gx:Track ><altitudeMode >absolute</altitudeMode>
<extrude >1</extrude>
<when >2025-08-04T14:25:37.450Z</when>
<when >2025-08-04T14:25:38.600Z</when>
<when >2025-08-04T14:25:42.440Z</when>
<when >2025-08-04T14:25:44.390Z</when>
<when >2025-08-04T14:25:45.540Z</when>
<when >2025-08-04T14:25:49.470Z</when>
<when >2025-08-04T14:25:51.450Z</when>
<when >2025-08-04T14:25:52.370Z</when>
<when >2025-08-04T14:25:53.170Z</when>
<when >2025-08-04T14:25:54.960Z</when>
<when >2025-08-04T14:25:57.070Z</when>
<when >2025-08-04T14:25:59.540Z</when>
<when >2025-08-04T14:26:01.080Z</when>
<when >2025-08-04T14:26:01.870Z</when>
<when >2025-08-04T14:26:03.400Z</when>
<when >2025-08-04T14:26:05.940Z</when>
<when >2025-08-04T14:26:07.790Z</when>
<when >2025-08-04T14:26:09.880Z</when>
<when >2025-08-04T14:26:12.070Z</when>
<when >2025-08-04T14:26:15.630Z</when>
<when >2025-08-04T14:26:16.090Z</when>
<when >2025-08-04T14:26:17.600Z</when>
<when >2025-08-04T14:26:19.670Z</when>
<when >2025-08-04T14:26:21.750Z</when>
<when >2025-08-04T14:26:23.020Z</when>
<when >2025-08-04T14:26:24.790Z</when>
<when >2025-08-04T14:26:26.280Z</when>
<when >2025-08-04T14:26:28.060Z</when>
<when >2025-08-04T14:26:29.490Z</when>
<when >2025-08-04T14:26:31.410Z</when>
<when >2025-08-04T14:26:33.460Z</when>
<when >2025-08-04T14:26:35.750Z</when>
<when >2025-08-04T14:26:37.740Z</when>
<when >2025-08-04T14:26:40.920Z</when>
<when >2025-08-04T14:26:44.220Z</when>
<when >2025-08-04T14:26:47.870Z</when>
<when >2025-08-04T14:26:50.990Z</when>
<when >2025-08-04T14:26:53.670Z</when>
<when >2025-08-04T14:26:55.800Z</when>
<when >2025-08-04T14:26:58.450Z</when>
<when >2025-08-04T14:27:02.300Z</when>
<when >2025-08-04T14:27:04.670Z</when>
<when >2025-08-04T14:27:07.940Z</when>
<when >2025-08-04T14:27:10.210Z</when>
<when >2025-08-04T14:27:13.810Z</when>
<when >2025-08-04T14:27:16.560Z</when>
<when >2025-08-04T14:27:18.520Z</when>
<when >2025-08-04T14:27:19.940Z</when>
<when >2025-08-04T14:27:21.380Z</when>
<when >2025-08-04T14:27:24.650Z</when>
<when >2025-08-04T14:27:29.180Z</when>
<when >2025-08-04T14:27:33.910Z</when>
<when >2025-08-04T14:27:36.790Z</when>
<when >2025-08-04T14:27:41.500Z</when>
<when >2025-08-04T14:27:44.970Z</when>
<when >2025-08-04T14:27:45.940Z</when>
<when >2025-08-04T14:27:48.930Z</when>
<when >2025-08-04T14:27:52.650Z</when>
<when >2025-08-04T14:27:56.410Z</when>
<when >2025-08-04T14:27:59.040Z</when>
<when >2025-08-04T14:28:02.520Z</when>
<when >2025-08-04T14:28:05.190Z</when>
<when >2025-08-04T14:28:06.960Z</when>
<when >2025-08-04T14:28:09.520Z</when>
<when >2025-08-04T14:28:10.380Z</when>
<when >2025-08-04T14:28:15.600Z</when>
<when >2025-08-04T14:28:17.890Z</when>
<when >2025-08-04T14:28:18.770Z</when>
<when >2025-08-04T14:28:21.870Z</when>
<when >2025-08-04T14:28:25.490Z</when>
<when >2025-08-04T14:28:27.110Z</when>
<when >2025-08-04T14:28:31.440Z</when>
<when >2025-08-04T14:28:37.070Z</when>
<when >2025-08-04T14:28:44.050Z</when>
<when >2025-08-04T14:28:48.660Z</when>
<when >2025-08-04T14:28:51.880Z</when>
<when >2025-08-04T14:28:55.390Z</when>
<when >2025-08-04T14:28:57.970Z</when>
<when >2025-08-04T14:29:00.010Z</when>
<when >2025-08-04T14:29:02.550Z</when>
<when >2025-08-04T14:29:03.940Z</when>
<when >2025-08-04T14:29:05.960Z</when>
<when >2025-08-04T14:29:08.270Z</when>
<when >2025-08-04T14:29:09.720Z</when>
<when >2025-08-04T14:29:12.100Z</when>
<when >2025-08-04T14:29:12.710Z</when>
<when >2025-08-04T14:29:15.370Z</when>
<when >2025-08-04T14:29:16.020Z</when>
<when >2025-08-04T14:29:18.240Z</when>
<when >2025-08-04T14:29:19.750Z</when>
<when >2025-08-04T14:29:21.300Z</when>
<when >2025-08-04T14:29:23.130Z</when>
<when >2025-08-04T14:29:24.890Z</when>
<when >2025-08-04T14:29:27.180Z</when>
<when >2025-08-04T14:29:29.020Z</when>
<when >2025-08-04T14:29:33.310Z</when>
<when >2025-08-04T14:29:37.280Z</when>
<when >2025-08-04T14:29:41.950Z</when>
<when >2025-08-04T14:29:46.360Z</when>
<when >2025-08-04T14:29:49.840Z</when>
<when >2025-08-04T14:29:54.000Z</when>
<when >2025-08-04T14:29:57.790Z</when>
<when >2025-08-04T14:30:02.070Z</when>
<when >2025-08-04T14:30:06.900Z</when>
<when >2025-08-04T14:30:11.890Z</when>
<when >2025-08-04T14:30:16.360Z</when>
<when >2025-08-04T14:30:20.630Z</when>
<when >2025-08-04T14:30:26.190Z</when>
<when >2025-08-04T14:30:31.320Z</when>
<when >2025-08-04T14:30:36.610Z</when>
<when >2025-08-04T14:30:41.720Z</when>
<when >2025-08-04T14:30:43.950Z</when>
<when >2025-08-04T14:30:47.670Z</when>
<when >2025-08-04T14:30:53.860Z</when>
<when >2025-08-04T14:31:01.130Z</when>
<when >2025-08-04T14:31:08.570Z</when>
<when >2025-08-04T14:31:15.370Z</when>
<when >2025-08-04T14:31:19.210Z</when>
<when >2025-08-04T14:31:24.540Z</when>
<when >2025-08-04T14:31:30.130Z</when>
<when >2025-08-04T14:31:36.240Z</when>
<when >2025-08-04T14:31:42.080Z</when>
<when >2025-08-04T14:31:47.580Z</when>
<when >2025-08-04T14:31:49.530Z</when>
<when >2025-08-04T14:31:57.730Z</when>
<when >2025-08-04T14:32:04.480Z</when>
<when >2025-08-04T14:32:14.570Z</when>
<when >2025-08-04T14:32:23.800Z</when>
<when >2025-08-04T14:32:33.150Z</when>
<when >2025-08-04T14:32:41.790Z</when>
<when >2025-08-04T14:32:50.940Z</when>
<when >2025-08-04T14:33:00.740Z</when>
<when >2025-08-04T14:33:11.530Z</when>
<when >2025-08-04T14:33:16.360Z</when>
<when >2025-08-04T14:33:28.630Z</when>
<when >2025-08-04T14:33:36.280Z</when>
<when >2025-08-04T14:33:47.210Z</when>
<when >2025-08-04T14:33:57.600Z</when>
<when >2025-08-04T14:34:08.160Z</when>
<when >2025-08-04T14:34:19.440Z</when>
<when >2025-08-04T14:34:30.760Z</when>
<when >2025-08-04T14:34:42.730Z</when>
<when >2025-08-04T14:34:54.310Z</when>
<when >2025-08-04T14:35:05.720Z</when>
<when >2025-08-04T14:35:17.220Z</when>
<when >2025-08-04T14:35:28.760Z</when>
<when >2025-08-04T14:35:39.800Z</when>
<when >2025-08-04T14:35:51.330Z</when>
<when >2025-08-04T14:36:03.730Z</when>
<when >2025-08-04T14:36:16.220Z</when>
<when >2025-08-04T14:36:27.770Z</when>
<when >2025-08-04T14:36:39.470Z</when>
<when >2025-08-04T14:36:50.210Z</when>
<when >2025-08-04T14:37:00.820Z</when>
<when >2025-08-04T14:37:13.160Z</when>
<when >2025-08-04T14:37:27.010Z</when>
<when >2025-08-04T14:37:40.470Z</when>
<when >2025-08-04T14:37:53.000Z</when>
<when >2025-08-04T14:38:05.540Z</when>
<when >2025-08-04T14:38:18.920Z</when>
<when >2025-08-04T14:38:32.290Z</when>
<when >2025-08-04T14:38:45.980Z</when>
<when >2025-08-04T14:38:58.920Z</when>
<when >2025-08-04T14:39:12.820Z</when>
<when >2025-08-04T14:39:26.560Z</when>
<when >2025-08-04T14:39:40.810Z</when>
<when >2025-08-04T14:39:53.530Z</when>
<when >2025-08-04T14:40:07.050Z</when>
<when >2025-08-04T14:40:23.270Z</when>
<when >2025-08-04T14:40:37.880Z</when>
<when >2025-08-04T14:40:52.220Z</when>
<when >2025-08-04T14:41:07.020Z</when>
<when >2025-08-04T14:41:20.580Z</when>
<when >2025-08-04T14:41:34.200Z</when>
<when >2025-08-04T14:41:49.030Z</when>
<when >2025-08-04T14:42:03.740Z</when>
<when >2025-08-04T14:42:18.340Z</when>
<when >2025-08-04T14:42:31.760Z</when>
<when >2025-08-04T14:42:46.940Z</when>
<when >2025-08-04T14:43:02.710Z</when>
<when >2025-08-04T14:43:19.170Z</when>
<when >2025-08-04T14:43:35.420Z</when>
<when >2025-08-04T14:43:53.510Z</when>
<when >2025-08-04T14:44:13.340Z</when>
<when >2025-08-04T14:44:26.990Z</when>
<when >2025-08-04T14:44:45.420Z</when>
<when >2025-08-04T14:45:05.110Z</when>
<when >2025-08-04T14:45:24.850Z</when>
<when >2025-08-04T14:45:41.920Z</when>
<when >2025-08-04T14:46:00.070Z</when>
<when >2025-08-04T14:46:19.800Z</when>
<when >2025-08-04T14:46:34.830Z</when>
<when >2025-08-04T14:46:47.680Z</when>
<when >2025-08-04T14:46:52.490Z</when>
<when >2025-08-04T14:47:12.460Z</when>
<when >2025-08-04T14:47:32.420Z</when>
<when >2025-08-04T14:47:52.040Z</when>
<when >2025-08-04T14:48:11.860Z</when>
<when >2025-08-04T14:48:30.180Z</when>
<when >2025-08-04T14:48:49.970Z</when>
<when >2025-08-04T14:49:01.440Z</when>
<when >2025-08-04T14:49:16.800Z</when>
<when >2025-08-04T14:49:32.640Z</when>
<when >2025-08-04T14:49:49.350Z</when>
<when >2025-08-04T14:50:05.470Z</when>
<when >2025-08-04T14:50:21.840Z</when>
<when >2025-08-04T14:50:37.210Z</when>
<when >2025-08-04T14:50:57.060Z</when>
<when >2025-08-04T14:51:16.990Z</when>
<when >2025-08-04T14:51:36.890Z</when>
<when >2025-08-04T14:51:56.540Z</when>
<when >2025-08-04T14:52:16.350Z</when>
<when >2025-08-04T14:52:36.120Z</when>
<when >2025-08-04T14:52:56.100Z</when>
<when >2025-08-04T14:53:15.900Z</when>
<when >2025-08-04T14:53:35.780Z</when>
<when >2025-08-04T14:53:55.640Z</when>
<when >2025-08-04T14:54:15.340Z</when>
<when >2025-08-04T14:54:34.960Z</when>
<when >2025-08-04T14:54:54.910Z</when>
<when >2025-08-04T14:55:14.490Z</when>
<when >2025-08-04T14:55:34.150Z</when>
<when >2025-08-04T14:55:53.750Z</when>
<when >2025-08-04T14:56:13.220Z</when>
<when >2025-08-04T14:56:32.830Z</when>
<when >2025-08-04T14:56:52.410Z</when>
<when >2025-08-04T14:57:12.010Z</when>
<when >2025-08-04T14:57:31.680Z</when>
<when >2025-08-04T14:57:51.340Z</when>
<when >2025-08-04T14:58:10.350Z</when>
<when >2025-08-04T14:58:30.060Z</when>
<when >2025-08-04T14:58:49.540Z</when>
<when >2025-08-04T14:59:09.260Z</when>
<when >2025-08-04T14:59:16.530Z</when>
<when >2025-08-04T14:59:22.500Z</when>
<when >2025-08-04T14:59:29.050Z</when>
<when >2025-08-04T14:59:47.520Z</when>
<when >2025-08-04T15:00:07.400Z</when>
<when >2025-08-04T15:00:27.220Z</when>
<when >2025-08-04T15:00:46.710Z</when>
<when >2025-08-04T15:01:06.440Z</when>
<when >2025-08-04T15:01:26.260Z</when>
<when >2025-08-04T15:01:45.330Z</when>
<when >2025-08-04T15:02:05.330Z</when>
<when >2025-08-04T15:02:13.270Z</when>
<when >2025-08-04T15:02:18.610Z</when>
<when >2025-08-04T15:02:23.320Z</when>
<when >2025-08-04T15:02:28.120Z</when>
<when >2025-08-04T15:02:32.800Z</when>
<when >2025-08-04T15:02:36.990Z</when>
<when >2025-08-04T15:02:42.780Z</when>
<when >2025-08-04T15:03:02.730Z</when>
<when >2025-08-04T15:03:22.470Z</when>
<when >2025-08-04T15:03:41.900Z</when>
<when >2025-08-04T15:04:01.650Z</when>
<when >2025-08-04T15:04:21.510Z</when>
<when >2025-08-04T15:04:41.030Z</when>
<when >2025-08-04T15:05:00.580Z</when>
<when >2025-08-04T15:05:20.360Z</when>
<when >2025-08-04T15:05:39.820Z</when>
<when >2025-08-04T15:05:59.390Z</when>
<when >2025-08-04T15:06:18.250Z</when>
<when >2025-08-04T15:06:38.170Z</when>
<when >2025-08-04T15:06:57.850Z</when>
<when >2025-08-04T15:07:17.780Z</when>
<when >2025-08-04T15:07:37.740Z</when>
<when >2025-08-04T15:07:57.360Z</when>
<when >2025-08-04T15:08:17.200Z</when>
<when >2025-08-04T15:08:36.910Z</when>
<when >2025-08-04T15:08:56.510Z</when>
<when >2025-08-04T15:09:15.420Z</when>
<when >2025-08-04T15:09:35.340Z</when>
<when >2025-08-04T15:09:55.000Z</when>
<when >2025-08-04T15:10:14.490Z</when>
<when >2025-08-04T15:10:34.350Z</when>
<when >2025-08-04T15:10:54.010Z</when>
<when >2025-08-04T15:11:13.400Z</when>
<when >2025-08-04T15:11:33.110Z</when>
<when >2025-08-04T15:11:52.700Z</when>
<when >2025-08-04T15:12:12.410Z</when>
<when >2025-08-04T15:12:32.000Z</when>
<when >2025-08-04T15:12:51.540Z</when>
<when >2025-08-04T15:13:11.540Z</when>
<when >2025-08-04T15:13:31.050Z</when>
<when >2025-08-04T15:13:51.000Z</when>
<when >2025-08-04T15:14:10.950Z</when>
<when >2025-08-04T15:14:30.340Z</when>
<when >2025-08-04T15:14:50.340Z</when>
<when >2025-08-04T15:15:09.760Z</when>
<when >2025-08-04T15:15:29.620Z</when>
<when >2025-08-04T15:15:49.610Z</when>
<when >2025-08-04T15:16:09.540Z</when>
<when >2025-08-04T15:16:29.400Z</when>
<when >2025-08-04T15:16:47.830Z</when>
<when >2025-08-04T15:17:07.730Z</when>
<when >2025-08-04T15:17:27.510Z</when>
<when >2025-08-04T15:17:47.070Z</when>
<when >2025-08-04T15:18:06.610Z</when>
<when >2025-08-04T15:18:26.120Z</when>
<when >2025-08-04T15:18:45.660Z</when>
<when >2025-08-04T15:19:05.650Z</when>
<when >2025-08-04T15:19:25.550Z</when>
<when >2025-08-04T15:19:45.220Z</when>
<when >2025-08-04T15:20:05.030Z</when>
<when >2025-08-04T15:20:23.970Z</when>
<when >2025-08-04T15:20:43.090Z</when>
<when >2025-08-04T15:21:03.070Z</when>
<when >2025-08-04T15:21:22.250Z</when>
<when >2025-08-04T15:21:42.150Z</when>
<when >2025-08-04T15:22:02.020Z</when>
<when >2025-08-04T15:22:21.260Z</when>
<when >2025-08-04T15:22:40.990Z</when>
<when >2025-08-04T15:23:00.770Z</when>
<when >2025-08-04T15:23:20.710Z</when>
<when >2025-08-04T15:23:40.210Z</when>
<when >2025-08-04T15:23:59.890Z</when>
<when >2025-08-04T15:24:19.790Z</when>
<when >2025-08-04T15:24:39.340Z</when>
<when >2025-08-04T15:24:59.090Z</when>
<when >2025-08-04T15:25:18.930Z</when>
<when >2025-08-04T15:25:38.840Z</when>
<when >2025-08-04T15:25:58.500Z</when>
<when >2025-08-04T15:26:18.310Z</when>
<when >2025-08-04T15:26:37.730Z</when>
<when >2025-08-04T15:26:57.230Z</when>
<when >2025-08-04T15:27:16.820Z</when>
<when >2025-08-04T15:27:36.590Z</when>
<when >2025-08-04T15:27:56.450Z</when>
<when >2025-08-04T15:28:16.100Z</when>
<when >2025-08-04T15:28:35.040Z</when>
<when >2025-08-04T15:28:54.710Z</when>
<when >2025-08-04T15:29:14.370Z</when>
<when >2025-08-04T15:29:33.930Z</when>
<when >2025-08-04T15:29:53.900Z</when>
<when >2025-08-04T15:30:13.500Z</when>
<when >2025-08-04T15:30:32.720Z</when>
<when >2025-08-04T15:30:52.580Z</when>
<when >2025-08-04T15:31:12.170Z</when>
<when >2025-08-04T15:31:32.050Z</when>
<when >2025-08-04T15:31:51.620Z</when>
<when >2025-08-04T15:32:11.380Z</when>
<when >2025-08-04T15:32:30.750Z</when>
<when >2025-08-04T15:32:50.010Z</when>
<when >2025-08-04T15:33:09.750Z</when>
<when >2025-08-04T15:33:29.090Z</when>
<when >2025-08-04T15:33:48.880Z</when>
<when >2025-08-04T15:34:08.220Z</when>
<when >2025-08-04T15:34:27.650Z</when>
<when >2025-08-04T15:34:47.480Z</when>
<when >2025-08-04T15:35:06.620Z</when>
<when >2025-08-04T15:35:26.560Z</when>
<when >2025-08-04T15:35:46.020Z</when>
<when >2025-08-04T15:36:05.990Z</when>
<when >2025-08-04T15:36:25.760Z</when>
<when >2025-08-04T15:36:45.700Z</when>
<when >2025-08-04T15:37:04.980Z</when>
<when >2025-08-04T15:37:24.880Z</when>
<when >2025-08-04T15:37:43.930Z</when>
<when >2025-08-04T15:38:03.910Z</when>
<when >2025-08-04T15:38:23.520Z</when>
<when >2025-08-04T15:38:43.200Z</when>
<when >2025-08-04T15:39:03.040Z</when>
<when >2025-08-04T15:39:21.280Z</when>
<when >2025-08-04T15:39:27.180Z</when>
<when >2025-08-04T15:39:32.420Z</when>
<when >2025-08-04T15:39:36.780Z</when>
<when >2025-08-04T15:39:43.250Z</when>
<when >2025-08-04T15:39:48.680Z</when>
<when >2025-08-04T15:40:08.610Z</when>
<when >2025-08-04T15:40:28.490Z</when>
<when >2025-08-04T15:40:47.660Z</when>
<when >2025-08-04T15:41:07.030Z</when>
<when >2025-08-04T15:41:26.260Z</when>
<when >2025-08-04T15:41:45.870Z</when>
<when >2025-08-04T15:42:05.200Z</when>
<when >2025-08-04T15:42:24.740Z</when>
<when >2025-08-04T15:42:43.650Z</when>
<when >2025-08-04T15:43:02.260Z</when>
<when >2025-08-04T15:43:21.820Z</when>
<when >2025-08-04T15:43:41.390Z</when>
<when >2025-08-04T15:44:01.070Z</when>
<when >2025-08-04T15:44:19.680Z</when>
<when >2025-08-04T15:44:39.660Z</when>
<when >2025-08-04T15:44:58.150Z</when>
<when >2025-08-04T15:45:17.630Z</when>
<when >2025-08-04T15:45:37.350Z</when>
<when >2025-08-04T15:45:56.490Z</when>
<when >2025-08-04T15:46:15.350Z</when>
<when >2025-08-04T15:46:35.060Z</when>
<when >2025-08-04T15:46:53.870Z</when>
<when >2025-08-04T15:47:11.810Z</when>
<when >2025-08-04T15:47:31.780Z</when>
<when >2025-08-04T15:47:51.010Z</when>
<when >2025-08-04T15:48:09.900Z</when>
<when >2025-08-04T15:48:29.700Z</when>
<when >2025-08-04T15:48:49.490Z</when>
<when >2025-08-04T15:49:08.620Z</when>
<when >2025-08-04T15:49:28.200Z</when>
<when >2025-08-04T15:49:47.500Z</when>
<when >2025-08-04T15:50:06.430Z</when>
<when >2025-08-04T15:50:24.930Z</when>
<when >2025-08-04T15:50:44.250Z</when>
<when >2025-08-04T15:51:03.570Z</when>
<when >2025-08-04T15:51:23.430Z</when>
<when >2025-08-04T15:51:42.580Z</when>
<when >2025-08-04T15:52:02.420Z</when>
<when >2025-08-04T15:52:22.140Z</when>
<when >2025-08-04T15:52:41.810Z</when>
<when >2025-08-04T15:53:01.310Z</when>
<when >2025-08-04T15:53:21.180Z</when>
<when >2025-08-04T15:53:40.840Z</when>
<when >2025-08-04T15:54:00.690Z</when>
<when >2025-08-04T15:54:20.050Z</when>
<when >2025-08-04T15:54:39.560Z</when>
<when >2025-08-04T15:54:58.990Z</when>
<when >2025-08-04T15:55:18.560Z</when>
<when >2025-08-04T15:55:37.850Z</when>
<when >2025-08-04T15:55:57.140Z</when>
<when >2025-08-04T15:56:17.010Z</when>
<when >2025-08-04T15:56:36.680Z</when>
<when >2025-08-04T15:56:56.590Z</when>
<when >2025-08-04T15:57:16.170Z</when>
<when >2025-08-04T15:57:35.800Z</when>
<when >2025-08-04T15:57:55.600Z</when>
<when >2025-08-04T15:58:15.350Z</when>
<when >2025-08-04T15:58:34.970Z</when>
<when >2025-08-04T15:58:54.670Z</when>
<when >2025-08-04T15:59:14.620Z</when>
<when >2025-08-04T15:59:34.370Z</when>
<when >2025-08-04T15:59:54.210Z</when>
<when >2025-08-04T16:00:13.770Z</when>
<when >2025-08-04T16:00:33.650Z</when>
<when >2025-08-04T16:00:53.370Z</when>
<when >2025-08-04T16:01:12.410Z</when>
<when >2025-08-04T16:01:31.520Z</when>
<when >2025-08-04T16:01:42.830Z</when>
<when >2025-08-04T16:01:50.950Z</when>
<when >2025-08-04T16:02:05.450Z</when>
<when >2025-08-04T16:02:25.190Z</when>
<when >2025-08-04T16:02:44.420Z</when>
<when >2025-08-04T16:03:04.340Z</when>
<when >2025-08-04T16:03:23.960Z</when>
<when >2025-08-04T16:03:43.920Z</when>
<when >2025-08-04T16:04:03.310Z</when>
<when >2025-08-04T16:04:22.590Z</when>
<when >2025-08-04T16:04:42.360Z</when>
<when >2025-08-04T16:05:02.340Z</when>
<when >2025-08-04T16:05:21.380Z</when>
<when >2025-08-04T16:05:40.380Z</when>
<when >2025-08-04T16:06:00.140Z</when>
<when >2025-08-04T16:06:18.940Z</when>
<when >2025-08-04T16:06:38.760Z</when>
<when >2025-08-04T16:06:57.960Z</when>
<when >2025-08-04T16:07:17.920Z</when>
<when >2025-08-04T16:07:37.820Z</when>
<when >2025-08-04T16:07:56.720Z</when>
<when >2025-08-04T16:08:15.970Z</when>
<when >2025-08-04T16:08:35.900Z</when>
<when >2025-08-04T16:08:53.090Z</when>
<when >2025-08-04T16:09:13.040Z</when>
<when >2025-08-04T16:09:32.940Z</when>
<when >2025-08-04T16:09:52.200Z</when>
<when >2025-08-04T16:10:10.970Z</when>
<when >2025-08-04T16:10:30.440Z</when>
<when >2025-08-04T16:10:49.700Z</when>
<when >2025-08-04T16:11:07.390Z</when>
<when >2025-08-04T16:11:26.110Z</when>
<when >2025-08-04T16:11:45.050Z</when>
<when >2025-08-04T16:12:04.430Z</when>
<when >2025-08-04T16:12:24.230Z</when>
<when >2025-08-04T16:12:42.920Z</when>
<when >2025-08-04T16:13:00.820Z</when>
<when >2025-08-04T16:13:20.410Z</when>
<when >2025-08-04T16:13:39.430Z</when>
<when >2025-08-04T16:13:59.110Z</when>
<when >2025-08-04T16:14:16.790Z</when>
<when >2025-08-04T16:14:36.790Z</when>
<when >2025-08-04T16:14:56.230Z</when>
<when >2025-08-04T16:15:15.860Z</when>
<when >2025-08-04T16:15:35.050Z</when>
<when >2025-08-04T16:15:54.260Z</when>
<when >2025-08-04T16:16:11.750Z</when>
<when >2025-08-04T16:16:30.940Z</when>
<when >2025-08-04T16:16:50.790Z</when>
<when >2025-08-04T16:17:08.680Z</when>
<when >2025-08-04T16:17:27.950Z</when>
<when >2025-08-04T16:17:47.540Z</when>
<when >2025-08-04T16:18:06.890Z</when>
<when >2025-08-04T16:18:25.380Z</when>
<when >2025-08-04T16:18:45.000Z</when>
<when >2025-08-04T16:19:04.610Z</when>
<when >2025-08-04T16:19:23.190Z</when>
<when >2025-08-04T16:19:41.740Z</when>
<when >2025-08-04T16:20:00.070Z</when>
<when >2025-08-04T16:20:17.960Z</when>
<when >2025-08-04T16:20:36.170Z</when>
<when >2025-08-04T16:20:54.000Z</when>
<when >2025-08-04T16:21:12.570Z</when>
<when >2025-08-04T16:21:30.820Z</when>
<when >2025-08-04T16:21:50.470Z</when>
<when >2025-08-04T16:22:09.960Z</when>
<when >2025-08-04T16:22:29.900Z</when>
<when >2025-08-04T16:22:49.820Z</when>
<when >2025-08-04T16:23:09.230Z</when>
<when >2025-08-04T16:23:28.750Z</when>
<when >2025-08-04T16:23:48.610Z</when>
<when >2025-08-04T16:24:06.860Z</when>
<when >2025-08-04T16:24:26.310Z</when>
<when >2025-08-04T16:24:36.550Z</when>
<when >2025-08-04T16:24:42.640Z</when>
<when >2025-08-04T16:24:45.130Z</when>
<when >2025-08-04T16:24:50.470Z</when>
<when >2025-08-04T16:24:54.950Z</when>
<when >2025-08-04T16:24:59.790Z</when>
<when >2025-08-04T16:25:04.880Z</when>
<when >2025-08-04T16:25:09.370Z</when>
<when >2025-08-04T16:25:19.340Z</when>
<when >2025-08-04T16:25:35.350Z</when>
<when >2025-08-04T16:25:51.250Z</when>
<when >2025-08-04T16:26:09.540Z</when>
<when >2025-08-04T16:26:25.150Z</when>
<when >2025-08-04T16:26:40.210Z</when>
<when >2025-08-04T16:26:54.320Z</when>
<when >2025-08-04T16:27:04.980Z</when>
<when >2025-08-04T16:27:11.110Z</when>
<when >2025-08-04T16:27:22.790Z</when>
<when >2025-08-04T16:27:36.540Z</when>
<when >2025-08-04T16:27:50.580Z</when>
<when >2025-08-04T16:28:04.030Z</when>
<when >2025-08-04T16:28:18.100Z</when>
<when >2025-08-04T16:28:23.350Z</when>
<when >2025-08-04T16:28:34.630Z</when>
<when >2025-08-04T16:28:46.570Z</when>
<when >2025-08-04T16:28:49.750Z</when>
<when >2025-08-04T16:29:05.160Z</when>
<when >2025-08-04T16:29:16.690Z</when>
<when >2025-08-04T16:29:27.560Z</when>
<when >2025-08-04T16:29:42.670Z</when>
<when >2025-08-04T16:29:55.120Z</when>
<when >2025-08-04T16:30:09.070Z</when>
<when >2025-08-04T16:30:21.580Z</when>
<when >2025-08-04T16:30:35.300Z</when>
<when >2025-08-04T16:30:49.310Z</when>
<when >2025-08-04T16:31:00.400Z</when>
<when >2025-08-04T16:31:12.780Z</when>
<when >2025-08-04T16:31:23.600Z</when>
<when >2025-08-04T16:31:35.600Z</when>
<when >2025-08-04T16:31:48.390Z</when>
<when >2025-08-04T16:32:01.310Z</when>
<when >2025-08-04T16:32:14.820Z</when>
<when >2025-08-04T16:32:26.100Z</when>
<when >2025-08-04T16:32:37.870Z</when>
<when >2025-08-04T16:32:50.370Z</when>
<when >2025-08-04T16:33:03.310Z</when>
<when >2025-08-04T16:33:05.420Z</when>
<when >2025-08-04T16:33:22.940Z</when>
<when >2025-08-04T16:33:36.320Z</when>
<when >2025-08-04T16:33:49.550Z</when>
<when >2025-08-04T16:34:02.030Z</when>
<when >2025-08-04T16:34:14.710Z</when>
<when >2025-08-04T16:34:25.640Z</when>
<when >2025-08-04T16:34:38.400Z</when>
<when >2025-08-04T16:34:51.160Z</when>
<when >2025-08-04T16:35:04.110Z</when>
<when >2025-08-04T16:35:16.930Z</when>
<when >2025-08-04T16:35:30.480Z</when>
<when >2025-08-04T16:35:44.380Z</when>
<when >2025-08-04T16:35:58.180Z</when>
<when >2025-08-04T16:36:12.150Z</when>
<when >2025-08-04T16:36:19.430Z</when>
<when >2025-08-04T16:36:31.520Z</when>
<when >2025-08-04T16:36:45.360Z</when>
<when >2025-08-04T16:36:58.000Z</when>
<when >2025-08-04T16:37:11.650Z</when>
<when >2025-08-04T16:37:23.820Z</when>
<when >2025-08-04T16:37:37.460Z</when>
<when >2025-08-04T16:37:53.790Z</when>
<when >2025-08-04T16:38:10.630Z</when>
<when >2025-08-04T16:38:25.950Z</when>
<when >2025-08-04T16:38:41.860Z</when>
<when >2025-08-04T16:38:59.430Z</when>
<when >2025-08-04T16:39:15.900Z</when>
<when >2025-08-04T16:39:31.960Z</when>
<when >2025-08-04T16:39:48.260Z</when>
<when >2025-08-04T16:40:05.110Z</when>
<when >2025-08-04T16:40:21.040Z</when>
<when >2025-08-04T16:40:39.810Z</when>
<when >2025-08-04T16:40:50.080Z</when>
<when >2025-08-04T16:41:02.420Z</when>
<when >2025-08-04T16:41:15.440Z</when>
<when >2025-08-04T16:41:28.200Z</when>
<when >2025-08-04T16:41:35.920Z</when>
<when >2025-08-04T16:41:44.090Z</when>
<when >2025-08-04T16:41:52.930Z</when>
<when >2025-08-04T16:42:01.590Z</when>
<when >2025-08-04T16:42:09.660Z</when>
<when >2025-08-04T16:42:16.610Z</when>
<when >2025-08-04T16:42:23.130Z</when>
<when >2025-08-04T16:42:32.000Z</when>
<when >2025-08-04T16:42:39.880Z</when>
<when >2025-08-04T16:42:48.670Z</when>
<when >2025-08-04T16:42:56.100Z</when>
<when >2025-08-04T16:43:03.630Z</when>
<when >2025-08-04T16:43:12.360Z</when>
<when >2025-08-04T16:43:19.880Z</when>
<when >2025-08-04T16:43:28.450Z</when>
<when >2025-08-04T16:43:36.750Z</when>
<when >2025-08-04T16:43:45.030Z</when>
<when >2025-08-04T16:43:52.910Z</when>
<when >2025-08-04T16:44:00.110Z</when>
<when >2025-08-04T16:44:07.570Z</when>
<when >2025-08-04T16:44:14.710Z</when>
<when >2025-08-04T16:44:22.020Z</when>
<when >2025-08-04T16:44:29.860Z</when>
<when >2025-08-04T16:44:37.060Z</when>
<when >2025-08-04T16:44:45.700Z</when>
<when >2025-08-04T16:44:54.120Z</when>
<when >2025-08-04T16:45:02.770Z</when>
<when >2025-08-04T16:45:12.210Z</when>
<when >2025-08-04T16:45:19.650Z</when>
<when >2025-08-04T16:45:23.420Z</when>
<when >2025-08-04T16:45:27.610Z</when>
<when >2025-08-04T16:45:32.750Z</when>
<when >2025-08-04T16:45:36.180Z</when>
<when >2025-08-04T16:45:40.320Z</when>
<when >2025-08-04T16:45:44.840Z</when>
<when >2025-08-04T16:45:50.450Z</when>
<when >2025-08-04T16:45:53.830Z</when>
<when >2025-08-04T16:45:56.590Z</when>
<when >2025-08-04T16:46:01.240Z</when>
<when >2025-08-04T16:46:05.140Z</when>
<when >2025-08-04T16:46:09.900Z</when>
<when >2025-08-04T16:46:13.520Z</when>
<when >2025-08-04T16:46:18.080Z</when>
<when >2025-08-04T16:46:22.860Z</when>
<when >2025-08-04T16:46:28.070Z</when>
<when >2025-08-04T16:46:33.550Z</when>
<when >2025-08-04T16:46:38.610Z</when>
<when >2025-08-04T16:46:42.460Z</when>
<when >2025-08-04T16:46:45.240Z</when>
<when >2025-08-04T16:46:49.720Z</when>
<when >2025-08-04T16:46:55.030Z</when>
<when >2025-08-04T16:46:59.560Z</when>
<when >2025-08-04T16:47:07.350Z</when>
<when >2025-08-04T16:47:13.770Z</when>
<when >2025-08-04T16:47:18.080Z</when>
<when >2025-08-04T16:47:22.760Z</when>
<when >2025-08-04T16:47:26.320Z</when>
<when >2025-08-04T16:47:30.520Z</when>
<when >2025-08-04T16:47:34.580Z</when>
<when >2025-08-04T16:47:40.070Z</when>
<when >2025-08-04T16:47:46.400Z</when>
<when >2025-08-04T16:47:49.930Z</when>
<when >2025-08-04T16:47:52.520Z</when>
<when >2025-08-04T16:47:55.220Z</when>
<when >2025-08-04T16:47:57.380Z</when>
<when >2025-08-04T16:48:00.460Z</when>
<when >2025-08-04T16:48:03.090Z</when>
<when >2025-08-04T16:48:06.430Z</when>
<when >2025-08-04T16:48:09.240Z</when>
<when >2025-08-04T16:48:14.330Z</when>
<when >2025-08-04T16:48:17.120Z</when>
<when >2025-08-04T16:48:21.930Z</when>
<when >2025-08-04T16:48:30.110Z</when>
<when >2025-08-04T16:48:37.010Z</when>
<when >2025-08-04T16:48:42.130Z</when>
<when >2025-08-04T16:48:46.470Z</when>
<when >2025-08-04T16:48:48.090Z</when>
<when >2025-08-04T16:48:51.520Z</when>
<when >2025-08-04T16:48:53.040Z</when>
<when >2025-08-04T16:48:55.790Z</when>
<when >2025-08-04T16:48:57.740Z</when>
<when >2025-08-04T16:48:59.450Z</when>
<when >2025-08-04T16:49:03.120Z</when>
<when >2025-08-04T16:49:05.680Z</when>
<when >2025-08-04T16:49:09.560Z</when>
<when >2025-08-04T16:49:12.890Z</when>
<when >2025-08-04T16:49:16.500Z</when>
<when >2025-08-04T16:49:20.340Z</when>
<when >2025-08-04T16:49:24.360Z</when>
<when >2025-08-04T16:49:28.380Z</when>
<when >2025-08-04T16:49:32.430Z</when>
<when >2025-08-04T16:49:37.530Z</when>
<when >2025-08-04T16:49:42.720Z</when>
<when >2025-08-04T16:49:52.830Z</when>
<when >2025-08-04T16:50:11.590Z</when>
<when >2025-08-04T16:50:14.120Z</when>
<when >2025-08-04T16:50:16.360Z</when>
<when >2025-08-04T16:50:19.830Z</when>
<when >2025-08-04T16:50:21.600Z</when>
<when >2025-08-04T16:50:26.190Z</when>
<when >2025-08-04T16:50:32.310Z</when>
<when >2025-08-04T16:50:38.170Z</when>
<when >2025-08-04T16:50:44.210Z</when>
<when >2025-08-04T16:50:52.170Z</when>
<when >2025-08-04T16:50:58.240Z</when>
<when >2025-08-04T16:51:05.760Z</when>
<when >2025-08-04T16:51:12.540Z</when>
<when >2025-08-04T16:51:17.380Z</when>
<when >2025-08-04T16:51:22.890Z</when>
<when >2025-08-04T16:51:28.970Z</when>
<when >2025-08-04T16:51:32.560Z</when>
<when >2025-08-04T16:51:39.060Z</when>
<when >2025-08-04T16:51:45.110Z</when>
<when >2025-08-04T16:51:54.120Z</when>
<when >2025-08-04T16:52:01.190Z</when>
<when >2025-08-04T16:52:09.210Z</when>
<when >2025-08-04T16:52:17.090Z</when>
<when >2025-08-04T16:52:24.630Z</when>
<when >2025-08-04T16:52:33.970Z</when>
<when >2025-08-04T16:52:41.000Z</when>
<when >2025-08-04T16:52:50.590Z</when>
<when >2025-08-04T16:52:58.680Z</when>
<when >2025-08-04T16:53:07.390Z</when>
<when >2025-08-04T16:53:15.770Z</when>
<when >2025-08-04T16:53:23.990Z</when>
<when >2025-08-04T16:53:33.020Z</when>
<when >2025-08-04T16:53:41.380Z</when>
<when >2025-08-04T16:53:46.040Z</when>
<when >2025-08-04T16:53:52.090Z</when>
<when >2025-08-04T16:54:00.810Z</when>
<when >2025-08-04T16:54:03.880Z</when>
<when >2025-08-04T16:54:03.880Z</when>
<when >2025-08-04T16:54:09.210Z</when>
<when >2025-08-04T16:54:10.170Z</when>
<when >2025-08-04T16:54:12.310Z</when>
<when >2025-08-04T16:54:12.310Z</when>
<gx:coord >20.977766 52.16276 105</gx:coord>
<gx:coord >20.977402 52.162857 105</gx:coord>
<gx:coord >20.975804 52.163319 113</gx:coord>
<gx:coord >20.973685 52.163877 114</gx:coord>
<gx:coord >20.972214 52.164322 114</gx:coord>
<gx:coord >20.968977 52.165227 115</gx:coord>
<gx:coord >20.967636 52.165604 115</gx:coord>
<gx:coord >20.966644 52.165878 116</gx:coord>
<gx:coord >20.965131 52.166298 108</gx:coord>
<gx:coord >20.963484 52.166764 110</gx:coord>
<gx:coord >20.961208 52.167415 105</gx:coord>
<gx:coord >20.958304 52.168253 119</gx:coord>
<gx:coord >20.957206 52.168579 126</gx:coord>
<gx:coord >20.956185 52.168858 133</gx:coord>
<gx:coord >20.954538 52.169324 149</gx:coord>
<gx:coord >20.951556 52.170162 181</gx:coord>
<gx:coord >20.94928 52.17086 211</gx:coord>
<gx:coord >20.946808 52.171555 244</gx:coord>
<gx:coord >20.944493 52.17221 277</gx:coord>
<gx:coord >20.942374 52.172862 311</gx:coord>
<gx:coord >20.939941 52.17356 341</gx:coord>
<gx:coord >20.938263 52.174026 372</gx:coord>
<gx:coord >20.936175 52.174631 403</gx:coord>
<gx:coord >20.933977 52.175283 433</gx:coord>
<gx:coord >20.932408 52.175702 456</gx:coord>
<gx:coord >20.930634 52.176224 488</gx:coord>
<gx:coord >20.928879 52.176682 519</gx:coord>
<gx:coord >20.927229 52.177191 544</gx:coord>
<gx:coord >20.925581 52.177657 575</gx:coord>
<gx:coord >20.923386 52.178284 606</gx:coord>
<gx:coord >20.921735 52.178727 636</gx:coord>
<gx:coord >20.918989 52.179519 666</gx:coord>
<gx:coord >20.916977 52.180069 690</gx:coord>
<gx:coord >20.913773 52.180984 722</gx:coord>
<gx:coord >20.910263 52.181946 753</gx:coord>
<gx:coord >20.906355 52.182917 784</gx:coord>
<gx:coord >20.902588 52.183476 815</gx:coord>
<gx:coord >20.899506 52.183731 831</gx:coord>
<gx:coord >20.896988 52.183685 855</gx:coord>
<gx:coord >20.893936 52.183548 877</gx:coord>
<gx:coord >20.889816 52.18309 910</gx:coord>
<gx:coord >20.886459 52.182678 941</gx:coord>
<gx:coord >20.883102 52.182266 971</gx:coord>
<gx:coord >20.880144 52.1818 999</gx:coord>
<gx:coord >20.876535 52.181288 1034</gx:coord>
<gx:coord >20.873631 52.180869 1065</gx:coord>
<gx:coord >20.870884 52.180496 1095</gx:coord>
<gx:coord >20.869064 52.180206 1113</gx:coord>
<gx:coord >20.867386 52.179932 1120</gx:coord>
<gx:coord >20.863665 52.179379 1146</gx:coord>
<gx:coord >20.857697 52.178467 1178</gx:coord>
<gx:coord >20.8526 52.177657 1198</gx:coord>
<gx:coord >20.848127 52.176959 1215</gx:coord>
<gx:coord >20.842163 52.176027 1242</gx:coord>
<gx:coord >20.837708 52.175354 1258</gx:coord>
<gx:coord >20.836199 52.175096 1266</gx:coord>
<gx:coord >20.831985 52.174438 1283</gx:coord>
<gx:coord >20.826311 52.17356 1304</gx:coord>
<gx:coord >20.821075 52.172791 1330</gx:coord>
<gx:coord >20.817032 52.17215 1346</gx:coord>
<gx:coord >20.812108 52.171419 1362</gx:coord>
<gx:coord >20.807556 52.170721 1377</gx:coord>
<gx:coord >20.80481 52.170302 1385</gx:coord>
<gx:coord >20.800886 52.169743 1393</gx:coord>
<gx:coord >20.800018 52.169586 1393</gx:coord>
<gx:coord >20.790634 52.168259 1416</gx:coord>
<gx:coord >20.786761 52.167695 1431</gx:coord>
<gx:coord >20.786057 52.167572 1431</gx:coord>
<gx:coord >20.779933 52.166717 1453</gx:coord>
<gx:coord >20.773315 52.165787 1474</gx:coord>
<gx:coord >20.770645 52.165421 1483</gx:coord>
<gx:coord >20.762355 52.164296 1507</gx:coord>
<gx:coord >20.751918 52.162853 1537</gx:coord>
<gx:coord >20.740461 52.16127 1563</gx:coord>
<gx:coord >20.730181 52.159827 1598</gx:coord>
<gx:coord >20.724258 52.158783 1631</gx:coord>
<gx:coord >20.718079 52.157272 1660</gx:coord>
<gx:coord >20.713702 52.15587 1689</gx:coord>
<gx:coord >20.710406 52.154613 1722</gx:coord>
<gx:coord >20.706482 52.152878 1751</gx:coord>
<gx:coord >20.704422 52.151779 1774</gx:coord>
<gx:coord >20.701675 52.150177 1804</gx:coord>
<gx:coord >20.698853 52.148254 1835</gx:coord>
<gx:coord >20.696987 52.146932 1857</gx:coord>
<gx:coord >20.69519 52.145554 1888</gx:coord>
<gx:coord >20.693512 52.144272 1912</gx:coord>
<gx:coord >20.69118 52.142417 1948</gx:coord>
<gx:coord >20.689545 52.141113 1979</gx:coord>
<gx:coord >20.68718 52.139191 2009</gx:coord>
<gx:coord >20.685349 52.137772 2033</gx:coord>
<gx:coord >20.683646 52.136365 2063</gx:coord>
<gx:coord >20.68137 52.134503 2095</gx:coord>
<gx:coord >20.679252 52.132827 2127</gx:coord>
<gx:coord >20.67688 52.130905 2157</gx:coord>
<gx:coord >20.674622 52.129056 2188</gx:coord>
<gx:coord >20.669861 52.125229 2247</gx:coord>
<gx:coord >20.665126 52.121422 2308</gx:coord>
<gx:coord >20.65979 52.117081 2370</gx:coord>
<gx:coord >20.655365 52.11351 2428</gx:coord>
<gx:coord >20.650452 52.109504 2490</gx:coord>
<gx:coord >20.6459 52.105827 2544</gx:coord>
<gx:coord >20.64127 52.102056 2606</gx:coord>
<gx:coord >20.636012 52.097773 2671</gx:coord>
<gx:coord >20.630569 52.093414 2733</gx:coord>
<gx:coord >20.624695 52.088654 2791</gx:coord>
<gx:coord >20.619354 52.084305 2856</gx:coord>
<gx:coord >20.613861 52.079865 2922</gx:coord>
<gx:coord >20.607605 52.074875 2984</gx:coord>
<gx:coord >20.600891 52.069382 3041</gx:coord>
<gx:coord >20.594254 52.064026 3107</gx:coord>
<gx:coord >20.588379 52.059219 3168</gx:coord>
<gx:coord >20.586417 52.057645 3183</gx:coord>
<gx:coord >20.580368 52.052765 3222</gx:coord>
<gx:coord >20.572586 52.046402 3260</gx:coord>
<gx:coord >20.562897 52.038574 3313</gx:coord>
<gx:coord >20.552516 52.030226 3367</gx:coord>
<gx:coord >20.543178 52.022638 3428</gx:coord>
<gx:coord >20.537606 52.018122 3474</gx:coord>
<gx:coord >20.530243 52.012115 3535</gx:coord>
<gx:coord >20.522385 52.005707 3602</gx:coord>
<gx:coord >20.513687 51.998611 3663</gx:coord>
<gx:coord >20.505511 51.991913 3723</gx:coord>
<gx:coord >20.49736 51.985245 3794</gx:coord>
<gx:coord >20.494537 51.98291 3817</gx:coord>
<gx:coord >20.482712 51.973297 3954</gx:coord>
<gx:coord >20.472866 51.965239 4035</gx:coord>
<gx:coord >20.458269 51.953275 4150</gx:coord>
<gx:coord >20.44485 51.942289 4272</gx:coord>
<gx:coord >20.43129 51.931137 4402</gx:coord>
<gx:coord >20.418472 51.920609 4531</gx:coord>
<gx:coord >20.404986 51.909562 4661</gx:coord>
<gx:coord >20.390625 51.897785 4783</gx:coord>
<gx:coord >20.374591 51.884628 4883</gx:coord>
<gx:coord >20.367508 51.878791 4926</gx:coord>
<gx:coord >20.348587 51.86329 5011</gx:coord>
<gx:coord >20.336838 51.853653 5080</gx:coord>
<gx:coord >20.32003 51.839859 5210</gx:coord>
<gx:coord >20.303402 51.826172 5339</gx:coord>
<gx:coord >20.286865 51.812594 5469</gx:coord>
<gx:coord >20.269318 51.798116 5591</gx:coord>
<gx:coord >20.251366 51.783279 5697</gx:coord>
<gx:coord >20.232162 51.767485 5812</gx:coord>
<gx:coord >20.213508 51.75206 5933</gx:coord>
<gx:coord >20.194702 51.736481 6048</gx:coord>
<gx:coord >20.176544 51.721491 6161</gx:coord>
<gx:coord >20.157242 51.705524 6275</gx:coord>
<gx:coord >20.139201 51.690491 6397</gx:coord>
<gx:coord >20.120239 51.674753 6519</gx:coord>
<gx:coord >20.099858 51.657806 6626</gx:coord>
<gx:coord >20.079041 51.640491 6733</gx:coord>
<gx:coord >20.059699 51.62439 6847</gx:coord>
<gx:coord >20.040131 51.60809 6946</gx:coord>
<gx:coord >20.02236 51.593262 7083</gx:coord>
<gx:coord >20.00447 51.578339 7182</gx:coord>
<gx:coord >19.984205 51.561401 7289</gx:coord>
<gx:coord >19.960822 51.541946 7388</gx:coord>
<gx:coord >19.938404 51.523224 7487</gx:coord>
<gx:coord >19.916382 51.504791 7585</gx:coord>
<gx:coord >19.894978 51.486786 7692</gx:coord>
<gx:coord >19.87256 51.467972 7791</gx:coord>
<gx:coord >19.849177 51.448288 7882</gx:coord>
<gx:coord >19.82572 51.428604 7974</gx:coord>
<gx:coord >19.803314 51.409731 8080</gx:coord>
<gx:coord >19.778824 51.389062 8172</gx:coord>
<gx:coord >19.755051 51.369003 8271</gx:coord>
<gx:coord >19.730301 51.348049 8362</gx:coord>
<gx:coord >19.708099 51.329289 8469</gx:coord>
<gx:coord >19.684525 51.309318 8568</gx:coord>
<gx:coord >19.655654 51.284958 8651</gx:coord>
<gx:coord >19.629896 51.263168 8735</gx:coord>
<gx:coord >19.604509 51.241562 8826</gx:coord>
<gx:coord >19.578476 51.219426 8910</gx:coord>
<gx:coord >19.554105 51.198624 9001</gx:coord>
<gx:coord >19.530054 51.178162 9100</gx:coord>
<gx:coord >19.504166 51.156021 9177</gx:coord>
<gx:coord >19.477768 51.13349 9267</gx:coord>
<gx:coord >19.451752 51.111192 9358</gx:coord>
<gx:coord >19.428329 51.091081 9458</gx:coord>
<gx:coord >19.40141 51.067932 9541</gx:coord>
<gx:coord >19.373245 51.043691 9625</gx:coord>
<gx:coord >19.344482 51.019018 9709</gx:coord>
<gx:coord >19.315672 50.994186 9785</gx:coord>
<gx:coord >19.283142 50.966135 9853</gx:coord>
<gx:coord >19.247818 50.93555 9891</gx:coord>
<gx:coord >19.222717 50.913717 9929</gx:coord>
<gx:coord >19.189478 50.884872 9998</gx:coord>
<gx:coord >19.152882 50.853333 10050</gx:coord>
<gx:coord >19.116062 50.821472 10096</gx:coord>
<gx:coord >19.085312 50.79445 10172</gx:coord>
<gx:coord >19.050827 50.764145 10240</gx:coord>
<gx:coord >19.013845 50.731888 10309</gx:coord>
<gx:coord >18.985637 50.70726 10392</gx:coord>
<gx:coord >18.961883 50.686569 10469</gx:coord>
<gx:coord >18.953094 50.678907 10482</gx:coord>
<gx:coord >18.915566 50.64592 10506</gx:coord>
<gx:coord >18.877909 50.613007 10544</gx:coord>
<gx:coord >18.83992 50.58017 10567</gx:coord>
<gx:coord >18.801319 50.546792 10605</gx:coord>
<gx:coord >18.765299 50.515594 10673</gx:coord>
<gx:coord >18.726345 50.481852 10726</gx:coord>
<gx:coord >18.704007 50.462402 10772</gx:coord>
<gx:coord >18.673867 50.43631 10863</gx:coord>
<gx:coord >18.642834 50.40937 10947</gx:coord>
<gx:coord >18.610406 50.381287 11031</gx:coord>
<gx:coord >18.579069 50.354066 11115</gx:coord>
<gx:coord >18.547965 50.326879 11191</gx:coord>
<gx:coord >18.518468 50.301178 11252</gx:coord>
<gx:coord >18.48034 50.267758 11259</gx:coord>
<gx:coord >18.442185 50.234194 11258</gx:coord>
<gx:coord >18.403955 50.200723 11266</gx:coord>
<gx:coord >18.365429 50.167066 11258</gx:coord>
<gx:coord >18.327422 50.133688 11258</gx:coord>
<gx:coord >18.28855 50.099487 11266</gx:coord>
<gx:coord >18.249479 50.06493 11258</gx:coord>
<gx:coord >18.210995 50.030273 11266</gx:coord>
<gx:coord >18.172278 49.995334 11274</gx:coord>
<gx:coord >18.133368 49.960373 11280</gx:coord>
<gx:coord >18.094627 49.925629 11280</gx:coord>
<gx:coord >18.056609 49.891342 11265</gx:coord>
<gx:coord >18.018469 49.856795 11273</gx:coord>
<gx:coord >17.981294 49.823135 11273</gx:coord>
<gx:coord >17.943348 49.789032 11273</gx:coord>
<gx:coord >17.906304 49.755451 11273</gx:coord>
<gx:coord >17.869263 49.721561 11273</gx:coord>
<gx:coord >17.832039 49.687225 11273</gx:coord>
<gx:coord >17.795033 49.653305 11273</gx:coord>
<gx:coord >17.758434 49.619565 11265</gx:coord>
<gx:coord >17.721309 49.585419 11264</gx:coord>
<gx:coord >17.685167 49.552017 11256</gx:coord>
<gx:coord >17.648497 49.518034 11256</gx:coord>
<gx:coord >17.611662 49.483658 11256</gx:coord>
<gx:coord >17.575234 49.449463 11264</gx:coord>
<gx:coord >17.538335 49.41481 11264</gx:coord>
<gx:coord >17.523844 49.402631 11265</gx:coord>
<gx:coord >17.511123 49.393042 11265</gx:coord>
<gx:coord >17.496361 49.382812 11265</gx:coord>
<gx:coord >17.454247 49.355072 11273</gx:coord>
<gx:coord >17.408682 49.324677 11273</gx:coord>
<gx:coord >17.363328 49.294144 11280</gx:coord>
<gx:coord >17.318862 49.263999 11280</gx:coord>
<gx:coord >17.274029 49.233536 11280</gx:coord>
<gx:coord >17.228605 49.202637 11288</gx:coord>
<gx:coord >17.185002 49.172849 11280</gx:coord>
<gx:coord >17.13994 49.142029 11288</gx:coord>
<gx:coord >17.122192 49.129074 11288</gx:coord>
<gx:coord >17.111488 49.119919 11280</gx:coord>
<gx:coord >17.102755 49.111404 11280</gx:coord>
<gx:coord >17.094582 49.102323 11280</gx:coord>
<gx:coord >17.08721 49.09278 11280</gx:coord>
<gx:coord >17.081572 49.084447 11280</gx:coord>
<gx:coord >17.074374 49.072495 11280</gx:coord>
<gx:coord >17.050492 49.031144 11280</gx:coord>
<gx:coord >17.025845 48.990225 11280</gx:coord>
<gx:coord >17.001126 48.950004 11280</gx:coord>
<gx:coord >16.97619 48.909271 11288</gx:coord>
<gx:coord >16.950918 48.867828 11288</gx:coord>
<gx:coord >16.92639 48.827432 11296</gx:coord>
<gx:coord >16.901888 48.786978 11296</gx:coord>
<gx:coord >16.877096 48.746105 11296</gx:coord>
<gx:coord >16.852464 48.705185 11295</gx:coord>
<gx:coord >16.828453 48.664639 11295</gx:coord>
<gx:coord >16.804962 48.625395 11295</gx:coord>
<gx:coord >16.780137 48.584335 11287</gx:coord>
<gx:coord >16.755348 48.542999 11287</gx:coord>
<gx:coord >16.730804 48.501892 11287</gx:coord>
<gx:coord >16.705941 48.460042 11287</gx:coord>
<gx:coord >16.681727 48.419495 11287</gx:coord>
<gx:coord >16.656864 48.378296 11295</gx:coord>
<gx:coord >16.632578 48.337702 11302</gx:coord>
<gx:coord >16.608509 48.296829 11302</gx:coord>
<gx:coord >16.585764 48.257767 11295</gx:coord>
<gx:coord >16.56196 48.216797 11295</gx:coord>
<gx:coord >16.538156 48.176102 11295</gx:coord>
<gx:coord >16.514564 48.136131 11286</gx:coord>
<gx:coord >16.490831 48.096003 11286</gx:coord>
<gx:coord >16.466515 48.054703 11286</gx:coord>
<gx:coord >16.443649 48.015381 11278</gx:coord>
<gx:coord >16.420053 47.974641 11278</gx:coord>
<gx:coord >16.396477 47.934128 11286</gx:coord>
<gx:coord >16.372868 47.893547 11285</gx:coord>
<gx:coord >16.349373 47.853149 11293</gx:coord>
<gx:coord >16.325958 47.812729 11300</gx:coord>
<gx:coord >16.302162 47.771627 11300</gx:coord>
<gx:coord >16.278305 47.730377 11308</gx:coord>
<gx:coord >16.25441 47.688812 11315</gx:coord>
<gx:coord >16.230171 47.646606 11315</gx:coord>
<gx:coord >16.206757 47.605911 11323</gx:coord>
<gx:coord >16.182518 47.563705 11323</gx:coord>
<gx:coord >16.158829 47.522461 11322</gx:coord>
<gx:coord >16.13462 47.480257 11322</gx:coord>
<gx:coord >16.110214 47.437454 11314</gx:coord>
<gx:coord >16.086097 47.395252 11314</gx:coord>
<gx:coord >16.061668 47.352356 11330</gx:coord>
<gx:coord >16.039284 47.312897 11330</gx:coord>
<gx:coord >16.015182 47.270187 11330</gx:coord>
<gx:coord >15.991305 47.22785 11330</gx:coord>
<gx:coord >15.967667 47.185822 11322</gx:coord>
<gx:coord >15.94384 47.143661 11322</gx:coord>
<gx:coord >15.920219 47.101913 11322</gx:coord>
<gx:coord >15.896324 47.059433 11314</gx:coord>
<gx:coord >15.872086 47.016266 11307</gx:coord>
<gx:coord >15.848396 46.973465 11307</gx:coord>
<gx:coord >15.824327 46.930428 11314</gx:coord>
<gx:coord >15.800453 46.887879 11322</gx:coord>
<gx:coord >15.776985 46.845982 11314</gx:coord>
<gx:coord >15.754051 46.804784 11307</gx:coord>
<gx:coord >15.729742 46.761292 11322</gx:coord>
<gx:coord >15.706296 46.718811 11322</gx:coord>
<gx:coord >15.682983 46.676376 11314</gx:coord>
<gx:coord >15.658264 46.631749 11330</gx:coord>
<gx:coord >15.635086 46.589813 11330</gx:coord>
<gx:coord >15.611298 46.546745 11337</gx:coord>
<gx:coord >15.587677 46.503823 11337</gx:coord>
<gx:coord >15.564143 46.460953 11330</gx:coord>
<gx:coord >15.540362 46.417374 11330</gx:coord>
<gx:coord >15.516983 46.374619 11330</gx:coord>
<gx:coord >15.493469 46.331497 11322</gx:coord>
<gx:coord >15.470157 46.288879 11314</gx:coord>
<gx:coord >15.447179 46.246719 11314</gx:coord>
<gx:coord >15.423532 46.203323 11322</gx:coord>
<gx:coord >15.399951 46.159744 11314</gx:coord>
<gx:coord >15.376877 46.117207 11314</gx:coord>
<gx:coord >15.353595 46.074234 11276</gx:coord>
<gx:coord >15.330684 46.031754 11223</gx:coord>
<gx:coord >15.30784 45.989456 11185</gx:coord>
<gx:coord >15.284863 45.94693 11139</gx:coord>
<gx:coord >15.262086 45.904129 11093</gx:coord>
<gx:coord >15.239846 45.862152 11040</gx:coord>
<gx:coord >15.216868 45.819031 11025</gx:coord>
<gx:coord >15.195122 45.778633 11017</gx:coord>
<gx:coord >15.172454 45.736084 11017</gx:coord>
<gx:coord >15.150146 45.694061 11017</gx:coord>
<gx:coord >15.12804 45.652679 11025</gx:coord>
<gx:coord >15.104691 45.60895 11025</gx:coord>
<gx:coord >15.082443 45.567099 11025</gx:coord>
<gx:coord >15.060313 45.525295 11025</gx:coord>
<gx:coord >15.037929 45.48262 11017</gx:coord>
<gx:coord >15.016087 45.440781 11018</gx:coord>
<gx:coord >14.993256 45.397416 11018</gx:coord>
<gx:coord >14.971016 45.35524 11018</gx:coord>
<gx:coord >14.948306 45.312086 11011</gx:coord>
<gx:coord >14.926365 45.270401 11018</gx:coord>
<gx:coord >14.904227 45.228199 11018</gx:coord>
<gx:coord >14.881701 45.185074 11018</gx:coord>
<gx:coord >14.859813 45.143288 11026</gx:coord>
<gx:coord >14.836775 45.099197 11026</gx:coord>
<gx:coord >14.814017 45.055344 11027</gx:coord>
<gx:coord >14.791194 45.011353 11027</gx:coord>
<gx:coord >14.768774 44.968112 11027</gx:coord>
<gx:coord >14.746533 44.924865 11027</gx:coord>
<gx:coord >14.723118 44.879425 11027</gx:coord>
<gx:coord >14.700042 44.834507 11027</gx:coord>
<gx:coord >14.67693 44.78977 11035</gx:coord>
<gx:coord >14.653604 44.744385 11035</gx:coord>
<gx:coord >14.630977 44.700119 11035</gx:coord>
<gx:coord >14.608065 44.655141 11043</gx:coord>
<gx:coord >14.585135 44.610397 11035</gx:coord>
<gx:coord >14.562509 44.56636 11043</gx:coord>
<gx:coord >14.539869 44.522095 11044</gx:coord>
<gx:coord >14.516557 44.47652 11052</gx:coord>
<gx:coord >14.493512 44.431085 11036</gx:coord>
<gx:coord >14.47087 44.386395 11036</gx:coord>
<gx:coord >14.450226 44.345535 11036</gx:coord>
<gx:coord >14.444275 44.33151 11029</gx:coord>
<gx:coord >14.440323 44.320384 11029</gx:coord>
<gx:coord >14.437107 44.309584 11036</gx:coord>
<gx:coord >14.434008 44.295776 11035</gx:coord>
<gx:coord >14.431614 44.281094 11038</gx:coord>
<gx:coord >14.424199 44.232971 11029</gx:coord>
<gx:coord >14.41617 44.186783 11036</gx:coord>
<gx:coord >14.407675 44.140228 11029</gx:coord>
<gx:coord >14.399435 44.096008 11029</gx:coord>
<gx:coord >14.390621 44.048035 11036</gx:coord>
<gx:coord >14.382215 44.001641 11036</gx:coord>
<gx:coord >14.373822 43.954605 11036</gx:coord>
<gx:coord >14.365801 43.908955 11029</gx:coord>
<gx:coord >14.358237 43.865891 11030</gx:coord>
<gx:coord >14.349869 43.818832 11030</gx:coord>
<gx:coord >14.341693 43.772964 11037</gx:coord>
<gx:coord >14.333645 43.726685 11030</gx:coord>
<gx:coord >14.325342 43.679993 11036</gx:coord>
<gx:coord >14.318128 43.637602 11029</gx:coord>
<gx:coord >14.309884 43.589401 11036</gx:coord>
<gx:coord >14.302368 43.547105 11029</gx:coord>
<gx:coord >14.294652 43.504463 11021</gx:coord>
<gx:coord >14.285931 43.455551 11014</gx:coord>
<gx:coord >14.277584 43.408332 11021</gx:coord>
<gx:coord >14.269802 43.362804 11021</gx:coord>
<gx:coord >14.26202 43.317788 11021</gx:coord>
<gx:coord >14.253803 43.270386 11029</gx:coord>
<gx:coord >14.247044 43.231108 11029</gx:coord>
<gx:coord >14.238537 43.181763 11036</gx:coord>
<gx:coord >14.230434 43.134326 11044</gx:coord>
<gx:coord >14.222696 43.089615 11044</gx:coord>
<gx:coord >14.214648 43.04274 11052</gx:coord>
<gx:coord >14.206303 42.993319 11052</gx:coord>
<gx:coord >14.198652 42.947791 11044</gx:coord>
<gx:coord >14.191132 42.903753 11052</gx:coord>
<gx:coord >14.183541 42.858994 11052</gx:coord>
<gx:coord >14.174663 42.807343 11052</gx:coord>
<gx:coord >14.16712 42.763504 11052</gx:coord>
<gx:coord >14.159379 42.718552 11044</gx:coord>
<gx:coord >14.151077 42.670349 11051</gx:coord>
<gx:coord >14.142775 42.621597 11051</gx:coord>
<gx:coord >14.135316 42.577887 11043</gx:coord>
<gx:coord >14.126885 42.528542 11051</gx:coord>
<gx:coord >14.118709 42.480546 11050</gx:coord>
<gx:coord >14.110752 42.433319 11042</gx:coord>
<gx:coord >14.102932 42.386883 11042</gx:coord>
<gx:coord >14.095209 42.341034 11041</gx:coord>
<gx:coord >14.087219 42.292694 11033</gx:coord>
<gx:coord >14.079167 42.244812 11032</gx:coord>
<gx:coord >14.071442 42.198952 11040</gx:coord>
<gx:coord >14.063777 42.152586 11032</gx:coord>
<gx:coord >14.055985 42.105894 11031</gx:coord>
<gx:coord >14.048256 42.059761 11031</gx:coord>
<gx:coord >14.040465 42.012955 11031</gx:coord>
<gx:coord >14.032799 41.966656 11047</gx:coord>
<gx:coord >14.025325 41.921268 11046</gx:coord>
<gx:coord >14.017244 41.871872 11053</gx:coord>
<gx:coord >14.009357 41.824393 11046</gx:coord>
<gx:coord >14.001576 41.778305 11038</gx:coord>
<gx:coord >13.993461 41.728867 11038</gx:coord>
<gx:coord >13.985845 41.681351 11053</gx:coord>
<gx:coord >13.978854 41.637451 11061</gx:coord>
<gx:coord >13.970713 41.587954 11069</gx:coord>
<gx:coord >13.962812 41.541321 11069</gx:coord>
<gx:coord >13.955192 41.495594 11061</gx:coord>
<gx:coord >13.947081 41.445557 11053</gx:coord>
<gx:coord >13.939543 41.398859 11046</gx:coord>
<gx:coord >13.932162 41.352818 11038</gx:coord>
<gx:coord >13.924672 41.306126 11047</gx:coord>
<gx:coord >13.916931 41.258972 11047</gx:coord>
<gx:coord >13.909191 41.211858 11047</gx:coord>
<gx:coord >13.901611 41.165955 11047</gx:coord>
<gx:coord >13.898865 41.144669 11047</gx:coord>
<gx:coord >13.896851 41.119492 11054</gx:coord>
<gx:coord >13.895081 41.084518 11054</gx:coord>
<gx:coord >13.893336 41.038218 11054</gx:coord>
<gx:coord >13.891357 40.995575 11055</gx:coord>
<gx:coord >13.888489 40.945084 11040</gx:coord>
<gx:coord >13.885803 40.901779 11040</gx:coord>
<gx:coord >13.882786 40.854756 11048</gx:coord>
<gx:coord >13.879727 40.808949 11063</gx:coord>
<gx:coord >13.876794 40.764072 11055</gx:coord>
<gx:coord >13.873962 40.719086 11055</gx:coord>
<gx:coord >13.871094 40.670654 11063</gx:coord>
<gx:coord >13.868286 40.625977 11063</gx:coord>
<gx:coord >13.86554 40.582993 11055</gx:coord>
<gx:coord >13.862499 40.53564 11055</gx:coord>
<gx:coord >13.85968 40.491165 11056</gx:coord>
<gx:coord >13.856631 40.443932 11064</gx:coord>
<gx:coord >13.853699 40.398743 11064</gx:coord>
<gx:coord >13.850826 40.354645 11072</gx:coord>
<gx:coord >13.847595 40.307053 11079</gx:coord>
<gx:coord >13.844666 40.262054 11079</gx:coord>
<gx:coord >13.842087 40.222158 11072</gx:coord>
<gx:coord >13.838745 40.17128 11064</gx:coord>
<gx:coord >13.836219 40.133103 11056</gx:coord>
<gx:coord >13.833535 40.090089 11057</gx:coord>
<gx:coord >13.830383 40.040314 11050</gx:coord>
<gx:coord >13.827667 39.995681 11050</gx:coord>
<gx:coord >13.824983 39.953132 11050</gx:coord>
<gx:coord >13.822144 39.908256 11057</gx:coord>
<gx:coord >13.819607 39.867371 11057</gx:coord>
<gx:coord >13.817017 39.826138 11065</gx:coord>
<gx:coord >13.814054 39.781128 11058</gx:coord>
<gx:coord >13.811157 39.736432 11074</gx:coord>
<gx:coord >13.808472 39.691648 11066</gx:coord>
<gx:coord >13.805814 39.646866 11066</gx:coord>
<gx:coord >13.803284 39.604782 11066</gx:coord>
<gx:coord >13.800598 39.562373 11074</gx:coord>
<gx:coord >13.797852 39.518055 11074</gx:coord>
<gx:coord >13.795227 39.476903 11074</gx:coord>
<gx:coord >13.792236 39.429978 11082</gx:coord>
<gx:coord >13.789932 39.391159 11090</gx:coord>
<gx:coord >13.787006 39.34433 11090</gx:coord>
<gx:coord >13.78414 39.298508 11082</gx:coord>
<gx:coord >13.781513 39.256943 11082</gx:coord>
<gx:coord >13.778564 39.210159 11082</gx:coord>
<gx:coord >13.77594 39.168029 11082</gx:coord>
<gx:coord >13.773452 39.127167 11082</gx:coord>
<gx:coord >13.770813 39.083955 11082</gx:coord>
<gx:coord >13.767883 39.038939 11082</gx:coord>
<gx:coord >13.765381 38.997601 11082</gx:coord>
<gx:coord >13.762824 38.954773 11097</gx:coord>
<gx:coord >13.760137 38.910095 11097</gx:coord>
<gx:coord >13.757629 38.868558 11097</gx:coord>
<gx:coord >13.754943 38.824905 11090</gx:coord>
<gx:coord >13.752315 38.781738 11090</gx:coord>
<gx:coord >13.749512 38.738026 11090</gx:coord>
<gx:coord >13.746882 38.695404 11082</gx:coord>
<gx:coord >13.744314 38.654434 11082</gx:coord>
<gx:coord >13.741821 38.613033 11082</gx:coord>
<gx:coord >13.739258 38.572207 11090</gx:coord>
<gx:coord >13.737122 38.537013 11097</gx:coord>
<gx:coord >13.734497 38.493068 11105</gx:coord>
<gx:coord >13.731934 38.450007 11113</gx:coord>
<gx:coord >13.729638 38.410446 11120</gx:coord>
<gx:coord >13.726999 38.36747 11113</gx:coord>
<gx:coord >13.724261 38.322052 11097</gx:coord>
<gx:coord >13.721632 38.278381 11105</gx:coord>
<gx:coord >13.718943 38.233429 11105</gx:coord>
<gx:coord >13.71655 38.190665 11105</gx:coord>
<gx:coord >13.714042 38.14779 11105</gx:coord>
<gx:coord >13.711355 38.1058 11097</gx:coord>
<gx:coord >13.708609 38.064042 11059</gx:coord>
<gx:coord >13.705922 38.020004 11006</gx:coord>
<gx:coord >13.705206 37.997287 10991</gx:coord>
<gx:coord >13.705444 37.990723 10985</gx:coord>
<gx:coord >13.706964 37.977585 10964</gx:coord>
<gx:coord >13.709087 37.967074 10954</gx:coord>
<gx:coord >13.711953 37.956786 10941</gx:coord>
<gx:coord >13.715613 37.946457 10933</gx:coord>
<gx:coord >13.720814 37.934738 10910</gx:coord>
<gx:coord >13.726044 37.924758 10893</gx:coord>
<gx:coord >13.736911 37.905253 10870</gx:coord>
<gx:coord >13.755062 37.871968 10786</gx:coord>
<gx:coord >13.772915 37.837985 10710</gx:coord>
<gx:coord >13.793043 37.799057 10611</gx:coord>
<gx:coord >13.809522 37.766922 10542</gx:coord>
<gx:coord >13.8251 37.736547 10443</gx:coord>
<gx:coord >13.840027 37.707545 10391</gx:coord>
<gx:coord >13.851247 37.685898 10346</gx:coord>
<gx:coord >13.856448 37.675827 10321</gx:coord>
<gx:coord >13.869403 37.651031 10208</gx:coord>
<gx:coord >13.882897 37.625101 10109</gx:coord>
<gx:coord >13.897413 37.597275 10002</gx:coord>
<gx:coord >13.910445 37.572144 9903</gx:coord>
<gx:coord >13.923798 37.546568 9812</gx:coord>
<gx:coord >13.929554 37.535477 9767</gx:coord>
<gx:coord >13.940248 37.514786 9653</gx:coord>
<gx:coord >13.952578 37.490753 9525</gx:coord>
<gx:coord >13.954906 37.486283 9513</gx:coord>
<gx:coord >13.969474 37.457886 9424</gx:coord>
<gx:coord >13.981058 37.435122 9302</gx:coord>
<gx:coord >13.991381 37.414902 9180</gx:coord>
<gx:coord >14.003986 37.390338 9089</gx:coord>
<gx:coord >14.017561 37.364182 8990</gx:coord>
<gx:coord >14.029424 37.341248 8898</gx:coord>
<gx:coord >14.041841 37.317065 8792</gx:coord>
<gx:coord >14.054201 37.293044 8701</gx:coord>
<gx:coord >14.066918 37.268325 8594</gx:coord>
<gx:coord >14.077785 37.247004 8465</gx:coord>
<gx:coord >14.088294 37.226475 8366</gx:coord>
<gx:coord >14.098564 37.206271 8236</gx:coord>
<gx:coord >14.108953 37.185834 8137</gx:coord>
<gx:coord >14.119886 37.164413 8023</gx:coord>
<gx:coord >14.132418 37.139794 7932</gx:coord>
<gx:coord >14.14227 37.120475 7832</gx:coord>
<gx:coord >14.154093 37.097246 7711</gx:coord>
<gx:coord >14.164766 37.076294 7589</gx:coord>
<gx:coord >14.175986 37.05423 7505</gx:coord>
<gx:coord >14.187111 37.032398 7388</gx:coord>
<gx:coord >14.189193 37.028229 7370</gx:coord>
<gx:coord >14.20316 37.000809 7284</gx:coord>
<gx:coord >14.21549 36.976501 7192</gx:coord>
<gx:coord >14.226519 36.954935 7093</gx:coord>
<gx:coord >14.23655 36.93529 6979</gx:coord>
<gx:coord >14.245761 36.917084 6865</gx:coord>
<gx:coord >14.256455 36.896027 6750</gx:coord>
<gx:coord >14.267091 36.874924 6651</gx:coord>
<gx:coord >14.277785 36.853867 6545</gx:coord>
<gx:coord >14.288235 36.833176 6438</gx:coord>
<gx:coord >14.298239 36.813323 6331</gx:coord>
<gx:coord >14.309177 36.791565 6225</gx:coord>
<gx:coord >14.320211 36.769564 6141</gx:coord>
<gx:coord >14.331436 36.747299 6034</gx:coord>
<gx:coord >14.342537 36.725372 5935</gx:coord>
<gx:coord >14.348373 36.713699 5859</gx:coord>
<gx:coord >14.357471 36.695618 5745</gx:coord>
<gx:coord >14.368 36.674835 5653</gx:coord>
<gx:coord >14.378182 36.654534 5546</gx:coord>
<gx:coord >14.387707 36.635587 5463</gx:coord>
<gx:coord >14.398167 36.614871 5333</gx:coord>
<gx:coord >14.408452 36.594342 5242</gx:coord>
<gx:coord >14.420374 36.570554 5158</gx:coord>
<gx:coord >14.433172 36.545136 5082</gx:coord>
<gx:coord >14.445151 36.521255 4990</gx:coord>
<gx:coord >14.45715 36.497177 4891</gx:coord>
<gx:coord >14.470046 36.47149 4815</gx:coord>
<gx:coord >14.481967 36.447563 4731</gx:coord>
<gx:coord >14.493828 36.423798 4647</gx:coord>
<gx:coord >14.505787 36.399948 4556</gx:coord>
<gx:coord >14.517556 36.376431 4472</gx:coord>
<gx:coord >14.529594 36.35241 4381</gx:coord>
<gx:coord >14.542236 36.327026 4304</gx:coord>
<gx:coord >14.550223 36.310978 4236</gx:coord>
<gx:coord >14.559105 36.293149 4144</gx:coord>
<gx:coord >14.568163 36.274807 4030</gx:coord>
<gx:coord >14.577026 36.257034 3923</gx:coord>
<gx:coord >14.582247 36.246597 3856</gx:coord>
<gx:coord >14.588558 36.233981 3802</gx:coord>
<gx:coord >14.594519 36.222017 3742</gx:coord>
<gx:coord >14.60043 36.210114 3681</gx:coord>
<gx:coord >14.606037 36.198761 3627</gx:coord>
<gx:coord >14.610589 36.188732 3566</gx:coord>
<gx:coord >14.614037 36.179468 3514</gx:coord>
<gx:coord >14.618303 36.167318 3467</gx:coord>
<gx:coord >14.622517 36.155548 3406</gx:coord>
<gx:coord >14.626579 36.144241 3360</gx:coord>
<gx:coord >14.630585 36.133301 3292</gx:coord>
<gx:coord >14.634373 36.122954 3239</gx:coord>
<gx:coord >14.638309 36.112335 3178</gx:coord>
<gx:coord >14.642613 36.100516 3117</gx:coord>
<gx:coord >14.647007 36.088394 3071</gx:coord>
<gx:coord >14.651127 36.077042 3002</gx:coord>
<gx:coord >14.65519 36.065918 2957</gx:coord>
<gx:coord >14.659023 36.055344 2895</gx:coord>
<gx:coord >14.662657 36.045165 2835</gx:coord>
<gx:coord >14.666233 36.035156 2781</gx:coord>
<gx:coord >14.669728 36.025427 2727</gx:coord>
<gx:coord >14.673271 36.015518 2653</gx:coord>
<gx:coord >14.676975 36.005177 2599</gx:coord>
<gx:coord >14.680367 35.995651 2545</gx:coord>
<gx:coord >14.684455 35.984368 2499</gx:coord>
<gx:coord >14.688778 35.972305 2446</gx:coord>
<gx:coord >14.692928 35.960812 2400</gx:coord>
<gx:coord >14.696376 35.951129 2348</gx:coord>
<gx:coord >14.700584 35.939538 2287</gx:coord>
<gx:coord >14.702454 35.934402 2257</gx:coord>
<gx:coord >14.704499 35.928645 2226</gx:coord>
<gx:coord >14.706688 35.922684 2197</gx:coord>
<gx:coord >14.708356 35.917938 2168</gx:coord>
<gx:coord >14.71046 35.912165 2135</gx:coord>
<gx:coord >14.712639 35.906158 2103</gx:coord>
<gx:coord >14.71487 35.899933 2066</gx:coord>
<gx:coord >14.716587 35.895126 2040</gx:coord>
<gx:coord >14.718189 35.890732 2011</gx:coord>
<gx:coord >14.72016 35.885305 1977</gx:coord>
<gx:coord >14.722089 35.879951 1947</gx:coord>
<gx:coord >14.724193 35.874179 1922</gx:coord>
<gx:coord >14.7262 35.868759 1896</gx:coord>
<gx:coord >14.728225 35.863146 1854</gx:coord>
<gx:coord >14.730445 35.857001 1818</gx:coord>
<gx:coord >14.73278 35.850677 1787</gx:coord>
<gx:coord >14.735241 35.843903 1767</gx:coord>
<gx:coord >14.737516 35.837589 1725</gx:coord>
<gx:coord >14.739153 35.833026 1698</gx:coord>
<gx:coord >14.740847 35.828371 1669</gx:coord>
<gx:coord >14.742851 35.8228 1639</gx:coord>
<gx:coord >14.745083 35.81662 1609</gx:coord>
<gx:coord >14.747429 35.810074 1578</gx:coord>
<gx:coord >14.750462 35.801468 1547</gx:coord>
<gx:coord >14.753494 35.793045 1507</gx:coord>
<gx:coord >14.755554 35.78714 1484</gx:coord>
<gx:coord >14.757442 35.781784 1443</gx:coord>
<gx:coord >14.759138 35.777071 1411</gx:coord>
<gx:coord >14.760933 35.771942 1380</gx:coord>
<gx:coord >14.76282 35.766736 1345</gx:coord>
<gx:coord >14.765224 35.76004 1319</gx:coord>
<gx:coord >14.767284 35.753128 1295</gx:coord>
<gx:coord >14.768028 35.748505 1272</gx:coord>
<gx:coord >14.768196 35.745182 1255</gx:coord>
<gx:coord >14.767857 35.740768 1233</gx:coord>
<gx:coord >14.767456 35.738205 1225</gx:coord>
<gx:coord >14.766385 35.734522 1206</gx:coord>
<gx:coord >14.765167 35.731476 1190</gx:coord>
<gx:coord >14.763112 35.727632 1174</gx:coord>
<gx:coord >14.761276 35.724884 1156</gx:coord>
<gx:coord >14.758358 35.721405 1136</gx:coord>
<gx:coord >14.755211 35.718475 1121</gx:coord>
<gx:coord >14.748688 35.713074 1098</gx:coord>
<gx:coord >14.740562 35.706665 1060</gx:coord>
<gx:coord >14.733893 35.701423 1032</gx:coord>
<gx:coord >14.729803 35.698165 1012</gx:coord>
<gx:coord >14.723396 35.693619 979</gx:coord>
<gx:coord >14.722323 35.693044 978</gx:coord>
<gx:coord >14.716816 35.690735 963</gx:coord>
<gx:coord >14.714928 35.690186 963</gx:coord>
<gx:coord >14.711511 35.689459 962</gx:coord>
<gx:coord >14.70892 35.689133 962</gx:coord>
<gx:coord >14.706173 35.688995 962</gx:coord>
<gx:coord >14.701881 35.689224 962</gx:coord>
<gx:coord >14.698563 35.689682 962</gx:coord>
<gx:coord >14.6955 35.690297 961</gx:coord>
<gx:coord >14.690357 35.691833 967</gx:coord>
<gx:coord >14.68626 35.693481 969</gx:coord>
<gx:coord >14.681416 35.69579 962</gx:coord>
<gx:coord >14.677501 35.698025 962</gx:coord>
<gx:coord >14.6735 35.700577 962</gx:coord>
<gx:coord >14.669728 35.703146 962</gx:coord>
<gx:coord >14.665755 35.706032 962</gx:coord>
<gx:coord >14.660787 35.70971 962</gx:coord>
<gx:coord >14.652723 35.715948 962</gx:coord>
<gx:coord >14.637966 35.727676 962</gx:coord>
<gx:coord >14.635849 35.729416 962</gx:coord>
<gx:coord >14.634373 35.730612 962</gx:coord>
<gx:coord >14.631744 35.732706 955</gx:coord>
<gx:coord >14.630283 35.73387 947</gx:coord>
<gx:coord >14.626865 35.736649 917</gx:coord>
<gx:coord >14.622803 35.739875 886</gx:coord>
<gx:coord >14.618303 35.743553 859</gx:coord>
<gx:coord >14.613862 35.747184 818</gx:coord>
<gx:coord >14.608602 35.751467 786</gx:coord>
<gx:coord >14.604149 35.755096 756</gx:coord>
<gx:coord >14.599285 35.758987 732</gx:coord>
<gx:coord >14.59446 35.762919 700</gx:coord>
<gx:coord >14.591103 35.765671 676</gx:coord>
<gx:coord >14.587565 35.768505 656</gx:coord>
<gx:coord >14.583942 35.771438 630</gx:coord>
<gx:coord >14.581604 35.773346 613</gx:coord>
<gx:coord >14.577689 35.776512 581</gx:coord>
<gx:coord >14.57428 35.779312 550</gx:coord>
<gx:coord >14.569566 35.783122 527</gx:coord>
<gx:coord >14.565639 35.78627 496</gx:coord>
<gx:coord >14.561092 35.790012 474</gx:coord>
<gx:coord >14.556885 35.793364 443</gx:coord>
<gx:coord >14.551976 35.797367 405</gx:coord>
<gx:coord >14.547009 35.801324 367</gx:coord>
<gx:coord >14.542465 35.805038 344</gx:coord>
<gx:coord >14.537308 35.809238 306</gx:coord>
<gx:coord >14.532867 35.812776 275</gx:coord>
<gx:coord >14.5279 35.816826 253</gx:coord>
<gx:coord >14.523296 35.820602 207</gx:coord>
<gx:coord >14.518725 35.824228 176</gx:coord>
<gx:coord >14.513912 35.828156 154</gx:coord>
<gx:coord >14.51031 35.831118 131</gx:coord>
<gx:coord >14.506302 35.834335 100</gx:coord>
<gx:coord >14.502713 35.83717 77</gx:coord>
<gx:coord >14.498272 35.840801 83</gx:coord>
<gx:coord >14.496517 35.842163 80</gx:coord>
<gx:coord >14.496285 35.842383 80</gx:coord>
<gx:coord >14.49459 35.843733 78</gx:coord>
<gx:coord >14.493942 35.844223 78</gx:coord>
<gx:coord >14.493427 35.844681 78</gx:coord>
<gx:coord >14.493427 35.844681 78</gx:coord>
</gx:Track>
</Placemark>
<Placemark ><name >HA-LXJ</name>
<Style ><LineStyle ><color >ff1c1ae3</color>
<width >4</width>
</LineStyle>
<IconStyle ><Icon ><href >http://maps.google.com/mapfiles/kml/shapes/airports.png</href>
</Icon>
</IconStyle>
</Style>
<gx:Track ><extrude >0</extrude>
<when >2025-08-04T16:54:12.310Z</when>
<when >2025-08-04T16:54:13.560Z</when>
<when >2025-08-04T16:54:17.620Z</when>
<when >2025-08-04T16:54:19.760Z</when>
<when >2025-08-04T16:54:21.200Z</when>
<when >2025-08-04T16:54:22.270Z</when>
<when >2025-08-04T16:54:24.110Z</when>
<when >2025-08-04T16:54:26.590Z</when>
<when >2025-08-04T16:54:28.080Z</when>
<when >2025-08-04T16:54:29.710Z</when>
<when >2025-08-04T16:54:31.500Z</when>
<when >2025-08-04T16:54:33.770Z</when>
<when >2025-08-04T16:54:34.830Z</when>
<when >2025-08-04T16:54:35.420Z</when>
<when >2025-08-04T16:54:36.890Z</when>
<when >2025-08-04T16:54:37.990Z</when>
<when >2025-08-04T16:54:41.760Z</when>
<when >2025-08-04T16:54:44.650Z</when>
<when >2025-08-04T16:54:48.950Z</when>
<when >2025-08-04T16:54:51.380Z</when>
<when >2025-08-04T16:54:52.900Z</when>
<when >2025-08-04T16:54:53.750Z</when>
<when >2025-08-04T16:54:55.120Z</when>
<when >2025-08-04T16:54:58.350Z</when>
<when >2025-08-04T16:54:59.890Z</when>
<when >2025-08-04T16:55:06.270Z</when>
<when >2025-08-04T16:55:08.400Z</when>
<when >2025-08-04T16:55:12.750Z</when>
<when >2025-08-04T16:55:21.120Z</when>
<when >2025-08-04T16:55:29.410Z</when>
<when >2025-08-04T16:55:36.360Z</when>
<when >2025-08-04T16:55:46.650Z</when>
<when >2025-08-04T16:55:54.610Z</when>
<when >2025-08-04T16:56:03.140Z</when>
<when >2025-08-04T16:56:07.100Z</when>
<when >2025-08-04T16:56:11.130Z</when>
<when >2025-08-04T16:56:14.780Z</when>
<when >2025-08-04T16:56:16.380Z</when>
<when >2025-08-04T16:56:19.320Z</when>
<when >2025-08-04T16:56:22.860Z</when>
<when >2025-08-04T16:56:27.740Z</when>
<when >2025-08-04T16:56:31.200Z</when>
<when >2025-08-04T16:56:33.830Z</when>
<when >2025-08-04T16:56:35.670Z</when>
<when >2025-08-04T16:56:39.650Z</when>
<when >2025-08-04T16:56:46.680Z</when>
<when >2025-08-04T16:56:50.100Z</when>
<when >2025-08-04T16:56:51.200Z</when>
<when >2025-08-04T16:56:53.490Z</when>
<when >2025-08-04T16:56:55.140Z</when>
<when >2025-08-04T16:56:59.260Z</when>
<when >2025-08-04T16:57:01.520Z</when>
<when >2025-08-04T16:57:02.980Z</when>
<when >2025-08-04T16:57:08.400Z</when>
<when >2025-08-04T16:57:17.460Z</when>
<when >2025-08-04T16:57:22.370Z</when>
<when >2025-08-04T16:57:27.350Z</when>
<when >2025-08-04T16:57:32.410Z</when>
<when >2025-08-04T16:57:39.670Z</when>
<when >2025-08-04T16:57:42.850Z</when>
<when >2025-08-04T16:57:48.090Z</when>
<when >2025-08-04T16:57:49.630Z</when>
<when >2025-08-04T16:57:52.190Z</when>
<when >2025-08-04T16:57:54.700Z</when>
<when >2025-08-04T16:57:56.800Z</when>
<when >2025-08-04T16:57:58.770Z</when>
<when >2025-08-04T16:58:06.350Z</when>
<when >2025-08-04T16:58:10.910Z</when>
<when >2025-08-04T16:58:17.070Z</when>
<when >2025-08-04T16:58:42.280Z</when>
<when >2025-08-04T16:58:42.280Z</when>
<gx:coord >14.493334 35.844734 0</gx:coord>
<gx:coord >14.492698 35.845264 0</gx:coord>
<gx:coord >14.49151 35.846237 0</gx:coord>
<gx:coord >14.490894 35.846736 0</gx:coord>
<gx:coord >14.490466 35.847084 0</gx:coord>
<gx:coord >14.49008 35.847393 0</gx:coord>
<gx:coord >14.489579 35.847794 0</gx:coord>
<gx:coord >14.489214 35.848098 0</gx:coord>
<gx:coord >14.489007 35.848263 0</gx:coord>
<gx:coord >14.488527 35.848645 0</gx:coord>
<gx:coord >14.488089 35.848994 0</gx:coord>
<gx:coord >14.487863 35.849178 0</gx:coord>
<gx:coord >14.487738 35.849273 0</gx:coord>
<gx:coord >14.48768 35.849331 0</gx:coord>
<gx:coord >14.487491 35.849464 0</gx:coord>
<gx:coord >14.487362 35.849579 0</gx:coord>
<gx:coord >14.487198 35.849704 0</gx:coord>
<gx:coord >14.487081 35.849809 0</gx:coord>
<gx:coord >14.486904 35.849968 0</gx:coord>
<gx:coord >14.486788 35.850158 0</gx:coord>
<gx:coord >14.486803 35.850227 0</gx:coord>
<gx:coord >14.486833 35.850288 0</gx:coord>
<gx:coord >14.486876 35.850332 0</gx:coord>
<gx:coord >14.487004 35.850391 0</gx:coord>
<gx:coord >14.487076 35.850403 0</gx:coord>
<gx:coord >14.487362 35.850346 0</gx:coord>
<gx:coord >14.487475 35.850321 0</gx:coord>
<gx:coord >14.487621 35.850286 0</gx:coord>
<gx:coord >14.488077 35.850185 0</gx:coord>
<gx:coord >14.488535 35.850082 0</gx:coord>
<gx:coord >14.488775 35.850041 0</gx:coord>
<gx:coord >14.489007 35.849991 0</gx:coord>
<gx:coord >14.489389 35.849913 0</gx:coord>
<gx:coord >14.489837 35.849796 0</gx:coord>
<gx:coord >14.490123 35.84967 0</gx:coord>
<gx:coord >14.490339 35.849552 0</gx:coord>
<gx:coord >14.490485 35.849471 0</gx:coord>
<gx:coord >14.49066 35.849355 0</gx:coord>
<gx:coord >14.490938 35.849144 0</gx:coord>
<gx:coord >14.491011 35.849099 0</gx:coord>
<gx:coord >14.491353 35.849052 0</gx:coord>
<gx:coord >14.491496 35.849087 0</gx:coord>
<gx:coord >14.491611 35.849144 0</gx:coord>
<gx:coord >14.491726 35.849238 0</gx:coord>
<gx:coord >14.491811 35.849316 0</gx:coord>
<gx:coord >14.491911 35.849396 0</gx:coord>
<gx:coord >14.492282 35.849448 0</gx:coord>
<gx:coord >14.492472 35.849413 0</gx:coord>
<gx:coord >14.49254 35.849384 0</gx:coord>
<gx:coord >14.492661 35.849343 0</gx:coord>
<gx:coord >14.492884 35.849236 0</gx:coord>
<gx:coord >14.492968 35.84918 0</gx:coord>
<gx:coord >14.493056 35.84911 0</gx:coord>
<gx:coord >14.493327 35.848904 0</gx:coord>
<gx:coord >14.493655 35.848633 0</gx:coord>
<gx:coord >14.494093 35.848284 0</gx:coord>
<gx:coord >14.494357 35.848068 0</gx:coord>
<gx:coord >14.49459 35.847877 0</gx:coord>
<gx:coord >14.494853 35.847667 0</gx:coord>
<gx:coord >14.494911 35.847632 0</gx:coord>
<gx:coord >14.495001 35.847496 0</gx:coord>
<gx:coord >14.494944 35.847439 0</gx:coord>
<gx:coord >14.494882 35.847411 0</gx:coord>
<gx:coord >14.494794 35.847388 0</gx:coord>
<gx:coord >14.494743 35.847359 0</gx:coord>
<gx:coord >14.4947 35.847336 0</gx:coord>
<gx:coord >14.494561 35.847213 0</gx:coord>
<gx:coord >14.494444 35.847108 0</gx:coord>
<gx:coord >14.494343 35.847038 0</gx:coord>
<gx:coord >14.494328 35.847015 0</gx:coord>
<gx:coord >14.494328 35.847015 0</gx:coord>
</gx:Track>
</Placemark>
</Folder>
</Folder>
</kml>
