<?xml version="1.0" encoding="UTF-8"?>
<kml xmlns="http://www.opengis.net/kml/2.2">
    <Document>
        <name>Edited Path</name>
        <description>Path edited with KML Path Editor</description>
        <Style id="pathStyle">
            <LineStyle>
                <color>ff0000ff</color>
                <width>3</width>
            </LineStyle>
        </Style>
        <Placemark>
            <name>Edited Path</name>
            <description>Total points: 265</description>
            <styleUrl>#pathStyle</styleUrl>
            <LineString>
                <tessellate>1</tessellate>
                <coordinates>28.948974609375004,46.92805170007791,0 29.004596953141522,46.934792020294026,0 29.025879275125817,46.965259400349275,0 29.021074508731104,46.99805102997923,0 28.990176844163784,47.02426985309355,0 28.940051998750295,47.04065008156505,0 28.905711608092293,47.04626500255331,0 28.890592,47.047693,0 28.886009,47.047943,0 28.874676,47.048624,0 28.831365,47.050952,0 28.819954,47.051559,0 28.806152,47.052302,0 28.791733,47.05307,0 28.784729,47.053436,0 28.775658,47.053885,0 28.761795,47.054672,0 28.73996,47.055862,0 28.730484,47.056412,0 28.720802,47.057007,0 28.710915,47.057556,0 28.708402,47.057702,0 28.692697,47.058587,0 28.673542,47.059704,0 28.660652,47.06044,0 28.65171,47.060961,0 23.5546875,47.41322033016904,0 22.016601562500004,48.3416461723746,0 20.894957,51.65918,0 20.905533,51.67871,0 20.917375,51.70047,0 20.92606,51.716949,0 20.928361,51.721298,0 20.929871,51.724191,0 20.940609,51.744965,0 20.947952,51.759478,0 20.949592,51.763412,0 20.95115,51.768494,0 20.951767,51.773071,0 20.951744,51.776596,0 20.951309,51.779914,0 20.950012,51.784104,0 20.948181,51.787875,0 20.945806,51.791565,0 20.942836,51.795273,0 20.936304,51.80278,0 20.922775,51.818087,0 20.914612,51.827444,0 20.907428,51.835785,0 20.89993,51.844711,0 20.891913,51.854553,0 20.884342,51.863937,0 20.877609,51.87246,0 20.87059,51.881305,0 20.863953,51.889638,0 20.855942,51.899506,0 20.848236,51.908936,0 20.840988,51.91777,0 20.833817,51.926376,0 20.825577,51.936218,0 20.817287,51.946153,0 20.810318,51.955078,0 20.808498,51.958163,0 20.806885,51.962082,0 20.805893,51.965744,0 20.805437,51.969196,0 20.805673,51.973339,0 20.80658,51.977554,0 20.807724,51.980621,0 20.80944,51.983813,0 20.812378,51.987808,0 20.815582,51.991104,0 20.818863,51.993896,0 20.822525,51.996552,0 20.826569,51.998978,0 20.831726,52.001503,0 20.837784,52.003876,0 20.843735,52.00589,0 20.858407,52.010395,0 20.873184,52.014908,0 20.884933,52.018112,0 20.891602,52.019426,0 20.896545,52.020077,0 20.902588,52.020496,0 20.907375,52.020543,0 20.912476,52.02031,0 20.917892,52.01976,0 20.92354,52.018774,0 20.928877,52.017424,0 20.933304,52.016098,0 20.936253,52.014957,0 20.940098,52.013234,0 20.945129,52.010468,0 20.948792,52.008041,0 20.951791,52.005646,0 20.955479,52.002062,0 20.959244,51.997696,0 20.964033,51.992053,0 20.967329,51.988096,0 20.971222,51.983459,0 20.975647,51.978241,0 20.98053,51.972656,0 20.984671,51.967892,0 20.988438,51.96347,0 20.992676,51.958629,0 20.996756,51.95388,0 21.000061,51.950043,0 21.003647,51.945877,0 21.007233,51.941666,0 21.010818,51.937546,0 21.015119,51.932606,0 21.019363,51.927704,0 21.024551,51.921707,0 21.029323,51.916219,0 21.034424,51.9104,0 21.039352,51.90477,0 21.049508,51.893188,0 21.065765,51.874557,0 21.071777,51.86792,0 21.075786,51.864441,0 21.078681,51.862427,0 21.082306,51.860357,0 21.085659,51.858765,0 21.090012,51.857052,0 21.093216,51.856027,0 21.098175,51.854817,0 21.102829,51.853979,0 21.108596,51.853317,0 21.114655,51.853095,0 21.119508,51.853134,0 21.125412,51.853607,0 21.130753,51.854351,0 21.135246,51.85524,0 21.140976,51.856772,0 21.145861,51.858444,0 21.15036,51.860357,0 21.153793,51.862126,0 21.158035,51.864761,0 21.161652,51.867526,0 21.164864,51.870621,0 21.167165,51.873276,0 21.168798,51.875748,0 21.170959,51.879769,0 21.172104,51.88326,0 21.172659,51.886414,0 21.172881,51.889984,0 21.172714,51.894516,0 21.172067,51.902347,0 21.171439,51.90905,0 21.170576,51.916964,0 21.169662,51.922714,0 21.16806,51.927612,0 21.165924,51.93251,0 21.16333,51.936905,0 21.159746,51.942335,0 21.155243,51.948441,0 21.148987,51.95636,0 21.143188,51.963364,0 21.139186,51.968079,0 21.13678,51.970871,0 21.13487,51.97306,0 21.13121,51.97728,0 21.12854,51.980301,0 21.122971,51.986847,0 21.11763,51.993027,0 21.111956,51.999548,0 21.106306,52.005972,0 21.100106,52.013234,0 21.087265,52.028,0 21.083784,52.031995,0 21.078762,52.037767,0 21.0746,52.042557,0 21.0706,52.047217,0 21.06597,52.052478,0 21.062047,52.056947,0 21.058044,52.0616,0 21.053807,52.066537,0 21.050186,52.070709,0 21.046982,52.074326,0 21.042585,52.079385,0 21.039839,52.082551,0 21.036377,52.086502,0 21.032562,52.090851,0 21.029323,52.094561,0 21.025164,52.099216,0 21.021005,52.104104,0 21.017151,52.108521,0 21.012878,52.113373,0 21.008527,52.118349,0 21.00441,52.123077,0 21.000131,52.127986,0 20.996246,52.132324,0 20.992126,52.13711,0 20.98877,52.14093,0 20.984828,52.145536,0 20.98053,52.150452,0 20.977138,52.154241,0 20.973358,52.158508,0 20.971527,52.160614,0 20.969918,52.162481,0 20.969467,52.162994,0 20.968933,52.163681,0 20.968349,52.164389,0 20.967636,52.165192,0 20.967331,52.165558,0 20.967331,52.165558,0 20.967083,52.165821,0 20.966583,52.166368,0 20.966054,52.166961,0 20.965614,52.16748,0 20.96521,52.167951,0 20.964947,52.168259,0 20.964355,52.168945,0 20.964052,52.169277,0 20.963719,52.16965,0 20.963421,52.169987,0 20.963013,52.170476,0 20.962797,52.170814,0 20.962563,52.171452,0 20.962486,52.171795,0 20.962444,52.172036,0 20.962429,52.172276,0 20.962444,52.172641,0 20.962448,52.172928,0 20.962486,52.173374,0 20.962505,52.173637,0 20.962601,52.173798,0 20.962753,52.173901,0 20.963013,52.174014,0 20.96313,52.174061,0 20.963385,52.174154,0 20.963758,52.17427,0 20.964355,52.174461,0 20.964955,52.174654,0 20.965347,52.174793,0 20.965481,52.174862,0 20.965524,52.174899,0 20.965614,52.174999,0 20.965642,52.175062,0 20.965672,52.175205,0 20.965652,52.175297,0 20.965583,52.175376,0 20.965485,52.175515,0 20.965405,52.175594,0 20.965252,52.175777,0 20.964928,52.176144,0 20.964602,52.176505,0 20.964366,52.176784,0 20.964108,52.177082,0 20.963764,52.177483,0 20.963516,52.177757,0 20.963383,52.177917,0 20.963249,52.177952,0 20.963209,52.177959,0 20.963111,52.177948,0 20.963032,52.177924,0 20.963001,52.177917,0 20.962925,52.177883,0 20.962849,52.177837,0 20.962817,52.17782,0 20.962718,52.177773,0 20.962405,52.177668,0 20.961914,52.177505,0 20.961894,52.177505,0 20.961894,52.177505,0</coordinates>
            </LineString>
        </Placemark>
    </Document>
</kml>