<?xml version="1.0" encoding="UTF-8"?>
<kml xmlns="http://www.opengis.net/kml/2.2" xmlns:gx="http://www.google.com/kml/ext/2.2"><Folder ><Folder ><name >HA-LGM track</name>
<Placemark ><name >HA-LGM</name>
<Style ><LineStyle ><color >ff1c1ae3</color>
<width >4</width>
</LineStyle>
<IconStyle ><Icon ><href >http://maps.google.com/mapfiles/kml/shapes/airports.png</href>
</Icon>
</IconStyle>
</Style>
<gx:Track ><altitudeMode >absolute</altitudeMode>
<extrude >1</extrude>
<when >2025-08-09T14:10:48.820Z</when>
<when >2025-08-09T14:10:48.820Z</when>
<when >2025-08-09T14:10:50.980Z</when>
<when >2025-08-09T14:10:53.060Z</when>
<when >2025-08-09T14:10:56.800Z</when>
<when >2025-08-09T14:10:58.540Z</when>
<when >2025-08-09T14:11:02.020Z</when>
<when >2025-08-09T14:11:03.710Z</when>
<when >2025-08-09T14:11:07.220Z</when>
<when >2025-08-09T14:11:12.420Z</when>
<when >2025-08-09T14:11:18.490Z</when>
<when >2025-08-09T14:11:22.160Z</when>
<when >2025-08-09T14:11:23.640Z</when>
<when >2025-08-09T14:11:29.080Z</when>
<when >2025-08-09T14:11:31.650Z</when>
<when >2025-08-09T14:11:35.060Z</when>
<when >2025-08-09T14:11:40.330Z</when>
<when >2025-08-09T14:11:44.160Z</when>
<when >2025-08-09T14:11:47.140Z</when>
<when >2025-08-09T14:11:49.580Z</when>
<when >2025-08-09T14:11:51.950Z</when>
<when >2025-08-09T14:11:55.610Z</when>
<when >2025-08-09T14:11:57.810Z</when>
<when >2025-08-09T14:12:01.620Z</when>
<when >2025-08-09T14:12:03.040Z</when>
<when >2025-08-09T14:12:07.610Z</when>
<when >2025-08-09T14:12:09.460Z</when>
<when >2025-08-09T14:12:13.760Z</when>
<when >2025-08-09T14:12:16.760Z</when>
<when >2025-08-09T14:12:19.070Z</when>
<when >2025-08-09T14:12:20.950Z</when>
<when >2025-08-09T14:12:22.630Z</when>
<when >2025-08-09T14:12:24.200Z</when>
<when >2025-08-09T14:12:27.980Z</when>
<when >2025-08-09T14:12:30.700Z</when>
<when >2025-08-09T14:12:33.870Z</when>
<when >2025-08-09T14:12:35.230Z</when>
<when >2025-08-09T14:12:37.960Z</when>
<when >2025-08-09T14:12:44.360Z</when>
<when >2025-08-09T14:12:47.150Z</when>
<when >2025-08-09T14:12:49.250Z</when>
<when >2025-08-09T14:12:51.090Z</when>
<when >2025-08-09T14:12:55.750Z</when>
<when >2025-08-09T14:12:57.060Z</when>
<when >2025-08-09T14:12:59.300Z</when>
<when >2025-08-09T14:13:02.450Z</when>
<when >2025-08-09T14:13:05.860Z</when>
<when >2025-08-09T14:13:09.740Z</when>
<when >2025-08-09T14:13:11.710Z</when>
<when >2025-08-09T14:13:16.170Z</when>
<when >2025-08-09T14:13:18.520Z</when>
<when >2025-08-09T14:13:21.570Z</when>
<when >2025-08-09T14:13:24.490Z</when>
<when >2025-08-09T14:13:26.490Z</when>
<when >2025-08-09T14:13:29.960Z</when>
<when >2025-08-09T14:13:32.900Z</when>
<when >2025-08-09T14:13:35.590Z</when>
<when >2025-08-09T14:13:38.800Z</when>
<when >2025-08-09T14:13:41.850Z</when>
<when >2025-08-09T14:13:42.800Z</when>
<when >2025-08-09T14:13:45.500Z</when>
<when >2025-08-09T14:13:48.340Z</when>
<when >2025-08-09T14:13:50.930Z</when>
<when >2025-08-09T14:13:55.840Z</when>
<when >2025-08-09T14:13:59.970Z</when>
<when >2025-08-09T14:14:04.480Z</when>
<when >2025-08-09T14:14:09.130Z</when>
<when >2025-08-09T14:14:12.880Z</when>
<when >2025-08-09T14:14:18.870Z</when>
<when >2025-08-09T14:14:21.410Z</when>
<when >2025-08-09T14:14:23.740Z</when>
<when >2025-08-09T14:14:26.260Z</when>
<when >2025-08-09T14:14:27.810Z</when>
<when >2025-08-09T14:14:31.640Z</when>
<when >2025-08-09T14:14:34.500Z</when>
<when >2025-08-09T14:14:37.930Z</when>
<when >2025-08-09T14:14:40.850Z</when>
<when >2025-08-09T14:14:45.720Z</when>
<when >2025-08-09T14:14:51.190Z</when>
<when >2025-08-09T14:14:53.910Z</when>
<when >2025-08-09T14:14:58.820Z</when>
<when >2025-08-09T14:15:04.260Z</when>
<when >2025-08-09T14:15:07.840Z</when>
<when >2025-08-09T14:15:12.350Z</when>
<when >2025-08-09T14:15:15.900Z</when>
<when >2025-08-09T14:15:19.420Z</when>
<when >2025-08-09T14:15:22.500Z</when>
<when >2025-08-09T14:15:26.310Z</when>
<when >2025-08-09T14:15:26.680Z</when>
<when >2025-08-09T14:15:30.390Z</when>
<when >2025-08-09T14:15:32.640Z</when>
<when >2025-08-09T14:15:44.010Z</when>
<when >2025-08-09T14:15:50.490Z</when>
<when >2025-08-09T14:15:56.160Z</when>
<when >2025-08-09T14:16:06.570Z</when>
<when >2025-08-09T14:16:13.920Z</when>
<when >2025-08-09T14:16:19.760Z</when>
<when >2025-08-09T14:16:26.600Z</when>
<when >2025-08-09T14:16:31.360Z</when>
<when >2025-08-09T14:16:40.790Z</when>
<when >2025-08-09T14:16:47.500Z</when>
<when >2025-08-09T14:16:57.410Z</when>
<when >2025-08-09T14:17:08.500Z</when>
<when >2025-08-09T14:17:17.080Z</when>
<when >2025-08-09T14:17:28.460Z</when>
<when >2025-08-09T14:17:33.190Z</when>
<when >2025-08-09T14:17:46.450Z</when>
<when >2025-08-09T14:17:58.700Z</when>
<when >2025-08-09T14:18:13.230Z</when>
<when >2025-08-09T14:18:24.540Z</when>
<when >2025-08-09T14:18:36.410Z</when>
<when >2025-08-09T14:18:50.340Z</when>
<when >2025-08-09T14:19:02.000Z</when>
<when >2025-08-09T14:19:14.590Z</when>
<when >2025-08-09T14:19:25.300Z</when>
<when >2025-08-09T14:19:36.850Z</when>
<when >2025-08-09T14:19:49.460Z</when>
<when >2025-08-09T14:20:01.350Z</when>
<when >2025-08-09T14:20:08.990Z</when>
<when >2025-08-09T14:20:18.430Z</when>
<when >2025-08-09T14:20:29.530Z</when>
<when >2025-08-09T14:20:41.530Z</when>
<when >2025-08-09T14:20:51.980Z</when>
<when >2025-08-09T14:21:06.220Z</when>
<when >2025-08-09T14:21:19.150Z</when>
<when >2025-08-09T14:21:32.310Z</when>
<when >2025-08-09T14:21:47.110Z</when>
<when >2025-08-09T14:22:01.220Z</when>
<when >2025-08-09T14:22:16.060Z</when>
<when >2025-08-09T14:22:32.810Z</when>
<when >2025-08-09T14:22:46.220Z</when>
<when >2025-08-09T14:22:49.170Z</when>
<when >2025-08-09T14:23:02.910Z</when>
<when >2025-08-09T14:23:19.540Z</when>
<when >2025-08-09T14:23:34.540Z</when>
<when >2025-08-09T14:23:50.680Z</when>
<when >2025-08-09T14:24:04.430Z</when>
<when >2025-08-09T14:24:19.230Z</when>
<when >2025-08-09T14:24:34.000Z</when>
<when >2025-08-09T14:24:48.990Z</when>
<when >2025-08-09T14:25:03.950Z</when>
<when >2025-08-09T14:25:18.890Z</when>
<when >2025-08-09T14:25:34.900Z</when>
<when >2025-08-09T14:25:50.410Z</when>
<when >2025-08-09T14:26:05.480Z</when>
<when >2025-08-09T14:26:19.660Z</when>
<when >2025-08-09T14:26:32.800Z</when>
<when >2025-08-09T14:26:51.300Z</when>
<when >2025-08-09T14:27:06.920Z</when>
<when >2025-08-09T14:27:24.190Z</when>
<when >2025-08-09T14:27:38.950Z</when>
<when >2025-08-09T14:27:55.890Z</when>
<when >2025-08-09T14:28:10.920Z</when>
<when >2025-08-09T14:28:26.740Z</when>
<when >2025-08-09T14:28:44.440Z</when>
<when >2025-08-09T14:29:01.550Z</when>
<when >2025-08-09T14:29:18.020Z</when>
<when >2025-08-09T14:29:30.750Z</when>
<when >2025-08-09T14:29:40.670Z</when>
<when >2025-08-09T14:29:48.460Z</when>
<when >2025-08-09T14:29:57.100Z</when>
<when >2025-08-09T14:30:05.120Z</when>
<when >2025-08-09T14:30:15.000Z</when>
<when >2025-08-09T14:30:23.950Z</when>
<when >2025-08-09T14:30:32.800Z</when>
<when >2025-08-09T14:30:42.040Z</when>
<when >2025-08-09T14:30:50.420Z</when>
<when >2025-08-09T14:30:58.130Z</when>
<when >2025-08-09T14:31:07.490Z</when>
<when >2025-08-09T14:31:19.580Z</when>
<when >2025-08-09T14:31:30.240Z</when>
<when >2025-08-09T14:31:37.710Z</when>
<when >2025-08-09T14:31:45.360Z</when>
<when >2025-08-09T14:32:01.360Z</when>
<when >2025-08-09T14:32:17.370Z</when>
<when >2025-08-09T14:32:31.640Z</when>
<when >2025-08-09T14:32:49.220Z</when>
<when >2025-08-09T14:33:05.290Z</when>
<when >2025-08-09T14:33:13.940Z</when>
<when >2025-08-09T14:33:23.950Z</when>
<when >2025-08-09T14:33:30.120Z</when>
<when >2025-08-09T14:33:40.200Z</when>
<when >2025-08-09T14:33:49.500Z</when>
<when >2025-08-09T14:33:57.560Z</when>
<when >2025-08-09T14:34:17.380Z</when>
<when >2025-08-09T14:34:36.870Z</when>
<when >2025-08-09T14:34:56.830Z</when>
<when >2025-08-09T14:35:16.630Z</when>
<when >2025-08-09T14:35:35.390Z</when>
<when >2025-08-09T14:35:55.280Z</when>
<when >2025-08-09T14:36:14.240Z</when>
<when >2025-08-09T14:36:33.300Z</when>
<when >2025-08-09T14:36:52.060Z</when>
<when >2025-08-09T14:37:11.590Z</when>
<when >2025-08-09T14:37:30.670Z</when>
<when >2025-08-09T14:37:48.920Z</when>
<when >2025-08-09T14:38:08.620Z</when>
<when >2025-08-09T14:38:27.740Z</when>
<when >2025-08-09T14:38:47.650Z</when>
<when >2025-08-09T14:39:07.460Z</when>
<when >2025-08-09T14:39:27.380Z</when>
<when >2025-08-09T14:39:46.220Z</when>
<when >2025-08-09T14:40:05.280Z</when>
<when >2025-08-09T14:40:25.190Z</when>
<when >2025-08-09T14:40:43.870Z</when>
<when >2025-08-09T14:41:03.680Z</when>
<when >2025-08-09T14:41:23.620Z</when>
<when >2025-08-09T14:41:43.180Z</when>
<when >2025-08-09T14:42:02.900Z</when>
<when >2025-08-09T14:42:22.350Z</when>
<when >2025-08-09T14:42:41.720Z</when>
<when >2025-08-09T14:43:00.900Z</when>
<when >2025-08-09T14:43:20.700Z</when>
<when >2025-08-09T14:43:40.060Z</when>
<when >2025-08-09T14:43:59.680Z</when>
<when >2025-08-09T14:44:18.030Z</when>
<when >2025-08-09T14:44:37.490Z</when>
<when >2025-08-09T14:44:56.680Z</when>
<when >2025-08-09T14:45:15.520Z</when>
<when >2025-08-09T14:45:34.080Z</when>
<when >2025-08-09T14:45:52.670Z</when>
<when >2025-08-09T14:46:11.850Z</when>
<when >2025-08-09T14:46:31.510Z</when>
<when >2025-08-09T14:46:51.400Z</when>
<when >2025-08-09T14:47:11.370Z</when>
<when >2025-08-09T14:47:31.150Z</when>
<when >2025-08-09T14:47:51.040Z</when>
<when >2025-08-09T14:48:09.730Z</when>
<when >2025-08-09T14:48:29.050Z</when>
<when >2025-08-09T14:48:47.850Z</when>
<when >2025-08-09T14:49:06.930Z</when>
<when >2025-08-09T14:49:26.880Z</when>
<when >2025-08-09T14:49:44.400Z</when>
<when >2025-08-09T14:50:03.510Z</when>
<when >2025-08-09T14:50:22.740Z</when>
<when >2025-08-09T14:50:40.510Z</when>
<when >2025-08-09T14:50:59.210Z</when>
<when >2025-08-09T14:51:18.000Z</when>
<when >2025-08-09T14:51:36.760Z</when>
<when >2025-08-09T14:51:55.470Z</when>
<when >2025-08-09T14:52:15.010Z</when>
<when >2025-08-09T14:52:34.710Z</when>
<when >2025-08-09T14:52:46.550Z</when>
<when >2025-08-09T14:52:54.450Z</when>
<when >2025-08-09T14:53:03.270Z</when>
<when >2025-08-09T14:53:11.170Z</when>
<when >2025-08-09T14:53:20.120Z</when>
<when >2025-08-09T14:53:28.750Z</when>
<when >2025-08-09T14:53:39.130Z</when>
<when >2025-08-09T14:53:48.250Z</when>
<when >2025-08-09T14:53:56.600Z</when>
<when >2025-08-09T14:54:15.350Z</when>
<when >2025-08-09T14:54:33.830Z</when>
<when >2025-08-09T14:54:53.200Z</when>
<when >2025-08-09T14:55:10.380Z</when>
<when >2025-08-09T14:55:30.240Z</when>
<when >2025-08-09T14:55:48.320Z</when>
<when >2025-08-09T14:56:07.290Z</when>
<when >2025-08-09T14:56:26.950Z</when>
<when >2025-08-09T14:56:46.760Z</when>
<when >2025-08-09T14:57:05.180Z</when>
<when >2025-08-09T14:57:23.210Z</when>
<when >2025-08-09T14:57:42.440Z</when>
<when >2025-08-09T14:58:01.910Z</when>
<when >2025-08-09T14:58:21.460Z</when>
<when >2025-08-09T14:58:41.310Z</when>
<when >2025-08-09T14:59:00.910Z</when>
<when >2025-08-09T14:59:19.800Z</when>
<when >2025-08-09T14:59:39.550Z</when>
<when >2025-08-09T14:59:59.190Z</when>
<when >2025-08-09T15:00:18.750Z</when>
<when >2025-08-09T15:00:38.610Z</when>
<when >2025-08-09T15:00:57.140Z</when>
<when >2025-08-09T15:01:16.680Z</when>
<when >2025-08-09T15:01:36.610Z</when>
<when >2025-08-09T15:01:56.390Z</when>
<when >2025-08-09T15:02:16.260Z</when>
<when >2025-08-09T15:02:35.050Z</when>
<when >2025-08-09T15:02:54.150Z</when>
<when >2025-08-09T15:03:13.360Z</when>
<when >2025-08-09T15:03:33.140Z</when>
<when >2025-08-09T15:03:51.780Z</when>
<when >2025-08-09T15:04:11.160Z</when>
<when >2025-08-09T15:04:30.610Z</when>
<when >2025-08-09T15:04:49.020Z</when>
<when >2025-08-09T15:05:07.610Z</when>
<when >2025-08-09T15:05:26.930Z</when>
<when >2025-08-09T15:05:45.960Z</when>
<when >2025-08-09T15:06:05.430Z</when>
<when >2025-08-09T15:06:25.120Z</when>
<when >2025-08-09T15:06:43.800Z</when>
<when >2025-08-09T15:07:03.240Z</when>
<when >2025-08-09T15:07:22.960Z</when>
<when >2025-08-09T15:07:42.270Z</when>
<when >2025-08-09T15:08:01.420Z</when>
<when >2025-08-09T15:08:20.290Z</when>
<when >2025-08-09T15:08:39.180Z</when>
<when >2025-08-09T15:08:58.640Z</when>
<when >2025-08-09T15:09:17.740Z</when>
<when >2025-08-09T15:09:37.390Z</when>
<when >2025-08-09T15:09:57.070Z</when>
<when >2025-08-09T15:10:17.060Z</when>
<when >2025-08-09T15:10:36.130Z</when>
<when >2025-08-09T15:10:56.000Z</when>
<when >2025-08-09T15:11:14.330Z</when>
<when >2025-08-09T15:11:33.650Z</when>
<when >2025-08-09T15:11:52.450Z</when>
<when >2025-08-09T15:12:12.400Z</when>
<when >2025-08-09T15:12:31.290Z</when>
<when >2025-08-09T15:12:50.930Z</when>
<when >2025-08-09T15:13:10.090Z</when>
<when >2025-08-09T15:13:28.830Z</when>
<when >2025-08-09T15:13:48.550Z</when>
<when >2025-08-09T15:14:08.180Z</when>
<when >2025-08-09T15:14:27.060Z</when>
<when >2025-08-09T15:14:46.840Z</when>
<when >2025-08-09T15:15:06.650Z</when>
<when >2025-08-09T15:15:26.490Z</when>
<when >2025-08-09T15:15:45.230Z</when>
<when >2025-08-09T15:16:04.490Z</when>
<when >2025-08-09T15:16:23.750Z</when>
<when >2025-08-09T15:16:41.760Z</when>
<when >2025-08-09T15:17:01.070Z</when>
<when >2025-08-09T15:17:19.750Z</when>
<when >2025-08-09T15:17:39.610Z</when>
<when >2025-08-09T15:17:58.820Z</when>
<when >2025-08-09T15:18:18.750Z</when>
<when >2025-08-09T15:18:38.450Z</when>
<when >2025-08-09T15:18:57.570Z</when>
<when >2025-08-09T15:19:16.370Z</when>
<when >2025-08-09T15:19:31.510Z</when>
<when >2025-08-09T15:19:43.000Z</when>
<when >2025-08-09T15:19:59.820Z</when>
<when >2025-08-09T15:20:19.450Z</when>
<when >2025-08-09T15:20:39.130Z</when>
<when >2025-08-09T15:20:58.530Z</when>
<when >2025-08-09T15:21:18.110Z</when>
<when >2025-08-09T15:21:37.400Z</when>
<when >2025-08-09T15:21:56.690Z</when>
<when >2025-08-09T15:22:16.440Z</when>
<when >2025-08-09T15:22:36.220Z</when>
<when >2025-08-09T15:22:55.860Z</when>
<when >2025-08-09T15:23:15.710Z</when>
<when >2025-08-09T15:23:35.390Z</when>
<when >2025-08-09T15:23:54.750Z</when>
<when >2025-08-09T15:24:14.190Z</when>
<when >2025-08-09T15:24:33.670Z</when>
<when >2025-08-09T15:24:53.270Z</when>
<when >2025-08-09T15:25:12.880Z</when>
<when >2025-08-09T15:25:32.820Z</when>
<when >2025-08-09T15:25:52.200Z</when>
<when >2025-08-09T15:26:12.110Z</when>
<when >2025-08-09T15:26:31.510Z</when>
<when >2025-08-09T15:26:51.190Z</when>
<when >2025-08-09T15:27:10.720Z</when>
<when >2025-08-09T15:27:30.640Z</when>
<when >2025-08-09T15:27:50.330Z</when>
<when >2025-08-09T15:28:10.110Z</when>
<when >2025-08-09T15:28:29.820Z</when>
<when >2025-08-09T15:28:49.640Z</when>
<when >2025-08-09T15:29:09.550Z</when>
<when >2025-08-09T15:29:29.450Z</when>
<when >2025-08-09T15:29:47.760Z</when>
<when >2025-08-09T15:30:07.290Z</when>
<when >2025-08-09T15:30:27.160Z</when>
<when >2025-08-09T15:30:46.670Z</when>
<when >2025-08-09T15:31:06.210Z</when>
<when >2025-08-09T15:31:25.790Z</when>
<when >2025-08-09T15:31:45.710Z</when>
<when >2025-08-09T15:32:04.940Z</when>
<when >2025-08-09T15:32:24.630Z</when>
<when >2025-08-09T15:32:44.610Z</when>
<when >2025-08-09T15:33:04.440Z</when>
<when >2025-08-09T15:33:24.350Z</when>
<when >2025-08-09T15:33:44.260Z</when>
<when >2025-08-09T15:34:03.700Z</when>
<when >2025-08-09T15:34:23.670Z</when>
<when >2025-08-09T15:34:43.500Z</when>
<when >2025-08-09T15:35:03.170Z</when>
<when >2025-08-09T15:35:23.120Z</when>
<when >2025-08-09T15:35:42.650Z</when>
<when >2025-08-09T15:36:02.470Z</when>
<when >2025-08-09T15:36:22.000Z</when>
<when >2025-08-09T15:36:41.410Z</when>
<when >2025-08-09T15:37:00.610Z</when>
<when >2025-08-09T15:37:20.210Z</when>
<when >2025-08-09T15:37:39.430Z</when>
<when >2025-08-09T15:37:59.130Z</when>
<when >2025-08-09T15:38:18.900Z</when>
<when >2025-08-09T15:38:38.870Z</when>
<when >2025-08-09T15:38:58.330Z</when>
<when >2025-08-09T15:39:18.200Z</when>
<when >2025-08-09T15:39:37.450Z</when>
<when >2025-08-09T15:39:57.050Z</when>
<when >2025-08-09T15:40:16.770Z</when>
<when >2025-08-09T15:40:36.450Z</when>
<when >2025-08-09T15:40:55.870Z</when>
<when >2025-08-09T15:41:15.480Z</when>
<when >2025-08-09T15:41:34.970Z</when>
<when >2025-08-09T15:41:45.390Z</when>
<when >2025-08-09T15:41:58.830Z</when>
<when >2025-08-09T15:42:18.400Z</when>
<when >2025-08-09T15:42:38.220Z</when>
<when >2025-08-09T15:42:58.050Z</when>
<when >2025-08-09T15:43:17.810Z</when>
<when >2025-08-09T15:43:37.810Z</when>
<when >2025-08-09T15:43:57.700Z</when>
<when >2025-08-09T15:44:17.250Z</when>
<when >2025-08-09T15:44:37.080Z</when>
<when >2025-08-09T15:44:56.790Z</when>
<when >2025-08-09T15:45:16.420Z</when>
<when >2025-08-09T15:45:36.240Z</when>
<when >2025-08-09T15:45:55.940Z</when>
<when >2025-08-09T15:46:15.940Z</when>
<when >2025-08-09T15:46:35.860Z</when>
<when >2025-08-09T15:46:55.600Z</when>
<when >2025-08-09T15:47:13.770Z</when>
<when >2025-08-09T15:47:33.550Z</when>
<when >2025-08-09T15:47:52.160Z</when>
<when >2025-08-09T15:48:11.730Z</when>
<when >2025-08-09T15:48:31.320Z</when>
<when >2025-08-09T15:48:50.900Z</when>
<when >2025-08-09T15:49:10.840Z</when>
<when >2025-08-09T15:49:29.950Z</when>
<when >2025-08-09T15:49:49.860Z</when>
<when >2025-08-09T15:50:09.790Z</when>
<when >2025-08-09T15:50:29.730Z</when>
<when >2025-08-09T15:50:49.190Z</when>
<when >2025-08-09T15:51:08.960Z</when>
<when >2025-08-09T15:51:28.690Z</when>
<when >2025-08-09T15:51:48.510Z</when>
<when >2025-08-09T15:52:08.130Z</when>
<when >2025-08-09T15:52:27.740Z</when>
<when >2025-08-09T15:52:47.560Z</when>
<when >2025-08-09T15:53:07.330Z</when>
<when >2025-08-09T15:53:26.880Z</when>
<when >2025-08-09T15:53:46.440Z</when>
<when >2025-08-09T15:54:06.390Z</when>
<when >2025-08-09T15:54:25.890Z</when>
<when >2025-08-09T15:54:45.110Z</when>
<when >2025-08-09T15:54:56.460Z</when>
<when >2025-08-09T15:55:03.210Z</when>
<when >2025-08-09T15:55:08.950Z</when>
<when >2025-08-09T15:55:19.950Z</when>
<when >2025-08-09T15:55:39.670Z</when>
<when >2025-08-09T15:55:59.660Z</when>
<when >2025-08-09T15:56:19.590Z</when>
<when >2025-08-09T15:56:39.300Z</when>
<when >2025-08-09T15:56:59.180Z</when>
<when >2025-08-09T15:57:19.070Z</when>
<when >2025-08-09T15:57:38.600Z</when>
<when >2025-08-09T15:57:58.180Z</when>
<when >2025-08-09T15:58:08.580Z</when>
<when >2025-08-09T15:58:15.070Z</when>
<when >2025-08-09T15:58:20.910Z</when>
<when >2025-08-09T15:58:30.630Z</when>
<when >2025-08-09T15:58:41.840Z</when>
<when >2025-08-09T15:58:53.120Z</when>
<when >2025-08-09T15:58:57.020Z</when>
<when >2025-08-09T15:59:10.660Z</when>
<when >2025-08-09T15:59:18.950Z</when>
<when >2025-08-09T15:59:21.270Z</when>
<when >2025-08-09T15:59:31.900Z</when>
<when >2025-08-09T15:59:43.140Z</when>
<when >2025-08-09T15:59:53.080Z</when>
<when >2025-08-09T15:59:57.000Z</when>
<when >2025-08-09T16:00:09.500Z</when>
<when >2025-08-09T16:00:21.190Z</when>
<when >2025-08-09T16:00:32.420Z</when>
<when >2025-08-09T16:00:43.960Z</when>
<when >2025-08-09T16:00:52.560Z</when>
<when >2025-08-09T16:01:03.690Z</when>
<when >2025-08-09T16:01:15.640Z</when>
<when >2025-08-09T16:01:25.400Z</when>
<when >2025-08-09T16:01:34.730Z</when>
<when >2025-08-09T16:01:43.790Z</when>
<when >2025-08-09T16:01:52.120Z</when>
<when >2025-08-09T16:02:03.360Z</when>
<when >2025-08-09T16:02:15.220Z</when>
<when >2025-08-09T16:02:26.220Z</when>
<when >2025-08-09T16:02:37.820Z</when>
<when >2025-08-09T16:02:49.560Z</when>
<when >2025-08-09T16:03:00.710Z</when>
<when >2025-08-09T16:03:13.360Z</when>
<when >2025-08-09T16:03:24.930Z</when>
<when >2025-08-09T16:03:36.400Z</when>
<when >2025-08-09T16:03:48.620Z</when>
<when >2025-08-09T16:03:51.380Z</when>
<when >2025-08-09T16:04:01.000Z</when>
<when >2025-08-09T16:04:12.720Z</when>
<when >2025-08-09T16:04:25.500Z</when>
<when >2025-08-09T16:04:37.840Z</when>
<when >2025-08-09T16:04:47.310Z</when>
<when >2025-08-09T16:04:58.120Z</when>
<when >2025-08-09T16:05:09.470Z</when>
<when >2025-08-09T16:05:20.470Z</when>
<when >2025-08-09T16:05:31.160Z</when>
<when >2025-08-09T16:05:40.960Z</when>
<when >2025-08-09T16:05:55.020Z</when>
<when >2025-08-09T16:06:03.950Z</when>
<when >2025-08-09T16:06:15.410Z</when>
<when >2025-08-09T16:06:27.160Z</when>
<when >2025-08-09T16:06:35.490Z</when>
<when >2025-08-09T16:06:42.530Z</when>
<when >2025-08-09T16:06:53.910Z</when>
<when >2025-08-09T16:07:06.090Z</when>
<when >2025-08-09T16:07:18.710Z</when>
<when >2025-08-09T16:07:30.430Z</when>
<when >2025-08-09T16:07:41.010Z</when>
<when >2025-08-09T16:07:55.640Z</when>
<when >2025-08-09T16:08:09.260Z</when>
<when >2025-08-09T16:08:21.800Z</when>
<when >2025-08-09T16:08:34.680Z</when>
<when >2025-08-09T16:08:46.780Z</when>
<when >2025-08-09T16:08:59.430Z</when>
<when >2025-08-09T16:09:11.910Z</when>
<when >2025-08-09T16:09:23.750Z</when>
<when >2025-08-09T16:09:35.260Z</when>
<when >2025-08-09T16:09:46.080Z</when>
<when >2025-08-09T16:09:57.760Z</when>
<when >2025-08-09T16:10:05.350Z</when>
<when >2025-08-09T16:10:13.270Z</when>
<when >2025-08-09T16:10:20.970Z</when>
<when >2025-08-09T16:10:27.990Z</when>
<when >2025-08-09T16:10:35.430Z</when>
<when >2025-08-09T16:10:42.820Z</when>
<when >2025-08-09T16:10:50.120Z</when>
<when >2025-08-09T16:10:57.540Z</when>
<when >2025-08-09T16:11:04.770Z</when>
<when >2025-08-09T16:11:12.300Z</when>
<when >2025-08-09T16:11:19.650Z</when>
<when >2025-08-09T16:11:26.670Z</when>
<when >2025-08-09T16:11:32.590Z</when>
<when >2025-08-09T16:11:36.010Z</when>
<when >2025-08-09T16:11:45.340Z</when>
<when >2025-08-09T16:11:52.950Z</when>
<when >2025-08-09T16:12:00.570Z</when>
<when >2025-08-09T16:12:07.750Z</when>
<when >2025-08-09T16:12:15.280Z</when>
<when >2025-08-09T16:12:23.340Z</when>
<when >2025-08-09T16:12:30.580Z</when>
<when >2025-08-09T16:12:36.960Z</when>
<when >2025-08-09T16:12:44.570Z</when>
<when >2025-08-09T16:12:51.360Z</when>
<when >2025-08-09T16:12:59.550Z</when>
<when >2025-08-09T16:13:07.180Z</when>
<when >2025-08-09T16:13:14.390Z</when>
<when >2025-08-09T16:13:19.800Z</when>
<when >2025-08-09T16:13:22.960Z</when>
<when >2025-08-09T16:13:25.830Z</when>
<when >2025-08-09T16:13:28.960Z</when>
<when >2025-08-09T16:13:32.270Z</when>
<when >2025-08-09T16:13:36.250Z</when>
<when >2025-08-09T16:13:39.600Z</when>
<when >2025-08-09T16:13:43.240Z</when>
<when >2025-08-09T16:13:48.110Z</when>
<when >2025-08-09T16:13:52.050Z</when>
<when >2025-08-09T16:13:57.000Z</when>
<when >2025-08-09T16:14:00.900Z</when>
<when >2025-08-09T16:14:05.840Z</when>
<when >2025-08-09T16:14:10.900Z</when>
<when >2025-08-09T16:14:15.070Z</when>
<when >2025-08-09T16:14:18.790Z</when>
<when >2025-08-09T16:14:23.860Z</when>
<when >2025-08-09T16:14:28.220Z</when>
<when >2025-08-09T16:14:33.260Z</when>
<when >2025-08-09T16:14:37.950Z</when>
<when >2025-08-09T16:14:42.740Z</when>
<when >2025-08-09T16:14:46.720Z</when>
<when >2025-08-09T16:14:50.660Z</when>
<when >2025-08-09T16:14:54.730Z</when>
<when >2025-08-09T16:14:58.800Z</when>
<when >2025-08-09T16:15:03.810Z</when>
<when >2025-08-09T16:15:07.330Z</when>
<when >2025-08-09T16:15:11.230Z</when>
<when >2025-08-09T16:15:15.960Z</when>
<when >2025-08-09T16:15:20.880Z</when>
<when >2025-08-09T16:15:26.430Z</when>
<when >2025-08-09T16:15:31.990Z</when>
<when >2025-08-09T16:15:38.260Z</when>
<when >2025-08-09T16:15:43.540Z</when>
<when >2025-08-09T16:15:45.720Z</when>
<when >2025-08-09T16:15:48.300Z</when>
<when >2025-08-09T16:15:51.690Z</when>
<when >2025-08-09T16:15:53.650Z</when>
<when >2025-08-09T16:15:58.450Z</when>
<when >2025-08-09T16:16:05.300Z</when>
<when >2025-08-09T16:16:09.140Z</when>
<when >2025-08-09T16:16:15.970Z</when>
<when >2025-08-09T16:16:19.490Z</when>
<when >2025-08-09T16:16:25.450Z</when>
<when >2025-08-09T16:16:32.420Z</when>
<when >2025-08-09T16:16:35.050Z</when>
<when >2025-08-09T16:16:38.110Z</when>
<when >2025-08-09T16:16:41.260Z</when>
<when >2025-08-09T16:16:44.400Z</when>
<when >2025-08-09T16:16:47.090Z</when>
<when >2025-08-09T16:16:50.660Z</when>
<when >2025-08-09T16:16:52.280Z</when>
<when >2025-08-09T16:16:56.010Z</when>
<when >2025-08-09T16:16:57.430Z</when>
<when >2025-08-09T16:17:01.450Z</when>
<when >2025-08-09T16:17:07.520Z</when>
<when >2025-08-09T16:17:12.380Z</when>
<when >2025-08-09T16:17:14.800Z</when>
<when >2025-08-09T16:17:17.540Z</when>
<when >2025-08-09T16:17:21.490Z</when>
<when >2025-08-09T16:17:26.450Z</when>
<when >2025-08-09T16:17:32.470Z</when>
<when >2025-08-09T16:17:36.800Z</when>
<when >2025-08-09T16:17:42.300Z</when>
<when >2025-08-09T16:17:47.680Z</when>
<when >2025-08-09T16:17:54.550Z</when>
<when >2025-08-09T16:17:57.840Z</when>
<when >2025-08-09T16:18:02.640Z</when>
<when >2025-08-09T16:18:07.900Z</when>
<when >2025-08-09T16:18:13.320Z</when>
<when >2025-08-09T16:18:20.320Z</when>
<when >2025-08-09T16:18:27.430Z</when>
<when >2025-08-09T16:18:34.710Z</when>
<when >2025-08-09T16:18:42.860Z</when>
<when >2025-08-09T16:18:49.830Z</when>
<when >2025-08-09T16:18:57.860Z</when>
<when >2025-08-09T16:19:05.240Z</when>
<when >2025-08-09T16:19:12.390Z</when>
<when >2025-08-09T16:19:20.650Z</when>
<when >2025-08-09T16:19:27.060Z</when>
<when >2025-08-09T16:19:34.650Z</when>
<when >2025-08-09T16:19:43.110Z</when>
<when >2025-08-09T16:19:49.700Z</when>
<when >2025-08-09T16:19:57.980Z</when>
<when >2025-08-09T16:20:04.480Z</when>
<when >2025-08-09T16:20:08.200Z</when>
<when >2025-08-09T16:20:10.420Z</when>
<when >2025-08-09T16:20:13.680Z</when>
<when >2025-08-09T16:20:18.500Z</when>
<when >2025-08-09T16:20:18.500Z</when>
<gx:coord >20.878757 37.765228 194</gx:coord>
<gx:coord >20.878757 37.765228 194</gx:coord>
<gx:coord >20.878442 37.765968 233</gx:coord>
<gx:coord >20.87753 37.768066 278</gx:coord>
<gx:coord >20.87683 37.769693 306</gx:coord>
<gx:coord >20.876244 37.771133 336</gx:coord>
<gx:coord >20.875309 37.773331 383</gx:coord>
<gx:coord >20.874441 37.775419 414</gx:coord>
<gx:coord >20.873497 37.777771 450</gx:coord>
<gx:coord >20.872212 37.780884 480</gx:coord>
<gx:coord >20.870262 37.785893 531</gx:coord>
<gx:coord >20.869008 37.789058 547</gx:coord>
<gx:coord >20.868351 37.790734 562</gx:coord>
<gx:coord >20.86662 37.795203 588</gx:coord>
<gx:coord >20.865605 37.797857 607</gx:coord>
<gx:coord >20.86459 37.800557 632</gx:coord>
<gx:coord >20.863329 37.804138 667</gx:coord>
<gx:coord >20.862336 37.806793 697</gx:coord>
<gx:coord >20.860947 37.810519 734</gx:coord>
<gx:coord >20.85994 37.813385 769</gx:coord>
<gx:coord >20.85883 37.81636 815</gx:coord>
<gx:coord >20.857783 37.819224 854</gx:coord>
<gx:coord >20.856768 37.822017 887</gx:coord>
<gx:coord >20.855791 37.824829 919</gx:coord>
<gx:coord >20.85468 37.82785 958</gx:coord>
<gx:coord >20.853842 37.83035 983</gx:coord>
<gx:coord >20.852588 37.833888 1015</gx:coord>
<gx:coord >20.851931 37.835657 1037</gx:coord>
<gx:coord >20.850976 37.838497 1078</gx:coord>
<gx:coord >20.849961 37.841383 1118</gx:coord>
<gx:coord >20.84907 37.843918 1147</gx:coord>
<gx:coord >20.848194 37.846619 1179</gx:coord>
<gx:coord >20.847573 37.848552 1209</gx:coord>
<gx:coord >20.846616 37.851425 1255</gx:coord>
<gx:coord >20.845564 37.854446 1296</gx:coord>
<gx:coord >20.844707 37.856838 1328</gx:coord>
<gx:coord >20.843869 37.859253 1367</gx:coord>
<gx:coord >20.843154 37.861354 1387</gx:coord>
<gx:coord >20.841781 37.865451 1445</gx:coord>
<gx:coord >20.840655 37.870422 1493</gx:coord>
<gx:coord >20.84048 37.872345 1534</gx:coord>
<gx:coord >20.840539 37.875504 1562</gx:coord>
<gx:coord >20.841542 37.88072 1630</gx:coord>
<gx:coord >20.8419 37.881744 1638</gx:coord>
<gx:coord >20.842736 37.883839 1662</gx:coord>
<gx:coord >20.844348 37.886911 1689</gx:coord>
<gx:coord >20.84608 37.889704 1722</gx:coord>
<gx:coord >20.847334 37.891566 1757</gx:coord>
<gx:coord >20.850415 37.896057 1813</gx:coord>
<gx:coord >20.852109 37.898483 1851</gx:coord>
<gx:coord >20.854388 37.901871 1890</gx:coord>
<gx:coord >20.8562 37.904709 1939</gx:coord>
<gx:coord >20.857962 37.907348 1965</gx:coord>
<gx:coord >20.859455 37.909722 1999</gx:coord>
<gx:coord >20.861342 37.912674 2031</gx:coord>
<gx:coord >20.862979 37.915283 2062</gx:coord>
<gx:coord >20.865007 37.91852 2092</gx:coord>
<gx:coord >20.865842 37.919861 2113</gx:coord>
<gx:coord >20.86742 37.922333 2144</gx:coord>
<gx:coord >20.869582 37.925766 2183</gx:coord>
<gx:coord >20.870739 37.927598 2203</gx:coord>
<gx:coord >20.871627 37.929016 2230</gx:coord>
<gx:coord >20.874257 37.933182 2276</gx:coord>
<gx:coord >20.87677 37.937188 2321</gx:coord>
<gx:coord >20.880114 37.942448 2379</gx:coord>
<gx:coord >20.883338 37.947569 2444</gx:coord>
<gx:coord >20.886204 37.952131 2509</gx:coord>
<gx:coord >20.88907 37.956553 2569</gx:coord>
<gx:coord >20.891219 37.959998 2622</gx:coord>
<gx:coord >20.8936 37.963715 2685</gx:coord>
<gx:coord >20.894886 37.965729 2711</gx:coord>
<gx:coord >20.896288 37.968201 2730</gx:coord>
<gx:coord >20.897515 37.970673 2746</gx:coord>
<gx:coord >20.89928 37.97564 2773</gx:coord>
<gx:coord >20.899997 37.978945 2784</gx:coord>
<gx:coord >20.900415 37.982157 2801</gx:coord>
<gx:coord >20.900832 37.986254 2820</gx:coord>
<gx:coord >20.901256 37.992554 2840</gx:coord>
<gx:coord >20.901489 37.996728 2866</gx:coord>
<gx:coord >20.901728 38.000778 2886</gx:coord>
<gx:coord >20.902146 38.009157 2931</gx:coord>
<gx:coord >20.902445 38.015349 2971</gx:coord>
<gx:coord >20.902716 38.019653 3011</gx:coord>
<gx:coord >20.903009 38.025101 3068</gx:coord>
<gx:coord >20.903221 38.029035 3112</gx:coord>
<gx:coord >20.903535 38.03421 3174</gx:coord>
<gx:coord >20.903885 38.040115 3241</gx:coord>
<gx:coord >20.904236 38.046213 3293</gx:coord>
<gx:coord >20.904294 38.046936 3303</gx:coord>
<gx:coord >20.904586 38.051697 3330</gx:coord>
<gx:coord >20.904773 38.053941 3337</gx:coord>
<gx:coord >20.905609 38.066742 3389</gx:coord>
<gx:coord >20.906398 38.077469 3419</gx:coord>
<gx:coord >20.907158 38.088593 3450</gx:coord>
<gx:coord >20.907976 38.100906 3503</gx:coord>
<gx:coord >20.908774 38.112038 3548</gx:coord>
<gx:coord >20.909554 38.122742 3603</gx:coord>
<gx:coord >20.910326 38.133126 3661</gx:coord>
<gx:coord >20.910898 38.141464 3739</gx:coord>
<gx:coord >20.911699 38.152492 3823</gx:coord>
<gx:coord >20.912535 38.163897 3884</gx:coord>
<gx:coord >20.913849 38.183635 3976</gx:coord>
<gx:coord >20.914988 38.20015 4143</gx:coord>
<gx:coord >20.915982 38.21553 4257</gx:coord>
<gx:coord >20.9168 38.233063 4375</gx:coord>
<gx:coord >20.916625 38.241257 4437</gx:coord>
<gx:coord >20.915342 38.258677 4532</gx:coord>
<gx:coord >20.913352 38.283005 4669</gx:coord>
<gx:coord >20.911716 38.306076 4776</gx:coord>
<gx:coord >20.910372 38.32663 4920</gx:coord>
<gx:coord >20.909086 38.347092 5042</gx:coord>
<gx:coord >20.907759 38.368494 5164</gx:coord>
<gx:coord >20.906398 38.391129 5279</gx:coord>
<gx:coord >20.905072 38.4123 5393</gx:coord>
<gx:coord >20.903809 38.432503 5514</gx:coord>
<gx:coord >20.902504 38.45256 5628</gx:coord>
<gx:coord >20.901071 38.474487 5758</gx:coord>
<gx:coord >20.899719 38.49507 5880</gx:coord>
<gx:coord >20.898862 38.509186 5963</gx:coord>
<gx:coord >20.897728 38.526443 6062</gx:coord>
<gx:coord >20.896484 38.545998 6215</gx:coord>
<gx:coord >20.895203 38.566248 6329</gx:coord>
<gx:coord >20.894145 38.58252 6405</gx:coord>
<gx:coord >20.892334 38.61024 6512</gx:coord>
<gx:coord >20.890869 38.633656 6619</gx:coord>
<gx:coord >20.889309 38.657364 6733</gx:coord>
<gx:coord >20.887512 38.684723 6817</gx:coord>
<gx:coord >20.885905 38.709457 6969</gx:coord>
<gx:coord >20.884216 38.736071 7061</gx:coord>
<gx:coord >20.882324 38.766283 7143</gx:coord>
<gx:coord >20.88092 38.789373 7210</gx:coord>
<gx:coord >20.88031 38.798264 7245</gx:coord>
<gx:coord >20.878681 38.822754 7357</gx:coord>
<gx:coord >20.876651 38.855988 7463</gx:coord>
<gx:coord >20.874756 38.885689 7547</gx:coord>
<gx:coord >20.872925 38.91404 7662</gx:coord>
<gx:coord >20.871217 38.940857 7760</gx:coord>
<gx:coord >20.869366 38.970245 7866</gx:coord>
<gx:coord >20.867554 38.998439 7965</gx:coord>
<gx:coord >20.865724 39.026505 8049</gx:coord>
<gx:coord >20.863574 39.058548 8164</gx:coord>
<gx:coord >20.861724 39.086197 8262</gx:coord>
<gx:coord >20.859634 39.117599 8353</gx:coord>
<gx:coord >20.857361 39.151223 8467</gx:coord>
<gx:coord >20.85553 39.178969 8559</gx:coord>
<gx:coord >20.853424 39.210297 8643</gx:coord>
<gx:coord >20.851807 39.235529 8756</gx:coord>
<gx:coord >20.849304 39.27319 8824</gx:coord>
<gx:coord >20.847274 39.303497 8924</gx:coord>
<gx:coord >20.845125 39.336594 9007</gx:coord>
<gx:coord >20.842957 39.370065 9090</gx:coord>
<gx:coord >20.840706 39.403931 9166</gx:coord>
<gx:coord >20.838557 39.436707 9265</gx:coord>
<gx:coord >20.836527 39.469482 9349</gx:coord>
<gx:coord >20.834198 39.506561 9447</gx:coord>
<gx:coord >20.83175 39.542953 9523</gx:coord>
<gx:coord >20.829529 39.575035 9607</gx:coord>
<gx:coord >20.827026 39.606132 9675</gx:coord>
<gx:coord >20.824402 39.625358 9713</gx:coord>
<gx:coord >20.8216 39.641373 9759</gx:coord>
<gx:coord >20.817139 39.661901 9797</gx:coord>
<gx:coord >20.812744 39.678567 9827</gx:coord>
<gx:coord >20.806553 39.699051 9850</gx:coord>
<gx:coord >20.7995 39.719021 9888</gx:coord>
<gx:coord >20.792044 39.737732 9942</gx:coord>
<gx:coord >20.783447 39.756961 10002</gx:coord>
<gx:coord >20.775513 39.773068 10070</gx:coord>
<gx:coord >20.766541 39.789874 10131</gx:coord>
<gx:coord >20.756995 39.806351 10200</gx:coord>
<gx:coord >20.742247 39.830429 10291</gx:coord>
<gx:coord >20.728753 39.852585 10428</gx:coord>
<gx:coord >20.720036 39.867004 10497</gx:coord>
<gx:coord >20.713867 39.877252 10535</gx:coord>
<gx:coord >20.693848 39.910444 10626</gx:coord>
<gx:coord >20.676145 39.939586 10709</gx:coord>
<gx:coord >20.658386 39.968811 10801</gx:coord>
<gx:coord >20.638611 40.001129 10877</gx:coord>
<gx:coord >20.620483 40.030975 10976</gx:coord>
<gx:coord >20.61084 40.048325 11022</gx:coord>
<gx:coord >20.601363 40.067371 11060</gx:coord>
<gx:coord >20.595886 40.079407 11067</gx:coord>
<gx:coord >20.587891 40.099136 11074</gx:coord>
<gx:coord >20.581263 40.117601 11082</gx:coord>
<gx:coord >20.576233 40.133835 11082</gx:coord>
<gx:coord >20.565063 40.17334 11082</gx:coord>
<gx:coord >20.55304 40.21344 11074</gx:coord>
<gx:coord >20.540751 40.254046 11074</gx:coord>
<gx:coord >20.528992 40.293045 11073</gx:coord>
<gx:coord >20.517517 40.331223 11073</gx:coord>
<gx:coord >20.505544 40.370659 11073</gx:coord>
<gx:coord >20.493996 40.408925 11073</gx:coord>
<gx:coord >20.482239 40.448364 11073</gx:coord>
<gx:coord >20.470838 40.486388 11072</gx:coord>
<gx:coord >20.45904 40.525725 11072</gx:coord>
<gx:coord >20.447242 40.564549 11072</gx:coord>
<gx:coord >20.436568 40.599696 11072</gx:coord>
<gx:coord >20.42395 40.641312 11072</gx:coord>
<gx:coord >20.412537 40.67894 11072</gx:coord>
<gx:coord >20.40033 40.719177 11071</gx:coord>
<gx:coord >20.388245 40.758774 11071</gx:coord>
<gx:coord >20.376221 40.797913 11071</gx:coord>
<gx:coord >20.364807 40.835403 11071</gx:coord>
<gx:coord >20.352661 40.875275 11071</gx:coord>
<gx:coord >20.340881 40.914047 11063</gx:coord>
<gx:coord >20.329468 40.951218 11056</gx:coord>
<gx:coord >20.316711 40.992828 11063</gx:coord>
<gx:coord >20.304749 41.031921 11063</gx:coord>
<gx:coord >20.292358 41.072067 11063</gx:coord>
<gx:coord >20.280334 41.111618 11062</gx:coord>
<gx:coord >20.268555 41.150528 11062</gx:coord>
<gx:coord >20.256667 41.189001 11062</gx:coord>
<gx:coord >20.244263 41.229538 11062</gx:coord>
<gx:coord >20.232422 41.268036 11062</gx:coord>
<gx:coord >20.219838 41.309013 11062</gx:coord>
<gx:coord >20.207665 41.348163 11062</gx:coord>
<gx:coord >20.196228 41.384674 11062</gx:coord>
<gx:coord >20.183737 41.425347 11062</gx:coord>
<gx:coord >20.171793 41.464078 11070</gx:coord>
<gx:coord >20.159662 41.502777 11062</gx:coord>
<gx:coord >20.147776 41.540424 11062</gx:coord>
<gx:coord >20.135817 41.578262 11062</gx:coord>
<gx:coord >20.12352 41.617538 11062</gx:coord>
<gx:coord >20.111285 41.656631 11062</gx:coord>
<gx:coord >20.098401 41.697724 11062</gx:coord>
<gx:coord >20.08538 41.739258 11055</gx:coord>
<gx:coord >20.072708 41.779495 11055</gx:coord>
<gx:coord >20.060652 41.818061 11054</gx:coord>
<gx:coord >20.047989 41.858139 11054</gx:coord>
<gx:coord >20.035567 41.89769 11054</gx:coord>
<gx:coord >20.024643 41.932388 11061</gx:coord>
<gx:coord >20.011035 41.975739 11054</gx:coord>
<gx:coord >19.998488 42.015244 11054</gx:coord>
<gx:coord >19.987002 42.05127 11054</gx:coord>
<gx:coord >19.974486 42.090625 11054</gx:coord>
<gx:coord >19.962094 42.129961 11054</gx:coord>
<gx:coord >19.950597 42.166086 11054</gx:coord>
<gx:coord >19.938375 42.204391 11054</gx:coord>
<gx:coord >19.926203 42.242203 11053</gx:coord>
<gx:coord >19.914218 42.280334 11053</gx:coord>
<gx:coord >19.902482 42.317459 11045</gx:coord>
<gx:coord >19.889748 42.357513 11045</gx:coord>
<gx:coord >19.877139 42.396744 11045</gx:coord>
<gx:coord >19.870397 42.418762 11045</gx:coord>
<gx:coord >19.865903 42.435837 11045</gx:coord>
<gx:coord >19.861658 42.456253 11044</gx:coord>
<gx:coord >19.858912 42.472824 11044</gx:coord>
<gx:coord >19.856727 42.491272 11044</gx:coord>
<gx:coord >19.855478 42.506882 11044</gx:coord>
<gx:coord >19.854722 42.527843 11044</gx:coord>
<gx:coord >19.85485 42.546651 11044</gx:coord>
<gx:coord >19.855744 42.565271 11044</gx:coord>
<gx:coord >19.858662 42.605301 11044</gx:coord>
<gx:coord >19.861173 42.646552 11051</gx:coord>
<gx:coord >19.863406 42.687103 11051</gx:coord>
<gx:coord >19.865528 42.723724 11051</gx:coord>
<gx:coord >19.86815 42.766434 11051</gx:coord>
<gx:coord >19.870647 42.80452 11057</gx:coord>
<gx:coord >19.873025 42.843002 11042</gx:coord>
<gx:coord >19.875706 42.886622 11050</gx:coord>
<gx:coord >19.878419 42.929031 11057</gx:coord>
<gx:coord >19.880938 42.966971 11050</gx:coord>
<gx:coord >19.883402 43.005524 11041</gx:coord>
<gx:coord >19.886039 43.046854 11041</gx:coord>
<gx:coord >19.888654 43.088425 11041</gx:coord>
<gx:coord >19.891066 43.127838 11041</gx:coord>
<gx:coord >19.893749 43.170044 11049</gx:coord>
<gx:coord >19.896371 43.211556 11049</gx:coord>
<gx:coord >19.899052 43.25336 11049</gx:coord>
<gx:coord >19.901603 43.294279 11049</gx:coord>
<gx:coord >19.904415 43.337294 11049</gx:coord>
<gx:coord >19.907099 43.378967 11049</gx:coord>
<gx:coord >19.909777 43.420576 11049</gx:coord>
<gx:coord >19.912262 43.459214 11049</gx:coord>
<gx:coord >19.914636 43.495514 11041</gx:coord>
<gx:coord >19.917624 43.541239 11041</gx:coord>
<gx:coord >19.920448 43.583221 11033</gx:coord>
<gx:coord >19.923003 43.624786 11033</gx:coord>
<gx:coord >19.925472 43.664044 11033</gx:coord>
<gx:coord >19.927957 43.703101 11026</gx:coord>
<gx:coord >19.930477 43.742569 11018</gx:coord>
<gx:coord >19.933223 43.784363 11026</gx:coord>
<gx:coord >19.935587 43.821625 11026</gx:coord>
<gx:coord >19.938158 43.862636 11026</gx:coord>
<gx:coord >19.94076 43.903519 11026</gx:coord>
<gx:coord >19.943188 43.941833 11027</gx:coord>
<gx:coord >19.945615 43.978958 11027</gx:coord>
<gx:coord >19.948425 44.020867 11034</gx:coord>
<gx:coord >19.950916 44.058243 11034</gx:coord>
<gx:coord >19.953657 44.099494 11042</gx:coord>
<gx:coord >19.95641 44.142105 11042</gx:coord>
<gx:coord >19.958901 44.179642 11050</gx:coord>
<gx:coord >19.96157 44.22084 11042</gx:coord>
<gx:coord >19.964251 44.261307 11034</gx:coord>
<gx:coord >19.967115 44.303066 11034</gx:coord>
<gx:coord >19.969728 44.342822 11035</gx:coord>
<gx:coord >19.972207 44.380855 11035</gx:coord>
<gx:coord >19.974819 44.421588 11035</gx:coord>
<gx:coord >19.977432 44.460553 11028</gx:coord>
<gx:coord >19.980178 44.501565 11028</gx:coord>
<gx:coord >19.982858 44.54146 11028</gx:coord>
<gx:coord >19.985538 44.581682 11028</gx:coord>
<gx:coord >19.988316 44.623398 11020</gx:coord>
<gx:coord >19.990867 44.66272 11020</gx:coord>
<gx:coord >19.993548 44.703918 11013</gx:coord>
<gx:coord >19.996055 44.741495 11020</gx:coord>
<gx:coord >19.998779 44.781372 11013</gx:coord>
<gx:coord >20.001414 44.820076 11013</gx:coord>
<gx:coord >20.003893 44.857131 11020</gx:coord>
<gx:coord >20.006823 44.899796 11020</gx:coord>
<gx:coord >20.009453 44.938039 11020</gx:coord>
<gx:coord >20.012316 44.978943 11020</gx:coord>
<gx:coord >20.014932 45.017761 11013</gx:coord>
<gx:coord >20.017358 45.054932 11013</gx:coord>
<gx:coord >20.020229 45.098282 11013</gx:coord>
<gx:coord >20.02291 45.137421 11013</gx:coord>
<gx:coord >20.025526 45.176102 11013</gx:coord>
<gx:coord >20.028277 45.21698 11013</gx:coord>
<gx:coord >20.031091 45.258877 11020</gx:coord>
<gx:coord >20.033703 45.296212 11020</gx:coord>
<gx:coord >20.036517 45.336247 11013</gx:coord>
<gx:coord >20.03933 45.376654 11013</gx:coord>
<gx:coord >20.041876 45.413756 11013</gx:coord>
<gx:coord >20.044489 45.452953 11013</gx:coord>
<gx:coord >20.046975 45.490082 11013</gx:coord>
<gx:coord >20.049848 45.531487 11005</gx:coord>
<gx:coord >20.052594 45.570282 11013</gx:coord>
<gx:coord >20.055405 45.610998 11005</gx:coord>
<gx:coord >20.058088 45.650391 11005</gx:coord>
<gx:coord >20.060829 45.690463 11013</gx:coord>
<gx:coord >20.063514 45.72789 11005</gx:coord>
<gx:coord >20.065858 45.757507 11005</gx:coord>
<gx:coord >20.069 45.781984 11005</gx:coord>
<gx:coord >20.074356 45.815735 11005</gx:coord>
<gx:coord >20.080879 45.85414 10990</gx:coord>
<gx:coord >20.087295 45.894699 10990</gx:coord>
<gx:coord >20.093257 45.933655 10990</gx:coord>
<gx:coord >20.098938 45.972383 10990</gx:coord>
<gx:coord >20.104706 46.01144 10990</gx:coord>
<gx:coord >20.110474 46.050751 10983</gx:coord>
<gx:coord >20.116101 46.088928 10991</gx:coord>
<gx:coord >20.122063 46.12944 10991</gx:coord>
<gx:coord >20.127983 46.169811 10991</gx:coord>
<gx:coord >20.133116 46.20488 10991</gx:coord>
<gx:coord >20.139614 46.249146 10998</gx:coord>
<gx:coord >20.145442 46.288147 10998</gx:coord>
<gx:coord >20.151203 46.326508 10998</gx:coord>
<gx:coord >20.157233 46.366562 10998</gx:coord>
<gx:coord >20.163002 46.404993 10991</gx:coord>
<gx:coord >20.168822 46.443695 10991</gx:coord>
<gx:coord >20.175052 46.48526 10991</gx:coord>
<gx:coord >20.180786 46.523748 10983</gx:coord>
<gx:coord >20.186829 46.56341 10983</gx:coord>
<gx:coord >20.192737 46.602859 10983</gx:coord>
<gx:coord >20.19857 46.641665 10976</gx:coord>
<gx:coord >20.204407 46.679977 10976</gx:coord>
<gx:coord >20.210518 46.719826 10976</gx:coord>
<gx:coord >20.21656 46.759488 10976</gx:coord>
<gx:coord >20.222548 46.798965 10976</gx:coord>
<gx:coord >20.228302 46.837231 10976</gx:coord>
<gx:coord >20.234281 46.877266 10960</gx:coord>
<gx:coord >20.240181 46.91597 10968</gx:coord>
<gx:coord >20.246292 46.956024 10960</gx:coord>
<gx:coord >20.251854 46.992142 10960</gx:coord>
<gx:coord >20.257803 47.030795 10968</gx:coord>
<gx:coord >20.263789 47.070457 10968</gx:coord>
<gx:coord >20.269564 47.108304 10960</gx:coord>
<gx:coord >20.275681 47.147781 10977</gx:coord>
<gx:coord >20.281723 47.186691 10969</gx:coord>
<gx:coord >20.287766 47.226105 10969</gx:coord>
<gx:coord >20.29365 47.263928 10977</gx:coord>
<gx:coord >20.299706 47.303079 10961</gx:coord>
<gx:coord >20.305622 47.341671 10961</gx:coord>
<gx:coord >20.31189 47.381659 10961</gx:coord>
<gx:coord >20.317978 47.421387 10961</gx:coord>
<gx:coord >20.324144 47.460938 10961</gx:coord>
<gx:coord >20.330132 47.499298 10961</gx:coord>
<gx:coord >20.336327 47.539006 10954</gx:coord>
<gx:coord >20.342525 47.578435 10954</gx:coord>
<gx:coord >20.348534 47.617035 10954</gx:coord>
<gx:coord >20.354713 47.656906 10954</gx:coord>
<gx:coord >20.360835 47.6957 10946</gx:coord>
<gx:coord >20.366962 47.734851 10946</gx:coord>
<gx:coord >20.373116 47.773682 10946</gx:coord>
<gx:coord >20.379146 47.812034 10946</gx:coord>
<gx:coord >20.385202 47.850533 10954</gx:coord>
<gx:coord >20.391118 47.888659 10954</gx:coord>
<gx:coord >20.397285 47.927536 10946</gx:coord>
<gx:coord >20.403513 47.966634 10946</gx:coord>
<gx:coord >20.409645 48.005447 10938</gx:coord>
<gx:coord >20.415978 48.044935 10938</gx:coord>
<gx:coord >20.422175 48.083201 10938</gx:coord>
<gx:coord >20.428459 48.122177 10938</gx:coord>
<gx:coord >20.43457 48.160385 10931</gx:coord>
<gx:coord >20.440627 48.198624 10923</gx:coord>
<gx:coord >20.446754 48.237167 10923</gx:coord>
<gx:coord >20.452857 48.275788 10923</gx:coord>
<gx:coord >20.458867 48.312973 10923</gx:coord>
<gx:coord >20.465205 48.352066 10908</gx:coord>
<gx:coord >20.47098 48.389969 10908</gx:coord>
<gx:coord >20.473095 48.410463 10908</gx:coord>
<gx:coord >20.474642 48.437073 10915</gx:coord>
<gx:coord >20.476332 48.475204 10907</gx:coord>
<gx:coord >20.478371 48.514135 10915</gx:coord>
<gx:coord >20.480901 48.55296 10922</gx:coord>
<gx:coord >20.483657 48.591248 10915</gx:coord>
<gx:coord >20.486685 48.631577 10922</gx:coord>
<gx:coord >20.489647 48.670737 10931</gx:coord>
<gx:coord >20.49253 48.709305 10923</gx:coord>
<gx:coord >20.495429 48.748526 10923</gx:coord>
<gx:coord >20.49832 48.787118 10923</gx:coord>
<gx:coord >20.501333 48.826172 10908</gx:coord>
<gx:coord >20.504319 48.863929 10900</gx:coord>
<gx:coord >20.507179 48.902069 10900</gx:coord>
<gx:coord >20.509855 48.940155 10900</gx:coord>
<gx:coord >20.512559 48.978634 10900</gx:coord>
<gx:coord >20.515418 49.0177 10900</gx:coord>
<gx:coord >20.518124 49.053024 10900</gx:coord>
<gx:coord >20.521015 49.09143 10900</gx:coord>
<gx:coord >20.523869 49.12793 10893</gx:coord>
<gx:coord >20.526725 49.165774 10886</gx:coord>
<gx:coord >20.529574 49.204239 10894</gx:coord>
<gx:coord >20.532508 49.242492 10894</gx:coord>
<gx:coord >20.53556 49.281418 10894</gx:coord>
<gx:coord >20.538434 49.318605 10886</gx:coord>
<gx:coord >20.541398 49.357243 10878</gx:coord>
<gx:coord >20.544363 49.39595 10879</gx:coord>
<gx:coord >20.547252 49.434494 10879</gx:coord>
<gx:coord >20.550075 49.472646 10872</gx:coord>
<gx:coord >20.552962 49.510803 10879</gx:coord>
<gx:coord >20.555865 49.549411 10879</gx:coord>
<gx:coord >20.558817 49.587662 10887</gx:coord>
<gx:coord >20.561853 49.62616 10880</gx:coord>
<gx:coord >20.564699 49.664208 10873</gx:coord>
<gx:coord >20.567563 49.702423 10873</gx:coord>
<gx:coord >20.570526 49.740601 10873</gx:coord>
<gx:coord >20.573533 49.778168 10865</gx:coord>
<gx:coord >20.576502 49.815922 10858</gx:coord>
<gx:coord >20.579545 49.854793 10858</gx:coord>
<gx:coord >20.58238 49.892258 10865</gx:coord>
<gx:coord >20.585271 49.929886 10866</gx:coord>
<gx:coord >20.58734 49.951948 10859</gx:coord>
<gx:coord >20.58968 49.965042 10859</gx:coord>
<gx:coord >20.592499 49.975891 10859</gx:coord>
<gx:coord >20.599148 49.997635 10866</gx:coord>
<gx:coord >20.61102 50.036021 10866</gx:coord>
<gx:coord >20.622303 50.074613 10866</gx:coord>
<gx:coord >20.633512 50.113205 10859</gx:coord>
<gx:coord >20.644828 50.151535 10851</gx:coord>
<gx:coord >20.656153 50.189876 10851</gx:coord>
<gx:coord >20.667436 50.228049 10851</gx:coord>
<gx:coord >20.678727 50.265427 10843</gx:coord>
<gx:coord >20.690225 50.302905 10843</gx:coord>
<gx:coord >20.696363 50.323105 10828</gx:coord>
<gx:coord >20.700024 50.335166 10798</gx:coord>
<gx:coord >20.703438 50.346385 10760</gx:coord>
<gx:coord >20.709006 50.364913 10676</gx:coord>
<gx:coord >20.715372 50.386047 10562</gx:coord>
<gx:coord >20.721588 50.406738 10435</gx:coord>
<gx:coord >20.723756 50.414108 10408</gx:coord>
<gx:coord >20.731201 50.439102 10303</gx:coord>
<gx:coord >20.735729 50.454433 10232</gx:coord>
<gx:coord >20.736917 50.458203 10207</gx:coord>
<gx:coord >20.742707 50.477802 10082</gx:coord>
<gx:coord >20.748646 50.497912 9968</gx:coord>
<gx:coord >20.75399 50.516021 9837</gx:coord>
<gx:coord >20.756069 50.522957 9795</gx:coord>
<gx:coord >20.762498 50.54512 9686</gx:coord>
<gx:coord >20.768569 50.565674 9564</gx:coord>
<gx:coord >20.774496 50.585449 9450</gx:coord>
<gx:coord >20.780567 50.60527 9336</gx:coord>
<gx:coord >20.785242 50.620484 9237</gx:coord>
<gx:coord >20.791181 50.639757 9107</gx:coord>
<gx:coord >20.797408 50.660065 8977</gx:coord>
<gx:coord >20.802538 50.677002 8886</gx:coord>
<gx:coord >20.807437 50.693207 8749</gx:coord>
<gx:coord >20.812149 50.708841 8619</gx:coord>
<gx:coord >20.816419 50.723236 8513</gx:coord>
<gx:coord >20.822284 50.742508 8391</gx:coord>
<gx:coord >20.8284 50.76191 8276</gx:coord>
<gx:coord >20.834656 50.781648 8155</gx:coord>
<gx:coord >20.840912 50.801619 8033</gx:coord>
<gx:coord >20.847151 50.821747 7927</gx:coord>
<gx:coord >20.852867 50.840378 7797</gx:coord>
<gx:coord >20.85888 50.860703 7683</gx:coord>
<gx:coord >20.864868 50.880711 7561</gx:coord>
<gx:coord >20.870757 50.90007 7447</gx:coord>
<gx:coord >20.876846 50.919629 7333</gx:coord>
<gx:coord >20.878403 50.924698 7302</gx:coord>
<gx:coord >20.883451 50.940628 7173</gx:coord>
<gx:coord >20.889359 50.959664 7066</gx:coord>
<gx:coord >20.895767 50.98038 6959</gx:coord>
<gx:coord >20.901786 51.000046 6860</gx:coord>
<gx:coord >20.906463 51.015518 6761</gx:coord>
<gx:coord >20.911789 51.033263 6639</gx:coord>
<gx:coord >20.917226 51.051086 6525</gx:coord>
<gx:coord >20.92247 51.068596 6403</gx:coord>
<gx:coord >20.927658 51.085727 6281</gx:coord>
<gx:coord >20.932444 51.101395 6190</gx:coord>
<gx:coord >20.939255 51.123342 6098</gx:coord>
<gx:coord >20.943604 51.137261 6022</gx:coord>
<gx:coord >20.949146 51.15477 5909</gx:coord>
<gx:coord >20.954936 51.17308 5794</gx:coord>
<gx:coord >20.958328 51.185861 5718</gx:coord>
<gx:coord >20.960132 51.195877 5650</gx:coord>
<gx:coord >20.962906 51.214165 5535</gx:coord>
<gx:coord >20.965729 51.233112 5421</gx:coord>
<gx:coord >20.968966 51.252823 5322</gx:coord>
<gx:coord >20.97201 51.270905 5208</gx:coord>
<gx:coord >20.974905 51.287064 5116</gx:coord>
<gx:coord >20.978851 51.309178 5032</gx:coord>
<gx:coord >20.982551 51.329407 4941</gx:coord>
<gx:coord >20.985817 51.348038 4819</gx:coord>
<gx:coord >20.988786 51.366302 4705</gx:coord>
<gx:coord >20.991669 51.38422 4606</gx:coord>
<gx:coord >20.994568 51.402841 4499</gx:coord>
<gx:coord >20.997471 51.420731 4392</gx:coord>
<gx:coord >21.000292 51.437485 4279</gx:coord>
<gx:coord >21.003187 51.453918 4165</gx:coord>
<gx:coord >21.005934 51.46962 4043</gx:coord>
<gx:coord >21.008829 51.486328 3928</gx:coord>
<gx:coord >21.010666 51.497296 3860</gx:coord>
<gx:coord >21.012573 51.508236 3806</gx:coord>
<gx:coord >21.014481 51.519222 3746</gx:coord>
<gx:coord >21.016235 51.529417 3684</gx:coord>
<gx:coord >21.018033 51.539658 3616</gx:coord>
<gx:coord >21.019889 51.550186 3555</gx:coord>
<gx:coord >21.021522 51.559982 3487</gx:coord>
<gx:coord >21.023304 51.570694 3425</gx:coord>
<gx:coord >21.025085 51.580948 3365</gx:coord>
<gx:coord >21.026793 51.591019 3311</gx:coord>
<gx:coord >21.028574 51.601501 3250</gx:coord>
<gx:coord >21.030273 51.611349 3188</gx:coord>
<gx:coord >21.031723 51.619821 3122</gx:coord>
<gx:coord >21.032434 51.624161 3106</gx:coord>
<gx:coord >21.034587 51.636383 3052</gx:coord>
<gx:coord >21.036377 51.647101 3014</gx:coord>
<gx:coord >21.038225 51.657578 2961</gx:coord>
<gx:coord >21.039886 51.667212 2901</gx:coord>
<gx:coord >21.041639 51.677078 2847</gx:coord>
<gx:coord >21.043472 51.687462 2794</gx:coord>
<gx:coord >21.045074 51.696772 2734</gx:coord>
<gx:coord >21.0466 51.705803 2679</gx:coord>
<gx:coord >21.048246 51.715439 2619</gx:coord>
<gx:coord >21.049805 51.72489 2558</gx:coord>
<gx:coord >21.051636 51.735457 2504</gx:coord>
<gx:coord >21.053294 51.745056 2444</gx:coord>
<gx:coord >21.05484 51.754218 2396</gx:coord>
<gx:coord >21.05604 51.761627 2331</gx:coord>
<gx:coord >21.056747 51.765902 2294</gx:coord>
<gx:coord >21.057376 51.76973 2261</gx:coord>
<gx:coord >21.058044 51.773849 2230</gx:coord>
<gx:coord >21.058713 51.777924 2198</gx:coord>
<gx:coord >21.059647 51.783359 2164</gx:coord>
<gx:coord >21.060333 51.787549 2132</gx:coord>
<gx:coord >21.061236 51.792389 2101</gx:coord>
<gx:coord >21.062276 51.798523 2069</gx:coord>
<gx:coord >21.063232 51.803703 2035</gx:coord>
<gx:coord >21.064428 51.810608 2005</gx:coord>
<gx:coord >21.065369 51.81576 1980</gx:coord>
<gx:coord >21.066507 51.822006 1942</gx:coord>
<gx:coord >21.067581 51.828143 1911</gx:coord>
<gx:coord >21.068585 51.833954 1883</gx:coord>
<gx:coord >21.069476 51.838943 1849</gx:coord>
<gx:coord >21.070664 51.845535 1814</gx:coord>
<gx:coord >21.071548 51.85086 1786</gx:coord>
<gx:coord >21.072668 51.857437 1752</gx:coord>
<gx:coord >21.073685 51.86329 1722</gx:coord>
<gx:coord >21.074829 51.869667 1699</gx:coord>
<gx:coord >21.075712 51.874741 1667</gx:coord>
<gx:coord >21.076508 51.879629 1635</gx:coord>
<gx:coord >21.077499 51.884983 1600</gx:coord>
<gx:coord >21.078384 51.890442 1569</gx:coord>
<gx:coord >21.079407 51.896027 1537</gx:coord>
<gx:coord >21.080246 51.900879 1504</gx:coord>
<gx:coord >21.081194 51.906071 1475</gx:coord>
<gx:coord >21.082214 51.911797 1444</gx:coord>
<gx:coord >21.083313 51.918035 1410</gx:coord>
<gx:coord >21.084518 51.925232 1378</gx:coord>
<gx:coord >21.085746 51.932187 1347</gx:coord>
<gx:coord >21.087237 51.940333 1316</gx:coord>
<gx:coord >21.088333 51.946564 1280</gx:coord>
<gx:coord >21.088806 51.949225 1265</gx:coord>
<gx:coord >21.089325 51.952377 1234</gx:coord>
<gx:coord >21.09014 51.956906 1205</gx:coord>
<gx:coord >21.090533 51.959373 1189</gx:coord>
<gx:coord >21.091631 51.965472 1157</gx:coord>
<gx:coord >21.093044 51.973758 1124</gx:coord>
<gx:coord >21.093826 51.978607 1113</gx:coord>
<gx:coord >21.0952 51.986664 1096</gx:coord>
<gx:coord >21.095869 51.990843 1081</gx:coord>
<gx:coord >21.097031 51.998199 1050</gx:coord>
<gx:coord >21.09787 52.006485 1027</gx:coord>
<gx:coord >21.097517 52.009464 1012</gx:coord>
<gx:coord >21.096575 52.013048 997</gx:coord>
<gx:coord >21.0952 52.016235 981</gx:coord>
<gx:coord >21.093445 52.019394 974</gx:coord>
<gx:coord >21.091317 52.022498 974</gx:coord>
<gx:coord >21.089199 52.025338 966</gx:coord>
<gx:coord >21.087629 52.02734 966</gx:coord>
<gx:coord >21.084824 52.030792 959</gx:coord>
<gx:coord >21.083705 52.032134 951</gx:coord>
<gx:coord >21.080475 52.035965 936</gx:coord>
<gx:coord >21.075858 52.041212 904</gx:coord>
<gx:coord >21.072083 52.045532 880</gx:coord>
<gx:coord >21.070404 52.047409 871</gx:coord>
<gx:coord >21.068324 52.049964 847</gx:coord>
<gx:coord >21.065421 52.053223 819</gx:coord>
<gx:coord >21.061783 52.057343 785</gx:coord>
<gx:coord >21.057652 52.061974 760</gx:coord>
<gx:coord >21.054513 52.065559 733</gx:coord>
<gx:coord >21.051025 52.069565 700</gx:coord>
<gx:coord >21.047287 52.073868 669</gx:coord>
<gx:coord >21.042938 52.078857 642</gx:coord>
<gx:coord >21.040937 52.081201 630</gx:coord>
<gx:coord >21.037955 52.084599 603</gx:coord>
<gx:coord >21.034775 52.088196 572</gx:coord>
<gx:coord >21.031723 52.091766 548</gx:coord>
<gx:coord >21.027832 52.09633 517</gx:coord>
<gx:coord >21.023594 52.101078 486</gx:coord>
<gx:coord >21.019669 52.105682 456</gx:coord>
<gx:coord >21.015091 52.110855 425</gx:coord>
<gx:coord >21.011353 52.115158 395</gx:coord>
<gx:coord >21.007115 52.120025 357</gx:coord>
<gx:coord >21.00296 52.124771 326</gx:coord>
<gx:coord >20.99884 52.12944 296</gx:coord>
<gx:coord >20.994415 52.134521 265</gx:coord>
<gx:coord >20.990871 52.138646 235</gx:coord>
<gx:coord >20.986947 52.143068 204</gx:coord>
<gx:coord >20.982867 52.147817 174</gx:coord>
<gx:coord >20.979021 52.152146 143</gx:coord>
<gx:coord >20.975019 52.156708 113</gx:coord>
<gx:coord >20.971409 52.160805 113</gx:coord>
<gx:coord >20.969369 52.163179 106</gx:coord>
<gx:coord >20.968475 52.164185 108</gx:coord>
<gx:coord >20.966936 52.165926 106</gx:coord>
<gx:coord >20.965652 52.167435 105</gx:coord>
<gx:coord >20.965652 52.167435 105</gx:coord>
</gx:Track>
</Placemark>
<Placemark ><name >HA-LGM</name>
<Style ><LineStyle ><color >ff1c1ae3</color>
<width >4</width>
</LineStyle>
<IconStyle ><Icon ><href >http://maps.google.com/mapfiles/kml/shapes/airports.png</href>
</Icon>
</IconStyle>
</Style>
<gx:Track ><extrude >0</extrude>
<when >2025-08-09T16:20:18.500Z</when>
<when >2025-08-09T16:20:21.690Z</when>
<when >2025-08-09T16:20:22.180Z</when>
<when >2025-08-09T16:20:23.770Z</when>
<when >2025-08-09T16:20:23.770Z</when>
<when >2025-08-09T16:20:24.770Z</when>
<when >2025-08-09T16:20:29.170Z</when>
<when >2025-08-09T16:20:30.950Z</when>
<when >2025-08-09T16:20:35.270Z</when>
<when >2025-08-09T16:20:38.600Z</when>
<when >2025-08-09T16:20:41.600Z</when>
<when >2025-08-09T16:20:44.080Z</when>
<when >2025-08-09T16:20:51.580Z</when>
<when >2025-08-09T16:20:56.740Z</when>
<when >2025-08-09T16:21:00.180Z</when>
<when >2025-08-09T16:21:02.100Z</when>
<when >2025-08-09T16:21:04.850Z</when>
<when >2025-08-09T16:21:08.170Z</when>
<when >2025-08-09T16:21:11.320Z</when>
<when >2025-08-09T16:21:16.950Z</when>
<when >2025-08-09T16:21:22.410Z</when>
<when >2025-08-09T16:21:29.270Z</when>
<when >2025-08-09T16:21:36.760Z</when>
<when >2025-08-09T16:21:40.730Z</when>
<when >2025-08-09T16:21:44.320Z</when>
<when >2025-08-09T16:21:47.310Z</when>
<when >2025-08-09T16:21:49.920Z</when>
<when >2025-08-09T16:21:52.580Z</when>
<when >2025-08-09T16:21:55.310Z</when>
<when >2025-08-09T16:21:57.770Z</when>
<when >2025-08-09T16:22:04.600Z</when>
<when >2025-08-09T16:22:14.340Z</when>
<when >2025-08-09T16:22:19.730Z</when>
<when >2025-08-09T16:22:25.900Z</when>
<when >2025-08-09T16:22:31.000Z</when>
<when >2025-08-09T16:22:37.000Z</when>
<when >2025-08-09T16:22:45.280Z</when>
<when >2025-08-09T16:22:49.690Z</when>
<when >2025-08-09T16:22:57.290Z</when>
<when >2025-08-09T16:23:04.230Z</when>
<when >2025-08-09T16:23:06.110Z</when>
<when >2025-08-09T16:23:22.620Z</when>
<when >2025-08-09T16:23:25.670Z</when>
<when >2025-08-09T16:23:30.690Z</when>
<when >2025-08-09T16:23:34.140Z</when>
<when >2025-08-09T16:23:39.090Z</when>
<when >2025-08-09T16:23:42.570Z</when>
<when >2025-08-09T16:23:45.650Z</when>
<when >2025-08-09T16:23:48.270Z</when>
<when >2025-08-09T16:23:55.180Z</when>
<when >2025-08-09T16:24:02.870Z</when>
<when >2025-08-09T16:25:15.960Z</when>
<when >2025-08-09T16:26:31.140Z</when>
<when >2025-08-09T16:27:05.690Z</when>
<when >2025-08-09T16:27:23.260Z</when>
<when >2025-08-09T16:27:58.220Z</when>
<when >2025-08-09T16:28:22.120Z</when>
<when >2025-08-09T16:29:35.790Z</when>
<when >2025-08-09T16:30:09.770Z</when>
<when >2025-08-09T16:30:27.160Z</when>
<when >2025-08-09T16:31:42.050Z</when>
<when >2025-08-09T16:33:01.710Z</when>
<when >2025-08-09T16:34:17.730Z</when>
<when >2025-08-09T16:35:35.990Z</when>
<when >2025-08-09T16:36:52.540Z</when>
<when >2025-08-09T16:38:07.680Z</when>
<when >2025-08-09T16:39:27.160Z</when>
<when >2025-08-09T16:40:42.460Z</when>
<when >2025-08-09T16:42:01.550Z</when>
<when >2025-08-09T16:43:16.400Z</when>
<when >2025-08-09T16:44:31.580Z</when>
<when >2025-08-09T16:45:48.060Z</when>
<when >2025-08-09T16:47:03.040Z</when>
<when >2025-08-09T16:48:19.180Z</when>
<when >2025-08-09T16:49:37.490Z</when>
<when >2025-08-09T16:50:53.140Z</when>
<when >2025-08-09T16:52:10.130Z</when>
<when >2025-08-09T16:53:29.980Z</when>
<when >2025-08-09T16:54:49.930Z</when>
<when >2025-08-09T16:56:09.580Z</when>
<when >2025-08-09T16:57:24.910Z</when>
<when >2025-08-09T16:58:39.640Z</when>
<when >2025-08-09T16:59:58.920Z</when>
<when >2025-08-09T17:01:14.180Z</when>
<when >2025-08-09T17:02:28.920Z</when>
<when >2025-08-09T17:03:45.260Z</when>
<when >2025-08-09T17:05:02.660Z</when>
<when >2025-08-09T17:05:02.660Z</when>
<gx:coord >20.96519 52.167997 0</gx:coord>
<gx:coord >20.964563 52.168719 0</gx:coord>
<gx:coord >20.964184 52.169151 0</gx:coord>
<gx:coord >20.964092 52.169266 0</gx:coord>
<gx:coord >20.963726 52.169678 0</gx:coord>
<gx:coord >20.963631 52.169804 0</gx:coord>
<gx:coord >20.962973 52.170639 0</gx:coord>
<gx:coord >20.962772 52.170982 0</gx:coord>
<gx:coord >20.962543 52.1716 0</gx:coord>
<gx:coord >20.962505 52.171955 0</gx:coord>
<gx:coord >20.962467 52.172276 0</gx:coord>
<gx:coord >20.962463 52.172618 0</gx:coord>
<gx:coord >20.962467 52.172997 0</gx:coord>
<gx:coord >20.962467 52.173431 0</gx:coord>
<gx:coord >20.962486 52.173592 0</gx:coord>
<gx:coord >20.962542 52.173677 0</gx:coord>
<gx:coord >20.962601 52.173735 0</gx:coord>
<gx:coord >20.962758 52.173886 0</gx:coord>
<gx:coord >20.962954 52.173968 0</gx:coord>
<gx:coord >20.963346 52.174096 0</gx:coord>
<gx:coord >20.963935 52.174293 0</gx:coord>
<gx:coord >20.964563 52.174515 0</gx:coord>
<gx:coord >20.965131 52.174689 0</gx:coord>
<gx:coord >20.965308 52.174712 0</gx:coord>
<gx:coord >20.965462 52.174702 0</gx:coord>
<gx:coord >20.965691 52.174644 0</gx:coord>
<gx:coord >20.965881 52.174484 0</gx:coord>
<gx:coord >20.965977 52.174393 0</gx:coord>
<gx:coord >20.966034 52.174313 0</gx:coord>
<gx:coord >20.96611 52.174232 0</gx:coord>
<gx:coord >20.966367 52.173921 0</gx:coord>
<gx:coord >20.966681 52.173572 0</gx:coord>
<gx:coord >20.967007 52.173191 0</gx:coord>
<gx:coord >20.967309 52.172862 0</gx:coord>
<gx:coord >20.967545 52.172571 0</gx:coord>
<gx:coord >20.967846 52.17223 0</gx:coord>
<gx:coord >20.968208 52.171852 0</gx:coord>
<gx:coord >20.968525 52.171477 0</gx:coord>
<gx:coord >20.968876 52.171085 0</gx:coord>
<gx:coord >20.969143 52.170776 0</gx:coord>
<gx:coord >20.96931 52.170581 0</gx:coord>
<gx:coord >20.970039 52.169758 0</gx:coord>
<gx:coord >20.970154 52.169621 0</gx:coord>
<gx:coord >20.970097 52.169495 0</gx:coord>
<gx:coord >20.970001 52.169403 0</gx:coord>
<gx:coord >20.969742 52.169312 0</gx:coord>
<gx:coord >20.969663 52.169312 0</gx:coord>
<gx:coord >20.969467 52.169324 0</gx:coord>
<gx:coord >20.969251 52.169347 0</gx:coord>
<gx:coord >20.968971 52.169369 0</gx:coord>
<gx:coord >20.96882 52.16937 0</gx:coord>
<gx:coord >20.9688 52.16938 0</gx:coord>
<gx:coord >20.96882 52.169382 0</gx:coord>
<gx:coord >20.968819 52.16938 0</gx:coord>
<gx:coord >20.96882 52.169382 0</gx:coord>
<gx:coord >20.96882 52.169382 0</gx:coord>
<gx:coord >20.96882 52.16937 0</gx:coord>
<gx:coord >20.96882 52.16937 0</gx:coord>
<gx:coord >20.968819 52.16938 0</gx:coord>
<gx:coord >20.968819 52.16938 0</gx:coord>
<gx:coord >20.9688 52.16938 0</gx:coord>
<gx:coord >20.9688 52.16937 0</gx:coord>
<gx:coord >20.9688 52.16938 0</gx:coord>
<gx:coord >20.9688 52.16938 0</gx:coord>
<gx:coord >20.968819 52.16938 0</gx:coord>
<gx:coord >20.96882 52.169382 0</gx:coord>
<gx:coord >20.9688 52.169382 0</gx:coord>
<gx:coord >20.9688 52.16938 0</gx:coord>
<gx:coord >20.9688 52.16938 0</gx:coord>
<gx:coord >20.9688 52.169382 0</gx:coord>
<gx:coord >20.9688 52.16938 0</gx:coord>
<gx:coord >20.9688 52.169382 0</gx:coord>
<gx:coord >20.9688 52.16938 0</gx:coord>
<gx:coord >20.9688 52.169382 0</gx:coord>
<gx:coord >20.9688 52.169382 0</gx:coord>
<gx:coord >20.9688 52.16938 0</gx:coord>
<gx:coord >20.9688 52.16938 0</gx:coord>
<gx:coord >20.9688 52.169382 0</gx:coord>
<gx:coord >20.9688 52.16938 0</gx:coord>
<gx:coord >20.9688 52.16938 0</gx:coord>
<gx:coord >20.9688 52.16938 0</gx:coord>
<gx:coord >20.9688 52.169382 0</gx:coord>
<gx:coord >20.9688 52.169382 0</gx:coord>
<gx:coord >20.9688 52.16938 0</gx:coord>
<gx:coord >20.9688 52.16938 0</gx:coord>
<gx:coord >20.9688 52.16938 0</gx:coord>
<gx:coord >20.9688 52.169382 0</gx:coord>
<gx:coord >20.9688 52.169382 0</gx:coord>
</gx:Track>
</Placemark>
</Folder>
</Folder>
</kml>
