<?xml version="1.0" encoding="UTF-8"?>
<kml xmlns="http://www.opengis.net/kml/2.2" xmlns:gx="http://www.google.com/kml/ext/2.2"><Folder ><Folder ><name >9H-WNN track</name>
<Placemark ><name >9H-WNN</name>
<Style ><LineStyle ><color >ff1c1ae3</color>
<width >4</width>
</LineStyle>
<IconStyle ><Icon ><href >http://maps.google.com/mapfiles/kml/shapes/airports.png</href>
</Icon>
</IconStyle>
</Style>
<gx:Track ><extrude >0</extrude>
<when >2025-09-03T13:38:27.540Z</when>
<when >2025-09-03T13:38:27.540Z</when>
<when >2025-09-03T13:39:45.310Z</when>
<when >2025-09-03T13:41:00.370Z</when>
<when >2025-09-03T13:41:52.050Z</when>
<when >2025-09-03T13:41:56.140Z</when>
<when >2025-09-03T13:43:10.860Z</when>
<when >2025-09-03T13:44:27.040Z</when>
<when >2025-09-03T13:45:46.510Z</when>
<when >2025-09-03T13:47:01.430Z</when>
<when >2025-09-03T13:48:16.070Z</when>
<when >2025-09-03T13:49:32.110Z</when>
<when >2025-09-03T13:50:50.070Z</when>
<when >2025-09-03T13:52:05.000Z</when>
<when >2025-09-03T13:53:21.170Z</when>
<when >2025-09-03T13:54:40.460Z</when>
<when >2025-09-03T13:55:54.940Z</when>
<when >2025-09-03T13:57:10.800Z</when>
<when >2025-09-03T13:58:30.410Z</when>
<when >2025-09-03T13:58:45.690Z</when>
<when >2025-09-03T13:59:29.250Z</when>
<when >2025-09-03T14:00:45.590Z</when>
<when >2025-09-03T14:02:05.070Z</when>
<when >2025-09-03T14:03:21.640Z</when>
<when >2025-09-03T14:04:40.990Z</when>
<when >2025-09-03T14:05:57.090Z</when>
<when >2025-09-03T14:07:12.750Z</when>
<when >2025-09-03T14:08:32.010Z</when>
<when >2025-09-03T14:09:51.860Z</when>
<when >2025-09-03T14:11:07.890Z</when>
<when >2025-09-03T14:12:24.010Z</when>
<when >2025-09-03T14:13:38.710Z</when>
<when >2025-09-03T14:14:54.260Z</when>
<when >2025-09-03T14:16:13.170Z</when>
<when >2025-09-03T14:17:29.570Z</when>
<when >2025-09-03T14:18:48.650Z</when>
<when >2025-09-03T14:20:07.720Z</when>
<when >2025-09-03T14:21:27.210Z</when>
<when >2025-09-03T14:22:43.760Z</when>
<when >2025-09-03T14:23:52.600Z</when>
<when >2025-09-03T14:25:02.270Z</when>
<when >2025-09-03T14:25:16.690Z</when>
<when >2025-09-03T14:25:40.260Z</when>
<when >2025-09-03T14:26:03.400Z</when>
<when >2025-09-03T14:26:06.430Z</when>
<when >2025-09-03T14:26:10.010Z</when>
<when >2025-09-03T14:26:15.460Z</when>
<when >2025-09-03T14:26:15.460Z</when>
<when >2025-09-03T14:26:21.420Z</when>
<when >2025-09-03T14:26:24.960Z</when>
<when >2025-09-03T14:26:27.790Z</when>
<when >2025-09-03T14:26:30.710Z</when>
<when >2025-09-03T14:26:35.290Z</when>
<when >2025-09-03T14:30:22.220Z</when>
<when >2025-09-03T14:30:42.040Z</when>
<when >2025-09-03T14:30:42.040Z</when>
<when >2025-09-03T14:30:49.040Z</when>
<when >2025-09-03T14:31:06.840Z</when>
<when >2025-09-03T14:31:16.350Z</when>
<when >2025-09-03T14:31:25.460Z</when>
<when >2025-09-03T14:31:34.820Z</when>
<when >2025-09-03T14:31:37.430Z</when>
<when >2025-09-03T14:31:40.020Z</when>
<when >2025-09-03T14:31:42.450Z</when>
<when >2025-09-03T14:31:47.750Z</when>
<when >2025-09-03T14:31:54.580Z</when>
<when >2025-09-03T14:31:56.970Z</when>
<when >2025-09-03T14:31:58.930Z</when>
<when >2025-09-03T14:32:00.590Z</when>
<when >2025-09-03T14:32:02.100Z</when>
<when >2025-09-03T14:32:04.530Z</when>
<when >2025-09-03T14:32:08.550Z</when>
<when >2025-09-03T14:32:15.430Z</when>
<when >2025-09-03T14:32:22.870Z</when>
<when >2025-09-03T14:32:29.330Z</when>
<when >2025-09-03T14:32:34.920Z</when>
<when >2025-09-03T14:32:39.980Z</when>
<when >2025-09-03T14:32:44.420Z</when>
<when >2025-09-03T14:32:47.120Z</when>
<when >2025-09-03T14:32:51.400Z</when>
<when >2025-09-03T14:32:57.000Z</when>
<when >2025-09-03T14:33:00.330Z</when>
<when >2025-09-03T14:33:06.030Z</when>
<when >2025-09-03T14:33:10.350Z</when>
<when >2025-09-03T14:33:12.920Z</when>
<when >2025-09-03T14:33:18.680Z</when>
<when >2025-09-03T14:33:22.110Z</when>
<when >2025-09-03T14:33:24.860Z</when>
<when >2025-09-03T14:33:28.360Z</when>
<when >2025-09-03T14:33:34.670Z</when>
<when >2025-09-03T14:33:36.990Z</when>
<when >2025-09-03T14:33:41.430Z</when>
<when >2025-09-03T14:33:48.270Z</when>
<when >2025-09-03T14:33:53.600Z</when>
<when >2025-09-03T14:33:57.220Z</when>
<when >2025-09-03T14:34:00.870Z</when>
<when >2025-09-03T14:34:06.120Z</when>
<when >2025-09-03T14:34:08.420Z</when>
<when >2025-09-03T14:34:10.290Z</when>
<when >2025-09-03T14:34:12.720Z</when>
<when >2025-09-03T14:34:15.070Z</when>
<when >2025-09-03T14:34:23.930Z</when>
<when >2025-09-03T14:34:28.300Z</when>
<when >2025-09-03T14:34:33.220Z</when>
<when >2025-09-03T14:34:35.450Z</when>
<when >2025-09-03T14:34:41.730Z</when>
<when >2025-09-03T14:34:47.320Z</when>
<when >2025-09-03T14:34:52.490Z</when>
<when >2025-09-03T14:34:57.320Z</when>
<when >2025-09-03T14:35:01.850Z</when>
<when >2025-09-03T14:35:07.250Z</when>
<when >2025-09-03T14:35:13.140Z</when>
<when >2025-09-03T14:35:16.570Z</when>
<when >2025-09-03T14:35:23.470Z</when>
<when >2025-09-03T14:35:27.980Z</when>
<when >2025-09-03T14:35:32.770Z</when>
<when >2025-09-03T14:35:37.680Z</when>
<when >2025-09-03T14:35:40.930Z</when>
<when >2025-09-03T14:35:44.970Z</when>
<when >2025-09-03T14:35:49.310Z</when>
<when >2025-09-03T14:35:53.810Z</when>
<when >2025-09-03T14:35:57.650Z</when>
<when >2025-09-03T14:36:01.790Z</when>
<when >2025-09-03T14:36:06.100Z</when>
<when >2025-09-03T14:36:10.370Z</when>
<when >2025-09-03T14:36:15.520Z</when>
<when >2025-09-03T14:36:18.030Z</when>
<when >2025-09-03T14:36:21.850Z</when>
<when >2025-09-03T14:36:25.870Z</when>
<when >2025-09-03T14:36:31.030Z</when>
<when >2025-09-03T14:36:32.620Z</when>
<when >2025-09-03T14:36:35.180Z</when>
<when >2025-09-03T14:36:37.360Z</when>
<when >2025-09-03T14:36:38.180Z</when>
<when >2025-09-03T14:36:39.520Z</when>
<when >2025-09-03T14:36:42.160Z</when>
<when >2025-09-03T14:36:46.890Z</when>
<when >2025-09-03T14:36:51.750Z</when>
<when >2025-09-03T14:36:55.060Z</when>
<when >2025-09-03T14:37:01.250Z</when>
<when >2025-09-03T14:37:07.070Z</when>
<when >2025-09-03T14:37:11.640Z</when>
<when >2025-09-03T14:37:13.680Z</when>
<when >2025-09-03T14:37:15.320Z</when>
<when >2025-09-03T14:37:16.870Z</when>
<when >2025-09-03T14:37:18.150Z</when>
<when >2025-09-03T14:37:19.900Z</when>
<when >2025-09-03T14:37:23.510Z</when>
<when >2025-09-03T14:37:43.760Z</when>
<when >2025-09-03T14:37:44.830Z</when>
<when >2025-09-03T14:37:46.620Z</when>
<when >2025-09-03T14:37:48.370Z</when>
<when >2025-09-03T14:37:49.280Z</when>
<when >2025-09-03T14:37:51.870Z</when>
<when >2025-09-03T14:37:53.790Z</when>
<when >2025-09-03T14:37:55.930Z</when>
<when >2025-09-03T14:37:58.150Z</when>
<when >2025-09-03T14:37:58.430Z</when>
<when >2025-09-03T14:38:00.870Z</when>
<when >2025-09-03T14:38:00.870Z</when>
<when >2025-09-03T14:38:00.870Z</when>
<gx:coord >20.962679 52.179693 0</gx:coord>
<gx:coord >20.962679 52.179693 0</gx:coord>
<gx:coord >20.962677 52.179646 0</gx:coord>
<gx:coord >20.962677 52.179646 0</gx:coord>
<gx:coord >20.962679 52.179647 0</gx:coord>
<gx:coord >20.962679 52.179647 0</gx:coord>
<gx:coord >20.962679 52.179647 0</gx:coord>
<gx:coord >20.962677 52.179646 0</gx:coord>
<gx:coord >20.962679 52.179635 0</gx:coord>
<gx:coord >20.962677 52.179646 0</gx:coord>
<gx:coord >20.962679 52.179647 0</gx:coord>
<gx:coord >20.962677 52.179646 0</gx:coord>
<gx:coord >20.962677 52.179646 0</gx:coord>
<gx:coord >20.962677 52.179634 0</gx:coord>
<gx:coord >20.962679 52.179647 0</gx:coord>
<gx:coord >20.962677 52.179646 0</gx:coord>
<gx:coord >20.962679 52.179647 0</gx:coord>
<gx:coord >20.962677 52.179646 0</gx:coord>
<gx:coord >20.962677 52.179646 0</gx:coord>
<gx:coord >20.962677 52.179646 0</gx:coord>
<gx:coord >20.962679 52.179635 0</gx:coord>
<gx:coord >20.962677 52.179646 0</gx:coord>
<gx:coord >20.962679 52.179647 0</gx:coord>
<gx:coord >20.962677 52.179646 0</gx:coord>
<gx:coord >20.962677 52.179646 0</gx:coord>
<gx:coord >20.962679 52.179647 0</gx:coord>
<gx:coord >20.962677 52.179646 0</gx:coord>
<gx:coord >20.962677 52.179646 0</gx:coord>
<gx:coord >20.962679 52.179647 0</gx:coord>
<gx:coord >20.962679 52.179647 0</gx:coord>
<gx:coord >20.962677 52.179646 0</gx:coord>
<gx:coord >20.962677 52.179657 0</gx:coord>
<gx:coord >20.962679 52.179647 0</gx:coord>
<gx:coord >20.962677 52.179657 0</gx:coord>
<gx:coord >20.962679 52.179647 0</gx:coord>
<gx:coord >20.962677 52.179657 0</gx:coord>
<gx:coord >20.962696 52.179646 0</gx:coord>
<gx:coord >20.962677 52.179657 0</gx:coord>
<gx:coord >20.962677 52.179657 0</gx:coord>
<gx:coord >20.962679 52.179659 0</gx:coord>
<gx:coord >20.962679 52.179693 0</gx:coord>
<gx:coord >20.962639 52.179783 0</gx:coord>
<gx:coord >20.962561 52.179903 0</gx:coord>
<gx:coord >20.962448 52.180103 0</gx:coord>
<gx:coord >20.962444 52.180136 0</gx:coord>
<gx:coord >20.962448 52.180161 0</gx:coord>
<gx:coord >20.962486 52.180183 0</gx:coord>
<gx:coord >20.962503 52.180194 0</gx:coord>
<gx:coord >20.962563 52.180218 0</gx:coord>
<gx:coord >20.962581 52.180229 0</gx:coord>
<gx:coord >20.962582 52.180241 0</gx:coord>
<gx:coord >20.962601 52.180264 0</gx:coord>
<gx:coord >20.96262 52.180264 0</gx:coord>
<gx:coord >20.96264 52.180275 0</gx:coord>
<gx:coord >20.962463 52.180252 0</gx:coord>
<gx:coord >20.962429 52.180252 0</gx:coord>
<gx:coord >20.962296 52.180229 0</gx:coord>
<gx:coord >20.961796 52.180159 0</gx:coord>
<gx:coord >20.961361 52.180103 0</gx:coord>
<gx:coord >20.960979 52.180058 0</gx:coord>
<gx:coord >20.96035 52.179977 0</gx:coord>
<gx:coord >20.960197 52.179943 0</gx:coord>
<gx:coord >20.96005 52.179903 0</gx:coord>
<gx:coord >20.959933 52.179856 0</gx:coord>
<gx:coord >20.959599 52.17974 0</gx:coord>
<gx:coord >20.959282 52.179623 0</gx:coord>
<gx:coord >20.959207 52.179565 0</gx:coord>
<gx:coord >20.959167 52.179451 0</gx:coord>
<gx:coord >20.959187 52.179391 0</gx:coord>
<gx:coord >20.959246 52.179298 0</gx:coord>
<gx:coord >20.959364 52.179193 0</gx:coord>
<gx:coord >20.959492 52.17905 0</gx:coord>
<gx:coord >20.959736 52.178774 0</gx:coord>
<gx:coord >20.960011 52.17846 0</gx:coord>
<gx:coord >20.96035 52.178078 0</gx:coord>
<gx:coord >20.960698 52.177668 0</gx:coord>
<gx:coord >20.961018 52.177299 0</gx:coord>
<gx:coord >20.961208 52.177098 0</gx:coord>
<gx:coord >20.961494 52.176762 0</gx:coord>
<gx:coord >20.961777 52.176435 0</gx:coord>
<gx:coord >20.962228 52.175923 0</gx:coord>
<gx:coord >20.962486 52.175606 0</gx:coord>
<gx:coord >20.962895 52.175166 0</gx:coord>
<gx:coord >20.963209 52.174805 0</gx:coord>
<gx:coord >20.963459 52.174519 0</gx:coord>
<gx:coord >20.963974 52.173935 0</gx:coord>
<gx:coord >20.964279 52.17358 0</gx:coord>
<gx:coord >20.964565 52.173237 0</gx:coord>
<gx:coord >20.964832 52.172928 0</gx:coord>
<gx:coord >20.965347 52.172361 0</gx:coord>
<gx:coord >20.965563 52.172105 0</gx:coord>
<gx:coord >20.965897 52.171721 0</gx:coord>
<gx:coord >20.966407 52.171128 0</gx:coord>
<gx:coord >20.966816 52.170662 0</gx:coord>
<gx:coord >20.967113 52.170336 0</gx:coord>
<gx:coord >20.967368 52.170045 0</gx:coord>
<gx:coord >20.967693 52.169666 0</gx:coord>
<gx:coord >20.968055 52.169242 0</gx:coord>
<gx:coord >20.96827 52.168998 0</gx:coord>
<gx:coord >20.968456 52.168785 0</gx:coord>
<gx:coord >20.968643 52.168567 0</gx:coord>
<gx:coord >20.969467 52.167636 0</gx:coord>
<gx:coord >20.969761 52.167299 0</gx:coord>
<gx:coord >20.970001 52.167023 0</gx:coord>
<gx:coord >20.970213 52.166787 0</gx:coord>
<gx:coord >20.970726 52.166565 0</gx:coord>
<gx:coord >20.971252 52.166438 0</gx:coord>
<gx:coord >20.971802 52.166286 0</gx:coord>
<gx:coord >20.972214 52.166176 0</gx:coord>
<gx:coord >20.972802 52.166007 0</gx:coord>
<gx:coord >20.973371 52.165844 0</gx:coord>
<gx:coord >20.973881 52.165693 0</gx:coord>
<gx:coord >20.974254 52.165588 0</gx:coord>
<gx:coord >20.974884 52.165421 0</gx:coord>
<gx:coord >20.975494 52.165249 0</gx:coord>
<gx:coord >20.976098 52.165076 0</gx:coord>
<gx:coord >20.976715 52.164906 0</gx:coord>
<gx:coord >20.977077 52.164803 0</gx:coord>
<gx:coord >20.97753 52.16468 0</gx:coord>
<gx:coord >20.978107 52.164505 0</gx:coord>
<gx:coord >20.978718 52.164345 0</gx:coord>
<gx:coord >20.979551 52.164098 0</gx:coord>
<gx:coord >20.980206 52.163921 0</gx:coord>
<gx:coord >20.980854 52.163738 0</gx:coord>
<gx:coord >20.981503 52.163555 0</gx:coord>
<gx:coord >20.982141 52.163377 0</gx:coord>
<gx:coord >20.98269 52.163226 0</gx:coord>
<gx:coord >20.983238 52.163074 0</gx:coord>
<gx:coord >20.983847 52.1629 0</gx:coord>
<gx:coord >20.984364 52.162754 0</gx:coord>
<gx:coord >20.984554 52.162679 0</gx:coord>
<gx:coord >20.984613 52.162632 0</gx:coord>
<gx:coord >20.984707 52.162514 0</gx:coord>
<gx:coord >20.98473 52.162446 0</gx:coord>
<gx:coord >20.984745 52.162376 0</gx:coord>
<gx:coord >20.98473 52.162318 0</gx:coord>
<gx:coord >20.984573 52.162097 0</gx:coord>
<gx:coord >20.984416 52.161887 0</gx:coord>
<gx:coord >20.984287 52.161713 0</gx:coord>
<gx:coord >20.984044 52.161398 0</gx:coord>
<gx:coord >20.983847 52.161154 0</gx:coord>
<gx:coord >20.983553 52.161096 0</gx:coord>
<gx:coord >20.983467 52.161106 0</gx:coord>
<gx:coord >20.983396 52.161142 0</gx:coord>
<gx:coord >20.983318 52.161166 0</gx:coord>
<gx:coord >20.983259 52.161189 0</gx:coord>
<gx:coord >20.9832 52.161232 0</gx:coord>
<gx:coord >20.983161 52.161247 0</gx:coord>
<gx:coord >20.983124 52.161255 0</gx:coord>
<gx:coord >20.983028 52.161278 0</gx:coord>
<gx:coord >20.982827 52.16134 0</gx:coord>
<gx:coord >20.982513 52.161427 0</gx:coord>
<gx:coord >20.98238 52.161461 0</gx:coord>
<gx:coord >20.981709 52.161654 0</gx:coord>
<gx:coord >20.981415 52.161736 0</gx:coord>
<gx:coord >20.980473 52.161999 0</gx:coord>
<gx:coord >20.979767 52.162201 0</gx:coord>
<gx:coord >20.979023 52.162411 0</gx:coord>
<gx:coord >20.97857 52.162539 0</gx:coord>
<gx:coord >20.977459 52.162846 0</gx:coord>
<gx:coord >20.977459 52.162846 0</gx:coord>
</gx:Track>
</Placemark>
<Placemark ><name >9H-WNN</name>
<Style ><LineStyle ><color >ff1c1ae3</color>
<width >4</width>
</LineStyle>
<IconStyle ><Icon ><href >http://maps.google.com/mapfiles/kml/shapes/airports.png</href>
</Icon>
</IconStyle>
</Style>
<gx:Track ><altitudeMode >absolute</altitudeMode>
<extrude >1</extrude>
<when >2025-09-03T14:38:02.620Z</when>
<when >2025-09-03T14:38:03.360Z</when>
<when >2025-09-03T14:38:05.680Z</when>
<when >2025-09-03T14:38:07.190Z</when>
<when >2025-09-03T14:38:10.710Z</when>
<when >2025-09-03T14:38:11.730Z</when>
<when >2025-09-03T14:38:13.870Z</when>
<when >2025-09-03T14:38:14.980Z</when>
<when >2025-09-03T14:38:17.120Z</when>
<when >2025-09-03T14:38:18.610Z</when>
<when >2025-09-03T14:38:21.620Z</when>
<when >2025-09-03T14:38:22.060Z</when>
<when >2025-09-03T14:38:24.340Z</when>
<when >2025-09-03T14:38:27.010Z</when>
<when >2025-09-03T14:38:29.450Z</when>
<when >2025-09-03T14:38:31.530Z</when>
<when >2025-09-03T14:38:33.930Z</when>
<when >2025-09-03T14:38:36.060Z</when>
<when >2025-09-03T14:38:38.500Z</when>
<when >2025-09-03T14:38:40.500Z</when>
<when >2025-09-03T14:38:42.850Z</when>
<when >2025-09-03T14:38:44.760Z</when>
<when >2025-09-03T14:38:47.190Z</when>
<when >2025-09-03T14:38:49.220Z</when>
<when >2025-09-03T14:38:51.480Z</when>
<when >2025-09-03T14:38:53.470Z</when>
<when >2025-09-03T14:38:56.600Z</when>
<when >2025-09-03T14:38:57.190Z</when>
<when >2025-09-03T14:38:59.960Z</when>
<when >2025-09-03T14:39:02.340Z</when>
<when >2025-09-03T14:39:04.260Z</when>
<when >2025-09-03T14:39:07.100Z</when>
<when >2025-09-03T14:39:09.530Z</when>
<when >2025-09-03T14:39:11.430Z</when>
<when >2025-09-03T14:39:14.350Z</when>
<when >2025-09-03T14:39:16.920Z</when>
<when >2025-09-03T14:39:18.830Z</when>
<when >2025-09-03T14:39:21.670Z</when>
<when >2025-09-03T14:39:24.110Z</when>
<when >2025-09-03T14:39:26.560Z</when>
<when >2025-09-03T14:39:29.000Z</when>
<when >2025-09-03T14:39:31.500Z</when>
<when >2025-09-03T14:39:33.990Z</when>
<when >2025-09-03T14:39:36.670Z</when>
<when >2025-09-03T14:39:38.420Z</when>
<when >2025-09-03T14:39:40.480Z</when>
<when >2025-09-03T14:39:44.850Z</when>
<when >2025-09-03T14:39:48.160Z</when>
<when >2025-09-03T14:39:50.990Z</when>
<when >2025-09-03T14:39:54.170Z</when>
<when >2025-09-03T14:39:57.560Z</when>
<when >2025-09-03T14:40:01.580Z</when>
<when >2025-09-03T14:40:05.140Z</when>
<when >2025-09-03T14:40:09.170Z</when>
<when >2025-09-03T14:40:13.010Z</when>
<when >2025-09-03T14:40:14.520Z</when>
<when >2025-09-03T14:40:17.680Z</when>
<when >2025-09-03T14:40:19.870Z</when>
<when >2025-09-03T14:40:22.150Z</when>
<when >2025-09-03T14:40:25.470Z</when>
<when >2025-09-03T14:40:28.160Z</when>
<when >2025-09-03T14:40:32.340Z</when>
<when >2025-09-03T14:40:34.640Z</when>
<when >2025-09-03T14:40:37.430Z</when>
<when >2025-09-03T14:40:40.680Z</when>
<when >2025-09-03T14:40:41.580Z</when>
<when >2025-09-03T14:40:44.020Z</when>
<when >2025-09-03T14:40:46.620Z</when>
<when >2025-09-03T14:40:49.060Z</when>
<when >2025-09-03T14:40:51.790Z</when>
<when >2025-09-03T14:40:54.160Z</when>
<when >2025-09-03T14:40:56.880Z</when>
<when >2025-09-03T14:40:59.300Z</when>
<when >2025-09-03T14:41:01.170Z</when>
<when >2025-09-03T14:41:03.320Z</when>
<when >2025-09-03T14:41:05.570Z</when>
<when >2025-09-03T14:41:07.840Z</when>
<when >2025-09-03T14:41:10.270Z</when>
<when >2025-09-03T14:41:12.300Z</when>
<when >2025-09-03T14:41:14.610Z</when>
<when >2025-09-03T14:41:16.740Z</when>
<when >2025-09-03T14:41:18.860Z</when>
<when >2025-09-03T14:41:21.040Z</when>
<when >2025-09-03T14:41:23.130Z</when>
<when >2025-09-03T14:41:24.960Z</when>
<when >2025-09-03T14:41:27.270Z</when>
<when >2025-09-03T14:41:28.930Z</when>
<when >2025-09-03T14:41:30.860Z</when>
<when >2025-09-03T14:41:34.990Z</when>
<when >2025-09-03T14:41:38.600Z</when>
<when >2025-09-03T14:41:42.560Z</when>
<when >2025-09-03T14:41:46.620Z</when>
<when >2025-09-03T14:41:50.900Z</when>
<when >2025-09-03T14:41:54.910Z</when>
<when >2025-09-03T14:41:59.870Z</when>
<when >2025-09-03T14:42:03.840Z</when>
<when >2025-09-03T14:42:08.590Z</when>
<when >2025-09-03T14:42:12.910Z</when>
<when >2025-09-03T14:42:16.880Z</when>
<when >2025-09-03T14:42:21.080Z</when>
<when >2025-09-03T14:42:24.530Z</when>
<when >2025-09-03T14:42:27.910Z</when>
<when >2025-09-03T14:42:31.310Z</when>
<when >2025-09-03T14:42:35.110Z</when>
<when >2025-09-03T14:42:38.330Z</when>
<when >2025-09-03T14:42:38.930Z</when>
<when >2025-09-03T14:42:41.040Z</when>
<when >2025-09-03T14:42:45.510Z</when>
<when >2025-09-03T14:42:53.970Z</when>
<when >2025-09-03T14:43:00.520Z</when>
<when >2025-09-03T14:43:08.010Z</when>
<when >2025-09-03T14:43:15.770Z</when>
<when >2025-09-03T14:43:19.260Z</when>
<when >2025-09-03T14:43:20.720Z</when>
<when >2025-09-03T14:43:22.320Z</when>
<when >2025-09-03T14:43:27.210Z</when>
<when >2025-09-03T14:43:32.350Z</when>
<when >2025-09-03T14:43:37.350Z</when>
<when >2025-09-03T14:43:45.940Z</when>
<when >2025-09-03T14:43:51.770Z</when>
<when >2025-09-03T14:43:58.440Z</when>
<when >2025-09-03T14:44:04.910Z</when>
<when >2025-09-03T14:44:10.290Z</when>
<when >2025-09-03T14:44:20.550Z</when>
<when >2025-09-03T14:44:24.680Z</when>
<when >2025-09-03T14:44:33.890Z</when>
<when >2025-09-03T14:44:37.840Z</when>
<when >2025-09-03T14:44:49.550Z</when>
<when >2025-09-03T14:44:53.880Z</when>
<when >2025-09-03T14:45:03.410Z</when>
<when >2025-09-03T14:45:12.810Z</when>
<when >2025-09-03T14:45:22.090Z</when>
<when >2025-09-03T14:45:25.860Z</when>
<when >2025-09-03T14:45:28.420Z</when>
<when >2025-09-03T14:45:39.740Z</when>
<when >2025-09-03T14:45:49.680Z</when>
<when >2025-09-03T14:45:56.030Z</when>
<when >2025-09-03T14:46:07.460Z</when>
<when >2025-09-03T14:46:18.480Z</when>
<when >2025-09-03T14:46:30.190Z</when>
<when >2025-09-03T14:46:41.710Z</when>
<when >2025-09-03T14:46:53.100Z</when>
<when >2025-09-03T14:47:04.240Z</when>
<when >2025-09-03T14:47:15.260Z</when>
<when >2025-09-03T14:47:25.880Z</when>
<when >2025-09-03T14:47:37.120Z</when>
<when >2025-09-03T14:47:42.280Z</when>
<when >2025-09-03T14:47:56.430Z</when>
<when >2025-09-03T14:48:06.460Z</when>
<when >2025-09-03T14:48:18.040Z</when>
<when >2025-09-03T14:48:30.240Z</when>
<when >2025-09-03T14:48:42.670Z</when>
<when >2025-09-03T14:48:54.460Z</when>
<when >2025-09-03T14:49:06.010Z</when>
<when >2025-09-03T14:49:17.610Z</when>
<when >2025-09-03T14:49:29.920Z</when>
<when >2025-09-03T14:49:41.750Z</when>
<when >2025-09-03T14:49:53.940Z</when>
<when >2025-09-03T14:50:03.990Z</when>
<when >2025-09-03T14:50:18.890Z</when>
<when >2025-09-03T14:50:33.630Z</when>
<when >2025-09-03T14:50:48.120Z</when>
<when >2025-09-03T14:51:02.100Z</when>
<when >2025-09-03T14:51:15.460Z</when>
<when >2025-09-03T14:51:29.160Z</when>
<when >2025-09-03T14:51:41.510Z</when>
<when >2025-09-03T14:51:55.460Z</when>
<when >2025-09-03T14:52:10.230Z</when>
<when >2025-09-03T14:52:23.280Z</when>
<when >2025-09-03T14:52:35.520Z</when>
<when >2025-09-03T14:52:42.460Z</when>
<when >2025-09-03T14:52:49.520Z</when>
<when >2025-09-03T14:53:04.220Z</when>
<when >2025-09-03T14:53:17.030Z</when>
<when >2025-09-03T14:53:30.790Z</when>
<when >2025-09-03T14:53:47.340Z</when>
<when >2025-09-03T14:54:02.110Z</when>
<when >2025-09-03T14:54:16.600Z</when>
<when >2025-09-03T14:54:31.540Z</when>
<when >2025-09-03T14:54:47.490Z</when>
<when >2025-09-03T14:55:02.280Z</when>
<when >2025-09-03T14:55:17.430Z</when>
<when >2025-09-03T14:55:35.380Z</when>
<when >2025-09-03T14:55:51.500Z</when>
<when >2025-09-03T14:56:05.010Z</when>
<when >2025-09-03T14:56:18.470Z</when>
<when >2025-09-03T14:56:32.230Z</when>
<when >2025-09-03T14:56:47.070Z</when>
<when >2025-09-03T14:57:05.050Z</when>
<when >2025-09-03T14:57:20.730Z</when>
<when >2025-09-03T14:57:35.730Z</when>
<when >2025-09-03T14:57:50.770Z</when>
<when >2025-09-03T14:58:05.330Z</when>
<when >2025-09-03T14:58:19.900Z</when>
<when >2025-09-03T14:58:36.210Z</when>
<when >2025-09-03T14:58:52.430Z</when>
<when >2025-09-03T14:59:11.960Z</when>
<when >2025-09-03T14:59:31.630Z</when>
<when >2025-09-03T14:59:44.660Z</when>
<when >2025-09-03T15:00:04.400Z</when>
<when >2025-09-03T15:00:24.390Z</when>
<when >2025-09-03T15:00:43.870Z</when>
<when >2025-09-03T15:01:03.810Z</when>
<when >2025-09-03T15:01:23.270Z</when>
<when >2025-09-03T15:01:31.490Z</when>
<when >2025-09-03T15:01:39.300Z</when>
<when >2025-09-03T15:01:55.030Z</when>
<when >2025-09-03T15:02:14.930Z</when>
<when >2025-09-03T15:02:34.740Z</when>
<when >2025-09-03T15:02:54.570Z</when>
<when >2025-09-03T15:03:14.350Z</when>
<when >2025-09-03T15:03:33.900Z</when>
<when >2025-09-03T15:03:53.900Z</when>
<when >2025-09-03T15:04:13.780Z</when>
<when >2025-09-03T15:04:32.390Z</when>
<when >2025-09-03T15:04:51.990Z</when>
<when >2025-09-03T15:05:11.690Z</when>
<when >2025-09-03T15:05:31.600Z</when>
<when >2025-09-03T15:05:51.520Z</when>
<when >2025-09-03T15:06:11.470Z</when>
<when >2025-09-03T15:06:31.390Z</when>
<when >2025-09-03T15:06:51.160Z</when>
<when >2025-09-03T15:07:10.900Z</when>
<when >2025-09-03T15:07:30.390Z</when>
<when >2025-09-03T15:07:50.200Z</when>
<when >2025-09-03T15:08:09.590Z</when>
<when >2025-09-03T15:08:29.540Z</when>
<when >2025-09-03T15:08:48.960Z</when>
<when >2025-09-03T15:09:08.420Z</when>
<when >2025-09-03T15:09:27.970Z</when>
<when >2025-09-03T15:09:47.420Z</when>
<when >2025-09-03T15:10:07.400Z</when>
<when >2025-09-03T15:10:26.870Z</when>
<when >2025-09-03T15:10:46.540Z</when>
<when >2025-09-03T15:11:06.160Z</when>
<when >2025-09-03T15:11:26.140Z</when>
<when >2025-09-03T15:11:45.710Z</when>
<when >2025-09-03T15:12:05.290Z</when>
<when >2025-09-03T15:12:24.990Z</when>
<when >2025-09-03T15:12:44.570Z</when>
<when >2025-09-03T15:13:04.330Z</when>
<when >2025-09-03T15:13:23.630Z</when>
<when >2025-09-03T15:13:43.290Z</when>
<when >2025-09-03T15:14:02.830Z</when>
<when >2025-09-03T15:14:22.790Z</when>
<when >2025-09-03T15:14:42.380Z</when>
<when >2025-09-03T15:15:01.990Z</when>
<when >2025-09-03T15:15:21.420Z</when>
<when >2025-09-03T15:15:40.700Z</when>
<when >2025-09-03T15:15:59.990Z</when>
<when >2025-09-03T15:16:19.950Z</when>
<when >2025-09-03T15:16:28.620Z</when>
<when >2025-09-03T15:16:34.070Z</when>
<when >2025-09-03T15:16:41.880Z</when>
<when >2025-09-03T15:17:01.750Z</when>
<when >2025-09-03T15:17:21.400Z</when>
<when >2025-09-03T15:17:40.960Z</when>
<when >2025-09-03T15:18:00.890Z</when>
<when >2025-09-03T15:18:20.800Z</when>
<when >2025-09-03T15:18:40.540Z</when>
<when >2025-09-03T15:18:59.620Z</when>
<when >2025-09-03T15:19:19.550Z</when>
<when >2025-09-03T15:19:39.320Z</when>
<when >2025-09-03T15:19:58.770Z</when>
<when >2025-09-03T15:20:18.620Z</when>
<when >2025-09-03T15:20:38.450Z</when>
<when >2025-09-03T15:20:58.280Z</when>
<when >2025-09-03T15:21:17.880Z</when>
<when >2025-09-03T15:21:37.540Z</when>
<when >2025-09-03T15:21:57.300Z</when>
<when >2025-09-03T15:22:16.920Z</when>
<when >2025-09-03T15:22:36.740Z</when>
<when >2025-09-03T15:22:56.660Z</when>
<when >2025-09-03T15:23:16.140Z</when>
<when >2025-09-03T15:23:36.120Z</when>
<when >2025-09-03T15:23:56.110Z</when>
<when >2025-09-03T15:24:15.620Z</when>
<when >2025-09-03T15:24:35.360Z</when>
<when >2025-09-03T15:24:54.900Z</when>
<when >2025-09-03T15:25:14.730Z</when>
<when >2025-09-03T15:25:34.530Z</when>
<when >2025-09-03T15:25:54.300Z</when>
<when >2025-09-03T15:26:13.970Z</when>
<when >2025-09-03T15:26:33.410Z</when>
<when >2025-09-03T15:26:52.860Z</when>
<when >2025-09-03T15:27:12.600Z</when>
<when >2025-09-03T15:27:32.400Z</when>
<when >2025-09-03T15:27:51.840Z</when>
<when >2025-09-03T15:28:11.810Z</when>
<when >2025-09-03T15:28:31.400Z</when>
<when >2025-09-03T15:28:51.160Z</when>
<when >2025-09-03T15:29:10.550Z</when>
<when >2025-09-03T15:29:30.390Z</when>
<when >2025-09-03T15:29:50.280Z</when>
<when >2025-09-03T15:30:09.560Z</when>
<when >2025-09-03T15:30:29.180Z</when>
<when >2025-09-03T15:30:49.130Z</when>
<when >2025-09-03T15:31:09.050Z</when>
<when >2025-09-03T15:31:28.910Z</when>
<when >2025-09-03T15:31:48.280Z</when>
<when >2025-09-03T15:32:08.080Z</when>
<when >2025-09-03T15:32:27.340Z</when>
<when >2025-09-03T15:32:46.820Z</when>
<when >2025-09-03T15:33:06.690Z</when>
<when >2025-09-03T15:33:26.320Z</when>
<when >2025-09-03T15:33:45.790Z</when>
<when >2025-09-03T15:34:05.710Z</when>
<when >2025-09-03T15:34:25.320Z</when>
<when >2025-09-03T15:34:44.570Z</when>
<when >2025-09-03T15:35:04.220Z</when>
<when >2025-09-03T15:35:23.600Z</when>
<when >2025-09-03T15:35:42.930Z</when>
<when >2025-09-03T15:36:01.920Z</when>
<when >2025-09-03T15:36:21.720Z</when>
<when >2025-09-03T15:36:41.040Z</when>
<when >2025-09-03T15:37:00.860Z</when>
<when >2025-09-03T15:37:20.510Z</when>
<when >2025-09-03T15:37:39.680Z</when>
<when >2025-09-03T15:37:57.510Z</when>
<when >2025-09-03T15:38:05.070Z</when>
<when >2025-09-03T15:38:10.570Z</when>
<when >2025-09-03T15:38:19.720Z</when>
<when >2025-09-03T15:38:39.540Z</when>
<when >2025-09-03T15:38:59.500Z</when>
<when >2025-09-03T15:39:19.380Z</when>
<when >2025-09-03T15:39:38.600Z</when>
<when >2025-09-03T15:39:58.560Z</when>
<when >2025-09-03T15:40:18.220Z</when>
<when >2025-09-03T15:40:37.770Z</when>
<when >2025-09-03T15:40:57.550Z</when>
<when >2025-09-03T15:41:16.710Z</when>
<when >2025-09-03T15:41:36.410Z</when>
<when >2025-09-03T15:41:55.850Z</when>
<when >2025-09-03T15:42:15.750Z</when>
<when >2025-09-03T15:42:34.460Z</when>
<when >2025-09-03T15:42:54.330Z</when>
<when >2025-09-03T15:43:13.680Z</when>
<when >2025-09-03T15:43:32.950Z</when>
<when >2025-09-03T15:43:51.860Z</when>
<when >2025-09-03T15:44:10.530Z</when>
<when >2025-09-03T15:44:29.910Z</when>
<when >2025-09-03T15:44:49.440Z</when>
<when >2025-09-03T15:45:08.780Z</when>
<when >2025-09-03T15:45:28.320Z</when>
<when >2025-09-03T15:45:48.220Z</when>
<when >2025-09-03T15:46:08.120Z</when>
<when >2025-09-03T15:46:27.940Z</when>
<when >2025-09-03T15:46:47.090Z</when>
<when >2025-09-03T15:47:06.430Z</when>
<when >2025-09-03T15:47:26.090Z</when>
<when >2025-09-03T15:47:45.030Z</when>
<when >2025-09-03T15:48:04.030Z</when>
<when >2025-09-03T15:48:23.770Z</when>
<when >2025-09-03T15:48:43.320Z</when>
<when >2025-09-03T15:49:03.090Z</when>
<when >2025-09-03T15:49:22.130Z</when>
<when >2025-09-03T15:49:39.960Z</when>
<when >2025-09-03T15:49:51.240Z</when>
<when >2025-09-03T15:50:10.600Z</when>
<when >2025-09-03T15:50:30.110Z</when>
<when >2025-09-03T15:50:49.100Z</when>
<when >2025-09-03T15:51:08.150Z</when>
<when >2025-09-03T15:51:27.660Z</when>
<when >2025-09-03T15:51:46.850Z</when>
<when >2025-09-03T15:52:05.400Z</when>
<when >2025-09-03T15:52:24.990Z</when>
<when >2025-09-03T15:52:44.980Z</when>
<when >2025-09-03T15:53:03.170Z</when>
<when >2025-09-03T15:53:23.030Z</when>
<when >2025-09-03T15:53:41.530Z</when>
<when >2025-09-03T15:54:00.650Z</when>
<when >2025-09-03T15:54:18.990Z</when>
<when >2025-09-03T15:54:38.330Z</when>
<when >2025-09-03T15:54:57.640Z</when>
<when >2025-09-03T15:55:16.120Z</when>
<when >2025-09-03T15:55:34.690Z</when>
<when >2025-09-03T15:55:52.160Z</when>
<when >2025-09-03T15:56:10.810Z</when>
<when >2025-09-03T15:56:30.340Z</when>
<when >2025-09-03T15:56:49.850Z</when>
<when >2025-09-03T15:57:09.180Z</when>
<when >2025-09-03T15:57:28.990Z</when>
<when >2025-09-03T15:57:48.510Z</when>
<when >2025-09-03T15:58:07.820Z</when>
<when >2025-09-03T15:58:26.310Z</when>
<when >2025-09-03T15:58:45.400Z</when>
<when >2025-09-03T15:59:04.910Z</when>
<when >2025-09-03T15:59:24.480Z</when>
<when >2025-09-03T15:59:44.390Z</when>
<when >2025-09-03T16:00:03.700Z</when>
<when >2025-09-03T16:00:23.110Z</when>
<when >2025-09-03T16:00:42.100Z</when>
<when >2025-09-03T16:01:01.510Z</when>
<when >2025-09-03T16:01:21.280Z</when>
<when >2025-09-03T16:01:40.640Z</when>
<when >2025-09-03T16:01:56.460Z</when>
<when >2025-09-03T16:02:16.160Z</when>
<when >2025-09-03T16:02:35.700Z</when>
<when >2025-09-03T16:02:55.400Z</when>
<when >2025-09-03T16:03:14.950Z</when>
<when >2025-09-03T16:03:34.950Z</when>
<when >2025-09-03T16:03:54.110Z</when>
<when >2025-09-03T16:04:13.760Z</when>
<when >2025-09-03T16:04:26.900Z</when>
<when >2025-09-03T16:04:46.550Z</when>
<when >2025-09-03T16:05:05.090Z</when>
<when >2025-09-03T16:05:24.210Z</when>
<when >2025-09-03T16:05:43.740Z</when>
<when >2025-09-03T16:06:03.060Z</when>
<when >2025-09-03T16:06:21.960Z</when>
<when >2025-09-03T16:06:41.710Z</when>
<when >2025-09-03T16:07:01.490Z</when>
<when >2025-09-03T16:07:21.240Z</when>
<when >2025-09-03T16:07:40.680Z</when>
<when >2025-09-03T16:08:00.410Z</when>
<when >2025-09-03T16:08:19.570Z</when>
<when >2025-09-03T16:08:38.200Z</when>
<when >2025-09-03T16:08:57.910Z</when>
<when >2025-09-03T16:09:16.940Z</when>
<when >2025-09-03T16:09:36.270Z</when>
<when >2025-09-03T16:09:55.790Z</when>
<when >2025-09-03T16:10:02.030Z</when>
<when >2025-09-03T16:10:02.670Z</when>
<when >2025-09-03T16:10:03.710Z</when>
<when >2025-09-03T16:10:23.230Z</when>
<when >2025-09-03T16:10:43.050Z</when>
<when >2025-09-03T16:11:02.980Z</when>
<when >2025-09-03T16:11:22.740Z</when>
<when >2025-09-03T16:11:41.800Z</when>
<when >2025-09-03T16:12:01.450Z</when>
<when >2025-09-03T16:12:20.800Z</when>
<when >2025-09-03T16:12:40.110Z</when>
<when >2025-09-03T16:13:00.050Z</when>
<when >2025-09-03T16:13:19.810Z</when>
<when >2025-09-03T16:13:39.590Z</when>
<when >2025-09-03T16:13:59.180Z</when>
<when >2025-09-03T16:14:18.630Z</when>
<when >2025-09-03T16:14:38.610Z</when>
<when >2025-09-03T16:14:58.430Z</when>
<when >2025-09-03T16:15:18.400Z</when>
<when >2025-09-03T16:15:37.970Z</when>
<when >2025-09-03T16:15:57.900Z</when>
<when >2025-09-03T16:16:16.920Z</when>
<when >2025-09-03T16:16:36.340Z</when>
<when >2025-09-03T16:16:56.080Z</when>
<when >2025-09-03T16:17:15.020Z</when>
<when >2025-09-03T16:17:34.220Z</when>
<when >2025-09-03T16:17:53.730Z</when>
<when >2025-09-03T16:18:12.890Z</when>
<when >2025-09-03T16:18:31.900Z</when>
<when >2025-09-03T16:18:45.760Z</when>
<when >2025-09-03T16:18:55.940Z</when>
<when >2025-09-03T16:19:07.380Z</when>
<when >2025-09-03T16:19:24.800Z</when>
<when >2025-09-03T16:19:44.730Z</when>
<when >2025-09-03T16:20:03.660Z</when>
<when >2025-09-03T16:20:23.510Z</when>
<when >2025-09-03T16:20:43.130Z</when>
<when >2025-09-03T16:21:02.840Z</when>
<when >2025-09-03T16:21:21.960Z</when>
<when >2025-09-03T16:21:41.500Z</when>
<when >2025-09-03T16:22:00.820Z</when>
<when >2025-09-03T16:22:20.480Z</when>
<when >2025-09-03T16:22:39.920Z</when>
<when >2025-09-03T16:22:59.620Z</when>
<when >2025-09-03T16:23:18.830Z</when>
<when >2025-09-03T16:23:38.640Z</when>
<when >2025-09-03T16:23:58.220Z</when>
<when >2025-09-03T16:24:17.960Z</when>
<when >2025-09-03T16:24:37.530Z</when>
<when >2025-09-03T16:24:57.280Z</when>
<when >2025-09-03T16:25:16.610Z</when>
<when >2025-09-03T16:25:35.730Z</when>
<when >2025-09-03T16:25:55.660Z</when>
<when >2025-09-03T16:26:15.250Z</when>
<when >2025-09-03T16:26:35.100Z</when>
<when >2025-09-03T16:26:54.460Z</when>
<when >2025-09-03T16:27:13.770Z</when>
<when >2025-09-03T16:27:33.620Z</when>
<when >2025-09-03T16:27:53.030Z</when>
<when >2025-09-03T16:28:12.540Z</when>
<when >2025-09-03T16:28:32.280Z</when>
<when >2025-09-03T16:28:51.600Z</when>
<when >2025-09-03T16:29:11.590Z</when>
<when >2025-09-03T16:29:31.330Z</when>
<when >2025-09-03T16:29:51.320Z</when>
<when >2025-09-03T16:30:11.180Z</when>
<when >2025-09-03T16:30:30.440Z</when>
<when >2025-09-03T16:30:49.860Z</when>
<when >2025-09-03T16:31:09.790Z</when>
<when >2025-09-03T16:31:29.550Z</when>
<when >2025-09-03T16:31:48.890Z</when>
<when >2025-09-03T16:32:08.490Z</when>
<when >2025-09-03T16:32:27.990Z</when>
<when >2025-09-03T16:32:46.910Z</when>
<when >2025-09-03T16:33:06.570Z</when>
<when >2025-09-03T16:33:26.400Z</when>
<when >2025-09-03T16:33:45.980Z</when>
<when >2025-09-03T16:34:05.060Z</when>
<when >2025-09-03T16:34:24.920Z</when>
<when >2025-09-03T16:34:44.440Z</when>
<when >2025-09-03T16:35:04.250Z</when>
<when >2025-09-03T16:35:23.300Z</when>
<when >2025-09-03T16:35:42.000Z</when>
<when >2025-09-03T16:36:00.980Z</when>
<when >2025-09-03T16:36:20.910Z</when>
<when >2025-09-03T16:36:32.050Z</when>
<when >2025-09-03T16:36:38.740Z</when>
<when >2025-09-03T16:36:44.730Z</when>
<when >2025-09-03T16:36:50.010Z</when>
<when >2025-09-03T16:37:01.140Z</when>
<when >2025-09-03T16:37:19.490Z</when>
<when >2025-09-03T16:37:39.420Z</when>
<when >2025-09-03T16:37:58.070Z</when>
<when >2025-09-03T16:38:17.380Z</when>
<when >2025-09-03T16:38:36.960Z</when>
<when >2025-09-03T16:38:56.080Z</when>
<when >2025-09-03T16:39:14.460Z</when>
<when >2025-09-03T16:39:34.330Z</when>
<when >2025-09-03T16:39:53.280Z</when>
<when >2025-09-03T16:40:12.770Z</when>
<when >2025-09-03T16:40:32.550Z</when>
<when >2025-09-03T16:40:52.310Z</when>
<when >2025-09-03T16:41:11.480Z</when>
<when >2025-09-03T16:41:31.320Z</when>
<when >2025-09-03T16:41:51.070Z</when>
<when >2025-09-03T16:42:10.820Z</when>
<when >2025-09-03T16:42:22.660Z</when>
<when >2025-09-03T16:42:30.060Z</when>
<when >2025-09-03T16:42:38.720Z</when>
<when >2025-09-03T16:42:50.450Z</when>
<when >2025-09-03T16:43:02.770Z</when>
<when >2025-09-03T16:43:14.980Z</when>
<when >2025-09-03T16:43:26.710Z</when>
<when >2025-09-03T16:43:38.150Z</when>
<when >2025-09-03T16:43:49.490Z</when>
<when >2025-09-03T16:44:01.290Z</when>
<when >2025-09-03T16:44:14.170Z</when>
<when >2025-09-03T16:44:26.570Z</when>
<when >2025-09-03T16:44:39.170Z</when>
<when >2025-09-03T16:44:51.130Z</when>
<when >2025-09-03T16:45:02.980Z</when>
<when >2025-09-03T16:45:13.560Z</when>
<when >2025-09-03T16:45:24.930Z</when>
<when >2025-09-03T16:45:34.710Z</when>
<when >2025-09-03T16:45:45.690Z</when>
<when >2025-09-03T16:45:58.430Z</when>
<when >2025-09-03T16:46:09.200Z</when>
<when >2025-09-03T16:46:21.390Z</when>
<when >2025-09-03T16:46:25.860Z</when>
<when >2025-09-03T16:46:40.340Z</when>
<when >2025-09-03T16:46:52.410Z</when>
<when >2025-09-03T16:47:03.180Z</when>
<when >2025-09-03T16:47:15.460Z</when>
<when >2025-09-03T16:47:26.290Z</when>
<when >2025-09-03T16:47:37.130Z</when>
<when >2025-09-03T16:47:49.280Z</when>
<when >2025-09-03T16:48:02.850Z</when>
<when >2025-09-03T16:48:15.820Z</when>
<when >2025-09-03T16:48:29.420Z</when>
<when >2025-09-03T16:48:42.120Z</when>
<when >2025-09-03T16:48:55.210Z</when>
<when >2025-09-03T16:49:06.570Z</when>
<when >2025-09-03T16:49:19.790Z</when>
<when >2025-09-03T16:49:31.280Z</when>
<when >2025-09-03T16:49:42.850Z</when>
<when >2025-09-03T16:49:56.260Z</when>
<when >2025-09-03T16:50:08.800Z</when>
<when >2025-09-03T16:50:20.440Z</when>
<when >2025-09-03T16:50:32.950Z</when>
<when >2025-09-03T16:50:43.780Z</when>
<when >2025-09-03T16:50:55.210Z</when>
<when >2025-09-03T16:50:56.510Z</when>
<when >2025-09-03T16:51:00.600Z</when>
<when >2025-09-03T16:51:08.430Z</when>
<when >2025-09-03T16:51:14.820Z</when>
<when >2025-09-03T16:51:21.360Z</when>
<when >2025-09-03T16:51:28.380Z</when>
<when >2025-09-03T16:51:33.290Z</when>
<when >2025-09-03T16:51:36.800Z</when>
<when >2025-09-03T16:51:47.990Z</when>
<when >2025-09-03T16:51:58.880Z</when>
<when >2025-09-03T16:52:10.660Z</when>
<when >2025-09-03T16:52:21.380Z</when>
<when >2025-09-03T16:52:32.930Z</when>
<when >2025-09-03T16:52:43.740Z</when>
<when >2025-09-03T16:52:55.390Z</when>
<when >2025-09-03T16:53:06.190Z</when>
<when >2025-09-03T16:53:15.950Z</when>
<when >2025-09-03T16:53:29.310Z</when>
<when >2025-09-03T16:53:43.530Z</when>
<when >2025-09-03T16:53:56.010Z</when>
<when >2025-09-03T16:54:02.620Z</when>
<when >2025-09-03T16:54:12.510Z</when>
<when >2025-09-03T16:54:15.880Z</when>
<when >2025-09-03T16:54:27.460Z</when>
<when >2025-09-03T16:54:35.510Z</when>
<when >2025-09-03T16:54:43.830Z</when>
<when >2025-09-03T16:54:46.900Z</when>
<when >2025-09-03T16:54:52.120Z</when>
<when >2025-09-03T16:54:57.880Z</when>
<when >2025-09-03T16:55:05.140Z</when>
<when >2025-09-03T16:55:11.020Z</when>
<when >2025-09-03T16:55:17.100Z</when>
<when >2025-09-03T16:55:22.420Z</when>
<when >2025-09-03T16:55:28.820Z</when>
<when >2025-09-03T16:55:35.300Z</when>
<when >2025-09-03T16:55:42.130Z</when>
<when >2025-09-03T16:55:49.210Z</when>
<when >2025-09-03T16:55:56.710Z</when>
<when >2025-09-03T16:56:04.180Z</when>
<when >2025-09-03T16:56:11.530Z</when>
<when >2025-09-03T16:56:18.920Z</when>
<when >2025-09-03T16:56:26.290Z</when>
<when >2025-09-03T16:56:33.710Z</when>
<when >2025-09-03T16:56:39.580Z</when>
<when >2025-09-03T16:56:46.070Z</when>
<when >2025-09-03T16:56:50.460Z</when>
<when >2025-09-03T16:56:54.830Z</when>
<when >2025-09-03T16:57:00.260Z</when>
<when >2025-09-03T16:57:07.120Z</when>
<when >2025-09-03T16:57:14.050Z</when>
<when >2025-09-03T16:57:20.690Z</when>
<when >2025-09-03T16:57:27.860Z</when>
<when >2025-09-03T16:57:35.670Z</when>
<when >2025-09-03T16:57:39.230Z</when>
<when >2025-09-03T16:57:42.570Z</when>
<when >2025-09-03T16:57:45.910Z</when>
<when >2025-09-03T16:57:49.640Z</when>
<when >2025-09-03T16:57:53.070Z</when>
<when >2025-09-03T16:57:56.280Z</when>
<when >2025-09-03T16:57:59.630Z</when>
<when >2025-09-03T16:58:02.570Z</when>
<when >2025-09-03T16:58:05.750Z</when>
<when >2025-09-03T16:58:08.470Z</when>
<when >2025-09-03T16:58:11.360Z</when>
<when >2025-09-03T16:58:14.620Z</when>
<when >2025-09-03T16:58:16.600Z</when>
<when >2025-09-03T16:58:19.870Z</when>
<when >2025-09-03T16:58:22.470Z</when>
<when >2025-09-03T16:58:25.350Z</when>
<when >2025-09-03T16:58:28.000Z</when>
<when >2025-09-03T16:58:28.940Z</when>
<when >2025-09-03T16:58:36.470Z</when>
<when >2025-09-03T16:58:38.760Z</when>
<when >2025-09-03T16:58:42.090Z</when>
<when >2025-09-03T16:58:45.930Z</when>
<when >2025-09-03T16:58:48.450Z</when>
<when >2025-09-03T16:58:53.270Z</when>
<when >2025-09-03T16:58:57.160Z</when>
<when >2025-09-03T16:59:02.580Z</when>
<when >2025-09-03T16:59:07.050Z</when>
<when >2025-09-03T16:59:11.980Z</when>
<when >2025-09-03T16:59:17.110Z</when>
<when >2025-09-03T16:59:21.620Z</when>
<when >2025-09-03T16:59:26.530Z</when>
<when >2025-09-03T16:59:31.010Z</when>
<when >2025-09-03T16:59:35.150Z</when>
<when >2025-09-03T16:59:39.970Z</when>
<when >2025-09-03T16:59:44.100Z</when>
<when >2025-09-03T16:59:48.110Z</when>
<when >2025-09-03T16:59:52.620Z</when>
<when >2025-09-03T16:59:57.880Z</when>
<when >2025-09-03T17:00:04.510Z</when>
<when >2025-09-03T17:00:11.610Z</when>
<when >2025-09-03T17:00:19.030Z</when>
<when >2025-09-03T17:00:28.150Z</when>
<when >2025-09-03T17:00:36.120Z</when>
<when >2025-09-03T17:00:45.060Z</when>
<when >2025-09-03T17:00:54.380Z</when>
<when >2025-09-03T17:01:03.470Z</when>
<when >2025-09-03T17:01:09.180Z</when>
<when >2025-09-03T17:01:12.890Z</when>
<when >2025-09-03T17:01:16.480Z</when>
<when >2025-09-03T17:01:17.990Z</when>
<when >2025-09-03T17:01:19.820Z</when>
<when >2025-09-03T17:01:22.130Z</when>
<when >2025-09-03T17:01:24.970Z</when>
<when >2025-09-03T17:01:29.540Z</when>
<when >2025-09-03T17:01:40.960Z</when>
<when >2025-09-03T17:01:55.680Z</when>
<when >2025-09-03T17:02:00.460Z</when>
<when >2025-09-03T17:02:03.790Z</when>
<when >2025-09-03T17:02:06.040Z</when>
<when >2025-09-03T17:02:08.560Z</when>
<when >2025-09-03T17:02:10.610Z</when>
<when >2025-09-03T17:02:12.830Z</when>
<when >2025-09-03T17:02:15.340Z</when>
<when >2025-09-03T17:02:16.970Z</when>
<when >2025-09-03T17:02:19.740Z</when>
<when >2025-09-03T17:02:23.110Z</when>
<when >2025-09-03T17:02:26.160Z</when>
<when >2025-09-03T17:02:29.830Z</when>
<when >2025-09-03T17:02:32.900Z</when>
<when >2025-09-03T17:02:37.160Z</when>
<when >2025-09-03T17:02:39.940Z</when>
<when >2025-09-03T17:02:43.940Z</when>
<when >2025-09-03T17:02:49.650Z</when>
<when >2025-09-03T17:02:56.710Z</when>
<when >2025-09-03T17:02:59.860Z</when>
<when >2025-09-03T17:03:03.420Z</when>
<when >2025-09-03T17:03:06.850Z</when>
<when >2025-09-03T17:03:12.000Z</when>
<when >2025-09-03T17:03:15.410Z</when>
<when >2025-09-03T17:03:20.370Z</when>
<when >2025-09-03T17:03:21.600Z</when>
<when >2025-09-03T17:03:24.300Z</when>
<when >2025-09-03T17:03:27.030Z</when>
<when >2025-09-03T17:03:32.950Z</when>
<when >2025-09-03T17:03:38.970Z</when>
<when >2025-09-03T17:03:45.410Z</when>
<when >2025-09-03T17:03:51.140Z</when>
<when >2025-09-03T17:03:57.610Z</when>
<when >2025-09-03T17:04:04.160Z</when>
<when >2025-09-03T17:04:11.860Z</when>
<when >2025-09-03T17:04:18.630Z</when>
<when >2025-09-03T17:04:22.120Z</when>
<when >2025-09-03T17:04:25.070Z</when>
<when >2025-09-03T17:04:27.240Z</when>
<when >2025-09-03T17:04:32.610Z</when>
<when >2025-09-03T17:04:36.870Z</when>
<when >2025-09-03T17:04:40.140Z</when>
<when >2025-09-03T17:04:46.380Z</when>
<when >2025-09-03T17:04:51.390Z</when>
<when >2025-09-03T17:04:59.730Z</when>
<when >2025-09-03T17:05:08.030Z</when>
<when >2025-09-03T17:05:16.710Z</when>
<when >2025-09-03T17:05:25.090Z</when>
<when >2025-09-03T17:05:33.520Z</when>
<when >2025-09-03T17:05:39.430Z</when>
<when >2025-09-03T17:05:47.790Z</when>
<when >2025-09-03T17:05:55.590Z</when>
<when >2025-09-03T17:06:04.450Z</when>
<when >2025-09-03T17:06:12.920Z</when>
<when >2025-09-03T17:06:21.390Z</when>
<when >2025-09-03T17:06:29.320Z</when>
<when >2025-09-03T17:06:37.670Z</when>
<when >2025-09-03T17:06:44.140Z</when>
<when >2025-09-03T17:06:53.120Z</when>
<when >2025-09-03T17:07:02.610Z</when>
<when >2025-09-03T17:07:09.220Z</when>
<when >2025-09-03T17:07:16.570Z</when>
<when >2025-09-03T17:07:19.410Z</when>
<when >2025-09-03T17:07:23.480Z</when>
<when >2025-09-03T17:07:23.480Z</when>
<gx:coord >20.976181 52.163223 106</gx:coord>
<gx:coord >20.975876 52.163269 106</gx:coord>
<gx:coord >20.973528 52.16397 107</gx:coord>
<gx:coord >20.972672 52.164185 107</gx:coord>
<gx:coord >20.969997 52.164948 109</gx:coord>
<gx:coord >20.968584 52.16532 110</gx:coord>
<gx:coord >20.966466 52.165926 111</gx:coord>
<gx:coord >20.96489 52.166382 106</gx:coord>
<gx:coord >20.962753 52.166977 106</gx:coord>
<gx:coord >20.961679 52.167276 108</gx:coord>
<gx:coord >20.958786 52.168121 122</gx:coord>
<gx:coord >20.957127 52.168579 137</gx:coord>
<gx:coord >20.954381 52.16937 168</gx:coord>
<gx:coord >20.951538 52.170181 200</gx:coord>
<gx:coord >20.949402 52.170822 226</gx:coord>
<gx:coord >20.94669 52.171605 249</gx:coord>
<gx:coord >20.94429 52.172333 281</gx:coord>
<gx:coord >20.94162 52.173065 312</gx:coord>
<gx:coord >20.938797 52.173889 345</gx:coord>
<gx:coord >20.936279 52.174576 376</gx:coord>
<gx:coord >20.933762 52.175308 406</gx:coord>
<gx:coord >20.931466 52.175981 439</gx:coord>
<gx:coord >20.92865 52.176727 467</gx:coord>
<gx:coord >20.926444 52.177377 497</gx:coord>
<gx:coord >20.924011 52.178076 529</gx:coord>
<gx:coord >20.9215 52.178774 563</gx:coord>
<gx:coord >20.919266 52.179428 587</gx:coord>
<gx:coord >20.917206 52.180023 618</gx:coord>
<gx:coord >20.914202 52.180869 650</gx:coord>
<gx:coord >20.911377 52.181614 680</gx:coord>
<gx:coord >20.909119 52.182266 712</gx:coord>
<gx:coord >20.906198 52.182964 741</gx:coord>
<gx:coord >20.902863 52.183548 772</gx:coord>
<gx:coord >20.90065 52.183777 796</gx:coord>
<gx:coord >20.89733 52.183988 828</gx:coord>
<gx:coord >20.89447 52.18396 860</gx:coord>
<gx:coord >20.891495 52.183731 889</gx:coord>
<gx:coord >20.888227 52.183383 917</gx:coord>
<gx:coord >20.885245 52.182964 948</gx:coord>
<gx:coord >20.882263 52.182545 979</gx:coord>
<gx:coord >20.87944 52.182129 1012</gx:coord>
<gx:coord >20.876456 52.18166 1045</gx:coord>
<gx:coord >20.873474 52.181195 1077</gx:coord>
<gx:coord >20.870514 52.180756 1106</gx:coord>
<gx:coord >20.868073 52.180344 1122</gx:coord>
<gx:coord >20.865631 52.179977 1139</gx:coord>
<gx:coord >20.860214 52.179199 1170</gx:coord>
<gx:coord >20.855974 52.178541 1192</gx:coord>
<gx:coord >20.852129 52.177983 1217</gx:coord>
<gx:coord >20.848236 52.177368 1233</gx:coord>
<gx:coord >20.843576 52.176679 1259</gx:coord>
<gx:coord >20.837936 52.175858 1287</gx:coord>
<gx:coord >20.832825 52.175125 1310</gx:coord>
<gx:coord >20.827179 52.174301 1333</gx:coord>
<gx:coord >20.821152 52.173431 1366</gx:coord>
<gx:coord >20.818935 52.173141 1373</gx:coord>
<gx:coord >20.814462 52.172489 1389</gx:coord>
<gx:coord >20.810617 52.171838 1406</gx:coord>
<gx:coord >20.807495 52.17128 1414</gx:coord>
<gx:coord >20.802078 52.169907 1438</gx:coord>
<gx:coord >20.797882 52.168533 1446</gx:coord>
<gx:coord >20.79216 52.166107 1469</gx:coord>
<gx:coord >20.788958 52.164389 1484</gx:coord>
<gx:coord >20.785819 52.162248 1499</gx:coord>
<gx:coord >20.782131 52.159082 1522</gx:coord>
<gx:coord >20.781581 52.158477 1529</gx:coord>
<gx:coord >20.779227 52.155591 1553</gx:coord>
<gx:coord >20.777422 52.152891 1578</gx:coord>
<gx:coord >20.775757 52.150177 1607</gx:coord>
<gx:coord >20.774231 52.147339 1637</gx:coord>
<gx:coord >20.772781 52.144455 1666</gx:coord>
<gx:coord >20.77138 52.141718 1700</gx:coord>
<gx:coord >20.769958 52.138779 1730</gx:coord>
<gx:coord >20.76889 52.13649 1760</gx:coord>
<gx:coord >20.767848 52.13427 1792</gx:coord>
<gx:coord >20.766671 52.131663 1825</gx:coord>
<gx:coord >20.765228 52.128662 1857</gx:coord>
<gx:coord >20.763931 52.126007 1888</gx:coord>
<gx:coord >20.762748 52.123563 1921</gx:coord>
<gx:coord >20.761414 52.120834 1951</gx:coord>
<gx:coord >20.760158 52.118303 1981</gx:coord>
<gx:coord >20.758902 52.115789 2011</gx:coord>
<gx:coord >20.757599 52.113235 2043</gx:coord>
<gx:coord >20.756313 52.110808 2071</gx:coord>
<gx:coord >20.755081 52.108475 2102</gx:coord>
<gx:coord >20.75386 52.106186 2133</gx:coord>
<gx:coord >20.752716 52.104034 2163</gx:coord>
<gx:coord >20.751419 52.1017 2195</gx:coord>
<gx:coord >20.748901 52.096985 2254</gx:coord>
<gx:coord >20.74646 52.092499 2317</gx:coord>
<gx:coord >20.74379 52.087738 2390</gx:coord>
<gx:coord >20.741167 52.082923 2448</gx:coord>
<gx:coord >20.738297 52.077805 2504</gx:coord>
<gx:coord >20.735596 52.073007 2562</gx:coord>
<gx:coord >20.732346 52.06723 2628</gx:coord>
<gx:coord >20.729523 52.062149 2693</gx:coord>
<gx:coord >20.726318 52.056473 2756</gx:coord>
<gx:coord >20.723354 52.051081 2817</gx:coord>
<gx:coord >20.720596 52.046127 2875</gx:coord>
<gx:coord >20.717773 52.041092 2939</gx:coord>
<gx:coord >20.715714 52.037292 2993</gx:coord>
<gx:coord >20.713152 52.03274 3055</gx:coord>
<gx:coord >20.710876 52.02855 3115</gx:coord>
<gx:coord >20.708444 52.024128 3190</gx:coord>
<gx:coord >20.70609 52.019984 3234</gx:coord>
<gx:coord >20.705643 52.019257 3242</gx:coord>
<gx:coord >20.704269 52.016693 3263</gx:coord>
<gx:coord >20.701141 52.011154 3297</gx:coord>
<gx:coord >20.69519 52.000443 3351</gx:coord>
<gx:coord >20.69046 51.991882 3382</gx:coord>
<gx:coord >20.68498 51.981951 3435</gx:coord>
<gx:coord >20.678938 51.971151 3481</gx:coord>
<gx:coord >20.676113 51.96603 3520</gx:coord>
<gx:coord >20.675049 51.964142 3536</gx:coord>
<gx:coord >20.673758 51.961841 3559</gx:coord>
<gx:coord >20.669937 51.954895 3625</gx:coord>
<gx:coord >20.665894 51.947617 3687</gx:coord>
<gx:coord >20.662003 51.940521 3753</gx:coord>
<gx:coord >20.655474 51.928602 3870</gx:coord>
<gx:coord >20.650766 51.920037 3974</gx:coord>
<gx:coord >20.645599 51.910675 4090</gx:coord>
<gx:coord >20.64064 51.90152 4204</gx:coord>
<gx:coord >20.63652 51.894058 4278</gx:coord>
<gx:coord >20.628433 51.87935 4404</gx:coord>
<gx:coord >20.625229 51.873531 4461</gx:coord>
<gx:coord >20.617997 51.860413 4592</gx:coord>
<gx:coord >20.614805 51.854599 4630</gx:coord>
<gx:coord >20.605469 51.837779 4739</gx:coord>
<gx:coord >20.601963 51.831345 4796</gx:coord>
<gx:coord >20.594635 51.817994 4920</gx:coord>
<gx:coord >20.586894 51.803833 5042</gx:coord>
<gx:coord >20.579529 51.790342 5178</gx:coord>
<gx:coord >20.576324 51.784523 5222</gx:coord>
<gx:coord >20.574265 51.780752 5243</gx:coord>
<gx:coord >20.565144 51.764145 5370</gx:coord>
<gx:coord >20.557053 51.749405 5492</gx:coord>
<gx:coord >20.551834 51.739926 5560</gx:coord>
<gx:coord >20.54245 51.722702 5689</gx:coord>
<gx:coord >20.533225 51.705917 5803</gx:coord>
<gx:coord >20.523529 51.688253 5925</gx:coord>
<gx:coord >20.513998 51.670853 6039</gx:coord>
<gx:coord >20.5042 51.653 6153</gx:coord>
<gx:coord >20.494843 51.635789 6268</gx:coord>
<gx:coord >20.485611 51.618937 6390</gx:coord>
<gx:coord >20.476608 51.602225 6527</gx:coord>
<gx:coord >20.467158 51.584885 6635</gx:coord>
<gx:coord >20.462704 51.576782 6678</gx:coord>
<gx:coord >20.450516 51.554415 6771</gx:coord>
<gx:coord >20.4422 51.5391 6854</gx:coord>
<gx:coord >20.431824 51.520013 6969</gx:coord>
<gx:coord >20.421295 51.500694 7074</gx:coord>
<gx:coord >20.410385 51.48049 7189</gx:coord>
<gx:coord >20.400085 51.461544 7303</gx:coord>
<gx:coord >20.389883 51.442657 7410</gx:coord>
<gx:coord >20.379861 51.424072 7532</gx:coord>
<gx:coord >20.369186 51.404284 7631</gx:coord>
<gx:coord >20.358963 51.385245 7753</gx:coord>
<gx:coord >20.348239 51.365295 7859</gx:coord>
<gx:coord >20.339813 51.34926 7936</gx:coord>
<gx:coord >20.327072 51.324913 8027</gx:coord>
<gx:coord >20.314407 51.300333 8111</gx:coord>
<gx:coord >20.3022 51.276638 8209</gx:coord>
<gx:coord >20.290115 51.253189 8300</gx:coord>
<gx:coord >20.278535 51.230759 8399</gx:coord>
<gx:coord >20.266435 51.207413 8491</gx:coord>
<gx:coord >20.255661 51.186699 8597</gx:coord>
<gx:coord >20.243607 51.163377 8689</gx:coord>
<gx:coord >20.230729 51.138382 8788</gx:coord>
<gx:coord >20.219269 51.11608 8887</gx:coord>
<gx:coord >20.208534 51.095306 8956</gx:coord>
<gx:coord >20.201556 51.083588 8986</gx:coord>
<gx:coord >20.193613 51.071915 9024</gx:coord>
<gx:coord >20.176315 51.047462 9116</gx:coord>
<gx:coord >20.161471 51.026321 9214</gx:coord>
<gx:coord >20.145734 51.003662 9313</gx:coord>
<gx:coord >20.127399 50.97702 9397</gx:coord>
<gx:coord >20.109558 50.951192 9480</gx:coord>
<gx:coord >20.093079 50.927124 9572</gx:coord>
<gx:coord >20.075807 50.902039 9671</gx:coord>
<gx:coord >20.057398 50.875122 9755</gx:coord>
<gx:coord >20.040176 50.849991 9839</gx:coord>
<gx:coord >20.022583 50.82429 9930</gx:coord>
<gx:coord >20.001907 50.794031 9998</gx:coord>
<gx:coord >19.982986 50.766193 10074</gx:coord>
<gx:coord >19.966983 50.742783 10165</gx:coord>
<gx:coord >19.951324 50.719827 10257</gx:coord>
<gx:coord >19.935435 50.696457 10348</gx:coord>
<gx:coord >19.918141 50.670914 10447</gx:coord>
<gx:coord >19.897057 50.639711 10516</gx:coord>
<gx:coord >19.878749 50.612686 10600</gx:coord>
<gx:coord >19.861277 50.586967 10698</gx:coord>
<gx:coord >19.843911 50.561371 10781</gx:coord>
<gx:coord >19.826853 50.53624 10865</gx:coord>
<gx:coord >19.809834 50.511319 10949</gx:coord>
<gx:coord >19.791075 50.483597 11025</gx:coord>
<gx:coord >19.772273 50.455596 11101</gx:coord>
<gx:coord >19.749659 50.421844 11162</gx:coord>
<gx:coord >19.726917 50.387304 11192</gx:coord>
<gx:coord >19.712887 50.364307 11230</gx:coord>
<gx:coord >19.692325 50.329207 11276</gx:coord>
<gx:coord >19.670731 50.292389 11314</gx:coord>
<gx:coord >19.649567 50.256911 11337</gx:coord>
<gx:coord >19.627892 50.220973 11344</gx:coord>
<gx:coord >19.606958 50.185733 11343</gx:coord>
<gx:coord >19.598941 50.170371 11343</gx:coord>
<gx:coord >19.592335 50.1558 11343</gx:coord>
<gx:coord >19.580458 50.126053 11343</gx:coord>
<gx:coord >19.565566 50.088776 11343</gx:coord>
<gx:coord >19.550677 50.051651 11343</gx:coord>
<gx:coord >19.535643 50.014023 11343</gx:coord>
<gx:coord >19.520754 49.976807 11351</gx:coord>
<gx:coord >19.506077 49.94003 11351</gx:coord>
<gx:coord >19.490934 49.90209 11351</gx:coord>
<gx:coord >19.47623 49.864792 11350</gx:coord>
<gx:coord >19.462353 49.829224 11342</gx:coord>
<gx:coord >19.447897 49.792648 11350</gx:coord>
<gx:coord >19.432791 49.755661 11358</gx:coord>
<gx:coord >19.417518 49.718116 11358</gx:coord>
<gx:coord >19.402289 49.681458 11358</gx:coord>
<gx:coord >19.386712 49.644424 11358</gx:coord>
<gx:coord >19.371065 49.607574 11350</gx:coord>
<gx:coord >19.355609 49.571849 11342</gx:coord>
<gx:coord >19.339872 49.535631 11335</gx:coord>
<gx:coord >19.324156 49.500412 11327</gx:coord>
<gx:coord >19.30811 49.464615 11327</gx:coord>
<gx:coord >19.292512 49.429632 11327</gx:coord>
<gx:coord >19.276569 49.394119 11327</gx:coord>
<gx:coord >19.260653 49.358917 11327</gx:coord>
<gx:coord >19.244737 49.323944 11335</gx:coord>
<gx:coord >19.228676 49.288811 11335</gx:coord>
<gx:coord >19.212847 49.253664 11342</gx:coord>
<gx:coord >19.196801 49.217586 11349</gx:coord>
<gx:coord >19.181189 49.18216 11357</gx:coord>
<gx:coord >19.165143 49.146361 11357</gx:coord>
<gx:coord >19.148959 49.110443 11364</gx:coord>
<gx:coord >19.132401 49.073973 11364</gx:coord>
<gx:coord >19.116352 49.038025 11364</gx:coord>
<gx:coord >19.100382 49.002049 11357</gx:coord>
<gx:coord >19.08452 48.966202 11357</gx:coord>
<gx:coord >19.068604 48.930222 11349</gx:coord>
<gx:coord >19.052534 48.893303 11349</gx:coord>
<gx:coord >19.037053 48.85762 11349</gx:coord>
<gx:coord >19.021419 48.821274 11349</gx:coord>
<gx:coord >19.005714 48.784698 11357</gx:coord>
<gx:coord >18.989657 48.747574 11356</gx:coord>
<gx:coord >18.973882 48.710907 11356</gx:coord>
<gx:coord >18.958318 48.67424 11356</gx:coord>
<gx:coord >18.942815 48.637499 11356</gx:coord>
<gx:coord >18.92742 48.601141 11356</gx:coord>
<gx:coord >18.912097 48.564738 11356</gx:coord>
<gx:coord >18.896484 48.527802 11356</gx:coord>
<gx:coord >18.888751 48.511342 11348</gx:coord>
<gx:coord >18.88333 48.501752 11348</gx:coord>
<gx:coord >18.873807 48.487198 11348</gx:coord>
<gx:coord >18.84907 48.451616 11348</gx:coord>
<gx:coord >18.825507 48.416422 11348</gx:coord>
<gx:coord >18.803028 48.382113 11356</gx:coord>
<gx:coord >18.778815 48.345337 11356</gx:coord>
<gx:coord >18.755211 48.309586 11356</gx:coord>
<gx:coord >18.731906 48.274112 11356</gx:coord>
<gx:coord >18.709435 48.239822 11348</gx:coord>
<gx:coord >18.686054 48.204163 11348</gx:coord>
<gx:coord >18.662743 48.168457 11340</gx:coord>
<gx:coord >18.639925 48.133617 11340</gx:coord>
<gx:coord >18.616676 48.098282 11340</gx:coord>
<gx:coord >18.593262 48.062622 11340</gx:coord>
<gx:coord >18.570064 48.027106 11340</gx:coord>
<gx:coord >18.546844 47.991394 11340</gx:coord>
<gx:coord >18.523842 47.956009 11348</gx:coord>
<gx:coord >18.500554 47.920222 11348</gx:coord>
<gx:coord >18.477425 47.884552 11348</gx:coord>
<gx:coord >18.454355 47.849044 11348</gx:coord>
<gx:coord >18.430801 47.812683 11348</gx:coord>
<gx:coord >18.407734 47.777027 11348</gx:coord>
<gx:coord >18.384282 47.74067 11348</gx:coord>
<gx:coord >18.360901 47.704266 11348</gx:coord>
<gx:coord >18.337661 47.668235 11348</gx:coord>
<gx:coord >18.314772 47.632482 11340</gx:coord>
<gx:coord >18.29155 47.596161 11340</gx:coord>
<gx:coord >18.26808 47.559442 11340</gx:coord>
<gx:coord >18.24477 47.523038 11347</gx:coord>
<gx:coord >18.221318 47.486308 11347</gx:coord>
<gx:coord >18.198166 47.449814 11347</gx:coord>
<gx:coord >18.174908 47.413221 11355</gx:coord>
<gx:coord >18.151879 47.377004 11355</gx:coord>
<gx:coord >18.12854 47.340363 11362</gx:coord>
<gx:coord >18.104851 47.302917 11362</gx:coord>
<gx:coord >18.081876 47.266675 11355</gx:coord>
<gx:coord >18.058296 47.229309 11355</gx:coord>
<gx:coord >18.035325 47.192936 11355</gx:coord>
<gx:coord >18.012367 47.156393 11355</gx:coord>
<gx:coord >17.989901 47.120594 11347</gx:coord>
<gx:coord >17.966802 47.083585 11347</gx:coord>
<gx:coord >17.943489 47.046341 11347</gx:coord>
<gx:coord >17.92083 47.01004 11339</gx:coord>
<gx:coord >17.898033 46.97374 11339</gx:coord>
<gx:coord >17.875108 46.937039 11339</gx:coord>
<gx:coord >17.851656 46.899424 11332</gx:coord>
<gx:coord >17.828801 46.86264 11339</gx:coord>
<gx:coord >17.806426 46.826385 11339</gx:coord>
<gx:coord >17.783363 46.789235 11339</gx:coord>
<gx:coord >17.761342 46.753693 11339</gx:coord>
<gx:coord >17.738633 46.716934 11339</gx:coord>
<gx:coord >17.71532 46.679352 11339</gx:coord>
<gx:coord >17.692314 46.642456 11347</gx:coord>
<gx:coord >17.66993 46.606006 11347</gx:coord>
<gx:coord >17.646656 46.568024 11355</gx:coord>
<gx:coord >17.623993 46.531103 11347</gx:coord>
<gx:coord >17.601952 46.495118 11347</gx:coord>
<gx:coord >17.578949 46.457318 11355</gx:coord>
<gx:coord >17.556427 46.420402 11355</gx:coord>
<gx:coord >17.533905 46.383672 11355</gx:coord>
<gx:coord >17.51207 46.347734 11347</gx:coord>
<gx:coord >17.489096 46.310028 11339</gx:coord>
<gx:coord >17.466751 46.27325 11339</gx:coord>
<gx:coord >17.443877 46.235458 11339</gx:coord>
<gx:coord >17.421089 46.197649 11332</gx:coord>
<gx:coord >17.399061 46.161118 11332</gx:coord>
<gx:coord >17.37838 46.126471 11339</gx:coord>
<gx:coord >17.370758 46.111621 11339</gx:coord>
<gx:coord >17.366236 46.101059 11339</gx:coord>
<gx:coord >17.359001 46.081696 11339</gx:coord>
<gx:coord >17.344254 46.042072 11347</gx:coord>
<gx:coord >17.328255 46.00078 11355</gx:coord>
<gx:coord >17.312778 45.961075 11355</gx:coord>
<gx:coord >17.296902 45.920563 11362</gx:coord>
<gx:coord >17.280807 45.879325 11362</gx:coord>
<gx:coord >17.265417 45.839767 11355</gx:coord>
<gx:coord >17.249634 45.798976 11362</gx:coord>
<gx:coord >17.23391 45.758383 11347</gx:coord>
<gx:coord >17.218735 45.719139 11346</gx:coord>
<gx:coord >17.203451 45.679733 11346</gx:coord>
<gx:coord >17.187492 45.63865 11346</gx:coord>
<gx:coord >17.171768 45.597591 11346</gx:coord>
<gx:coord >17.156826 45.55838 11346</gx:coord>
<gx:coord >17.141351 45.517987 11346</gx:coord>
<gx:coord >17.125985 45.478043 11354</gx:coord>
<gx:coord >17.110356 45.437027 11354</gx:coord>
<gx:coord >17.095664 45.397463 11354</gx:coord>
<gx:coord >17.082467 45.357894 11361</gx:coord>
<gx:coord >17.068634 45.317093 11361</gx:coord>
<gx:coord >17.054313 45.275528 11361</gx:coord>
<gx:coord >17.040666 45.235787 11361</gx:coord>
<gx:coord >17.025794 45.193099 11369</gx:coord>
<gx:coord >17.011414 45.151978 11369</gx:coord>
<gx:coord >16.996988 45.109398 11361</gx:coord>
<gx:coord >16.982705 45.067017 11361</gx:coord>
<gx:coord >16.968786 45.024999 11354</gx:coord>
<gx:coord >16.955043 44.983109 11354</gx:coord>
<gx:coord >16.941572 44.942093 11354</gx:coord>
<gx:coord >16.927922 44.900378 11354</gx:coord>
<gx:coord >16.914433 44.858688 11346</gx:coord>
<gx:coord >16.900962 44.817215 11346</gx:coord>
<gx:coord >16.887393 44.775479 11337</gx:coord>
<gx:coord >16.872973 44.731613 11337</gx:coord>
<gx:coord >16.859567 44.690826 11345</gx:coord>
<gx:coord >16.846619 44.651962 11345</gx:coord>
<gx:coord >16.837856 44.628479 11337</gx:coord>
<gx:coord >16.821542 44.58764 11345</gx:coord>
<gx:coord >16.803991 44.544207 11345</gx:coord>
<gx:coord >16.787846 44.503381 11353</gx:coord>
<gx:coord >16.771742 44.461899 11360</gx:coord>
<gx:coord >16.755624 44.419633 11369</gx:coord>
<gx:coord >16.741221 44.38146 11369</gx:coord>
<gx:coord >16.725115 44.339081 11369</gx:coord>
<gx:coord >16.708731 44.296177 11376</gx:coord>
<gx:coord >16.691649 44.2513 11369</gx:coord>
<gx:coord >16.677508 44.214157 11369</gx:coord>
<gx:coord >16.660447 44.169113 11369</gx:coord>
<gx:coord >16.644614 44.127146 11361</gx:coord>
<gx:coord >16.630358 44.089392 11369</gx:coord>
<gx:coord >16.613355 44.044283 11369</gx:coord>
<gx:coord >16.597212 44.001617 11370</gx:coord>
<gx:coord >16.581116 43.958725 11377</gx:coord>
<gx:coord >16.565594 43.917664 11362</gx:coord>
<gx:coord >16.550584 43.877838 11370</gx:coord>
<gx:coord >16.535928 43.838708 11370</gx:coord>
<gx:coord >16.521138 43.799194 11362</gx:coord>
<gx:coord >16.504277 43.753703 11356</gx:coord>
<gx:coord >16.488255 43.710922 11340</gx:coord>
<gx:coord >16.47253 43.66832 11340</gx:coord>
<gx:coord >16.456342 43.624288 11340</gx:coord>
<gx:coord >16.440125 43.580995 11348</gx:coord>
<gx:coord >16.424364 43.538539 11348</gx:coord>
<gx:coord >16.409062 43.497294 11356</gx:coord>
<gx:coord >16.393646 43.455643 11356</gx:coord>
<gx:coord >16.37728 43.411498 11363</gx:coord>
<gx:coord >16.361651 43.369182 11363</gx:coord>
<gx:coord >16.344975 43.32398 11363</gx:coord>
<gx:coord >16.328888 43.280314 11364</gx:coord>
<gx:coord >16.312735 43.236415 11364</gx:coord>
<gx:coord >16.297433 43.194425 11372</gx:coord>
<gx:coord >16.281419 43.150589 11372</gx:coord>
<gx:coord >16.265128 43.105789 11372</gx:coord>
<gx:coord >16.249433 43.062822 11372</gx:coord>
<gx:coord >16.236515 43.027588 11364</gx:coord>
<gx:coord >16.220355 42.983139 11311</gx:coord>
<gx:coord >16.204572 42.939458 11265</gx:coord>
<gx:coord >16.189401 42.897329 11227</gx:coord>
<gx:coord >16.173152 42.852264 11174</gx:coord>
<gx:coord >16.15629 42.805667 11119</gx:coord>
<gx:coord >16.141163 42.763916 11081</gx:coord>
<gx:coord >16.124559 42.717957 11066</gx:coord>
<gx:coord >16.11375 42.689612 11066</gx:coord>
<gx:coord >16.095673 42.645993 11066</gx:coord>
<gx:coord >16.07798 42.604422 11074</gx:coord>
<gx:coord >16.060326 42.562225 11074</gx:coord>
<gx:coord >16.042598 42.519608 11074</gx:coord>
<gx:coord >16.025245 42.477356 11074</gx:coord>
<gx:coord >16.007463 42.434087 11073</gx:coord>
<gx:coord >15.989834 42.39084 11080</gx:coord>
<gx:coord >15.97246 42.348431 11080</gx:coord>
<gx:coord >15.95502 42.305695 11080</gx:coord>
<gx:coord >15.93723 42.262115 11079</gx:coord>
<gx:coord >15.920188 42.220001 11072</gx:coord>
<gx:coord >15.903285 42.178003 11087</gx:coord>
<gx:coord >15.887508 42.138946 11079</gx:coord>
<gx:coord >15.869501 42.094482 11078</gx:coord>
<gx:coord >15.853334 42.054474 11078</gx:coord>
<gx:coord >15.836217 42.011998 11071</gx:coord>
<gx:coord >15.819099 41.968984 11079</gx:coord>
<gx:coord >15.813696 41.955551 11077</gx:coord>
<gx:coord >15.814117 41.956554 11030</gx:coord>
<gx:coord >15.812775 41.953156 11078</gx:coord>
<gx:coord >15.795531 41.910324 11085</gx:coord>
<gx:coord >15.77774 41.866241 11085</gx:coord>
<gx:coord >15.760974 41.824532 11085</gx:coord>
<gx:coord >15.743595 41.780914 11092</gx:coord>
<gx:coord >15.727178 41.739716 11108</gx:coord>
<gx:coord >15.709938 41.696467 11108</gx:coord>
<gx:coord >15.693158 41.654617 11115</gx:coord>
<gx:coord >15.676117 41.611954 11123</gx:coord>
<gx:coord >15.658903 41.568448 11123</gx:coord>
<gx:coord >15.64191 41.525391 11115</gx:coord>
<gx:coord >15.62473 41.481628 11115</gx:coord>
<gx:coord >15.607995 41.439126 11115</gx:coord>
<gx:coord >15.591388 41.397136 11108</gx:coord>
<gx:coord >15.574431 41.354168 11100</gx:coord>
<gx:coord >15.557452 41.311108 11115</gx:coord>
<gx:coord >15.540222 41.267487 11115</gx:coord>
<gx:coord >15.523743 41.22551 11115</gx:coord>
<gx:coord >15.507327 41.183461 11115</gx:coord>
<gx:coord >15.490967 41.14151 11115</gx:coord>
<gx:coord >15.474609 41.099716 11108</gx:coord>
<gx:coord >15.457701 41.056374 11115</gx:coord>
<gx:coord >15.441971 41.016106 11123</gx:coord>
<gx:coord >15.425537 40.973923 11123</gx:coord>
<gx:coord >15.408887 40.931288 11131</gx:coord>
<gx:coord >15.392907 40.889903 11131</gx:coord>
<gx:coord >15.376989 40.84889 11123</gx:coord>
<gx:coord >15.366003 40.819562 11131</gx:coord>
<gx:coord >15.358521 40.796539 11131</gx:coord>
<gx:coord >15.351501 40.7715 11131</gx:coord>
<gx:coord >15.341658 40.73223 11131</gx:coord>
<gx:coord >15.330994 40.688095 11131</gx:coord>
<gx:coord >15.320374 40.645111 11131</gx:coord>
<gx:coord >15.309636 40.602955 11138</gx:coord>
<gx:coord >15.297852 40.557449 11131</gx:coord>
<gx:coord >15.286438 40.513412 11131</gx:coord>
<gx:coord >15.275615 40.471631 11131</gx:coord>
<gx:coord >15.264504 40.428244 11123</gx:coord>
<gx:coord >15.25358 40.385556 11131</gx:coord>
<gx:coord >15.242493 40.342529 11131</gx:coord>
<gx:coord >15.231384 40.299133 11131</gx:coord>
<gx:coord >15.220559 40.256606 11131</gx:coord>
<gx:coord >15.209448 40.212987 11132</gx:coord>
<gx:coord >15.198524 40.170392 11132</gx:coord>
<gx:coord >15.187439 40.127243 11132</gx:coord>
<gx:coord >15.17627 40.083481 11139</gx:coord>
<gx:coord >15.16519 40.040464 11139</gx:coord>
<gx:coord >15.154142 39.996845 11147</gx:coord>
<gx:coord >15.143372 39.954483 11148</gx:coord>
<gx:coord >15.132831 39.912827 11148</gx:coord>
<gx:coord >15.121486 39.868195 11148</gx:coord>
<gx:coord >15.11062 39.825577 11148</gx:coord>
<gx:coord >15.099992 39.783691 11148</gx:coord>
<gx:coord >15.088945 39.739471 11149</gx:coord>
<gx:coord >15.078317 39.696945 11156</gx:coord>
<gx:coord >15.067688 39.654593 11156</gx:coord>
<gx:coord >15.056641 39.610834 11156</gx:coord>
<gx:coord >15.046015 39.568359 11156</gx:coord>
<gx:coord >15.035029 39.524689 11157</gx:coord>
<gx:coord >15.024353 39.482536 11157</gx:coord>
<gx:coord >15.013653 39.439499 11165</gx:coord>
<gx:coord >15.002667 39.39537 11157</gx:coord>
<gx:coord >14.991943 39.352189 11165</gx:coord>
<gx:coord >14.981232 39.309036 11165</gx:coord>
<gx:coord >14.970663 39.266556 11165</gx:coord>
<gx:coord >14.960083 39.223985 11166</gx:coord>
<gx:coord >14.949219 39.180412 11166</gx:coord>
<gx:coord >14.938481 39.137054 11166</gx:coord>
<gx:coord >14.928162 39.095314 11166</gx:coord>
<gx:coord >14.917603 39.05244 11158</gx:coord>
<gx:coord >14.907288 39.010682 11166</gx:coord>
<gx:coord >14.897217 38.969856 11166</gx:coord>
<gx:coord >14.886292 38.925445 11166</gx:coord>
<gx:coord >14.875966 38.883362 11174</gx:coord>
<gx:coord >14.865479 38.840487 11174</gx:coord>
<gx:coord >14.855225 38.79859 11174</gx:coord>
<gx:coord >14.8445 38.754913 11174</gx:coord>
<gx:coord >14.833984 38.712329 11189</gx:coord>
<gx:coord >14.823781 38.670822 11189</gx:coord>
<gx:coord >14.813293 38.628069 11189</gx:coord>
<gx:coord >14.803162 38.586172 11189</gx:coord>
<gx:coord >14.79321 38.544891 11197</gx:coord>
<gx:coord >14.782642 38.501633 11197</gx:coord>
<gx:coord >14.777466 38.479056 11197</gx:coord>
<gx:coord >14.774963 38.462436 11197</gx:coord>
<gx:coord >14.773987 38.451031 11194</gx:coord>
<gx:coord >14.773745 38.437637 11197</gx:coord>
<gx:coord >14.774597 38.413882 11197</gx:coord>
<gx:coord >14.776202 38.370255 11197</gx:coord>
<gx:coord >14.77691 38.326783 11189</gx:coord>
<gx:coord >14.777429 38.284241 11189</gx:coord>
<gx:coord >14.777985 38.240801 11181</gx:coord>
<gx:coord >14.778657 38.19635 11181</gx:coord>
<gx:coord >14.779298 38.153423 11189</gx:coord>
<gx:coord >14.779942 38.112396 11181</gx:coord>
<gx:coord >14.780702 38.06868 11181</gx:coord>
<gx:coord >14.781388 38.025916 11181</gx:coord>
<gx:coord >14.782163 37.981934 11189</gx:coord>
<gx:coord >14.782864 37.937531 11189</gx:coord>
<gx:coord >14.783537 37.894872 11204</gx:coord>
<gx:coord >14.784373 37.850228 11212</gx:coord>
<gx:coord >14.78515 37.807167 11212</gx:coord>
<gx:coord >14.785903 37.7612 11219</gx:coord>
<gx:coord >14.786546 37.717072 11219</gx:coord>
<gx:coord >14.787001 37.690554 11189</gx:coord>
<gx:coord >14.787239 37.674866 11151</gx:coord>
<gx:coord >14.787538 37.654988 11097</gx:coord>
<gx:coord >14.787948 37.630188 10968</gx:coord>
<gx:coord >14.788434 37.603967 10861</gx:coord>
<gx:coord >14.788942 37.577087 10755</gx:coord>
<gx:coord >14.789389 37.551921 10648</gx:coord>
<gx:coord >14.789747 37.527714 10534</gx:coord>
<gx:coord >14.79011 37.502838 10412</gx:coord>
<gx:coord >14.790523 37.478462 10313</gx:coord>
<gx:coord >14.791001 37.452625 10206</gx:coord>
<gx:coord >14.791419 37.427347 10099</gx:coord>
<gx:coord >14.791805 37.40007 10001</gx:coord>
<gx:coord >14.792214 37.375351 9887</gx:coord>
<gx:coord >14.792553 37.353888 9757</gx:coord>
<gx:coord >14.792857 37.330765 9643</gx:coord>
<gx:coord >14.793149 37.308884 9521</gx:coord>
<gx:coord >14.793449 37.288017 9399</gx:coord>
<gx:coord >14.793851 37.264755 9293</gx:coord>
<gx:coord >14.794285 37.241464 9186</gx:coord>
<gx:coord >14.794669 37.218201 9056</gx:coord>
<gx:coord >14.795061 37.196588 8946</gx:coord>
<gx:coord >14.795311 37.184692 8892</gx:coord>
<gx:coord >14.795837 37.157391 8805</gx:coord>
<gx:coord >14.796196 37.135139 8683</gx:coord>
<gx:coord >14.796494 37.112515 8569</gx:coord>
<gx:coord >14.796714 37.091034 8462</gx:coord>
<gx:coord >14.797091 37.067964 8340</gx:coord>
<gx:coord >14.79745 37.046643 8233</gx:coord>
<gx:coord >14.797867 37.023507 8111</gx:coord>
<gx:coord >14.798292 37.000168 8012</gx:coord>
<gx:coord >14.798703 36.97458 7906</gx:coord>
<gx:coord >14.799121 36.948651 7822</gx:coord>
<gx:coord >14.799599 36.925235 7709</gx:coord>
<gx:coord >14.800017 36.904566 7594</gx:coord>
<gx:coord >14.800375 36.880964 7488</gx:coord>
<gx:coord >14.800733 36.85955 7366</gx:coord>
<gx:coord >14.801044 36.837479 7259</gx:coord>
<gx:coord >14.801331 36.816559 7137</gx:coord>
<gx:coord >14.801623 36.795494 7038</gx:coord>
<gx:coord >14.801973 36.771147 6924</gx:coord>
<gx:coord >14.802303 36.751144 6802</gx:coord>
<gx:coord >14.802589 36.73082 6680</gx:coord>
<gx:coord >14.802792 36.711234 6558</gx:coord>
<gx:coord >14.803025 36.691729 6447</gx:coord>
<gx:coord >14.803104 36.689026 6422</gx:coord>
<gx:coord >14.803219 36.6828 6363</gx:coord>
<gx:coord >14.803376 36.66957 6245</gx:coord>
<gx:coord >14.80361 36.657653 6125</gx:coord>
<gx:coord >14.803727 36.646666 5989</gx:coord>
<gx:coord >14.803902 36.633818 5865</gx:coord>
<gx:coord >14.804077 36.624573 5812</gx:coord>
<gx:coord >14.804194 36.618316 5758</gx:coord>
<gx:coord >14.804649 36.597977 5622</gx:coord>
<gx:coord >14.805071 36.577955 5507</gx:coord>
<gx:coord >14.805565 36.557281 5385</gx:coord>
<gx:coord >14.805947 36.537315 5248</gx:coord>
<gx:coord >14.806298 36.517158 5134</gx:coord>
<gx:coord >14.80659 36.497467 5004</gx:coord>
<gx:coord >14.806824 36.479187 4898</gx:coord>
<gx:coord >14.806995 36.458038 4768</gx:coord>
<gx:coord >14.807167 36.440735 4677</gx:coord>
<gx:coord >14.807525 36.417583 4586</gx:coord>
<gx:coord >14.808051 36.394027 4472</gx:coord>
<gx:coord >14.808598 36.37326 4365</gx:coord>
<gx:coord >14.808811 36.361953 4282</gx:coord>
<gx:coord >14.808986 36.345986 4152</gx:coord>
<gx:coord >14.809055 36.34021 4122</gx:coord>
<gx:coord >14.809337 36.320568 4015</gx:coord>
<gx:coord >14.80957 36.307114 3954</gx:coord>
<gx:coord >14.809804 36.293661 3908</gx:coord>
<gx:coord >14.809856 36.289124 3877</gx:coord>
<gx:coord >14.810038 36.279695 3816</gx:coord>
<gx:coord >14.810143 36.270584 3749</gx:coord>
<gx:coord >14.81033 36.259166 3686</gx:coord>
<gx:coord >14.810486 36.24971 3618</gx:coord>
<gx:coord >14.8106 36.239319 3550</gx:coord>
<gx:coord >14.810681 36.230815 3483</gx:coord>
<gx:coord >14.810798 36.220248 3422</gx:coord>
<gx:coord >14.810944 36.209839 3366</gx:coord>
<gx:coord >14.811058 36.199127 3299</gx:coord>
<gx:coord >14.811207 36.187801 3232</gx:coord>
<gx:coord >14.811382 36.176023 3178</gx:coord>
<gx:coord >14.811573 36.164886 3131</gx:coord>
<gx:coord >14.811791 36.152608 3071</gx:coord>
<gx:coord >14.812025 36.141109 3010</gx:coord>
<gx:coord >14.812202 36.131195 2950</gx:coord>
<gx:coord >14.812434 36.119276 2895</gx:coord>
<gx:coord >14.812609 36.109733 2821</gx:coord>
<gx:coord >14.812784 36.099957 2754</gx:coord>
<gx:coord >14.812832 36.093842 2720</gx:coord>
<gx:coord >14.812946 36.086609 2663</gx:coord>
<gx:coord >14.813061 36.078278 2598</gx:coord>
<gx:coord >14.813175 36.068756 2530</gx:coord>
<gx:coord >14.813369 36.058386 2468</gx:coord>
<gx:coord >14.813486 36.047725 2401</gx:coord>
<gx:coord >14.81369 36.03717 2340</gx:coord>
<gx:coord >14.813836 36.026125 2278</gx:coord>
<gx:coord >14.813919 36.019684 2248</gx:coord>
<gx:coord >14.814034 36.01474 2218</gx:coord>
<gx:coord >14.814128 36.010065 2176</gx:coord>
<gx:coord >14.814205 36.004669 2143</gx:coord>
<gx:coord >14.814262 35.999634 2111</gx:coord>
<gx:coord >14.81432 35.995056 2079</gx:coord>
<gx:coord >14.814377 35.990707 2046</gx:coord>
<gx:coord >14.814479 35.985811 2015</gx:coord>
<gx:coord >14.814538 35.981156 1986</gx:coord>
<gx:coord >14.814596 35.977292 1955</gx:coord>
<gx:coord >14.814596 35.972962 1923</gx:coord>
<gx:coord >14.814654 35.968633 1893</gx:coord>
<gx:coord >14.814654 35.965002 1862</gx:coord>
<gx:coord >14.814491 35.960678 1826</gx:coord>
<gx:coord >14.814148 35.956329 1794</gx:coord>
<gx:coord >14.813719 35.952154 1761</gx:coord>
<gx:coord >14.813193 35.948616 1747</gx:coord>
<gx:coord >14.812946 35.947174 1741</gx:coord>
<gx:coord >14.810829 35.936279 1707</gx:coord>
<gx:coord >14.810272 35.933672 1699</gx:coord>
<gx:coord >14.809278 35.928552 1700</gx:coord>
<gx:coord >14.808197 35.923279 1700</gx:coord>
<gx:coord >14.807568 35.9198 1700</gx:coord>
<gx:coord >14.806356 35.913329 1699</gx:coord>
<gx:coord >14.80548 35.908301 1696</gx:coord>
<gx:coord >14.804252 35.901598 1691</gx:coord>
<gx:coord >14.803201 35.8955 1665</gx:coord>
<gx:coord >14.80209 35.889122 1638</gx:coord>
<gx:coord >14.80098 35.882744 1604</gx:coord>
<gx:coord >14.799957 35.876999 1576</gx:coord>
<gx:coord >14.798935 35.870687 1545</gx:coord>
<gx:coord >14.798012 35.865417 1510</gx:coord>
<gx:coord >14.797065 35.859934 1475</gx:coord>
<gx:coord >14.796071 35.854347 1444</gx:coord>
<gx:coord >14.795078 35.848947 1416</gx:coord>
<gx:coord >14.794121 35.843536 1386</gx:coord>
<gx:coord >14.793148 35.838089 1351</gx:coord>
<gx:coord >14.792039 35.831909 1319</gx:coord>
<gx:coord >14.790403 35.822971 1290</gx:coord>
<gx:coord >14.788883 35.814871 1258</gx:coord>
<gx:coord >14.787189 35.805468 1228</gx:coord>
<gx:coord >14.785202 35.794342 1190</gx:coord>
<gx:coord >14.783306 35.78389 1159</gx:coord>
<gx:coord >14.781475 35.77359 1136</gx:coord>
<gx:coord >14.779358 35.761988 1106</gx:coord>
<gx:coord >14.777313 35.750582 1083</gx:coord>
<gx:coord >14.775501 35.742948 1067</gx:coord>
<gx:coord >14.774036 35.738892 1059</gx:coord>
<gx:coord >14.77217 35.735174 1043</gx:coord>
<gx:coord >14.771177 35.733731 1042</gx:coord>
<gx:coord >14.76963 35.731567 1033</gx:coord>
<gx:coord >14.767342 35.728958 1024</gx:coord>
<gx:coord >14.764366 35.726166 1016</gx:coord>
<gx:coord >14.759502 35.722275 1008</gx:coord>
<gx:coord >14.747715 35.71344 984</gx:coord>
<gx:coord >14.731236 35.70076 970</gx:coord>
<gx:coord >14.725361 35.696954 970</gx:coord>
<gx:coord >14.721107 35.694855 970</gx:coord>
<gx:coord >14.718524 35.693882 970</gx:coord>
<gx:coord >14.715271 35.692978 970</gx:coord>
<gx:coord >14.71233 35.692392 970</gx:coord>
<gx:coord >14.708805 35.691971 970</gx:coord>
<gx:coord >14.706135 35.69188 970</gx:coord>
<gx:coord >14.703426 35.691925 970</gx:coord>
<gx:coord >14.699999 35.692206 970</gx:coord>
<gx:coord >14.695383 35.692951 970</gx:coord>
<gx:coord >14.691584 35.693835 970</gx:coord>
<gx:coord >14.687119 35.695221 970</gx:coord>
<gx:coord >14.683578 35.696582 970</gx:coord>
<gx:coord >14.678494 35.698909 977</gx:coord>
<gx:coord >14.675864 35.700306 977</gx:coord>
<gx:coord >14.671154 35.703049 977</gx:coord>
<gx:coord >14.665462 35.706823 977</gx:coord>
<gx:coord >14.658742 35.711711 970</gx:coord>
<gx:coord >14.656048 35.71376 970</gx:coord>
<gx:coord >14.652729 35.716278 970</gx:coord>
<gx:coord >14.650211 35.718246 970</gx:coord>
<gx:coord >14.64536 35.722046 970</gx:coord>
<gx:coord >14.642613 35.724187 970</gx:coord>
<gx:coord >14.638581 35.727446 979</gx:coord>
<gx:coord >14.637794 35.728043 979</gx:coord>
<gx:coord >14.635425 35.72996 972</gx:coord>
<gx:coord >14.633446 35.731567 959</gx:coord>
<gx:coord >14.628705 35.73536 925</gx:coord>
<gx:coord >14.62429 35.738892 899</gx:coord>
<gx:coord >14.61977 35.742508 868</gx:coord>
<gx:coord >14.615021 35.746353 832</gx:coord>
<gx:coord >14.610765 35.749744 794</gx:coord>
<gx:coord >14.605522 35.754044 756</gx:coord>
<gx:coord >14.600655 35.757984 732</gx:coord>
<gx:coord >14.595509 35.762192 701</gx:coord>
<gx:coord >14.593506 35.763794 682</gx:coord>
<gx:coord >14.591789 35.765167 676</gx:coord>
<gx:coord >14.590078 35.76655 659</gx:coord>
<gx:coord >14.586983 35.769104 634</gx:coord>
<gx:coord >14.584408 35.771164 619</gx:coord>
<gx:coord >14.582405 35.772812 603</gx:coord>
<gx:coord >14.579315 35.775284 580</gx:coord>
<gx:coord >14.576511 35.777527 565</gx:coord>
<gx:coord >14.571877 35.781189 542</gx:coord>
<gx:coord >14.567699 35.784622 512</gx:coord>
<gx:coord >14.563138 35.788429 481</gx:coord>
<gx:coord >14.558716 35.791946 451</gx:coord>
<gx:coord >14.554839 35.795086 429</gx:coord>
<gx:coord >14.551216 35.798066 404</gx:coord>
<gx:coord >14.546986 35.801468 374</gx:coord>
<gx:coord >14.542977 35.804676 344</gx:coord>
<gx:coord >14.538574 35.808243 314</gx:coord>
<gx:coord >14.534168 35.811813 283</gx:coord>
<gx:coord >14.529877 35.815247 260</gx:coord>
<gx:coord >14.525757 35.818542 237</gx:coord>
<gx:coord >14.521751 35.821793 207</gx:coord>
<gx:coord >14.518204 35.824722 176</gx:coord>
<gx:coord >14.51405 35.828092 146</gx:coord>
<gx:coord >14.509563 35.83168 123</gx:coord>
<gx:coord >14.505787 35.834702 93</gx:coord>
<gx:coord >14.502421 35.837402 82</gx:coord>
<gx:coord >14.500551 35.838892 78</gx:coord>
<gx:coord >14.499323 35.839916 76</gx:coord>
<gx:coord >14.499323 35.839916 76</gx:coord>
</gx:Track>
</Placemark>
<Placemark ><name >9H-WNN</name>
<Style ><LineStyle ><color >ff1c1ae3</color>
<width >4</width>
</LineStyle>
<IconStyle ><Icon ><href >http://maps.google.com/mapfiles/kml/shapes/airports.png</href>
</Icon>
</IconStyle>
</Style>
<gx:Track ><extrude >0</extrude>
<when >2025-09-03T17:07:26.330Z</when>
<when >2025-09-03T17:07:28.410Z</when>
<when >2025-09-03T17:07:28.990Z</when>
<when >2025-09-03T17:07:30.510Z</when>
<when >2025-09-03T17:07:32.210Z</when>
<when >2025-09-03T17:07:34.730Z</when>
<when >2025-09-03T17:07:35.240Z</when>
<when >2025-09-03T17:07:36.930Z</when>
<when >2025-09-03T17:07:38.510Z</when>
<when >2025-09-03T17:07:40.140Z</when>
<when >2025-09-03T17:07:42.670Z</when>
<when >2025-09-03T17:07:44.900Z</when>
<when >2025-09-03T17:07:45.770Z</when>
<when >2025-09-03T17:07:48.960Z</when>
<when >2025-09-03T17:07:51.360Z</when>
<when >2025-09-03T17:07:54.260Z</when>
<when >2025-09-03T17:08:01.530Z</when>
<when >2025-09-03T17:08:03.820Z</when>
<when >2025-09-03T17:08:06.270Z</when>
<when >2025-09-03T17:08:09.100Z</when>
<when >2025-09-03T17:08:11.490Z</when>
<when >2025-09-03T17:08:15.000Z</when>
<when >2025-09-03T17:08:18.770Z</when>
<when >2025-09-03T17:08:19.800Z</when>
<when >2025-09-03T17:08:22.660Z</when>
<when >2025-09-03T17:08:24.110Z</when>
<when >2025-09-03T17:08:26.050Z</when>
<when >2025-09-03T17:08:27.230Z</when>
<when >2025-09-03T17:08:28.800Z</when>
<when >2025-09-03T17:08:30.280Z</when>
<when >2025-09-03T17:08:31.680Z</when>
<when >2025-09-03T17:08:32.930Z</when>
<when >2025-09-03T17:08:37.360Z</when>
<when >2025-09-03T17:08:38.460Z</when>
<when >2025-09-03T17:08:39.580Z</when>
<when >2025-09-03T17:08:42.160Z</when>
<when >2025-09-03T17:08:45.000Z</when>
<when >2025-09-03T17:08:50.040Z</when>
<when >2025-09-03T17:08:52.040Z</when>
<when >2025-09-03T17:08:53.410Z</when>
<when >2025-09-03T17:08:54.920Z</when>
<when >2025-09-03T17:08:56.660Z</when>
<when >2025-09-03T17:08:58.520Z</when>
<when >2025-09-03T17:09:00.740Z</when>
<when >2025-09-03T17:09:04.550Z</when>
<when >2025-09-03T17:09:06.970Z</when>
<when >2025-09-03T17:09:09.610Z</when>
<when >2025-09-03T17:09:10.850Z</when>
<when >2025-09-03T17:09:12.150Z</when>
<when >2025-09-03T17:09:13.420Z</when>
<when >2025-09-03T17:09:14.450Z</when>
<when >2025-09-03T17:09:14.970Z</when>
<when >2025-09-03T17:09:17.620Z</when>
<when >2025-09-03T17:09:21.870Z</when>
<when >2025-09-03T17:09:23.730Z</when>
<when >2025-09-03T17:09:27.580Z</when>
<when >2025-09-03T17:09:30.410Z</when>
<when >2025-09-03T17:09:36.730Z</when>
<when >2025-09-03T17:09:40.530Z</when>
<when >2025-09-03T17:09:47.390Z</when>
<when >2025-09-03T17:09:54.990Z</when>
<when >2025-09-03T17:10:03.250Z</when>
<when >2025-09-03T17:10:11.450Z</when>
<when >2025-09-03T17:10:13.930Z</when>
<when >2025-09-03T17:10:15.860Z</when>
<when >2025-09-03T17:10:17.540Z</when>
<when >2025-09-03T17:10:19.920Z</when>
<when >2025-09-03T17:10:23.280Z</when>
<when >2025-09-03T17:10:25.470Z</when>
<when >2025-09-03T17:10:28.010Z</when>
<when >2025-09-03T17:10:35.180Z</when>
<when >2025-09-03T17:10:49.470Z</when>
<when >2025-09-03T17:10:49.470Z</when>
<gx:coord >14.497776 35.84119 0</gx:coord>
<gx:coord >14.497263 35.841604 0</gx:coord>
<gx:coord >14.496957 35.841848 0</gx:coord>
<gx:coord >14.496388 35.8423 0</gx:coord>
<gx:coord >14.495817 35.842756 0</gx:coord>
<gx:coord >14.495379 35.843117 0</gx:coord>
<gx:coord >14.494941 35.843477 0</gx:coord>
<gx:coord >14.494572 35.843788 0</gx:coord>
<gx:coord >14.494152 35.844118 0</gx:coord>
<gx:coord >14.493786 35.844408 0</gx:coord>
<gx:coord >14.493231 35.844851 0</gx:coord>
<gx:coord >14.492898 35.845116 0</gx:coord>
<gx:coord >14.492583 35.845379 0</gx:coord>
<gx:coord >14.492025 35.845825 0</gx:coord>
<gx:coord >14.491768 35.846031 0</gx:coord>
<gx:coord >14.49111 35.846592 0</gx:coord>
<gx:coord >14.49048 35.847279 0</gx:coord>
<gx:coord >14.490166 35.847748 0</gx:coord>
<gx:coord >14.490008 35.848034 0</gx:coord>
<gx:coord >14.4899 35.848261 0</gx:coord>
<gx:coord >14.489827 35.848459 0</gx:coord>
<gx:coord >14.489751 35.848652 0</gx:coord>
<gx:coord >14.489737 35.848721 0</gx:coord>
<gx:coord >14.489708 35.848904 0</gx:coord>
<gx:coord >14.489722 35.848972 0</gx:coord>
<gx:coord >14.489769 35.849134 0</gx:coord>
<gx:coord >14.489842 35.849227 0</gx:coord>
<gx:coord >14.489894 35.84927 0</gx:coord>
<gx:coord >14.489988 35.849331 0</gx:coord>
<gx:coord >14.490061 35.849378 0</gx:coord>
<gx:coord >14.490149 35.849413 0</gx:coord>
<gx:coord >14.490207 35.849424 0</gx:coord>
<gx:coord >14.490452 35.849419 0</gx:coord>
<gx:coord >14.490566 35.849384 0</gx:coord>
<gx:coord >14.490631 35.849366 0</gx:coord>
<gx:coord >14.490752 35.849293 0</gx:coord>
<gx:coord >14.49085 35.849215 0</gx:coord>
<gx:coord >14.491128 35.849064 0</gx:coord>
<gx:coord >14.49123 35.84904 0</gx:coord>
<gx:coord >14.491317 35.849052 0</gx:coord>
<gx:coord >14.49141 35.849064 0</gx:coord>
<gx:coord >14.491493 35.849099 0</gx:coord>
<gx:coord >14.491568 35.849144 0</gx:coord>
<gx:coord >14.491668 35.849215 0</gx:coord>
<gx:coord >14.491768 35.849304 0</gx:coord>
<gx:coord >14.491854 35.849396 0</gx:coord>
<gx:coord >14.49196 35.849459 0</gx:coord>
<gx:coord >14.491982 35.849464 0</gx:coord>
<gx:coord >14.492063 35.849494 0</gx:coord>
<gx:coord >14.492211 35.84951 0</gx:coord>
<gx:coord >14.492063 35.849494 0</gx:coord>
<gx:coord >14.49234 35.849471 0</gx:coord>
<gx:coord >14.49244 35.849442 0</gx:coord>
<gx:coord >14.492661 35.849366 0</gx:coord>
<gx:coord >14.492784 35.849304 0</gx:coord>
<gx:coord >14.492954 35.849203 0</gx:coord>
<gx:coord >14.493098 35.849087 0</gx:coord>
<gx:coord >14.49327 35.848949 0</gx:coord>
<gx:coord >14.493553 35.848715 0</gx:coord>
<gx:coord >14.493947 35.8484 0</gx:coord>
<gx:coord >14.494269 35.848133 0</gx:coord>
<gx:coord >14.494615 35.847851 0</gx:coord>
<gx:coord >14.494868 35.847644 0</gx:coord>
<gx:coord >14.494958 35.847553 0</gx:coord>
<gx:coord >14.494958 35.847519 0</gx:coord>
<gx:coord >14.494955 35.847481 0</gx:coord>
<gx:coord >14.494915 35.847427 0</gx:coord>
<gx:coord >14.494858 35.847404 0</gx:coord>
<gx:coord >14.494794 35.847376 0</gx:coord>
<gx:coord >14.494765 35.847365 0</gx:coord>
<gx:coord >14.494629 35.84729 0</gx:coord>
<gx:coord >14.494371 35.847085 0</gx:coord>
<gx:coord >14.494371 35.847085 0</gx:coord>
</gx:Track>
</Placemark>
</Folder>
</Folder>
</kml>
