<?xml version='1.0' encoding='utf-8'?>
<kml xmlns="http://www.opengis.net/kml/2.2" xmlns:gx="http://www.google.com/kml/ext/2.2"><Document><Placemark><gx:Track><when>2025-06-26T05:55:32.409Z</when><gx:coord>19.260235 47.436115 0</gx:coord><when>2025-06-26T05:55:32.409Z</when><gx:coord>19.260235 47.436115 0</gx:coord><when>2025-06-26T05:55:34.649Z</when><gx:coord>19.260166 47.436184 0</gx:coord><when>2025-06-26T05:55:39.619Z</when><gx:coord>19.260218 47.436356 0</gx:coord><when>2025-06-26T05:55:41.349Z</when><gx:coord>19.260283 47.436404 0</gx:coord><when>2025-06-26T05:55:44.399Z</when><gx:coord>19.260406 47.43647 0</gx:coord><when>2025-06-26T05:55:49.029Z</when><gx:coord>19.260509 47.436607 0</gx:coord><when>2025-06-26T05:55:50.669Z</when><gx:coord>19.26053 47.436672 0</gx:coord><when>2025-06-26T05:55:52.208Z</when><gx:coord>19.260495 47.436742 0</gx:coord><when>2025-06-26T05:55:53.549Z</when><gx:coord>19.260477 47.4368 0</gx:coord><when>2025-06-26T05:55:55.099Z</when><gx:coord>19.260424 47.436859 0</gx:coord><when>2025-06-26T05:55:56.249Z</when><gx:coord>19.260406 47.436893 0</gx:coord><when>2025-06-26T05:55:59.019Z</when><gx:coord>19.260286 47.436996 0</gx:coord><when>2025-06-26T05:56:00.559Z</when><gx:coord>19.260218 47.437054 0</gx:coord><when>2025-06-26T05:56:03.239Z</when><gx:coord>19.260098 47.437122 0</gx:coord><when>2025-06-26T05:56:06.599Z</when><gx:coord>19.259931 47.437231 0</gx:coord><when>2025-06-26T05:56:15.589Z</when><gx:coord>19.2596 47.437454 0</gx:coord><when>2025-06-26T05:56:17.379Z</when><gx:coord>19.259548 47.437511 0</gx:coord><when>2025-06-26T05:56:19.289Z</when><gx:coord>19.259548 47.43758 0</gx:coord><when>2025-06-26T05:56:20.769Z</when><gx:coord>19.259561 47.437638 0</gx:coord><when>2025-06-26T05:56:22.249Z</when><gx:coord>19.2596 47.437683 0</gx:coord><when>2025-06-26T05:56:23.329Z</when><gx:coord>19.259617 47.437717 0</gx:coord><when>2025-06-26T05:56:24.879Z</when><gx:coord>19.259685 47.437754 0</gx:coord><when>2025-06-26T05:56:26.379Z</when><gx:coord>19.259737 47.437801 0</gx:coord><when>2025-06-26T05:56:27.929Z</when><gx:coord>19.259806 47.437832 0</gx:coord><when>2025-06-26T05:56:31.039Z</when><gx:coord>19.259896 47.437906 0</gx:coord><when>2025-06-26T05:56:37.869Z</when><gx:coord>19.260149 47.438095 0</gx:coord><when>2025-06-26T05:56:44.939Z</when><gx:coord>19.260406 47.438301 0</gx:coord><when>2025-06-26T05:56:54.929Z</when><gx:coord>19.260853 47.438622 0</gx:coord><when>2025-06-26T05:57:04.599Z</when><gx:coord>19.261299 47.438953 0</gx:coord><when>2025-06-26T05:57:13.259Z</when><gx:coord>19.261711 47.439274 0</gx:coord><when>2025-06-26T05:57:21.099Z</when><gx:coord>19.26215 47.439582 0</gx:coord><when>2025-06-26T05:57:31.039Z</when><gx:coord>19.262537 47.439873 0</gx:coord><when>2025-06-26T05:57:40.419Z</when><gx:coord>19.262977 47.440198 0</gx:coord><when>2025-06-26T05:57:46.019Z</when><gx:coord>19.26329 47.440407 0</gx:coord><when>2025-06-26T05:57:47.919Z</when><gx:coord>19.263428 47.440475 0</gx:coord><when>2025-06-26T05:57:50.329Z</when><gx:coord>19.263611 47.440536 0</gx:coord><when>2025-06-26T05:57:52.529Z</when><gx:coord>19.263805 47.440601 0</gx:coord><when>2025-06-26T05:57:54.569Z</when><gx:coord>19.263981 47.440641 0</gx:coord><when>2025-06-26T05:57:56.559Z</when><gx:coord>19.264149 47.440659 0</gx:coord><when>2025-06-26T05:57:59.129Z</when><gx:coord>19.264403 47.440687 0</gx:coord><when>2025-06-26T05:58:01.859Z</when><gx:coord>19.26465 47.440687 0</gx:coord><when>2025-06-26T05:58:04.919Z</when><gx:coord>19.264921 47.440681 0</gx:coord><when>2025-06-26T05:58:09.189Z</when><gx:coord>19.265195 47.440676 0</gx:coord><when>2025-06-26T05:58:11.409Z</when><gx:coord>19.265299 47.440636 0</gx:coord><when>2025-06-26T05:58:13.389Z</when><gx:coord>19.265419 47.44059 0</gx:coord><when>2025-06-26T05:58:15.299Z</when><gx:coord>19.265495 47.440548 0</gx:coord><when>2025-06-26T05:58:17.329Z</when><gx:coord>19.265591 47.440475 0</gx:coord><when>2025-06-26T05:58:21.029Z</when><gx:coord>19.265741 47.440385 0</gx:coord><when>2025-06-26T05:58:27.909Z</when><gx:coord>19.266088 47.440178 0</gx:coord><when>2025-06-26T05:58:35.609Z</when><gx:coord>19.266552 47.439892 0</gx:coord><when>2025-06-26T05:58:39.458Z</when><gx:coord>19.266844 47.439709 0</gx:coord><when>2025-06-26T05:58:41.509Z</when><gx:coord>19.267067 47.439571 0</gx:coord><when>2025-06-26T05:58:42.468Z</when><gx:coord>19.26717 47.439503 0</gx:coord><when>2025-06-26T05:58:44.009Z</when><gx:coord>19.267361 47.439384 0</gx:coord><when>2025-06-26T05:58:44.859Z</when><gx:coord>19.267519 47.439291 0</gx:coord><when>2025-06-26T05:58:46.708Z</when><gx:coord>19.267908 47.439056 0</gx:coord><when>2025-06-26T05:58:47.159Z</when><gx:coord>19.26803 47.438976 0</gx:coord><when>2025-06-26T05:58:48.708Z</when><gx:coord>19.268406 47.438747 0</gx:coord><when>2025-06-26T05:58:49.229Z</when><gx:coord>19.268576 47.438627 0</gx:coord><when>2025-06-26T05:58:50.179Z</when><gx:coord>19.268893 47.438429 0</gx:coord><when>2025-06-26T05:58:51.389Z</when><gx:coord>19.269247 47.43821 0</gx:coord><when>2025-06-26T05:58:52.649Z</when><gx:coord>19.269711 47.437923 0</gx:coord><when>2025-06-26T05:58:53.679Z</when><gx:coord>19.270123 47.437672 0</gx:coord><when>2025-06-26T05:58:54.629Z</when><gx:coord>19.270552 47.437408 0</gx:coord><when>2025-06-26T05:58:55.879Z</when><gx:coord>19.270998 47.437134 0</gx:coord><when>2025-06-26T05:58:56.259Z</when><gx:coord>19.271217 47.436998 0</gx:coord><when>2025-06-26T05:58:56.779Z</when><gx:coord>19.271496 47.436825 0</gx:coord><when>2025-06-26T05:58:57.809Z</when><gx:coord>19.272009 47.436521 0</gx:coord><when>2025-06-26T05:58:57.809Z</when><gx:coord>19.272009 47.436521 0</gx:coord><when>2025-06-26T05:58:58.649Z</when><gx:coord>19.272414 47.436265 147</gx:coord><when>2025-06-26T05:58:59.739Z</when><gx:coord>19.272977 47.435892 147</gx:coord><when>2025-06-26T05:59:00.909Z</when><gx:coord>19.273659 47.435532 148</gx:coord><when>2025-06-26T05:59:02.269Z</when><gx:coord>19.274277 47.43512 140</gx:coord><when>2025-06-26T05:59:06.279Z</when><gx:coord>19.276886 47.433472 140</gx:coord><when>2025-06-26T05:59:07.179Z</when><gx:coord>19.277555 47.433099 140</gx:coord><when>2025-06-26T05:59:09.079Z</when><gx:coord>19.278946 47.432236 140</gx:coord><when>2025-06-26T05:59:10.399Z</when><gx:coord>19.279907 47.431595 140</gx:coord><when>2025-06-26T05:59:11.599Z</when><gx:coord>19.280795 47.431098 140</gx:coord><when>2025-06-26T05:59:12.119Z</when><gx:coord>19.281217 47.430818 140</gx:coord><when>2025-06-26T05:59:15.259Z</when><gx:coord>19.283682 47.429282 140</gx:coord><when>2025-06-26T05:59:17.189Z</when><gx:coord>19.285231 47.428304 155</gx:coord><when>2025-06-26T05:59:17.729Z</when><gx:coord>19.285654 47.428072 148</gx:coord><when>2025-06-26T05:59:19.208Z</when><gx:coord>19.286922 47.42728 163</gx:coord><when>2025-06-26T05:59:22.099Z</when><gx:coord>19.289452 47.425781 201</gx:coord><when>2025-06-26T05:59:25.079Z</when><gx:coord>19.291924 47.424271 231</gx:coord><when>2025-06-26T05:59:28.169Z</when><gx:coord>19.294457 47.422718 262</gx:coord><when>2025-06-26T05:59:31.099Z</when><gx:coord>19.296524 47.421432 292</gx:coord><when>2025-06-26T05:59:33.299Z</when><gx:coord>19.298653 47.420105 315</gx:coord><when>2025-06-26T05:59:35.389Z</when><gx:coord>19.300302 47.419134 353</gx:coord><when>2025-06-26T05:59:37.839Z</when><gx:coord>19.302486 47.41783 384</gx:coord><when>2025-06-26T05:59:40.429Z</when><gx:coord>19.304695 47.416672 422</gx:coord><when>2025-06-26T05:59:43.009Z</when><gx:coord>19.306961 47.415527 445</gx:coord><when>2025-06-26T05:59:45.379Z</when><gx:coord>19.309176 47.414478 475</gx:coord><when>2025-06-26T05:59:47.829Z</when><gx:coord>19.311493 47.413467 521</gx:coord><when>2025-06-26T05:59:50.419Z</when><gx:coord>19.313896 47.41246 551</gx:coord><when>2025-06-26T05:59:53.979Z</when><gx:coord>19.317345 47.411127 589</gx:coord><when>2025-06-26T05:59:57.929Z</when><gx:coord>19.321243 47.409668 620</gx:coord><when>2025-06-26T06:00:01.499Z</when><gx:coord>19.324883 47.40834 650</gx:coord><when>2025-06-26T06:00:05.429Z</when><gx:coord>19.329106 47.40689 681</gx:coord><when>2025-06-26T06:00:08.799Z</when><gx:coord>19.332916 47.405594 711</gx:coord><when>2025-06-26T06:00:12.718Z</when><gx:coord>19.337346 47.404144 742</gx:coord><when>2025-06-26T06:00:16.599Z</when><gx:coord>19.341783 47.402747 780</gx:coord><when>2025-06-26T06:00:20.389Z</when><gx:coord>19.34629 47.401304 810</gx:coord><when>2025-06-26T06:00:23.999Z</when><gx:coord>19.350563 47.399918 833</gx:coord><when>2025-06-26T06:00:27.479Z</when><gx:coord>19.355093 47.398464 871</gx:coord><when>2025-06-26T06:00:30.729Z</when><gx:coord>19.358967 47.397207 902</gx:coord><when>2025-06-26T06:00:33.999Z</when><gx:coord>19.363122 47.395857 932</gx:coord><when>2025-06-26T06:00:36.359Z</when><gx:coord>19.366361 47.394787 963</gx:coord><when>2025-06-26T06:00:38.499Z</when><gx:coord>19.369249 47.393856 970</gx:coord><when>2025-06-26T06:00:40.019Z</when><gx:coord>19.371221 47.393157 986</gx:coord><when>2025-06-26T06:00:41.929Z</when><gx:coord>19.373826 47.392273 1001</gx:coord><when>2025-06-26T06:00:43.289Z</when><gx:coord>19.375728 47.391621 1009</gx:coord><when>2025-06-26T06:00:45.479Z</when><gx:coord>19.378686 47.390551 1024</gx:coord><when>2025-06-26T06:00:48.379Z</when><gx:coord>19.38277 47.389107 1054</gx:coord><when>2025-06-26T06:00:50.819Z</when><gx:coord>19.386269 47.387833 1077</gx:coord><when>2025-06-26T06:00:52.499Z</when><gx:coord>19.388741 47.386963 1100</gx:coord><when>2025-06-26T06:00:55.649Z</when><gx:coord>19.393204 47.385269 1130</gx:coord><when>2025-06-26T06:00:58.659Z</when><gx:coord>19.397771 47.383475 1153</gx:coord><when>2025-06-26T06:01:01.369Z</when><gx:coord>19.401503 47.381845 1184</gx:coord><when>2025-06-26T06:01:04.519Z</when><gx:coord>19.40594 47.379611 1214</gx:coord><when>2025-06-26T06:01:07.339Z</when><gx:coord>19.409884 47.377283 1245</gx:coord><when>2025-06-26T06:01:10.369Z</when><gx:coord>19.413687 47.374676 1275</gx:coord><when>2025-06-26T06:01:13.349Z</when><gx:coord>19.417374 47.371765 1306</gx:coord><when>2025-06-26T06:01:16.299Z</when><gx:coord>19.420601 47.368835 1336</gx:coord><when>2025-06-26T06:01:18.629Z</when><gx:coord>19.423004 47.366272 1367</gx:coord><when>2025-06-26T06:01:21.549Z</when><gx:coord>19.425682 47.363022 1397</gx:coord><when>2025-06-26T06:01:24.129Z</when><gx:coord>19.427811 47.359909 1428</gx:coord><when>2025-06-26T06:01:26.369Z</when><gx:coord>19.429321 47.3573 1466</gx:coord><when>2025-06-26T06:01:28.109Z</when><gx:coord>19.43042 47.354965 1504</gx:coord><when>2025-06-26T06:01:30.708Z</when><gx:coord>19.431519 47.351624 1527</gx:coord><when>2025-06-26T06:01:32.729Z</when><gx:coord>19.432137 47.349152 1565</gx:coord><when>2025-06-26T06:01:34.679Z</when><gx:coord>19.432411 47.34668 1595</gx:coord><when>2025-06-26T06:01:36.479Z</when><gx:coord>19.43248 47.344116 1618</gx:coord><when>2025-06-26T06:01:37.919Z</when><gx:coord>19.432343 47.342102 1641</gx:coord><when>2025-06-26T06:01:39.839Z</when><gx:coord>19.431999 47.339493 1664</gx:coord><when>2025-06-26T06:01:42.449Z</when><gx:coord>19.431244 47.336151 1710</gx:coord><when>2025-06-26T06:01:44.539Z</when><gx:coord>19.430283 47.333313 1748</gx:coord><when>2025-06-26T06:01:47.599Z</when><gx:coord>19.428547 47.329381 1778</gx:coord><when>2025-06-26T06:01:49.979Z</when><gx:coord>19.426712 47.326355 1816</gx:coord><when>2025-06-26T06:01:52.129Z</when><gx:coord>19.424744 47.323702 1847</gx:coord><when>2025-06-26T06:01:55.029Z</when><gx:coord>19.421786 47.320303 1870</gx:coord><when>2025-06-26T06:01:57.639Z</when><gx:coord>19.418758 47.317417 1908</gx:coord><when>2025-06-26T06:02:00.119Z</when><gx:coord>19.415659 47.314996 1946</gx:coord><when>2025-06-26T06:02:02.789Z</when><gx:coord>19.412067 47.312576 1969</gx:coord><when>2025-06-26T06:02:05.659Z</when><gx:coord>19.407208 47.309829 2007</gx:coord><when>2025-06-26T06:02:08.789Z</when><gx:coord>19.401993 47.307404 2037</gx:coord><when>2025-06-26T06:02:11.749Z</when><gx:coord>19.396644 47.30536 2060</gx:coord><when>2025-06-26T06:02:14.599Z</when><gx:coord>19.391075 47.303604 2098</gx:coord><when>2025-06-26T06:02:17.458Z</when><gx:coord>19.385719 47.302048 2129</gx:coord><when>2025-06-26T06:02:21.468Z</when><gx:coord>19.37784 47.299867 2159</gx:coord><when>2025-06-26T06:02:24.039Z</when><gx:coord>19.37281 47.298477 2182</gx:coord><when>2025-06-26T06:02:27.359Z</when><gx:coord>19.366013 47.296555 2213</gx:coord><when>2025-06-26T06:02:30.449Z</when><gx:coord>19.359741 47.294793 2235</gx:coord><when>2025-06-26T06:02:34.569Z</when><gx:coord>19.351593 47.29248 2289</gx:coord><when>2025-06-26T06:02:39.889Z</when><gx:coord>19.340401 47.289276 2342</gx:coord><when>2025-06-26T06:02:44.789Z</when><gx:coord>19.330101 47.286301 2403</gx:coord><when>2025-06-26T06:02:48.968Z</when><gx:coord>19.321289 47.283713 2479</gx:coord><when>2025-06-26T06:02:53.069Z</when><gx:coord>19.312556 47.281153 2525</gx:coord><when>2025-06-26T06:02:56.779Z</when><gx:coord>19.304832 47.278839 2594</gx:coord><when>2025-06-26T06:03:00.708Z</when><gx:coord>19.296359 47.276311 2647</gx:coord><when>2025-06-26T06:03:04.619Z</when><gx:coord>19.28826 47.273891 2708</gx:coord><when>2025-06-26T06:03:08.218Z</when><gx:coord>19.280442 47.27147 2776</gx:coord><when>2025-06-26T06:03:11.579Z</when><gx:coord>19.273259 47.269282 2837</gx:coord><when>2025-06-26T06:03:15.189Z</when><gx:coord>19.265583 47.266908 2906</gx:coord><when>2025-06-26T06:03:18.529Z</when><gx:coord>19.258415 47.264648 2967</gx:coord><when>2025-06-26T06:03:21.799Z</when><gx:coord>19.251568 47.262532 3028</gx:coord><when>2025-06-26T06:03:25.329Z</when><gx:coord>19.244064 47.260162 3089</gx:coord><when>2025-06-26T06:03:29.289Z</when><gx:coord>19.235687 47.257507 3157</gx:coord><when>2025-06-26T06:03:32.889Z</when><gx:coord>19.228398 47.255177 3226</gx:coord><when>2025-06-26T06:03:36.819Z</when><gx:coord>19.219757 47.25238 3287</gx:coord><when>2025-06-26T06:03:41.619Z</when><gx:coord>19.209801 47.249222 3348</gx:coord><when>2025-06-26T06:03:45.708Z</when><gx:coord>19.200737 47.246338 3416</gx:coord><when>2025-06-26T06:03:50.529Z</when><gx:coord>19.190298 47.243073 3477</gx:coord><when>2025-06-26T06:03:55.739Z</when><gx:coord>19.179101 47.239535 3537</gx:coord><when>2025-06-26T06:04:02.529Z</when><gx:coord>19.164241 47.234926 3606</gx:coord><when>2025-06-26T06:04:09.529Z</when><gx:coord>19.148114 47.229992 3659</gx:coord><when>2025-06-26T06:04:17.009Z</when><gx:coord>19.13118 47.224823 3728</gx:coord><when>2025-06-26T06:04:24.449Z</when><gx:coord>19.113887 47.219611 3781</gx:coord><when>2025-06-26T06:04:29.479Z</when><gx:coord>19.101915 47.216305 3819</gx:coord><when>2025-06-26T06:04:33.359Z</when><gx:coord>19.092689 47.214257 3842</gx:coord><when>2025-06-26T06:04:37.339Z</when><gx:coord>19.082618 47.212674 3857</gx:coord><when>2025-06-26T06:04:40.829Z</when><gx:coord>19.073776 47.211731 3865</gx:coord><when>2025-06-26T06:04:45.379Z</when><gx:coord>19.062265 47.211092 3873</gx:coord><when>2025-06-26T06:04:50.429Z</when><gx:coord>19.049538 47.210861 3873</gx:coord><when>2025-06-26T06:04:55.199Z</when><gx:coord>19.037727 47.211227 3873</gx:coord><when>2025-06-26T06:04:59.749Z</when><gx:coord>19.026192 47.212143 3880</gx:coord><when>2025-06-26T06:05:03.899Z</when><gx:coord>19.016348 47.213373 3873</gx:coord><when>2025-06-26T06:05:09.789Z</when><gx:coord>19.00177 47.215887 3873</gx:coord><when>2025-06-26T06:05:29.739Z</when><gx:coord>18.953881 47.224964 3865</gx:coord><when>2025-06-26T06:05:48.779Z</when><gx:coord>18.908034 47.233809 3857</gx:coord><when>2025-06-26T06:05:54.329Z</when><gx:coord>18.894301 47.235997 3857</gx:coord><when>2025-06-26T06:05:59.999Z</when><gx:coord>18.880211 47.23764 3857</gx:coord><when>2025-06-26T06:06:06.039Z</when><gx:coord>18.864899 47.238831 3857</gx:coord><when>2025-06-26T06:06:20.619Z</when><gx:coord>18.828163 47.241348 3857</gx:coord><when>2025-06-26T06:06:26.599Z</when><gx:coord>18.813453 47.241863 3865</gx:coord><when>2025-06-26T06:06:33.159Z</when><gx:coord>18.79644 47.241943 3865</gx:coord><when>2025-06-26T06:06:43.179Z</when><gx:coord>18.770691 47.241257 3865</gx:coord><when>2025-06-26T06:07:02.999Z</when><gx:coord>18.72014 47.239302 3865</gx:coord><when>2025-06-26T06:07:22.649Z</when><gx:coord>18.669645 47.237301 3873</gx:coord><when>2025-06-26T06:07:42.489Z</when><gx:coord>18.618375 47.235252 3873</gx:coord><when>2025-06-26T06:07:57.089Z</when><gx:coord>18.580839 47.233949 3873</gx:coord><when>2025-06-26T06:08:01.359Z</when><gx:coord>18.570064 47.234088 3873</gx:coord><when>2025-06-26T06:08:06.549Z</when><gx:coord>18.556664 47.234848 3873</gx:coord><when>2025-06-26T06:08:12.679Z</when><gx:coord>18.541283 47.236221 3873</gx:coord><when>2025-06-26T06:08:19.599Z</when><gx:coord>18.523794 47.238371 3873</gx:coord><when>2025-06-26T06:08:39.409Z</when><gx:coord>18.474129 47.244919 3873</gx:coord><when>2025-06-26T06:08:57.579Z</when><gx:coord>18.428579 47.25094 3872</gx:coord><when>2025-06-26T06:09:17.509Z</when><gx:coord>18.379141 47.25797 3872</gx:coord><when>2025-06-26T06:09:37.089Z</when><gx:coord>18.329933 47.264877 3872</gx:coord><when>2025-06-26T06:09:56.989Z</when><gx:coord>18.280123 47.271796 3872</gx:coord><when>2025-06-26T06:10:16.519Z</when><gx:coord>18.231178 47.278592 3856</gx:coord><when>2025-06-26T06:10:23.829Z</when><gx:coord>18.212929 47.281174 3834</gx:coord><when>2025-06-26T06:10:29.559Z</when><gx:coord>18.198571 47.283155 3803</gx:coord><when>2025-06-26T06:10:36.989Z</when><gx:coord>18.180119 47.285715 3742</gx:coord><when>2025-06-26T06:10:44.149Z</when><gx:coord>18.162443 47.288182 3696</gx:coord><when>2025-06-26T06:10:51.729Z</when><gx:coord>18.14371 47.290789 3628</gx:coord><when>2025-06-26T06:10:59.759Z</when><gx:coord>18.124202 47.293536 3567</gx:coord><when>2025-06-26T06:11:07.819Z</when><gx:coord>18.105125 47.296234 3514</gx:coord><when>2025-06-26T06:11:16.159Z</when><gx:coord>18.085625 47.298981 3460</gx:coord><when>2025-06-26T06:11:24.369Z</when><gx:coord>18.067087 47.301589 3399</gx:coord><when>2025-06-26T06:11:32.639Z</when><gx:coord>18.048683 47.304199 3346</gx:coord><when>2025-06-26T06:11:40.859Z</when><gx:coord>18.030624 47.306763 3293</gx:coord><when>2025-06-26T06:11:46.199Z</when><gx:coord>18.019057 47.308432 3254</gx:coord><when>2025-06-26T06:11:51.829Z</when><gx:coord>18.007366 47.310108 3239</gx:coord><when>2025-06-26T06:11:53.909Z</when><gx:coord>18.00293 47.31076 3224</gx:coord><when>2025-06-26T06:11:55.309Z</when><gx:coord>17.999972 47.311179 3209</gx:coord><when>2025-06-26T06:11:56.339Z</when><gx:coord>17.997718 47.311505 3201</gx:coord><when>2025-06-26T06:11:58.669Z</when><gx:coord>17.992929 47.312203 3178</gx:coord><when>2025-06-26T06:12:00.269Z</when><gx:coord>17.98969 47.312669 3155</gx:coord><when>2025-06-26T06:12:04.609Z</when><gx:coord>17.981667 47.313812 3094</gx:coord><when>2025-06-26T06:12:07.819Z</when><gx:coord>17.973844 47.31495 3033</gx:coord><when>2025-06-26T06:12:10.939Z</when><gx:coord>17.967384 47.315918 2973</gx:coord><when>2025-06-26T06:12:14.699Z</when><gx:coord>17.959763 47.317017 2904</gx:coord><when>2025-06-26T06:12:18.249Z</when><gx:coord>17.951871 47.318208 2835</gx:coord><when>2025-06-26T06:12:22.789Z</when><gx:coord>17.942253 47.319672 2767</gx:coord><when>2025-06-26T06:12:27.468Z</when><gx:coord>17.932223 47.321234 2706</gx:coord><when>2025-06-26T06:12:33.319Z</when><gx:coord>17.920692 47.323105 2637</gx:coord><when>2025-06-26T06:12:38.919Z</when><gx:coord>17.90849 47.325377 2584</gx:coord><when>2025-06-26T06:12:44.019Z</when><gx:coord>17.897758 47.32782 2508</gx:coord><when>2025-06-26T06:12:48.549Z</when><gx:coord>17.88877 47.330265 2447</gx:coord><when>2025-06-26T06:12:52.599Z</when><gx:coord>17.880812 47.332686 2393</gx:coord><when>2025-06-26T06:12:56.619Z</when><gx:coord>17.873207 47.335153 2325</gx:coord><when>2025-06-26T06:12:59.059Z</when><gx:coord>17.868488 47.336736 2287</gx:coord><when>2025-06-26T06:13:01.149Z</when><gx:coord>17.864594 47.338074 2249</gx:coord><when>2025-06-26T06:13:03.279Z</when><gx:coord>17.860748 47.339401 2226</gx:coord><when>2025-06-26T06:13:05.329Z</when><gx:coord>17.856657 47.340786 2188</gx:coord><when>2025-06-26T06:13:07.309Z</when><gx:coord>17.852783 47.342148 2150</gx:coord><when>2025-06-26T06:13:08.689Z</when><gx:coord>17.850248 47.343021 2134</gx:coord><when>2025-06-26T06:13:10.559Z</when><gx:coord>17.846672 47.344208 2104</gx:coord><when>2025-06-26T06:13:12.079Z</when><gx:coord>17.843839 47.345162 2058</gx:coord><when>2025-06-26T06:13:13.999Z</when><gx:coord>17.840107 47.346419 2028</gx:coord><when>2025-06-26T06:13:15.769Z</when><gx:coord>17.83699 47.347458 1997</gx:coord><when>2025-06-26T06:13:17.889Z</when><gx:coord>17.833076 47.34874 1967</gx:coord><when>2025-06-26T06:13:19.289Z</when><gx:coord>17.830106 47.349724 1936</gx:coord><when>2025-06-26T06:13:20.909Z</when><gx:coord>17.826937 47.350795 1898</gx:coord><when>2025-06-26T06:13:23.099Z</when><gx:coord>17.822782 47.352145 1868</gx:coord><when>2025-06-26T06:13:24.809Z</when><gx:coord>17.819472 47.353262 1852</gx:coord><when>2025-06-26T06:13:26.829Z</when><gx:coord>17.815528 47.354519 1822</gx:coord><when>2025-06-26T06:13:30.359Z</when><gx:coord>17.809049 47.35666 1784</gx:coord><when>2025-06-26T06:13:34.309Z</when><gx:coord>17.801559 47.359131 1753</gx:coord><when>2025-06-26T06:13:38.359Z</when><gx:coord>17.793908 47.361642 1723</gx:coord><when>2025-06-26T06:13:43.458Z</when><gx:coord>17.784541 47.364667 1692</gx:coord><when>2025-06-26T06:13:48.379Z</when><gx:coord>17.775456 47.3676 1654</gx:coord><when>2025-06-26T06:13:53.189Z</when><gx:coord>17.766884 47.370392 1624</gx:coord><when>2025-06-26T06:13:56.609Z</when><gx:coord>17.761116 47.372269 1609</gx:coord><when>2025-06-26T06:13:57.559Z</when><gx:coord>17.759331 47.372864 1601</gx:coord><when>2025-06-26T06:13:59.079Z</when><gx:coord>17.756653 47.373688 1601</gx:coord><when>2025-06-26T06:14:00.499Z</when><gx:coord>17.75425 47.374512 1593</gx:coord><when>2025-06-26T06:14:03.099Z</when><gx:coord>17.750033 47.37584 1601</gx:coord><when>2025-06-26T06:14:04.218Z</when><gx:coord>17.748202 47.376445 1601</gx:coord><when>2025-06-26T06:14:05.429Z</when><gx:coord>17.746371 47.37705 1601</gx:coord><when>2025-06-26T06:14:06.839Z</when><gx:coord>17.743744 47.377899 1593</gx:coord><when>2025-06-26T06:14:07.779Z</when><gx:coord>17.742216 47.3784 1593</gx:coord><when>2025-06-26T06:14:08.789Z</when><gx:coord>17.740517 47.378952 1593</gx:coord><when>2025-06-26T06:14:10.659Z</when><gx:coord>17.737495 47.379913 1578</gx:coord><when>2025-06-26T06:14:13.549Z</when><gx:coord>17.732964 47.381378 1548</gx:coord><when>2025-06-26T06:14:16.968Z</when><gx:coord>17.727402 47.383209 1509</gx:coord><when>2025-06-26T06:14:19.889Z</when><gx:coord>17.723271 47.384545 1487</gx:coord><when>2025-06-26T06:14:22.829Z</when><gx:coord>17.718269 47.386139 1449</gx:coord><when>2025-06-26T06:14:26.269Z</when><gx:coord>17.712776 47.38797 1410</gx:coord><when>2025-06-26T06:14:28.929Z</when><gx:coord>17.708623 47.389294 1380</gx:coord><when>2025-06-26T06:14:32.249Z</when><gx:coord>17.703712 47.390854 1349</gx:coord><when>2025-06-26T06:14:35.329Z</when><gx:coord>17.698631 47.392456 1319</gx:coord><when>2025-06-26T06:14:38.399Z</when><gx:coord>17.693825 47.394012 1281</gx:coord><when>2025-06-26T06:14:41.019Z</when><gx:coord>17.689819 47.395299 1250</gx:coord><when>2025-06-26T06:14:43.939Z</when><gx:coord>17.685242 47.396759 1220</gx:coord><when>2025-06-26T06:14:46.849Z</when><gx:coord>17.680875 47.398139 1197</gx:coord><when>2025-06-26T06:14:49.879Z</when><gx:coord>17.676247 47.399643 1159</gx:coord><when>2025-06-26T06:14:52.899Z</when><gx:coord>17.671579 47.401164 1121</gx:coord><when>2025-06-26T06:14:55.589Z</when><gx:coord>17.667526 47.402481 1098</gx:coord><when>2025-06-26T06:14:58.619Z</when><gx:coord>17.662994 47.404037 1068</gx:coord><when>2025-06-26T06:15:01.859Z</when><gx:coord>17.658463 47.405594 1037</gx:coord><when>2025-06-26T06:15:04.659Z</when><gx:coord>17.65448 47.407059 991</gx:coord><when>2025-06-26T06:15:08.019Z</when><gx:coord>17.64933 47.408981 961</gx:coord><when>2025-06-26T06:15:09.879Z</when><gx:coord>17.646446 47.41008 946</gx:coord><when>2025-06-26T06:15:14.458Z</when><gx:coord>17.639888 47.412616 915</gx:coord><when>2025-06-26T06:15:19.759Z</when><gx:coord>17.632634 47.415409 892</gx:coord><when>2025-06-26T06:15:24.769Z</when><gx:coord>17.625732 47.418063 862</gx:coord><when>2025-06-26T06:15:30.039Z</when><gx:coord>17.618706 47.420792 831</gx:coord><when>2025-06-26T06:15:35.829Z</when><gx:coord>17.611014 47.423696 801</gx:coord><when>2025-06-26T06:15:40.279Z</when><gx:coord>17.605316 47.425873 778</gx:coord><when>2025-06-26T06:15:42.909Z</when><gx:coord>17.601929 47.427187 763</gx:coord><when>2025-06-26T06:15:48.179Z</when><gx:coord>17.59545 47.429608 740</gx:coord><when>2025-06-26T06:15:52.489Z</when><gx:coord>17.590141 47.431641 732</gx:coord><when>2025-06-26T06:15:56.009Z</when><gx:coord>17.585815 47.433289 725</gx:coord><when>2025-06-26T06:15:58.629Z</when><gx:coord>17.582703 47.434449 717</gx:coord><when>2025-06-26T06:16:02.269Z</when><gx:coord>17.578477 47.435892 725</gx:coord><when>2025-06-26T06:16:04.789Z</when><gx:coord>17.575447 47.436722 725</gx:coord><when>2025-06-26T06:16:07.359Z</when><gx:coord>17.572357 47.437454 717</gx:coord><when>2025-06-26T06:16:10.789Z</when><gx:coord>17.568169 47.438187 717</gx:coord><when>2025-06-26T06:16:14.179Z</when><gx:coord>17.56411 47.438639 709</gx:coord><when>2025-06-26T06:16:18.369Z</when><gx:coord>17.559105 47.438919 709</gx:coord><when>2025-06-26T06:16:21.249Z</when><gx:coord>17.555659 47.438872 702</gx:coord><when>2025-06-26T06:16:25.359Z</when><gx:coord>17.550934 47.438644 694</gx:coord><when>2025-06-26T06:16:29.799Z</when><gx:coord>17.546082 47.43822 679</gx:coord><when>2025-06-26T06:16:39.339Z</when><gx:coord>17.535828 47.437317 656</gx:coord><when>2025-06-26T06:16:47.729Z</when><gx:coord>17.526715 47.436637 633</gx:coord><when>2025-06-26T06:16:54.529Z</when><gx:coord>17.519348 47.436035 618</gx:coord><when>2025-06-26T06:16:58.449Z</when><gx:coord>17.51516 47.435486 603</gx:coord><when>2025-06-26T06:17:04.389Z</when><gx:coord>17.50898 47.434387 595</gx:coord><when>2025-06-26T06:17:13.939Z</when><gx:coord>17.499108 47.432587 572</gx:coord><when>2025-06-26T06:17:21.968Z</when><gx:coord>17.490646 47.430954 542</gx:coord><when>2025-06-26T06:17:28.759Z</when><gx:coord>17.483685 47.429468 519</gx:coord><when>2025-06-26T06:17:32.089Z</when><gx:coord>17.480516 47.428444 504</gx:coord><when>2025-06-26T06:17:34.809Z</when><gx:coord>17.478218 47.427567 496</gx:coord><when>2025-06-26T06:17:36.809Z</when><gx:coord>17.476364 47.426514 481</gx:coord><when>2025-06-26T06:17:38.889Z</when><gx:coord>17.474882 47.425465 473</gx:coord><when>2025-06-26T06:17:40.449Z</when><gx:coord>17.473684 47.424487 466</gx:coord><when>2025-06-26T06:17:42.439Z</when><gx:coord>17.472588 47.423218 450</gx:coord><when>2025-06-26T06:17:44.968Z</when><gx:coord>17.471626 47.421478 450</gx:coord><when>2025-06-26T06:17:47.509Z</when><gx:coord>17.471146 47.419647 443</gx:coord><when>2025-06-26T06:17:49.458Z</when><gx:coord>17.471214 47.418274 435</gx:coord><when>2025-06-26T06:17:51.759Z</when><gx:coord>17.471572 47.416666 435</gx:coord><when>2025-06-26T06:17:54.009Z</when><gx:coord>17.472135 47.415409 427</gx:coord><when>2025-06-26T06:17:56.339Z</when><gx:coord>17.473137 47.413788 420</gx:coord><when>2025-06-26T06:18:02.809Z</when><gx:coord>17.475815 47.410126 405</gx:coord><when>2025-06-26T06:18:06.059Z</when><gx:coord>17.477135 47.408054 389</gx:coord><when>2025-06-26T06:18:11.399Z</when><gx:coord>17.478896 47.404842 366</gx:coord><when>2025-06-26T06:18:17.879Z</when><gx:coord>17.481009 47.400978 336</gx:coord><when>2025-06-26T06:18:26.809Z</when><gx:coord>17.483896 47.395764 313</gx:coord><when>2025-06-26T06:18:33.809Z</when><gx:coord>17.486079 47.391668 275</gx:coord><when>2025-06-26T06:18:40.909Z</when><gx:coord>17.488262 47.387478 245</gx:coord><when>2025-06-26T06:18:48.909Z</when><gx:coord>17.490798 47.382823 214</gx:coord><when>2025-06-26T06:18:56.689Z</when><gx:coord>17.493187 47.378311 184</gx:coord><when>2025-06-26T06:19:04.119Z</when><gx:coord>17.495316 47.374054 161</gx:coord><when>2025-06-26T06:19:08.089Z</when><gx:coord>17.496643 47.371557 153</gx:coord><when>2025-06-26T06:19:14.109Z</when><gx:coord>17.498404 47.368205 153</gx:coord><when>2025-06-26T06:19:24.029Z</when><gx:coord>17.501291 47.362712 146</gx:coord><when>2025-06-26T06:19:29.989Z</when><gx:coord>17.503487 47.358444 168</gx:coord><when>2025-06-26T06:19:30.419Z</when><gx:coord>17.503624 47.35817 176</gx:coord><when>2025-06-26T06:19:31.629Z</when><gx:coord>17.504105 47.357254 191</gx:coord><when>2025-06-26T06:19:33.429Z</when><gx:coord>17.504742 47.356102 222</gx:coord><when>2025-06-26T06:19:35.099Z</when><gx:coord>17.505446 47.354659 245</gx:coord><when>2025-06-26T06:19:36.269Z</when><gx:coord>17.50589 47.353867 260</gx:coord><when>2025-06-26T06:19:38.468Z</when><gx:coord>17.506714 47.352356 298</gx:coord><when>2025-06-26T06:19:43.099Z</when><gx:coord>17.509048 47.349014 344</gx:coord><when>2025-06-26T06:19:45.989Z</when><gx:coord>17.510971 47.347 351</gx:coord><when>2025-06-26T06:19:48.379Z</when><gx:coord>17.512894 47.345398 374</gx:coord><when>2025-06-26T06:19:50.949Z</when><gx:coord>17.515094 47.343952 389</gx:coord><when>2025-06-26T06:19:53.249Z</when><gx:coord>17.517559 47.342648 420</gx:coord><when>2025-06-26T06:19:55.379Z</when><gx:coord>17.519883 47.341624 435</gx:coord><when>2025-06-26T06:19:57.708Z</when><gx:coord>17.522278 47.340786 450</gx:coord><when>2025-06-26T06:19:59.069Z</when><gx:coord>17.524179 47.340274 458</gx:coord><when>2025-06-26T06:20:00.259Z</when><gx:coord>17.525391 47.339951 466</gx:coord><when>2025-06-26T06:20:02.179Z</when><gx:coord>17.528123 47.339483 504</gx:coord><when>2025-06-26T06:20:04.279Z</when><gx:coord>17.530746 47.339172 527</gx:coord><when>2025-06-26T06:20:04.819Z</when><gx:coord>17.531364 47.339081 534</gx:coord><when>2025-06-26T06:20:07.559Z</when><gx:coord>17.535141 47.338898 557</gx:coord><when>2025-06-26T06:20:10.099Z</when><gx:coord>17.538574 47.338989 565</gx:coord><when>2025-06-26T06:20:13.019Z</when><gx:coord>17.54249 47.33939 587</gx:coord><when>2025-06-26T06:20:15.559Z</when><gx:coord>17.545659 47.339948 603</gx:coord><when>2025-06-26T06:20:18.499Z</when><gx:coord>17.549286 47.340866 618</gx:coord><when>2025-06-26T06:20:20.999Z</when><gx:coord>17.552138 47.341903 626</gx:coord><when>2025-06-26T06:20:23.879Z</when><gx:coord>17.55526 47.343292 633</gx:coord><when>2025-06-26T06:20:26.659Z</when><gx:coord>17.5578 47.344757 641</gx:coord><when>2025-06-26T06:20:29.189Z</when><gx:coord>17.560272 47.346451 641</gx:coord><when>2025-06-26T06:20:31.809Z</when><gx:coord>17.562279 47.348281 641</gx:coord><when>2025-06-26T06:20:34.329Z</when><gx:coord>17.56397 47.35019 641</gx:coord><when>2025-06-26T06:20:36.729Z</when><gx:coord>17.565285 47.352036 648</gx:coord><when>2025-06-26T06:20:39.259Z</when><gx:coord>17.566364 47.354193 648</gx:coord><when>2025-06-26T06:20:41.869Z</when><gx:coord>17.567139 47.35643 648</gx:coord><when>2025-06-26T06:20:44.289Z</when><gx:coord>17.567551 47.358582 648</gx:coord><when>2025-06-26T06:20:46.699Z</when><gx:coord>17.567619 47.360687 648</gx:coord><when>2025-06-26T06:20:49.059Z</when><gx:coord>17.567345 47.362885 648</gx:coord><when>2025-06-26T06:20:51.949Z</when><gx:coord>17.566716 47.365319 648</gx:coord><when>2025-06-26T06:20:55.899Z</when><gx:coord>17.565216 47.368881 648</gx:coord><when>2025-06-26T06:21:01.599Z</when><gx:coord>17.562702 47.373699 648</gx:coord><when>2025-06-26T06:21:18.149Z</when><gx:coord>17.554814 47.387618 648</gx:coord><when>2025-06-26T06:21:37.949Z</when><gx:coord>17.544814 47.404563 641</gx:coord><when>2025-06-26T06:21:57.779Z</when><gx:coord>17.535141 47.421524 641</gx:coord><when>2025-06-26T06:22:04.139Z</when><gx:coord>17.532188 47.426651 641</gx:coord><when>2025-06-26T06:22:07.579Z</when><gx:coord>17.530334 47.429581 648</gx:coord><when>2025-06-26T06:22:10.479Z</when><gx:coord>17.528546 47.431796 633</gx:coord><when>2025-06-26T06:22:12.799Z</when><gx:coord>17.526926 47.433379 633</gx:coord><when>2025-06-26T06:22:14.779Z</when><gx:coord>17.525322 47.43457 633</gx:coord><when>2025-06-26T06:22:16.739Z</when><gx:coord>17.523605 47.435623 633</gx:coord><when>2025-06-26T06:22:18.989Z</when><gx:coord>17.521751 47.43663 626</gx:coord><when>2025-06-26T06:22:20.999Z</when><gx:coord>17.519554 47.4375 633</gx:coord><when>2025-06-26T06:22:22.999Z</when><gx:coord>17.517632 47.438141 618</gx:coord><when>2025-06-26T06:22:25.579Z</when><gx:coord>17.514883 47.438779 618</gx:coord><when>2025-06-26T06:22:28.189Z</when><gx:coord>17.512207 47.439194 618</gx:coord><when>2025-06-26T06:22:30.409Z</when><gx:coord>17.509872 47.439331 610</gx:coord><when>2025-06-26T06:22:33.179Z</when><gx:coord>17.506643 47.439244 618</gx:coord><when>2025-06-26T06:22:35.729Z</when><gx:coord>17.504038 47.439011 610</gx:coord><when>2025-06-26T06:22:39.789Z</when><gx:coord>17.499573 47.438278 603</gx:coord><when>2025-06-26T06:22:47.349Z</when><gx:coord>17.491784 47.436963 565</gx:coord><when>2025-06-26T06:22:51.799Z</when><gx:coord>17.487144 47.435944 542</gx:coord><when>2025-06-26T06:22:57.649Z</when><gx:coord>17.481239 47.434341 527</gx:coord><when>2025-06-26T06:22:59.669Z</when><gx:coord>17.479385 47.433655 511</gx:coord><when>2025-06-26T06:23:01.859Z</when><gx:coord>17.477325 47.432648 504</gx:coord><when>2025-06-26T06:23:03.499Z</when><gx:coord>17.476021 47.43187 496</gx:coord><when>2025-06-26T06:23:05.869Z</when><gx:coord>17.474389 47.430539 488</gx:coord><when>2025-06-26T06:23:07.879Z</when><gx:coord>17.473191 47.429329 488</gx:coord><when>2025-06-26T06:23:09.809Z</when><gx:coord>17.472346 47.428072 481</gx:coord><when>2025-06-26T06:23:11.859Z</when><gx:coord>17.471572 47.426675 481</gx:coord><when>2025-06-26T06:23:13.829Z</when><gx:coord>17.471079 47.425278 473</gx:coord><when>2025-06-26T06:23:15.619Z</when><gx:coord>17.470727 47.423882 466</gx:coord><when>2025-06-26T06:23:16.749Z</when><gx:coord>17.470727 47.423091 466</gx:coord><when>2025-06-26T06:23:18.629Z</when><gx:coord>17.470727 47.421787 458</gx:coord><when>2025-06-26T06:23:20.669Z</when><gx:coord>17.471008 47.420251 450</gx:coord><when>2025-06-26T06:23:22.899Z</when><gx:coord>17.471558 47.418732 443</gx:coord><when>2025-06-26T06:23:25.829Z</when><gx:coord>17.472519 47.416855 427</gx:coord><when>2025-06-26T06:23:29.968Z</when><gx:coord>17.473966 47.414339 412</gx:coord><when>2025-06-26T06:23:38.218Z</when><gx:coord>17.476913 47.40921 374</gx:coord><when>2025-06-26T06:23:46.889Z</when><gx:coord>17.479671 47.404097 351</gx:coord><when>2025-06-26T06:23:55.589Z</when><gx:coord>17.482338 47.398865 328</gx:coord><when>2025-06-26T06:24:03.889Z</when><gx:coord>17.484952 47.393902 290</gx:coord><when>2025-06-26T06:24:12.539Z</when><gx:coord>17.487769 47.388688 267</gx:coord><when>2025-06-26T06:24:18.829Z</when><gx:coord>17.489671 47.384964 229</gx:coord><when>2025-06-26T06:24:26.759Z</when><gx:coord>17.492088 47.380325 199</gx:coord><when>2025-06-26T06:24:35.999Z</when><gx:coord>17.494882 47.374909 168</gx:coord><when>2025-06-26T06:24:39.869Z</when><gx:coord>17.49608 47.372581 153</gx:coord><when>2025-06-26T06:24:54.369Z</when><gx:coord>17.500534 47.364166 146</gx:coord><when>2025-06-26T06:24:58.559Z</when><gx:coord>17.502045 47.361237 153</gx:coord><when>2025-06-26T06:25:00.439Z</when><gx:coord>17.50277 47.359826 176</gx:coord><when>2025-06-26T06:25:01.829Z</when><gx:coord>17.503349 47.35881 184</gx:coord><when>2025-06-26T06:25:03.329Z</when><gx:coord>17.503897 47.357685 199</gx:coord><when>2025-06-26T06:25:05.819Z</when><gx:coord>17.504883 47.355823 260</gx:coord><when>2025-06-26T06:25:09.218Z</when><gx:coord>17.506371 47.353317 313</gx:coord><when>2025-06-26T06:25:12.968Z</when><gx:coord>17.508362 47.350708 374</gx:coord><when>2025-06-26T06:25:15.409Z</when><gx:coord>17.509941 47.349106 412</gx:coord><when>2025-06-26T06:25:17.169Z</when><gx:coord>17.511151 47.348141 435</gx:coord><when>2025-06-26T06:25:19.569Z</when><gx:coord>17.513263 47.346698 466</gx:coord><when>2025-06-26T06:25:21.569Z</when><gx:coord>17.515022 47.345673 488</gx:coord><when>2025-06-26T06:25:23.139Z</when><gx:coord>17.516503 47.345022 511</gx:coord><when>2025-06-26T06:25:25.569Z</when><gx:coord>17.518867 47.344116 542</gx:coord><when>2025-06-26T06:25:27.779Z</when><gx:coord>17.521433 47.343393 557</gx:coord><when>2025-06-26T06:25:30.449Z</when><gx:coord>17.524429 47.342789 580</gx:coord><when>2025-06-26T06:25:32.479Z</when><gx:coord>17.526764 47.342514 595</gx:coord><when>2025-06-26T06:25:34.309Z</when><gx:coord>17.529099 47.342377 610</gx:coord><when>2025-06-26T06:25:37.159Z</when><gx:coord>17.532842 47.342416 626</gx:coord><when>2025-06-26T06:25:39.559Z</when><gx:coord>17.535965 47.342697 641</gx:coord><when>2025-06-26T06:25:40.669Z</when><gx:coord>17.537419 47.342881 648</gx:coord><when>2025-06-26T06:25:42.189Z</when><gx:coord>17.539398 47.343201 648</gx:coord><when>2025-06-26T06:25:44.849Z</when><gx:coord>17.542694 47.343979 656</gx:coord><when>2025-06-26T06:25:47.299Z</when><gx:coord>17.545578 47.344894 656</gx:coord><when>2025-06-26T06:25:49.749Z</when><gx:coord>17.548393 47.346039 656</gx:coord><when>2025-06-26T06:25:52.218Z</when><gx:coord>17.551011 47.34735 656</gx:coord><when>2025-06-26T06:25:54.159Z</when><gx:coord>17.552842 47.348514 664</gx:coord><when>2025-06-26T06:25:57.409Z</when><gx:coord>17.555672 47.350754 664</gx:coord><when>2025-06-26T06:25:59.629Z</when><gx:coord>17.557279 47.352471 664</gx:coord><when>2025-06-26T06:26:01.639Z</when><gx:coord>17.558556 47.35405 671</gx:coord><when>2025-06-26T06:26:04.159Z</when><gx:coord>17.55986 47.35611 671</gx:coord><when>2025-06-26T06:26:06.629Z</when><gx:coord>17.560822 47.358215 671</gx:coord><when>2025-06-26T06:26:09.059Z</when><gx:coord>17.561371 47.360458 671</gx:coord><when>2025-06-26T06:26:11.279Z</when><gx:coord>17.561577 47.362473 671</gx:coord><when>2025-06-26T06:26:13.999Z</when><gx:coord>17.561508 47.364761 671</gx:coord><when>2025-06-26T06:26:16.489Z</when><gx:coord>17.561012 47.367135 671</gx:coord><when>2025-06-26T06:26:19.149Z</when><gx:coord>17.560135 47.369431 671</gx:coord><when>2025-06-26T06:26:22.649Z</when><gx:coord>17.558487 47.372498 671</gx:coord><when>2025-06-26T06:26:29.829Z</when><gx:coord>17.555026 47.378447 671</gx:coord><when>2025-06-26T06:26:41.239Z</when><gx:coord>17.549673 47.38813 641</gx:coord><when>2025-06-26T06:27:00.779Z</when><gx:coord>17.540448 47.404796 641</gx:coord><when>2025-06-26T06:27:20.649Z</when><gx:coord>17.53094 47.42188 641</gx:coord><when>2025-06-26T06:27:24.639Z</when><gx:coord>17.529167 47.42514 641</gx:coord><when>2025-06-26T06:27:28.069Z</when><gx:coord>17.527313 47.427933 633</gx:coord><when>2025-06-26T06:27:30.819Z</when><gx:coord>17.525588 47.429934 626</gx:coord><when>2025-06-26T06:27:32.989Z</when><gx:coord>17.524109 47.431284 626</gx:coord><when>2025-06-26T06:27:35.009Z</when><gx:coord>17.522369 47.432556 626</gx:coord><when>2025-06-26T06:27:36.359Z</when><gx:coord>17.521065 47.433334 626</gx:coord><when>2025-06-26T06:27:38.869Z</when><gx:coord>17.51873 47.434525 618</gx:coord><when>2025-06-26T06:27:41.509Z</when><gx:coord>17.51608 47.43552 618</gx:coord><when>2025-06-26T06:27:43.819Z</when><gx:coord>17.513786 47.436172 618</gx:coord><when>2025-06-26T06:27:46.339Z</when><gx:coord>17.511177 47.436676 610</gx:coord><when>2025-06-26T06:27:48.319Z</when><gx:coord>17.509038 47.436917 603</gx:coord><when>2025-06-26T06:27:50.909Z</when><gx:coord>17.506096 47.436996 603</gx:coord><when>2025-06-26T06:27:52.439Z</when><gx:coord>17.504531 47.436917 603</gx:coord><when>2025-06-26T06:27:54.919Z</when><gx:coord>17.502045 47.43663 610</gx:coord><when>2025-06-26T06:27:57.449Z</when><gx:coord>17.499367 47.436081 610</gx:coord><when>2025-06-26T06:28:00.999Z</when><gx:coord>17.49559 47.435257 618</gx:coord><when>2025-06-26T06:28:02.529Z</when><gx:coord>17.494011 47.434891 610</gx:coord><when>2025-06-26T06:28:08.079Z</when><gx:coord>17.488106 47.433517 580</gx:coord><when>2025-06-26T06:28:13.929Z</when><gx:coord>17.482269 47.432053 549</gx:coord><when>2025-06-26T06:28:17.069Z</when><gx:coord>17.479111 47.431091 542</gx:coord><when>2025-06-26T06:28:19.029Z</when><gx:coord>17.477325 47.430405 534</gx:coord><when>2025-06-26T06:28:21.499Z</when><gx:coord>17.475234 47.429282 527</gx:coord><when>2025-06-26T06:28:23.669Z</when><gx:coord>17.473614 47.428118 519</gx:coord><when>2025-06-26T06:28:25.749Z</when><gx:coord>17.472417 47.427047 511</gx:coord><when>2025-06-26T06:28:27.499Z</when><gx:coord>17.47142 47.425827 504</gx:coord><when>2025-06-26T06:28:29.919Z</when><gx:coord>17.470445 47.424115 496</gx:coord><when>2025-06-26T06:28:31.909Z</when><gx:coord>17.470022 47.422765 496</gx:coord><when>2025-06-26T06:28:34.149Z</when><gx:coord>17.469881 47.421275 488</gx:coord><when>2025-06-26T06:28:35.879Z</when><gx:coord>17.470022 47.419785 481</gx:coord><when>2025-06-26T06:28:38.139Z</when><gx:coord>17.470459 47.418274 473</gx:coord><when>2025-06-26T06:28:40.708Z</when><gx:coord>17.471431 47.416387 458</gx:coord><when>2025-06-26T06:28:42.708Z</when><gx:coord>17.472382 47.415115 458</gx:coord><when>2025-06-26T06:28:45.259Z</when><gx:coord>17.473544 47.413501 450</gx:coord><when>2025-06-26T06:28:50.529Z</when><gx:coord>17.475815 47.410217 420</gx:coord><when>2025-06-26T06:28:56.468Z</when><gx:coord>17.478192 47.406611 389</gx:coord><when>2025-06-26T06:29:03.529Z</when><gx:coord>17.480516 47.402421 366</gx:coord><when>2025-06-26T06:29:11.029Z</when><gx:coord>17.482887 47.397949 336</gx:coord><when>2025-06-26T06:29:18.069Z</when><gx:coord>17.485016 47.393738 306</gx:coord><when>2025-06-26T06:29:26.129Z</when><gx:coord>17.487625 47.388977 267</gx:coord><when>2025-06-26T06:29:32.269Z</when><gx:coord>17.48946 47.38543 237</gx:coord><when>2025-06-26T06:29:40.249Z</when><gx:coord>17.491951 47.3806 206</gx:coord><when>2025-06-26T06:29:47.109Z</when><gx:coord>17.49408 47.376526 176</gx:coord><when>2025-06-26T06:29:53.559Z</when><gx:coord>17.496009 47.372721 153</gx:coord><when>2025-06-26T06:30:05.339Z</when><gx:coord>17.49953 47.366017 153</gx:coord><when>2025-06-26T06:30:10.389Z</when><gx:coord>17.501083 47.363068 153</gx:coord><when>2025-06-26T06:30:16.458Z</when><gx:coord>17.503349 47.35881 176</gx:coord><when>2025-06-26T06:30:17.449Z</when><gx:coord>17.503761 47.358078 176</gx:coord><when>2025-06-26T06:30:18.599Z</when><gx:coord>17.504242 47.357208 191</gx:coord><when>2025-06-26T06:30:20.499Z</when><gx:coord>17.505024 47.355729 222</gx:coord><when>2025-06-26T06:30:22.509Z</when><gx:coord>17.505798 47.35424 252</gx:coord><when>2025-06-26T06:30:24.589Z</when><gx:coord>17.506643 47.352657 298</gx:coord><when>2025-06-26T06:30:26.849Z</when><gx:coord>17.507607 47.351074 328</gx:coord><when>2025-06-26T06:30:28.829Z</when><gx:coord>17.508636 47.349609 359</gx:coord><when>2025-06-26T06:30:31.009Z</when><gx:coord>17.509666 47.348328 397</gx:coord><when>2025-06-26T06:30:33.889Z</when><gx:coord>17.511452 47.346588 427</gx:coord><when>2025-06-26T06:30:35.399Z</when><gx:coord>17.512982 47.345395 458</gx:coord><when>2025-06-26T06:30:38.019Z</when><gx:coord>17.515366 47.343933 496</gx:coord><when>2025-06-26T06:30:40.599Z</when><gx:coord>17.517841 47.342695 519</gx:coord><when>2025-06-26T06:30:43.199Z</when><gx:coord>17.520236 47.341717 549</gx:coord><when>2025-06-26T06:30:45.869Z</when><gx:coord>17.523475 47.340786 572</gx:coord><when>2025-06-26T06:30:48.089Z</when><gx:coord>17.526081 47.340274 595</gx:coord><when>2025-06-26T06:30:50.549Z</when><gx:coord>17.529167 47.339859 618</gx:coord><when>2025-06-26T06:30:52.999Z</when><gx:coord>17.532326 47.339676 633</gx:coord><when>2025-06-26T06:30:54.489Z</when><gx:coord>17.534248 47.33963 641</gx:coord><when>2025-06-26T06:30:56.689Z</when><gx:coord>17.537208 47.339762 648</gx:coord><when>2025-06-26T06:30:57.259Z</when><gx:coord>17.537888 47.339813 648</gx:coord><when>2025-06-26T06:30:59.119Z</when><gx:coord>17.540307 47.340088 664</gx:coord><when>2025-06-26T06:31:01.099Z</when><gx:coord>17.542842 47.34046 656</gx:coord><when>2025-06-26T06:31:04.019Z</when><gx:coord>17.546608 47.341232 664</gx:coord><when>2025-06-26T06:31:07.039Z</when><gx:coord>17.550179 47.342331 656</gx:coord><when>2025-06-26T06:31:09.889Z</when><gx:coord>17.553406 47.343626 664</gx:coord><when>2025-06-26T06:31:12.139Z</when><gx:coord>17.55573 47.344836 664</gx:coord><when>2025-06-26T06:31:14.718Z</when><gx:coord>17.558265 47.346419 664</gx:coord><when>2025-06-26T06:31:17.389Z</when><gx:coord>17.560519 47.348141 656</gx:coord><when>2025-06-26T06:31:20.009Z</when><gx:coord>17.562561 47.350097 656</gx:coord><when>2025-06-26T06:31:22.559Z</when><gx:coord>17.564181 47.352098 664</gx:coord><when>2025-06-26T06:31:25.319Z</when><gx:coord>17.565559 47.354324 648</gx:coord><when>2025-06-26T06:31:27.779Z</when><gx:coord>17.566505 47.356474 648</gx:coord><when>2025-06-26T06:31:30.489Z</when><gx:coord>17.567207 47.358856 648</gx:coord><when>2025-06-26T06:31:33.799Z</when><gx:coord>17.567413 47.361786 648</gx:coord><when>2025-06-26T06:31:35.869Z</when><gx:coord>17.567276 47.363708 648</gx:coord><when>2025-06-26T06:31:38.529Z</when><gx:coord>17.566795 47.366135 648</gx:coord><when>2025-06-26T06:31:41.759Z</when><gx:coord>17.56573 47.36895 648</gx:coord><when>2025-06-26T06:31:45.208Z</when><gx:coord>17.564392 47.371902 648</gx:coord><when>2025-06-26T06:31:53.579Z</when><gx:coord>17.560547 47.379135 641</gx:coord><when>2025-06-26T06:32:13.499Z</when><gx:coord>17.55114 47.396072 641</gx:coord><when>2025-06-26T06:32:33.049Z</when><gx:coord>17.541939 47.412781 641</gx:coord><when>2025-06-26T06:32:45.239Z</when><gx:coord>17.536222 47.423323 641</gx:coord><when>2025-06-26T06:32:49.169Z</when><gx:coord>17.534391 47.426489 648</gx:coord><when>2025-06-26T06:32:51.699Z</when><gx:coord>17.533012 47.428482 633</gx:coord><when>2025-06-26T06:32:53.468Z</when><gx:coord>17.532067 47.429654 626</gx:coord><when>2025-06-26T06:32:55.609Z</when><gx:coord>17.530334 47.431229 626</gx:coord><when>2025-06-26T06:32:57.519Z</when><gx:coord>17.528827 47.432401 618</gx:coord><when>2025-06-26T06:33:00.208Z</when><gx:coord>17.526421 47.433838 610</gx:coord><when>2025-06-26T06:33:02.199Z</when><gx:coord>17.524567 47.434708 603</gx:coord><when>2025-06-26T06:33:04.839Z</when><gx:coord>17.521785 47.435706 595</gx:coord><when>2025-06-26T06:33:06.679Z</when><gx:coord>17.51976 47.436264 595</gx:coord><when>2025-06-26T06:33:09.669Z</when><gx:coord>17.516533 47.436813 587</gx:coord><when>2025-06-26T06:33:11.639Z</when><gx:coord>17.514404 47.437042 587</gx:coord><when>2025-06-26T06:33:14.029Z</when><gx:coord>17.511996 47.437056 580</gx:coord><when>2025-06-26T06:33:16.049Z</when><gx:coord>17.509598 47.436905 580</gx:coord><when>2025-06-26T06:33:18.509Z</when><gx:coord>17.507066 47.436591 580</gx:coord><when>2025-06-26T06:33:22.349Z</when><gx:coord>17.502937 47.435898 572</gx:coord><when>2025-06-26T06:33:26.919Z</when><gx:coord>17.498192 47.435148 572</gx:coord><when>2025-06-26T06:33:32.929Z</when><gx:coord>17.492206 47.434123 549</gx:coord><when>2025-06-26T06:33:38.569Z</when><gx:coord>17.486009 47.432913 527</gx:coord><when>2025-06-26T06:33:40.989Z</when><gx:coord>17.483614 47.432261 519</gx:coord><when>2025-06-26T06:33:43.479Z</when><gx:coord>17.48129 47.431423 504</gx:coord><when>2025-06-26T06:33:44.829Z</when><gx:coord>17.480072 47.430862 504</gx:coord><when>2025-06-26T06:33:46.739Z</when><gx:coord>17.478561 47.429993 496</gx:coord><when>2025-06-26T06:33:49.319Z</when><gx:coord>17.476642 47.428537 488</gx:coord><when>2025-06-26T06:33:51.169Z</when><gx:coord>17.475609 47.427475 481</gx:coord><when>2025-06-26T06:33:52.699Z</when><gx:coord>17.474811 47.426489 473</gx:coord><when>2025-06-26T06:33:56.319Z</when><gx:coord>17.473473 47.424022 473</gx:coord><when>2025-06-26T06:33:58.409Z</when><gx:coord>17.473051 47.422485 466</gx:coord><when>2025-06-26T06:34:00.589Z</when><gx:coord>17.472862 47.420929 458</gx:coord><when>2025-06-26T06:34:02.419Z</when><gx:coord>17.47291 47.419692 458</gx:coord><when>2025-06-26T06:34:05.458Z</when><gx:coord>17.473274 47.417404 443</gx:coord><when>2025-06-26T06:34:09.649Z</when><gx:coord>17.474236 47.414429 443</gx:coord><when>2025-06-26T06:34:11.639Z</when><gx:coord>17.474741 47.413128 435</gx:coord><when>2025-06-26T06:34:17.009Z</when><gx:coord>17.476433 47.409622 412</gx:coord><when>2025-06-26T06:34:22.239Z</when><gx:coord>17.478192 47.406378 389</gx:coord><when>2025-06-26T06:34:27.499Z</when><gx:coord>17.480072 47.403214 359</gx:coord><when>2025-06-26T06:34:34.859Z</when><gx:coord>17.482544 47.398911 328</gx:coord><when>2025-06-26T06:34:42.909Z</when><gx:coord>17.484947 47.39415 290</gx:coord><when>2025-06-26T06:34:49.379Z</when><gx:coord>17.486924 47.390318 260</gx:coord><when>2025-06-26T06:34:56.689Z</when><gx:coord>17.489067 47.386093 229</gx:coord><when>2025-06-26T06:35:05.349Z</when><gx:coord>17.491814 47.380966 206</gx:coord><when>2025-06-26T06:35:11.759Z</when><gx:coord>17.493685 47.377237 176</gx:coord><when>2025-06-26T06:35:18.759Z</when><gx:coord>17.495796 47.373138 153</gx:coord><when>2025-06-26T06:35:26.708Z</when><gx:coord>17.498263 47.368578 153</gx:coord><when>2025-06-26T06:35:35.708Z</when><gx:coord>17.501152 47.36293 153</gx:coord><when>2025-06-26T06:35:36.619Z</when><gx:coord>17.501502 47.362247 161</gx:coord><when>2025-06-26T06:35:37.409Z</when><gx:coord>17.501714 47.361828 161</gx:coord><when>2025-06-26T06:35:38.509Z</when><gx:coord>17.502277 47.36085 176</gx:coord><when>2025-06-26T06:35:39.589Z</when><gx:coord>17.502629 47.360059 184</gx:coord><when>2025-06-26T06:35:41.309Z</when><gx:coord>17.503349 47.358765 222</gx:coord><when>2025-06-26T06:35:42.919Z</when><gx:coord>17.503967 47.357529 260</gx:coord><when>2025-06-26T06:35:46.989Z</when><gx:coord>17.505587 47.354659 328</gx:coord><when>2025-06-26T06:35:49.319Z</when><gx:coord>17.506783 47.352997 351</gx:coord><when>2025-06-26T06:35:51.349Z</when><gx:coord>17.508052 47.351633 382</gx:coord><when>2025-06-26T06:35:52.919Z</when><gx:coord>17.509108 47.350655 412</gx:coord><when>2025-06-26T06:35:54.619Z</when><gx:coord>17.510353 47.349655 443</gx:coord><when>2025-06-26T06:35:56.139Z</when><gx:coord>17.511573 47.348886 458</gx:coord><when>2025-06-26T06:35:58.329Z</when><gx:coord>17.513475 47.347769 488</gx:coord><when>2025-06-26T06:36:00.449Z</when><gx:coord>17.515376 47.346885 519</gx:coord><when>2025-06-26T06:36:02.499Z</when><gx:coord>17.517288 47.346176 542</gx:coord><when>2025-06-26T06:36:05.119Z</when><gx:coord>17.520306 47.345395 572</gx:coord><when>2025-06-26T06:36:07.468Z</when><gx:coord>17.522841 47.344976 595</gx:coord><when>2025-06-26T06:36:09.749Z</when><gx:coord>17.525665 47.344711 610</gx:coord><when>2025-06-26T06:36:12.059Z</when><gx:coord>17.528343 47.344666 633</gx:coord><when>2025-06-26T06:36:14.379Z</when><gx:coord>17.531227 47.344757 648</gx:coord><when>2025-06-26T06:36:15.359Z</when><gx:coord>17.532489 47.344883 656</gx:coord><when>2025-06-26T06:36:16.389Z</when><gx:coord>17.53363 47.344986 656</gx:coord><when>2025-06-26T06:36:17.319Z</when><gx:coord>17.534884 47.345162 656</gx:coord><when>2025-06-26T06:36:18.389Z</when><gx:coord>17.536308 47.345398 671</gx:coord><when>2025-06-26T06:36:20.609Z</when><gx:coord>17.538918 47.345901 671</gx:coord><when>2025-06-26T06:36:23.299Z</when><gx:coord>17.542138 47.346838 671</gx:coord><when>2025-06-26T06:36:25.849Z</when><gx:coord>17.545307 47.348002 671</gx:coord><when>2025-06-26T06:36:28.439Z</when><gx:coord>17.548194 47.349352 671</gx:coord><when>2025-06-26T06:36:30.869Z</when><gx:coord>17.550659 47.350748 671</gx:coord><when>2025-06-26T06:36:33.369Z</when><gx:coord>17.552702 47.352191 671</gx:coord><when>2025-06-26T06:36:35.629Z</when><gx:coord>17.554744 47.35396 671</gx:coord><when>2025-06-26T06:36:38.079Z</when><gx:coord>17.556223 47.35559 671</gx:coord><when>2025-06-26T06:36:40.689Z</when><gx:coord>17.557938 47.357941 671</gx:coord><when>2025-06-26T06:36:43.109Z</when><gx:coord>17.55911 47.359966 671</gx:coord><when>2025-06-26T06:36:45.569Z</when><gx:coord>17.55986 47.362152 671</gx:coord><when>2025-06-26T06:36:47.849Z</when><gx:coord>17.560272 47.36412 671</gx:coord><when>2025-06-26T06:36:50.139Z</when><gx:coord>17.560378 47.36625 671</gx:coord><when>2025-06-26T06:36:52.319Z</when><gx:coord>17.560204 47.368103 671</gx:coord><when>2025-06-26T06:36:54.789Z</when><gx:coord>17.559674 47.37044 671</gx:coord><when>2025-06-26T06:36:57.589Z</when><gx:coord>17.558688 47.372814 671</gx:coord><when>2025-06-26T06:37:02.529Z</when><gx:coord>17.556427 47.376938 679</gx:coord><when>2025-06-26T06:37:07.359Z</when><gx:coord>17.55418 47.381194 687</gx:coord><when>2025-06-26T06:37:13.769Z</when><gx:coord>17.551208 47.386734 679</gx:coord><when>2025-06-26T06:37:24.729Z</when><gx:coord>17.545853 47.396027 656</gx:coord><when>2025-06-26T06:37:44.579Z</when><gx:coord>17.536433 47.412942 648</gx:coord><when>2025-06-26T06:37:56.279Z</when><gx:coord>17.530799 47.422904 641</gx:coord><when>2025-06-26T06:37:58.949Z</when><gx:coord>17.529579 47.425003 641</gx:coord><when>2025-06-26T06:38:02.139Z</when><gx:coord>17.527982 47.427513 641</gx:coord><when>2025-06-26T06:38:04.419Z</when><gx:coord>17.526574 47.429235 633</gx:coord><when>2025-06-26T06:38:05.919Z</when><gx:coord>17.525459 47.430359 626</gx:coord><when>2025-06-26T06:38:08.929Z</when><gx:coord>17.523262 47.432144 618</gx:coord><when>2025-06-26T06:38:10.829Z</when><gx:coord>17.521503 47.433239 618</gx:coord><when>2025-06-26T06:38:12.699Z</when><gx:coord>17.51976 47.434113 618</gx:coord><when>2025-06-26T06:38:14.949Z</when><gx:coord>17.5177 47.434961 610</gx:coord><when>2025-06-26T06:38:16.739Z</when><gx:coord>17.515709 47.435623 610</gx:coord><when>2025-06-26T06:38:18.819Z</when><gx:coord>17.513512 47.436172 603</gx:coord><when>2025-06-26T06:38:20.919Z</when><gx:coord>17.511221 47.436544 595</gx:coord><when>2025-06-26T06:38:22.939Z</when><gx:coord>17.509038 47.43673 595</gx:coord><when>2025-06-26T06:38:24.899Z</when><gx:coord>17.506925 47.43673 587</gx:coord><when>2025-06-26T06:38:26.899Z</when><gx:coord>17.504883 47.436637 580</gx:coord><when>2025-06-26T06:38:28.919Z</when><gx:coord>17.5028 47.436356 580</gx:coord><when>2025-06-26T06:38:32.529Z</when><gx:coord>17.499178 47.43566 580</gx:coord><when>2025-06-26T06:38:42.179Z</when><gx:coord>17.489273 47.433426 572</gx:coord><when>2025-06-26T06:38:47.699Z</when><gx:coord>17.483614 47.432075 557</gx:coord><when>2025-06-26T06:38:49.958Z</when><gx:coord>17.481583 47.431366 549</gx:coord><when>2025-06-26T06:38:51.819Z</when><gx:coord>17.47966 47.430542 534</gx:coord><when>2025-06-26T06:38:53.929Z</when><gx:coord>17.477943 47.429535 519</gx:coord><when>2025-06-26T06:38:55.919Z</when><gx:coord>17.47657 47.428436 511</gx:coord><when>2025-06-26T06:38:57.529Z</when><gx:coord>17.475609 47.427612 504</gx:coord><when>2025-06-26T06:38:59.749Z</when><gx:coord>17.474389 47.426116 496</gx:coord><when>2025-06-26T06:39:01.579Z</when><gx:coord>17.473684 47.42486 488</gx:coord><when>2025-06-26T06:39:04.208Z</when><gx:coord>17.473068 47.423126 481</gx:coord><when>2025-06-26T06:39:06.249Z</when><gx:coord>17.472794 47.421616 473</gx:coord><when>2025-06-26T06:39:07.769Z</when><gx:coord>17.472769 47.420484 473</gx:coord><when>2025-06-26T06:39:09.799Z</when><gx:coord>17.472839 47.418994 466</gx:coord><when>2025-06-26T06:39:11.759Z</when><gx:coord>17.473191 47.417597 458</gx:coord><when>2025-06-26T06:39:15.029Z</when><gx:coord>17.473892 47.41539 443</gx:coord><when>2025-06-26T06:39:17.849Z</when><gx:coord>17.474811 47.413454 435</gx:coord><when>2025-06-26T06:39:21.089Z</when><gx:coord>17.475797 47.411313 420</gx:coord><when>2025-06-26T06:39:26.169Z</when><gx:coord>17.477531 47.408066 389</gx:coord><when>2025-06-26T06:39:27.699Z</when><gx:coord>17.478012 47.40715 374</gx:coord><when>2025-06-26T06:39:34.909Z</when><gx:coord>17.480445 47.402747 344</gx:coord><when>2025-06-26T06:39:43.019Z</when><gx:coord>17.482981 47.397952 313</gx:coord><when>2025-06-26T06:39:51.439Z</when><gx:coord>17.485586 47.392925 275</gx:coord><when>2025-06-26T06:40:00.729Z</when><gx:coord>17.488449 47.387421 245</gx:coord><when>2025-06-26T06:40:09.119Z</when><gx:coord>17.491009 47.382404 214</gx:coord><when>2025-06-26T06:40:16.049Z</when><gx:coord>17.493118 47.378311 184</gx:coord><when>2025-06-26T06:40:26.109Z</when><gx:coord>17.496221 47.372395 153</gx:coord><when>2025-06-26T06:40:41.489Z</when><gx:coord>17.500877 47.363525 153</gx:coord><when>2025-06-26T06:40:42.468Z</when><gx:coord>17.501152 47.36293 153</gx:coord><when>2025-06-26T06:40:47.269Z</when><gx:coord>17.502911 47.359593 168</gx:coord><when>2025-06-26T06:40:48.718Z</when><gx:coord>17.503545 47.358383 176</gx:coord><when>2025-06-26T06:40:49.909Z</when><gx:coord>17.504038 47.357452 191</gx:coord><when>2025-06-26T06:40:52.119Z</when><gx:coord>17.50486 47.355835 229</gx:coord><when>2025-06-26T06:40:53.999Z</when><gx:coord>17.505615 47.35437 275</gx:coord><when>2025-06-26T06:40:56.009Z</when><gx:coord>17.506432 47.35289 313</gx:coord><when>2025-06-26T06:40:57.049Z</when><gx:coord>17.506855 47.352098 336</gx:coord><when>2025-06-26T06:40:58.619Z</when><gx:coord>17.507629 47.350935 359</gx:coord><when>2025-06-26T06:41:00.139Z</when><gx:coord>17.50843 47.349838 374</gx:coord><when>2025-06-26T06:41:02.789Z</when><gx:coord>17.509941 47.348099 405</gx:coord><when>2025-06-26T06:41:05.179Z</when><gx:coord>17.511726 47.346542 450</gx:coord><when>2025-06-26T06:41:07.479Z</when><gx:coord>17.51358 47.345215 473</gx:coord><when>2025-06-26T06:41:09.339Z</when><gx:coord>17.515297 47.344208 504</gx:coord><when>2025-06-26T06:41:11.819Z</when><gx:coord>17.5177 47.343114 519</gx:coord><when>2025-06-26T06:41:14.299Z</when><gx:coord>17.520035 47.342285 549</gx:coord><when>2025-06-26T06:41:16.779Z</when><gx:coord>17.523053 47.341484 572</gx:coord><when>2025-06-26T06:41:19.309Z</when><gx:coord>17.526222 47.340926 595</gx:coord><when>2025-06-26T06:41:21.799Z</when><gx:coord>17.529373 47.340637 610</gx:coord><when>2025-06-26T06:41:23.689Z</when><gx:coord>17.531785 47.3406 633</gx:coord><when>2025-06-26T06:41:25.949Z</when><gx:coord>17.534866 47.340683 641</gx:coord><when>2025-06-26T06:41:28.409Z</when><gx:coord>17.538053 47.340972 656</gx:coord><when>2025-06-26T06:41:31.409Z</when><gx:coord>17.541733 47.341599 664</gx:coord><when>2025-06-26T06:41:34.329Z</when><gx:coord>17.545372 47.342514 664</gx:coord><when>2025-06-26T06:41:36.609Z</when><gx:coord>17.548256 47.343475 664</gx:coord><when>2025-06-26T06:41:39.129Z</when><gx:coord>17.55087 47.344697 664</gx:coord><when>2025-06-26T06:41:41.679Z</when><gx:coord>17.553476 47.34614 671</gx:coord><when>2025-06-26T06:41:44.519Z</when><gx:coord>17.556082 47.347862 671</gx:coord><when>2025-06-26T06:41:47.729Z</when><gx:coord>17.558758 47.350236 664</gx:coord><when>2025-06-26T06:41:50.229Z</when><gx:coord>17.560448 47.352098 664</gx:coord><when>2025-06-26T06:41:52.859Z</when><gx:coord>17.561857 47.3541 664</gx:coord><when>2025-06-26T06:41:55.208Z</when><gx:coord>17.562913 47.356288 664</gx:coord><when>2025-06-26T06:41:57.708Z</when><gx:coord>17.563568 47.358444 664</gx:coord><when>2025-06-26T06:42:00.319Z</when><gx:coord>17.56397 47.360711 664</gx:coord><when>2025-06-26T06:42:02.799Z</when><gx:coord>17.56398 47.362976 664</gx:coord><when>2025-06-26T06:42:05.269Z</when><gx:coord>17.563637 47.365219 664</gx:coord><when>2025-06-26T06:42:07.669Z</when><gx:coord>17.562984 47.367368 664</gx:coord><when>2025-06-26T06:42:10.729Z</when><gx:coord>17.561783 47.370026 671</gx:coord><when>2025-06-26T06:42:16.829Z</when><gx:coord>17.559036 47.375244 679</gx:coord><when>2025-06-26T06:42:29.309Z</when><gx:coord>17.5532 47.385864 664</gx:coord><when>2025-06-26T06:42:49.179Z</when><gx:coord>17.543793 47.402573 656</gx:coord><when>2025-06-26T06:43:07.479Z</when><gx:coord>17.534814 47.418296 641</gx:coord><when>2025-06-26T06:43:13.679Z</when><gx:coord>17.531776 47.423447 641</gx:coord><when>2025-06-26T06:43:17.619Z</when><gx:coord>17.529785 47.426697 641</gx:coord><when>2025-06-26T06:43:20.708Z</when><gx:coord>17.527794 47.429031 633</gx:coord><when>2025-06-26T06:43:22.749Z</when><gx:coord>17.526292 47.430399 633</gx:coord><when>2025-06-26T06:43:24.879Z</when><gx:coord>17.524672 47.43161 626</gx:coord><when>2025-06-26T06:43:26.739Z</when><gx:coord>17.522982 47.432634 626</gx:coord><when>2025-06-26T06:43:28.659Z</when><gx:coord>17.52101 47.433611 618</gx:coord><when>2025-06-26T06:43:30.699Z</when><gx:coord>17.518968 47.434403 618</gx:coord><when>2025-06-26T06:43:32.809Z</when><gx:coord>17.516876 47.435074 618</gx:coord><when>2025-06-26T06:43:34.809Z</when><gx:coord>17.514816 47.435577 610</gx:coord><when>2025-06-26T06:43:36.819Z</when><gx:coord>17.512619 47.435944 610</gx:coord><when>2025-06-26T06:43:38.999Z</when><gx:coord>17.510306 47.436172 603</gx:coord><when>2025-06-26T06:43:41.409Z</when><gx:coord>17.507559 47.436218 603</gx:coord><when>2025-06-26T06:43:43.659Z</when><gx:coord>17.505341 47.436081 587</gx:coord><when>2025-06-26T06:43:46.079Z</when><gx:coord>17.502629 47.435706 580</gx:coord><when>2025-06-26T06:43:48.999Z</when><gx:coord>17.499573 47.435074 580</gx:coord><when>2025-06-26T06:44:01.109Z</when><gx:coord>17.487213 47.432281 572</gx:coord><when>2025-06-26T06:44:04.829Z</when><gx:coord>17.483544 47.431284 557</gx:coord><when>2025-06-26T06:44:07.239Z</when><gx:coord>17.48122 47.430399 534</gx:coord><when>2025-06-26T06:44:08.809Z</when><gx:coord>17.479882 47.429748 527</gx:coord><when>2025-06-26T06:44:10.849Z</when><gx:coord>17.478192 47.428723 519</gx:coord><when>2025-06-26T06:44:12.919Z</when><gx:coord>17.476783 47.427606 511</gx:coord><when>2025-06-26T06:44:14.708Z</when><gx:coord>17.475727 47.426489 504</gx:coord><when>2025-06-26T06:44:16.629Z</when><gx:coord>17.474741 47.425278 496</gx:coord><when>2025-06-26T06:44:18.569Z</when><gx:coord>17.47403 47.423996 488</gx:coord><when>2025-06-26T06:44:21.079Z</when><gx:coord>17.473343 47.422256 488</gx:coord><when>2025-06-26T06:44:22.639Z</when><gx:coord>17.473137 47.421158 481</gx:coord><when>2025-06-26T06:44:24.629Z</when><gx:coord>17.473 47.419693 473</gx:coord><when>2025-06-26T06:44:26.619Z</when><gx:coord>17.473051 47.418249 466</gx:coord><when>2025-06-26T06:44:28.958Z</when><gx:coord>17.473403 47.41662 458</gx:coord><when>2025-06-26T06:44:32.169Z</when><gx:coord>17.474236 47.414474 443</gx:coord><when>2025-06-26T06:44:35.639Z</when><gx:coord>17.475403 47.412186 427</gx:coord><when>2025-06-26T06:44:38.099Z</when><gx:coord>17.476158 47.410767 420</gx:coord><when>2025-06-26T06:44:41.679Z</when><gx:coord>17.477463 47.408478 397</gx:coord><when>2025-06-26T06:44:50.079Z</when><gx:coord>17.480141 47.403397 366</gx:coord><when>2025-06-26T06:44:56.218Z</when><gx:coord>17.482065 47.399675 336</gx:coord><when>2025-06-26T06:45:02.119Z</when><gx:coord>17.483826 47.396183 298</gx:coord><when>2025-06-26T06:45:09.279Z</when><gx:coord>17.486046 47.391953 267</gx:coord><when>2025-06-26T06:45:17.909Z</when><gx:coord>17.488615 47.386919 245</gx:coord><when>2025-06-26T06:45:25.879Z</when><gx:coord>17.491058 47.382202 214</gx:coord><when>2025-06-26T06:45:33.968Z</when><gx:coord>17.493544 47.377469 184</gx:coord><when>2025-06-26T06:45:40.139Z</when><gx:coord>17.495516 47.373745 153</gx:coord><when>2025-06-26T06:45:41.159Z</when><gx:coord>17.495798 47.373093 153</gx:coord><when>2025-06-26T06:45:59.439Z</when><gx:coord>17.501643 47.361967 161</gx:coord><when>2025-06-26T06:46:01.599Z</when><gx:coord>17.502457 47.360413 176</gx:coord><when>2025-06-26T06:46:03.769Z</when><gx:coord>17.503212 47.359039 199</gx:coord><when>2025-06-26T06:46:05.339Z</when><gx:coord>17.503967 47.357574 237</gx:coord><when>2025-06-26T06:46:07.218Z</when><gx:coord>17.504742 47.356055 267</gx:coord><when>2025-06-26T06:46:09.169Z</when><gx:coord>17.505547 47.354599 313</gx:coord><when>2025-06-26T06:46:10.218Z</when><gx:coord>17.505939 47.353774 321</gx:coord><when>2025-06-26T06:46:12.139Z</when><gx:coord>17.506855 47.352378 344</gx:coord><when>2025-06-26T06:46:14.609Z</when><gx:coord>17.508156 47.350571 389</gx:coord><when>2025-06-26T06:46:16.968Z</when><gx:coord>17.509672 47.348979 412</gx:coord><when>2025-06-26T06:46:19.089Z</when><gx:coord>17.511151 47.347676 458</gx:coord><when>2025-06-26T06:46:21.559Z</when><gx:coord>17.513193 47.346186 481</gx:coord><when>2025-06-26T06:46:23.599Z</when><gx:coord>17.515024 47.345069 504</gx:coord><when>2025-06-26T06:46:26.159Z</when><gx:coord>17.517418 47.343859 542</gx:coord><when>2025-06-26T06:46:28.639Z</when><gx:coord>17.520236 47.342741 557</gx:coord><when>2025-06-26T06:46:31.149Z</when><gx:coord>17.523123 47.34195 587</gx:coord><when>2025-06-26T06:46:33.859Z</when><gx:coord>17.526146 47.341324 603</gx:coord><when>2025-06-26T06:46:36.409Z</when><gx:coord>17.529672 47.340879 626</gx:coord><when>2025-06-26T06:46:38.839Z</when><gx:coord>17.532875 47.340729 641</gx:coord><when>2025-06-26T06:46:41.479Z</when><gx:coord>17.536363 47.340786 648</gx:coord><when>2025-06-26T06:46:42.769Z</when><gx:coord>17.538162 47.340958 664</gx:coord><when>2025-06-26T06:46:45.249Z</when><gx:coord>17.541363 47.341345 664</gx:coord><when>2025-06-26T06:46:48.139Z</when><gx:coord>17.545096 47.34209 664</gx:coord><when>2025-06-26T06:46:50.769Z</when><gx:coord>17.548119 47.342972 664</gx:coord><when>2025-06-26T06:46:53.039Z</when><gx:coord>17.55087 47.344045 664</gx:coord><when>2025-06-26T06:46:56.529Z</when><gx:coord>17.554533 47.345814 664</gx:coord><when>2025-06-26T06:46:59.249Z</when><gx:coord>17.557068 47.347443 671</gx:coord><when>2025-06-26T06:47:01.649Z</when><gx:coord>17.55911 47.349119 671</gx:coord><when>2025-06-26T06:47:04.319Z</when><gx:coord>17.561012 47.351028 671</gx:coord><when>2025-06-26T06:47:06.899Z</when><gx:coord>17.562675 47.353134 671</gx:coord><when>2025-06-26T06:47:10.049Z</when><gx:coord>17.564117 47.355789 671</gx:coord><when>2025-06-26T06:47:12.779Z</when><gx:coord>17.564941 47.357986 679</gx:coord><when>2025-06-26T06:47:15.039Z</when><gx:coord>17.565353 47.360184 671</gx:coord><when>2025-06-26T06:47:17.659Z</when><gx:coord>17.565422 47.36261 671</gx:coord><when>2025-06-26T06:47:20.249Z</when><gx:coord>17.565147 47.364899 671</gx:coord><when>2025-06-26T06:47:22.739Z</when><gx:coord>17.564461 47.367188 671</gx:coord><when>2025-06-26T06:47:25.169Z</when><gx:coord>17.563547 47.369276 671</gx:coord><when>2025-06-26T06:47:37.749Z</when><gx:coord>17.557663 47.379913 671</gx:coord><when>2025-06-26T06:47:48.429Z</when><gx:coord>17.552376 47.388794 664</gx:coord><when>2025-06-26T06:48:01.099Z</when><gx:coord>17.546196 47.399597 648</gx:coord><when>2025-06-26T06:48:21.099Z</when><gx:coord>17.536574 47.416666 641</gx:coord><when>2025-06-26T06:48:29.839Z</when><gx:coord>17.532419 47.424022 641</gx:coord><when>2025-06-26T06:48:33.899Z</when><gx:coord>17.530306 47.427187 641</gx:coord><when>2025-06-26T06:48:36.369Z</when><gx:coord>17.528618 47.429077 626</gx:coord><when>2025-06-26T06:48:38.679Z</when><gx:coord>17.526764 47.430634 626</gx:coord><when>2025-06-26T06:48:40.579Z</when><gx:coord>17.525116 47.431778 626</gx:coord><when>2025-06-26T06:48:42.699Z</when><gx:coord>17.523125 47.432877 626</gx:coord><when>2025-06-26T06:48:44.799Z</when><gx:coord>17.521081 47.433798 618</gx:coord><when>2025-06-26T06:48:46.849Z</when><gx:coord>17.519005 47.43457 618</gx:coord><when>2025-06-26T06:48:49.539Z</when><gx:coord>17.516362 47.435287 618</gx:coord><when>2025-06-26T06:48:51.849Z</when><gx:coord>17.513756 47.435753 610</gx:coord><when>2025-06-26T06:48:54.489Z</when><gx:coord>17.510939 47.436032 610</gx:coord><when>2025-06-26T06:48:56.259Z</when><gx:coord>17.508827 47.436079 603</gx:coord><when>2025-06-26T06:48:58.359Z</when><gx:coord>17.506577 47.435944 603</gx:coord><when>2025-06-26T06:49:00.718Z</when><gx:coord>17.504105 47.435669 595</gx:coord><when>2025-06-26T06:49:05.099Z</when><gx:coord>17.499504 47.434845 595</gx:coord><when>2025-06-26T06:49:13.609Z</when><gx:coord>17.490727 47.433239 565</gx:coord><when>2025-06-26T06:49:18.629Z</when><gx:coord>17.485586 47.432122 549</gx:coord><when>2025-06-26T06:49:20.669Z</when><gx:coord>17.483643 47.431412 527</gx:coord><when>2025-06-26T06:49:22.579Z</when><gx:coord>17.481926 47.430725 519</gx:coord><when>2025-06-26T06:49:24.369Z</when><gx:coord>17.480375 47.429934 519</gx:coord><when>2025-06-26T06:49:26.349Z</when><gx:coord>17.478836 47.428894 504</gx:coord><when>2025-06-26T06:49:28.468Z</when><gx:coord>17.477463 47.427704 496</gx:coord><when>2025-06-26T06:49:30.329Z</when><gx:coord>17.476431 47.426582 488</gx:coord><when>2025-06-26T06:49:32.519Z</when><gx:coord>17.475375 47.425139 481</gx:coord><when>2025-06-26T06:49:34.729Z</when><gx:coord>17.474716 47.423813 473</gx:coord><when>2025-06-26T06:49:36.589Z</when><gx:coord>17.474177 47.422299 466</gx:coord><when>2025-06-26T06:49:39.029Z</when><gx:coord>17.473961 47.420563 458</gx:coord><when>2025-06-26T06:49:41.589Z</when><gx:coord>17.47403 47.418732 450</gx:coord><when>2025-06-26T06:49:44.479Z</when><gx:coord>17.474389 47.416666 435</gx:coord><when>2025-06-26T06:49:48.439Z</when><gx:coord>17.475128 47.413879 420</gx:coord><when>2025-06-26T06:49:52.549Z</when><gx:coord>17.476227 47.411087 397</gx:coord><when>2025-06-26T06:49:56.958Z</when><gx:coord>17.477558 47.408194 382</gx:coord><when>2025-06-26T06:49:59.599Z</when><gx:coord>17.478424 47.406555 366</gx:coord><when>2025-06-26T06:50:05.089Z</when><gx:coord>17.480164 47.403213 344</gx:coord><when>2025-06-26T06:50:12.189Z</when><gx:coord>17.482417 47.398976 313</gx:coord><when>2025-06-26T06:50:20.718Z</when><gx:coord>17.485093 47.393949 290</gx:coord><when>2025-06-26T06:50:27.809Z</when><gx:coord>17.487277 47.389713 260</gx:coord><when>2025-06-26T06:50:38.389Z</when><gx:coord>17.490446 47.383475 222</gx:coord><when>2025-06-26T06:50:44.099Z</when><gx:coord>17.492277 47.380076 199</gx:coord><when>2025-06-26T06:50:45.139Z</when><gx:coord>17.492629 47.379425 206</gx:coord><when>2025-06-26T06:50:48.149Z</when><gx:coord>17.493615 47.377609 229</gx:coord><when>2025-06-26T06:50:50.039Z</when><gx:coord>17.494217 47.376434 260</gx:coord><when>2025-06-26T06:50:52.379Z</when><gx:coord>17.495023 47.374956 290</gx:coord><when>2025-06-26T06:50:54.949Z</when><gx:coord>17.495865 47.373367 328</gx:coord><when>2025-06-26T06:50:57.089Z</when><gx:coord>17.496573 47.371976 366</gx:coord><when>2025-06-26T06:50:59.109Z</when><gx:coord>17.497277 47.370626 397</gx:coord><when>2025-06-26T06:51:01.499Z</when><gx:coord>17.498122 47.368997 427</gx:coord><when>2025-06-26T06:51:04.779Z</when><gx:coord>17.499319 47.366716 473</gx:coord><when>2025-06-26T06:51:06.159Z</when><gx:coord>17.499847 47.365677 488</gx:coord><when>2025-06-26T06:51:07.429Z</when><gx:coord>17.500259 47.364899 511</gx:coord><when>2025-06-26T06:51:09.279Z</when><gx:coord>17.501015 47.363434 527</gx:coord><when>2025-06-26T06:51:12.779Z</when><gx:coord>17.502418 47.360804 557</gx:coord><when>2025-06-26T06:51:15.839Z</when><gx:coord>17.503545 47.358569 587</gx:coord><when>2025-06-26T06:51:18.579Z</when><gx:coord>17.504791 47.356293 618</gx:coord><when>2025-06-26T06:51:21.509Z</when><gx:coord>17.506302 47.354095 633</gx:coord><when>2025-06-26T06:51:23.929Z</when><gx:coord>17.507911 47.352191 648</gx:coord><when>2025-06-26T06:51:25.519Z</when><gx:coord>17.509186 47.350983 656</gx:coord><when>2025-06-26T06:51:27.139Z</when><gx:coord>17.510517 47.34991 664</gx:coord><when>2025-06-26T06:51:30.159Z</when><gx:coord>17.513374 47.34787 679</gx:coord><when>2025-06-26T06:51:33.769Z</when><gx:coord>17.517207 47.345814 679</gx:coord><when>2025-06-26T06:51:36.279Z</when><gx:coord>17.520103 47.344666 679</gx:coord><when>2025-06-26T06:51:38.679Z</when><gx:coord>17.523056 47.34375 679</gx:coord><when>2025-06-26T06:51:41.069Z</when><gx:coord>17.526081 47.343021 679</gx:coord><when>2025-06-26T06:51:44.089Z</when><gx:coord>17.529954 47.342462 679</gx:coord><when>2025-06-26T06:51:46.499Z</when><gx:coord>17.533194 47.342276 679</gx:coord><when>2025-06-26T06:51:49.169Z</when><gx:coord>17.536652 47.342331 679</gx:coord><when>2025-06-26T06:51:51.499Z</when><gx:coord>17.539743 47.342602 687</gx:coord><when>2025-06-26T06:51:54.119Z</when><gx:coord>17.543037 47.343155 687</gx:coord><when>2025-06-26T06:51:56.259Z</when><gx:coord>17.545647 47.34375 687</gx:coord><when>2025-06-26T06:51:58.829Z</when><gx:coord>17.548899 47.344743 679</gx:coord><when>2025-06-26T06:52:01.279Z</when><gx:coord>17.551758 47.345856 679</gx:coord><when>2025-06-26T06:52:04.279Z</when><gx:coord>17.554673 47.347397 679</gx:coord><when>2025-06-26T06:52:06.839Z</when><gx:coord>17.55735 47.349119 671</gx:coord><when>2025-06-26T06:52:09.468Z</when><gx:coord>17.559533 47.350888 671</gx:coord><when>2025-06-26T06:52:11.979Z</when><gx:coord>17.561371 47.352722 671</gx:coord><when>2025-06-26T06:52:14.249Z</when><gx:coord>17.562813 47.354553 671</gx:coord><when>2025-06-26T06:52:17.079Z</when><gx:coord>17.564181 47.356986 664</gx:coord><when>2025-06-26T06:52:19.569Z</when><gx:coord>17.565026 47.359128 664</gx:coord><when>2025-06-26T06:52:22.139Z</when><gx:coord>17.565559 47.36142 664</gx:coord><when>2025-06-26T06:52:23.999Z</when><gx:coord>17.56566 47.363131 664</gx:coord><when>2025-06-26T06:52:26.779Z</when><gx:coord>17.565519 47.365599 656</gx:coord><when>2025-06-26T06:52:29.259Z</when><gx:coord>17.565026 47.36774 656</gx:coord><when>2025-06-26T06:52:31.859Z</when><gx:coord>17.564117 47.370117 656</gx:coord><when>2025-06-26T06:52:37.369Z</when><gx:coord>17.561577 47.374741 664</gx:coord><when>2025-06-26T06:52:51.279Z</when><gx:coord>17.554985 47.386505 648</gx:coord><when>2025-06-26T06:53:10.958Z</when><gx:coord>17.545853 47.40303 641</gx:coord><when>2025-06-26T06:53:30.559Z</when><gx:coord>17.536308 47.419876 648</gx:coord><when>2025-06-26T06:53:36.049Z</when><gx:coord>17.533687 47.424441 648</gx:coord><when>2025-06-26T06:53:39.029Z</when><gx:coord>17.531914 47.426743 641</gx:coord><when>2025-06-26T06:53:40.949Z</when><gx:coord>17.530609 47.428116 633</gx:coord><when>2025-06-26T06:53:42.919Z</when><gx:coord>17.52903 47.429398 633</gx:coord><when>2025-06-26T06:53:45.119Z</when><gx:coord>17.527137 47.430679 633</gx:coord><when>2025-06-26T06:53:48.319Z</when><gx:coord>17.524155 47.432236 633</gx:coord><when>2025-06-26T06:53:49.509Z</when><gx:coord>17.523262 47.432602 633</gx:coord><when>2025-06-26T06:53:51.889Z</when><gx:coord>17.520584 47.433563 633</gx:coord><when>2025-06-26T06:53:54.099Z</when><gx:coord>17.518334 47.434123 626</gx:coord><when>2025-06-26T06:53:56.189Z</when><gx:coord>17.51601 47.434496 626</gx:coord><when>2025-06-26T06:53:58.179Z</when><gx:coord>17.513855 47.434708 626</gx:coord><when>2025-06-26T06:54:00.799Z</when><gx:coord>17.511108 47.434753 626</gx:coord><when>2025-06-26T06:54:03.089Z</when><gx:coord>17.508897 47.434635 618</gx:coord><when>2025-06-26T06:54:05.349Z</when><gx:coord>17.506302 47.434296 618</gx:coord><when>2025-06-26T06:54:07.869Z</when><gx:coord>17.503624 47.433792 610</gx:coord><when>2025-06-26T06:54:11.669Z</when><gx:coord>17.499742 47.432913 603</gx:coord><when>2025-06-26T06:54:17.099Z</when><gx:coord>17.494217 47.431641 572</gx:coord><when>2025-06-26T06:54:22.829Z</when><gx:coord>17.488449 47.430222 534</gx:coord><when>2025-06-26T06:54:25.958Z</when><gx:coord>17.485516 47.429375 534</gx:coord><when>2025-06-26T06:54:27.149Z</when><gx:coord>17.484178 47.428863 519</gx:coord><when>2025-06-26T06:54:29.649Z</when><gx:coord>17.482065 47.427839 511</gx:coord><when>2025-06-26T06:54:31.349Z</when><gx:coord>17.480797 47.426954 504</gx:coord><when>2025-06-26T06:54:33.989Z</when><gx:coord>17.479178 47.425558 496</gx:coord><when>2025-06-26T06:54:36.718Z</when><gx:coord>17.477737 47.423904 488</gx:coord><when>2025-06-26T06:54:38.429Z</when><gx:coord>17.476854 47.422625 488</gx:coord><when>2025-06-26T06:54:40.999Z</when><gx:coord>17.476021 47.420929 473</gx:coord><when>2025-06-26T06:54:43.689Z</when><gx:coord>17.475445 47.41918 466</gx:coord><when>2025-06-26T06:54:46.239Z</when><gx:coord>17.47506 47.41713 443</gx:coord><when>2025-06-26T06:54:49.309Z</when><gx:coord>17.475023 47.414944 427</gx:coord><when>2025-06-26T06:54:52.329Z</when><gx:coord>17.475334 47.412781 420</gx:coord><when>2025-06-26T06:54:54.919Z</when><gx:coord>17.475883 47.411041 397</gx:coord><when>2025-06-26T06:54:59.229Z</when><gx:coord>17.477119 47.408249 382</gx:coord></gx:Track></Placemark></Document></kml>